{
"type": "FeatureCollection",
"name": "urban-2050",
"crs": { "type": "name", "properties": { "name": "urn:ogc:def:crs:EPSG::32733" } },
"features": [
{ "type": "Feature", "properties": { "year": 2050 }, "geometry": { "type": "MultiPolygon", "coordinates": [ [ [ [ 520638.409715700196102, 9494709.818352749571204 ], [ 521747.361442200373858, 9494709.523623319342732 ], [ 521758.879033827339299, 9493814.432685635983944 ], [ 522867.826704511535354, 9493814.121822943910956 ], [ 522890.913480174785946, 9492023.92621024698019 ], [ 521781.97526247688802, 9492024.238497156649828 ], [ 521816.772217451303732, 9489338.91632174141705 ], [ 518490.004117533448152, 9489339.766093481332064 ], [ 518478.370515023707412, 9490234.875632502138615 ], [ 517369.444221531681251, 9490235.127111507579684 ], [ 517357.826243493240327, 9491130.231916833668947 ], [ 515139.965701090928633, 9491130.687070308253169 ], [ 515116.771943443454802, 9492920.882075700908899 ], [ 516225.711442532658111, 9492920.663362996652722 ], [ 516202.608719687210396, 9494710.843046903610229 ], [ 517311.5581493107602, 9494710.61000682041049 ], [ 517288.546394379402045, 9496500.774475520476699 ], [ 518397.505753264529631, 9496500.527213798835874 ], [ 518408.996741131588351, 9495605.446421481668949 ], [ 520626.907766781921964, 9495604.9045131765306 ], [ 520638.409715700196102, 9494709.818352749571204 ] ] ], [ [ [ 543892.42977907252498, 9497385.696628509089351 ], [ 545001.416446464369074, 9497385.081780241802335 ], [ 545012.774593466427177, 9496489.982497397810221 ], [ 543903.792608621763065, 9496490.598599998280406 ], [ 543892.42977907252498, 9497385.696628509089351 ] ] ], [ [ [ 543892.42977907252498, 9497385.696628509089351 ], [ 541674.460396006819792, 9497386.880299367010593 ], [ 541640.464999473653734, 9500072.142606068402529 ], [ 542749.463042861549184, 9500071.562035597860813 ], [ 542760.769985184306279, 9499176.477478614076972 ], [ 543869.764664762071334, 9499175.880423760041595 ], [ 543892.42977907252498, 9497385.696628509089351 ] ] ], [ [ [ 513669.580225126177538, 9519772.057953432202339 ], [ 513647.683134803199209, 9521561.996328577399254 ], [ 514756.769210860016756, 9521561.809331685304642 ], [ 514724.089996015594807, 9524246.689371861517429 ], [ 515833.189863025269005, 9524246.48933270201087 ], [ 515822.342026481521316, 9525141.442158626392484 ], [ 516931.446804055129178, 9525141.22814416885376 ], [ 516920.623783773451578, 9526036.177673559635878 ], [ 518029.733496513392311, 9526035.949737567454576 ], [ 518008.157431698986329, 9527825.838440572842956 ], [ 519117.276509424787946, 9527825.597234975546598 ], [ 519095.79073885793332, 9529615.471846325322986 ], [ 517986.662875812500715, 9529615.711857993155718 ], [ 517975.946163945889566, 9530510.642852874472737 ], [ 520194.211228509841021, 9530510.149690799415112 ], [ 520183.523637329111807, 9531405.078103443607688 ], [ 521292.661441727599595, 9531404.810676531866193 ], [ 521303.344661778130103, 9530509.881614316254854 ], [ 522412.478740511694923, 9530509.599207481369376 ], [ 522401.799891286878847, 9531404.528946571052074 ], [ 523510.939019613317214, 9531404.232913516461849 ], [ 523468.444463430263568, 9534983.916798189282417 ], [ 522359.2879366556881, 9534984.210022486746311 ], [ 522348.710809021955356, 9535879.120857909321785 ], [ 523457.871664499980398, 9535878.828333823010325 ], [ 523447.319201797945425, 9536773.736109865829349 ], [ 524556.485088186920621, 9536773.430145874619484 ], [ 524535.44978682603687, 9538563.235899519175291 ], [ 525644.625031799427234, 9538562.917301846668124 ], [ 525613.23739991185721, 9541247.60016492754221 ], [ 524504.049296049401164, 9541247.916509931907058 ], [ 524493.623122489079833, 9542142.802603967487812 ], [ 530039.593086160137318, 9542141.084868937730789 ], [ 530018.844289122149348, 9543930.853964379057288 ], [ 531128.04939006571658, 9543930.470259455963969 ], [ 531107.390218284795992, 9545720.226327320560813 ], [ 529998.176639613113366, 9545720.608265997841954 ], [ 529987.873245407594368, 9546615.47988741286099 ], [ 533315.529522130964324, 9546614.295199086889625 ], [ 533325.820238208747469, 9545719.420849869027734 ], [ 537762.692669904557988, 9545717.643492817878723 ], [ 537752.41885403485503, 9546612.521861337125301 ], [ 538861.643964097835124, 9546612.04392764903605 ], [ 538851.394592890050262, 9547506.919686581939459 ], [ 539960.625096764182672, 9547506.429012665525079 ], [ 539950.400153325870633, 9548401.30219510383904 ], [ 541059.636075733462349, 9548400.798834722489119 ], [ 541090.358895770972595, 9545716.164870986714959 ], [ 543308.809218414244242, 9545715.109786726534367 ], [ 543319.082102105836384, 9544820.222086675465107 ], [ 541100.640242932830006, 9544821.279509767889977 ], [ 541141.967664873111062, 9541241.701002851128578 ], [ 543360.375503124203533, 9541240.634208925068378 ], [ 543381.143322085845284, 9539450.817920830100775 ], [ 542271.947317711892538, 9539451.360694425180554 ], [ 542261.549033394549042, 9540346.269519289955497 ], [ 538933.955726114334539, 9540347.810089986771345 ], [ 538944.366857236949727, 9539452.904664497822523 ], [ 535616.79701972566545, 9539454.322110127657652 ], [ 535627.241244828910567, 9538559.416099326685071 ], [ 536736.425774615374394, 9538558.956650903448462 ], [ 536746.885944157722406, 9537664.045868340879679 ], [ 537856.067287496174686, 9537663.571281710639596 ], [ 537845.611417777952738, 9538558.483117053285241 ], [ 538954.798207933548838, 9538557.995497705414891 ], [ 538975.721567678498104, 9536768.165910884737968 ], [ 537866.543384958058596, 9536768.655691187828779 ], [ 537908.65005037910305, 9533188.955630691722035 ], [ 535690.331727714394219, 9533189.901106147095561 ], [ 535700.917662705760449, 9532294.968717494979501 ], [ 537919.227285160101019, 9532294.021154308691621 ], [ 537951.080352222546935, 9529609.194900827482343 ], [ 536841.938083328772336, 9529609.678998023271561 ], [ 536863.283371162251569, 9527819.777857640758157 ], [ 534645.019700534758158, 9527820.707057327032089 ], [ 534655.731498184963129, 9526925.752780962735415 ], [ 531328.356984231155366, 9526927.041343012824655 ], [ 531339.102262483094819, 9526032.08608759008348 ], [ 530229.983777747722343, 9526032.487627420574427 ], [ 530240.75375126756262, 9525137.529426423832774 ], [ 532458.982833257759921, 9525136.71005192771554 ], [ 532448.221696623601019, 9526031.670080425217748 ], [ 536884.709599267691374, 9526029.861377131193876 ], [ 536906.216766884084791, 9524239.929497830569744 ], [ 538015.332610075478442, 9524239.439024358987808 ], [ 538026.112112425500527, 9523344.466226292774081 ], [ 540244.338421007967554, 9523343.439499225467443 ], [ 540255.12926667695865, 9522448.460614049807191 ], [ 543582.464634529082105, 9522446.80787293240428 ], [ 543593.262342354981229, 9521551.821577170863748 ], [ 540265.940321766771376, 9521553.477847402915359 ], [ 540298.494742596289143, 9518868.506185241043568 ], [ 541407.587420046213083, 9518867.965247610583901 ], [ 541418.474829044309445, 9517972.965729350224137 ], [ 545854.840487877256237, 9517970.650231393054128 ], [ 545865.730135701713152, 9517075.641908492892981 ], [ 546974.820448727114126, 9517075.024959357455373 ], [ 546996.65124093729537, 9515284.993935534730554 ], [ 549214.818161369184963, 9515283.710485270246863 ], [ 549203.9016979560256, 9516178.730630630627275 ], [ 551422.083591008675285, 9516177.390768991783261 ], [ 551400.32906151690986, 9517967.424791371449828 ], [ 552509.431312196305953, 9517966.735560053959489 ], [ 552498.588715406716801, 9518861.748103393241763 ], [ 553607.697036115569063, 9518861.045610088855028 ], [ 553575.303337751189247, 9521546.064103726297617 ], [ 554684.42667017201893, 9521545.351358031854033 ], [ 554662.940300037735142, 9523335.347134657204151 ], [ 556881.209733364288695, 9523333.883895302191377 ], [ 556870.505557337659411, 9524228.878985080868006 ], [ 559088.79073969880119, 9524227.360681980848312 ], [ 559099.486059102229774, 9523332.362450830638409 ], [ 560208.626890632789582, 9523331.579901387915015 ], [ 560219.337841300293803, 9522436.576169872656465 ], [ 561328.476060759625398, 9522435.777429031208158 ], [ 561339.202626165002584, 9521540.768160851672292 ], [ 562448.338259347481653, 9521539.953173063695431 ], [ 562437.616138003650121, 9522434.964109130203724 ], [ 563546.758106635417789, 9522434.136210044845939 ], [ 563557.475784185808152, 9521539.12357878126204 ], [ 564666.615234281751327, 9521538.279377879574895 ], [ 564677.348493884783238, 9520643.261117404326797 ], [ 563568.213495661504567, 9520644.10704162530601 ], [ 563578.971240962157026, 9519749.086591200903058 ], [ 562469.842628752347082, 9519749.91957831569016 ], [ 562491.427166444365866, 9517959.870304271578789 ], [ 561382.309392988216132, 9517960.691971760243177 ], [ 561403.983078113291413, 9516170.630304208025336 ], [ 560294.876144294044934, 9516171.440546242520213 ], [ 560305.747564704855904, 9515276.405439723283052 ], [ 561414.849995750701055, 9515275.593551382422447 ], [ 561425.736963302828372, 9514380.552842695266008 ], [ 559207.54295009362977, 9514382.165088929235935 ], [ 559218.459006680175662, 9513487.123685613274574 ], [ 558109.369226462207735, 9513487.909165125340223 ], [ 558131.270603871322237, 9511697.817633436992764 ], [ 557022.191649042069912, 9511698.591395722702146 ], [ 557011.226386001799256, 9512593.637581624090672 ], [ 554793.064548001275398, 9512595.137334024533629 ], [ 554848.137232608743943, 9508119.881794454529881 ], [ 553739.081592037109658, 9508120.616789650171995 ], [ 553728.022285025450401, 9509015.674398666247725 ], [ 552618.963699980056845, 9509016.392916906625032 ], [ 552630.027578538632952, 9508121.336769681423903 ], [ 551520.975158531218767, 9508122.041734661906958 ], [ 551532.063733197865076, 9507226.983014598488808 ], [ 552641.111573017085902, 9507226.276614299044013 ], [ 552652.215683313435875, 9506331.212443392723799 ], [ 553761.260528654325753, 9506330.489537265151739 ], [ 553772.380158055690117, 9505435.419879168272018 ], [ 552663.339909326285124, 9505436.14424960128963 ], [ 552674.484250953304581, 9504541.072025557979941 ], [ 548238.357286539277993, 9504543.824126141145825 ], [ 548227.194522152305581, 9505438.890762664377689 ], [ 544900.100929718697444, 9505440.792133264243603 ], [ 544911.277514246175997, 9504545.729400664567947 ], [ 541584.20997839642223, 9504547.4985630530864 ], [ 541640.464999473653734, 9500072.142606068402529 ], [ 540531.468216470908374, 9500072.707916714251041 ], [ 540508.896319908322766, 9501862.860108714550734 ], [ 539399.891471460578032, 9501863.407877067103982 ], [ 539366.171304845716804, 9504548.602388000115752 ], [ 538257.15377244958654, 9504549.131615735590458 ], [ 538245.9495396069251, 9505444.187277738004923 ], [ 537136.928556255879812, 9505444.700299559161067 ], [ 537125.739946946385317, 9506339.750860216096044 ], [ 536016.715486819972284, 9506340.247731652110815 ], [ 536027.908697179402225, 9505445.198225716128945 ], [ 534918.889928800752386, 9505445.681056281551719 ], [ 534930.107989881769754, 9504550.628560965880752 ], [ 532712.082811275846325, 9504551.550910225138068 ], [ 532700.855529836495407, 9505446.601430939510465 ], [ 531591.839832100318745, 9505447.038975169882178 ], [ 531614.323890626546927, 9503656.935804821550846 ], [ 532723.330358712468296, 9503656.496367057785392 ], [ 532734.598172047175467, 9502761.437794100493193 ], [ 530516.595447952277027, 9502762.303388468921185 ], [ 530505.318379559437744, 9503657.360092669725418 ], [ 529396.31379193905741, 9503657.769230665639043 ], [ 529407.595488329418004, 9502762.713419890031219 ], [ 528298.596418894245289, 9502763.108274217694998 ], [ 528321.229965993552469, 9500972.986276326701045 ], [ 527212.241035531857051, 9500973.367633793503046 ], [ 527178.307252747588791, 9503658.542057355865836 ], [ 526069.305234032100998, 9503658.905746165663004 ], [ 526137.383465709397569, 9498288.525352735072374 ], [ 525028.410137251368724, 9498288.878609895706177 ], [ 525039.83229352987837, 9497393.801802573725581 ], [ 523930.864402376639191, 9497394.140508351847529 ], [ 523908.031062471156474, 9499184.288531994447112 ], [ 525017.008304851478897, 9499183.951349360868335 ], [ 525005.626796428347006, 9500079.020028300583363 ], [ 522787.663708848645911, 9500079.677614254876971 ], [ 522776.29321480402723, 9500974.740748405456543 ], [ 521667.30806705984287, 9500975.045948509126902 ], [ 521690.078715000941884, 9499184.917039236053824 ], [ 520581.103542780037969, 9499185.208363940939307 ], [ 520603.964940249861684, 9497395.064582098275423 ], [ 519494.999744774599094, 9497395.341925639659166 ], [ 519449.339705521648284, 9500975.610654789954424 ], [ 520558.32357515511103, 9500975.335917290300131 ], [ 520501.729916783748195, 9505450.584185425192118 ], [ 522719.745860243681818, 9505449.995903057977557 ], [ 522641.433905385725666, 9511715.185007341206074 ], [ 523750.474949813913554, 9511714.873295892030001 ], [ 523739.373441432137042, 9512609.885148257017136 ], [ 521521.282945420069154, 9512610.492252239957452 ], [ 521510.192694843106437, 9513505.498741272836924 ], [ 520401.143902676412836, 9513505.779312847182155 ], [ 520412.238691725768149, 9512610.773489622399211 ], [ 519303.195056127442513, 9512611.0398506578058 ], [ 519314.314751243335195, 9511716.030719440430403 ], [ 518205.27624763676431, 9511716.282816201448441 ], [ 518183.048138096753974, 9513506.295908901840448 ], [ 519292.095728288812097, 9513506.045035377144814 ], [ 519281.016767822729889, 9514401.046280913054943 ], [ 515953.862022324232385, 9514401.752605397254229 ], [ 515931.738092876737937, 9516191.739817144349217 ], [ 514822.678483786061406, 9516191.944560933858156 ], [ 514778.657362713711336, 9519771.869966493919492 ], [ 513669.580225126177538, 9519772.057953432202339 ] ], [ [ 528287.310094192274846, 9503658.163218874484301 ], [ 528276.044068853720091, 9504553.214137114584446 ], [ 527167.036607150104828, 9504553.59213762357831 ], [ 527178.307252747588791, 9503658.542057355865836 ], [ 528287.310094192274846, 9503658.163218874484301 ] ], [ [ 520390.069472630275413, 9514400.781196063384414 ], [ 520367.981689925538376, 9516190.773171732202172 ], [ 519258.919949385279324, 9516191.036983694881201 ], [ 519281.016767822729889, 9514401.046280913054943 ], [ 520390.069472630275413, 9514400.781196063384414 ] ], [ [ 525836.791174390935339, 9522454.106497041881084 ], [ 529164.085537916980684, 9522453.022249581292272 ], [ 529153.250265871873125, 9523347.991153905168176 ], [ 525825.94256859656889, 9523349.072939516976476 ], [ 525836.791174390935339, 9522454.106497041881084 ] ], [ [ 521422.203321009757929, 9520665.409398091956973 ], [ 523640.374898532696534, 9520664.814956571906805 ], [ 523629.476732453797013, 9521559.787640245631337 ], [ 521411.296229544095695, 9521560.380683006718755 ], [ 521422.203321009757929, 9520665.409398091956973 ] ] ], [ [ [ 536873.986367728328332, 9526924.82153856754303 ], [ 536863.283371162251569, 9527819.777857640758157 ], [ 539081.551509112585336, 9527818.791005685925484 ], [ 539070.877530818339437, 9528713.74564004316926 ], [ 540180.017750219558366, 9528713.231710392981768 ], [ 540201.37713446712587, 9526923.316372010856867 ], [ 536873.986367728328332, 9526924.82153856754303 ] ] ], [ [ [ 541278.51419246813748, 9529607.656457737088203 ], [ 540169.368373185163364, 9529608.18363076262176 ], [ 540148.130249771522358, 9531398.076010543853045 ], [ 542366.440618410939351, 9531397.0119260083884 ], [ 542377.040843634400517, 9530502.065334487706423 ], [ 541267.889399789855815, 9530502.60569715872407 ], [ 541278.51419246813748, 9529607.656457737088203 ] ] ], [ [ [ 523436.787075415195432, 9537668.640133626759052 ], [ 522327.617587619810365, 9537668.931259654462337 ], [ 522338.15402597974753, 9536774.027934528887272 ], [ 521228.989527118508704, 9536774.305619908496737 ], [ 521197.428334706986789, 9539459.002358386293054 ], [ 522306.605745309090707, 9539458.726684657856822 ], [ 522317.101494032947812, 9538563.830840595066547 ], [ 523426.275285442359746, 9538563.540412418544292 ], [ 523436.787075415195432, 9537668.640133626759052 ] ] ], [ [ [ 545355.855731607414782, 9560926.572458017617464 ], [ 546465.156217895215377, 9560926.01776735112071 ], [ 546475.073646072065458, 9560031.188178293406963 ], [ 545365.777248636935838, 9560031.744121022522449 ], [ 545375.718937231809832, 9559136.912206746637821 ], [ 544266.428013110184111, 9559137.455944215878844 ], [ 544276.393978992011398, 9558242.621671583503485 ], [ 540948.541445898590609, 9558244.175651334226131 ], [ 540918.667205855948851, 9560928.65718686580658 ], [ 542027.962391674984246, 9560928.156109565868974 ], [ 542008.155411513522267, 9562717.794903010129929 ], [ 543117.460026228218339, 9562717.282760558649898 ], [ 543127.349344965885393, 9561822.463975366204977 ], [ 545345.954386231955141, 9561821.397225065156817 ], [ 545355.855731607414782, 9560926.572458017617464 ] ] ], [ [ [ 542008.155411513522267, 9562717.794903010129929 ], [ 540898.852070916676894, 9562718.293696848675609 ], [ 540879.117756875115447, 9564507.915997562929988 ], [ 541988.429218854871579, 9564507.419484216719866 ], [ 542008.155411513522267, 9562717.794903010129929 ] ] ], [ [ [ 541968.783814405556768, 9566297.02991178445518 ], [ 543078.104637436568737, 9566296.522436564788222 ], [ 543097.741954423487186, 9564506.909676861017942 ], [ 541988.429218854871579, 9564507.419484216719866 ], [ 541968.783814405556768, 9566297.02991178445518 ] ] ], [ [ [ 543068.316262220265344, 9567191.323526009917259 ], [ 544177.64242291264236, 9567190.804003575816751 ], [ 544187.426767180790193, 9566296.001721866428852 ], [ 543078.104637436568737, 9566296.522436564788222 ], [ 543068.316262220265344, 9567191.323526009917259 ] ] ], [ [ [ 560187.265166904078797, 9525121.575705628842115 ], [ 561296.416669268393889, 9525120.781881656497717 ], [ 561317.769546075374819, 9523330.782800313085318 ], [ 560208.626890632789582, 9523331.579901387915015 ], [ 560187.265166904078797, 9525121.575705628842115 ] ] ], [ [ [ 564476.841032139607705, 9537647.947162682190537 ], [ 564487.213816086878069, 9536752.998095126822591 ], [ 567814.867241993313655, 9536750.46815625205636 ], [ 567835.647009640466422, 9534960.548081338405609 ], [ 566726.435817368677817, 9534961.409121030941606 ], [ 566757.768486652057618, 9532276.505883300676942 ], [ 567866.966676154173911, 9532275.639461642131209 ], [ 567887.946462707128376, 9530485.681290939450264 ], [ 565669.569527606945485, 9530487.406984241679311 ], [ 565680.098158768378198, 9529592.42571653611958 ], [ 564570.917060924926773, 9529593.268804991617799 ], [ 564581.470086714019999, 9528698.285439481958747 ], [ 565690.64680806256365, 9528697.44060767069459 ], [ 565701.215475389850326, 9527802.451650271192193 ], [ 564592.043138881446794, 9527803.298226241022348 ], [ 564602.636217328021303, 9526908.307157898321748 ], [ 563493.470231274375692, 9526909.141035933047533 ], [ 563482.872759379562922, 9527804.130386624485254 ], [ 562373.704303273931146, 9527804.948131546378136 ], [ 562363.122480637510307, 9528699.931938398629427 ], [ 563472.295322109479457, 9528699.115883016958833 ], [ 563440.683219037484378, 9531384.04932009242475 ], [ 564549.871088878368028, 9531383.22402230091393 ], [ 564539.378142818226479, 9532278.19588883779943 ], [ 563430.185921255149879, 9532279.019472979009151 ], [ 563419.70865859137848, 9533173.985808409750462 ], [ 560092.130360223469324, 9533176.365913096815348 ], [ 560050.369786244467832, 9536756.173352506011724 ], [ 558941.163412626832724, 9536756.931811513379216 ], [ 558889.3926302526379, 9541231.598164631053805 ], [ 559998.620433917851187, 9541230.84769612364471 ], [ 560008.930182521929964, 9540335.92033975571394 ], [ 561118.155535737401806, 9540335.154241926968098 ], [ 561128.481067965272814, 9539440.221512120217085 ], [ 563346.928811477613635, 9539438.643886467441916 ], [ 563367.622875475441106, 9537648.760481568053365 ], [ 564476.841032139607705, 9537647.947162682190537 ] ] ], [ [ [ 562217.081530701369047, 9541229.304742552340031 ], [ 562227.382741447887383, 9540334.374111197888851 ], [ 561118.155535737401806, 9540335.154241926968098 ], [ 561107.850056192022748, 9541230.083222135901451 ], [ 562217.081530701369047, 9541229.304742552340031 ] ] ], [ [ [ 556640.095189537969418, 9543917.802626436576247 ], [ 556650.357488124980591, 9543022.891173044219613 ], [ 555541.126423360430636, 9543023.596598910167813 ], [ 555530.859879704425111, 9543918.506540026515722 ], [ 556640.095189537969418, 9543917.802626436576247 ] ] ], [ [ [ 557739.0942406343529, 9544811.994064772501588 ], [ 557749.332216316252016, 9543917.084789626300335 ], [ 556640.095189537969418, 9543917.802626436576247 ], [ 556629.852977394359186, 9544812.710362773388624 ], [ 557739.0942406343529, 9544811.994064772501588 ] ] ], [ [ [ 563234.544046834227629, 9549282.735458105802536 ], [ 562125.272645023302175, 9549283.512872228398919 ], [ 562135.393452417454682, 9548388.615663049742579 ], [ 561026.128127875970677, 9548389.380961406975985 ], [ 561046.438290612190031, 9546599.578773956745863 ], [ 559937.183229209738784, 9546600.333521230146289 ], [ 559957.582051682984456, 9544810.519780585542321 ], [ 557739.0942406343529, 9544811.994064772501588 ], [ 557718.678523942944594, 9546601.801490982994437 ], [ 556609.428812815109268, 9546602.514713687822223 ], [ 556589.084995141369291, 9548392.304284604266286 ], [ 558807.602995690773241, 9548390.87019682303071 ], [ 558777.263038861332461, 9551075.536256412044168 ], [ 559886.537254320690408, 9551074.803298618644476 ], [ 559876.468245461233892, 9551969.686243075877428 ], [ 560985.748445635545067, 9551968.941194761544466 ], [ 560975.703659630846232, 9552863.822099858894944 ], [ 563194.27796153514646, 9552862.294278943911195 ], [ 563204.314427104545757, 9551967.410064289346337 ], [ 564313.600275676813908, 9551966.623981900513172 ], [ 564333.724973716656677, 9550176.841185074299574 ], [ 563224.447469848091714, 9550177.630661230534315 ], [ 563234.544046834227629, 9549282.735458105802536 ] ] ], [ [ [ 563184.261533293290995, 9553757.174845494329929 ], [ 564293.555693206493743, 9553756.392153823748231 ], [ 564303.567969948402606, 9552861.509892294183373 ], [ 563194.27796153514646, 9552862.294278943911195 ], [ 563184.261533293290995, 9553757.174845494329929 ] ] ], [ [ [ 564283.563445545150898, 9554651.270773848518729 ], [ 565392.863697948050685, 9554650.47618005797267 ], [ 565402.851802698452957, 9553755.595838505774736 ], [ 564293.555693206493743, 9553756.392153823748231 ], [ 564283.563445545150898, 9554651.270773848518729 ] ] ], [ [ [ 547584.3714530011639, 9560030.618804709985852 ], [ 547594.304947458207607, 9559135.784357508644462 ], [ 546485.011237466707826, 9559136.355011206120253 ], [ 546475.073646072065458, 9560031.188178293406963 ], [ 547584.3714530011639, 9560030.618804709985852 ] ] ], [ [ [ 545267.46981346141547, 9568979.86772284284234 ], [ 545277.209782403428108, 9568085.071251520887017 ], [ 544167.87825926579535, 9568085.602767378091812 ], [ 544148.410474188625813, 9569875.189770566299558 ], [ 545257.75001697067637, 9569874.660690175369382 ], [ 545219.072557266801596, 9573453.797666188329458 ], [ 547437.787670634686947, 9573452.710166037082672 ], [ 547447.418832680443302, 9572557.92863056063652 ], [ 546338.064544945023954, 9572558.480160346254706 ], [ 546376.806723833782598, 9568979.324267351999879 ], [ 545267.46981346141547, 9568979.86772284284234 ] ] ] ] } }
]
}
