{
"type": "FeatureCollection",
"name": "urban-2000",
"crs": { "type": "name", "properties": { "name": "urn:ogc:def:crs:EPSG::32733" } },
"features": [
{ "type": "Feature", "properties": { "year": 2000 }, "geometry": { "type": "MultiPolygon", "coordinates": [ [ [ [ 520649.932021588785574, 9493814.728098580613732 ], [ 520684.621080087381415, 9491129.432700360193849 ], [ 519575.688886751304381, 9491129.714637404307723 ], [ 519587.297367618069984, 9490234.608594667166471 ], [ 518478.370515023707412, 9490234.875632502138615 ], [ 518466.757285738131031, 9491129.981042882427573 ], [ 517357.826243493240327, 9491130.231916833668947 ], [ 517346.228647153708152, 9492025.332601705566049 ], [ 516237.293389411061071, 9492025.567367281764746 ], [ 516225.711442532658111, 9492920.663362996652722 ], [ 517334.651432611048222, 9492920.42917344532907 ], [ 517311.5581493107602, 9494710.61000682041049 ], [ 519529.458613757975399, 9494710.097659781575203 ], [ 519540.98563423746964, 9493815.00806182436645 ], [ 520649.932021588785574, 9493814.728098580613732 ] ] ], [ [ [ 550423.017453575856052, 9507227.674372646957636 ], [ 551532.063733197865076, 9507226.983014598488808 ], [ 551554.301254949532449, 9505436.853523060679436 ], [ 550445.264161347062327, 9505437.547699652612209 ], [ 550423.017453575856052, 9507227.674372646957636 ] ] ], [ [ [ 522663.707040696637705, 9509925.150868868455291 ], [ 523772.738967601733748, 9509924.83771244622767 ], [ 523783.901476815866772, 9509029.813966723158956 ], [ 522674.874121224624105, 9509030.127846878021955 ], [ 522663.707040696637705, 9509925.150868868455291 ] ] ], [ [ [ 530049.997914775973186, 9541246.194755241274834 ], [ 530081.33411991968751, 9538561.502062436193228 ], [ 528972.155564422952011, 9538561.876999702304602 ], [ 528993.156411730102263, 9536772.064895659685135 ], [ 531211.497210893197916, 9536771.297433266416192 ], [ 531200.995260048075579, 9537666.207111932337284 ], [ 534528.526564846746624, 9537664.952703485265374 ], [ 534570.604172230116092, 9534085.280066361650825 ], [ 535679.766036713961512, 9534084.82970454916358 ], [ 535711.523841593414545, 9531400.032531267032027 ], [ 534602.375028725364245, 9531400.485901813954115 ], [ 534645.019700534758158, 9527820.707057327032089 ], [ 533535.889456456061453, 9527821.150037750601768 ], [ 533546.605655088438652, 9526926.196741783991456 ], [ 531328.356984231155366, 9526927.041343012824655 ], [ 531339.102262483094819, 9526032.08608759008348 ], [ 530229.983777747722343, 9526032.487627420574427 ], [ 530240.75375126756262, 9525137.529426423832774 ], [ 532458.982833257759921, 9525136.71005192771554 ], [ 532448.221696623601019, 9526031.670080425217748 ], [ 533557.342113770311698, 9526031.23960586450994 ], [ 533568.09883240761701, 9525136.278622662648559 ], [ 536895.453065684414469, 9525134.897365996614099 ], [ 536906.216766884084791, 9524239.929497830569744 ], [ 538015.332610075478442, 9524239.439024358987808 ], [ 538026.112112425500527, 9523344.466226292774081 ], [ 539135.224673971184529, 9523343.960137628018856 ], [ 539167.67118815111462, 9520659.015195641666651 ], [ 540276.77158618089743, 9520658.491191947832704 ], [ 540298.494742596289143, 9518868.506185241043568 ], [ 541407.587420046213083, 9518867.965247610583901 ], [ 541418.474829044309445, 9517972.965729350224137 ], [ 542527.564278119360097, 9517972.408925665542483 ], [ 542538.467396821710281, 9517077.404307955875993 ], [ 543647.553643341059797, 9517076.831582700833678 ], [ 543658.472455226117745, 9516181.821829255670309 ], [ 545876.639950578217395, 9516180.629655973985791 ], [ 545887.569932409212925, 9515285.61346648260951 ], [ 546996.65124093729537, 9515284.993935534730554 ], [ 547018.562667142832652, 9513494.947131128981709 ], [ 549236.711513460148126, 9513493.658346813172102 ], [ 549225.754766570404172, 9514388.686393115669489 ], [ 550334.835931734414771, 9514388.021099543198943 ], [ 550323.903840454528108, 9515283.046565758064389 ], [ 551432.991043573012576, 9515282.367849856615067 ], [ 551422.083591008675285, 9516177.390768991783261 ], [ 552531.176856750389561, 9516176.698684446513653 ], [ 552509.431312196305953, 9517966.735560053959489 ], [ 553618.535153246484697, 9517966.031614057719707 ], [ 553607.697036115569063, 9518861.045610088855028 ], [ 554716.806980510358699, 9518860.32842930406332 ], [ 554705.993443177896552, 9519755.339983865618706 ], [ 555815.109515604446642, 9519754.609621977433562 ], [ 555782.802869263570756, 9522439.625345034524798 ], [ 556891.933993606478907, 9522438.884919237345457 ], [ 556881.209733364288695, 9523333.883895302191377 ], [ 557990.347017880296335, 9523333.130448764190078 ], [ 558001.066841325489804, 9522438.129914855584502 ], [ 559110.201446022721939, 9522437.360331773757935 ], [ 559120.93690036109183, 9521542.354317443445325 ], [ 560230.068851036718115, 9521541.568542271852493 ], [ 560240.819919741712511, 9520646.557011215016246 ], [ 558022.566715416149236, 9520648.11715629324317 ], [ 558054.967093058512546, 9517963.068681102246046 ], [ 556945.856554573168978, 9517963.831486910581589 ], [ 556956.701318019884638, 9517068.809038497507572 ], [ 558065.807369607617147, 9517068.044669950380921 ], [ 558087.548148104455322, 9515277.984824316576123 ], [ 555869.355768207809888, 9515279.505020255222917 ], [ 555891.194911626749672, 9513489.435568932443857 ], [ 553673.027366991504095, 9513490.902566557750106 ], [ 553683.986134657869115, 9512595.864892059937119 ], [ 551465.834151343209669, 9512597.275372356176376 ], [ 551476.822103624697775, 9511702.236615296453238 ], [ 550367.753005177248269, 9511702.92094162106514 ], [ 550378.765629192464985, 9510807.879611359909177 ], [ 549269.702603262849152, 9510808.550409441813827 ], [ 549291.7973697418347, 9509018.458545576781034 ], [ 550400.851275921217166, 9509017.784990256652236 ], [ 550423.017453575856052, 9507227.674372646957636 ], [ 548204.929440600913949, 9507229.011962408199906 ], [ 548216.051906805951148, 9506333.953372299671173 ], [ 545997.978911355952732, 9506335.233420850709081 ], [ 545986.84726545016747, 9507230.2893843986094 ], [ 544877.808283109567128, 9507230.905532725155354 ], [ 544900.100929718697444, 9505440.792133264243603 ], [ 543791.072495626867749, 9505441.395730810239911 ], [ 543779.911486269207671, 9506336.453193189576268 ], [ 540452.820205451804213, 9506338.169835424050689 ], [ 540475.190028969547711, 9504548.058037132024765 ], [ 538257.15377244958654, 9504549.131615735590458 ], [ 538212.458187146228738, 9508129.330177202820778 ], [ 533776.32575100788381, 9508131.279208038002253 ], [ 533798.669804169796407, 9506341.196269739419222 ], [ 532689.648514492553659, 9506341.647936537861824 ], [ 532700.855529836495407, 9505446.601430939510465 ], [ 530482.825090761180036, 9505447.461424093693495 ], [ 530494.06159379647579, 9504552.412768766283989 ], [ 529385.052386544994079, 9504552.821014182642102 ], [ 529373.811272245249711, 9505447.868777772411704 ], [ 526046.775017884443514, 9505449.000267960131168 ], [ 526069.305234032100998, 9503658.905746165663004 ], [ 524960.304004474775866, 9503659.254285361617804 ], [ 524982.924751907470636, 9501869.145233914256096 ], [ 521655.953266968019307, 9501870.104334495961666 ], [ 521633.304715029662475, 9503660.20900578610599 ], [ 523851.303530502715148, 9503659.587674997746944 ], [ 523783.901476815866772, 9509029.813966723158956 ], [ 526001.958381897187792, 9509029.141249282285571 ], [ 525979.671963611617684, 9510819.187826041132212 ], [ 524870.634001228609122, 9510819.53012178838253 ], [ 524859.516713402699679, 9511714.546680657193065 ], [ 523750.474949813913554, 9511714.873295892030001 ], [ 523717.231426171143539, 9514399.897010881453753 ], [ 521499.122794900613371, 9514400.501289470121264 ], [ 521477.044047296280041, 9516190.494592629373074 ], [ 520367.981689925538376, 9516190.773171732202172 ], [ 520335.002710754110012, 9518875.731768054887652 ], [ 521444.078558014705777, 9518875.455174028873444 ], [ 521433.130763864552137, 9519770.434230871498585 ], [ 522542.211740186496172, 9519770.143638927489519 ], [ 522531.288768546713982, 9520665.119492689147592 ], [ 523640.374898532696534, 9520664.814956571906805 ], [ 523629.476732453797013, 9521559.787640245631337 ], [ 524738.568040712038055, 9521559.46921369805932 ], [ 524727.694663246744312, 9522454.438760275021195 ], [ 529164.085537916980684, 9522453.022249581292272 ], [ 529153.250265871873125, 9523347.991153905168176 ], [ 523607.741404638451058, 9523349.72138505987823 ], [ 523596.904243090189993, 9524244.682460833340883 ], [ 522487.800313146493863, 9524244.984149700030684 ], [ 522498.64191213529557, 9523350.023784521967173 ], [ 521389.543101153627504, 9523350.311635175719857 ], [ 521400.409489560755901, 9522455.348092930391431 ], [ 519182.222670933464542, 9522455.881434286013246 ], [ 519149.657931531313807, 9525140.756633194163442 ], [ 521367.871379439719021, 9525140.22714589163661 ], [ 521357.066046318795998, 9526035.179128985852003 ], [ 520247.954594186332542, 9526035.450465319678187 ], [ 520237.165200054121669, 9526930.397956416010857 ], [ 521346.281065145740286, 9526930.12727365642786 ], [ 521324.772159012791235, 9528720.012076968327165 ], [ 522433.897471000731457, 9528719.728313991799951 ], [ 522455.397576927673072, 9526929.842151340097189 ], [ 523564.51476900128182, 9526929.542589420452714 ], [ 523543.023462669108994, 9528719.430166019126773 ], [ 524652.150167622021399, 9528719.117633001878858 ], [ 524609.429079238208942, 9532298.849955117329955 ], [ 525718.574027476133779, 9532298.526073722168803 ], [ 525697.344145936192945, 9534088.370981311425567 ], [ 526806.498570886789821, 9534088.034392170608044 ], [ 526785.358630605507642, 9535877.86576159670949 ], [ 525676.195541678927839, 9535878.200785715132952 ], [ 525665.651718760491349, 9536773.110042508691549 ], [ 527883.987346917856485, 9536772.427417453378439 ], [ 527842.049639267730527, 9540352.033323347568512 ], [ 528951.235895898658782, 9540351.674137430265546 ], [ 528940.806503908475861, 9541246.567112218588591 ], [ 530049.997914775973186, 9541246.194755241274834 ] ], [ [ 529131.640601226943545, 9525137.917371779680252 ], [ 529142.435286943917163, 9524242.956192195415497 ], [ 530251.544009731151164, 9524242.567373238503933 ], [ 530240.75375126756262, 9525137.529426423832774 ], [ 529131.640601226943545, 9525137.917371779680252 ] ], [ [ 549247.688401938881725, 9512598.626339003443718 ], [ 550356.760514195775613, 9512597.95829483307898 ], [ 550345.788156347931363, 9513492.991678355261683 ], [ 549236.711513460148126, 9513493.658346813172102 ], [ 549247.688401938881725, 9512598.626339003443718 ] ], [ [ 540441.66560512536671, 9507233.219710418954492 ], [ 539332.633080579224043, 9507233.760651379823685 ], [ 539343.792272684979253, 9506338.711912181228399 ], [ 540452.820205451804213, 9506338.169835424050689 ], [ 540441.66560512536671, 9507233.219710418954492 ] ], [ [ 523575.290925178560428, 9526034.593055699020624 ], [ 522466.178145449550357, 9526034.893325794488192 ], [ 522476.979057553515304, 9525139.940661020576954 ], [ 523586.087416572263464, 9525139.639681940898299 ], [ 523575.290925178560428, 9526034.593055699020624 ] ] ], [ [ [ 530081.33411991968751, 9538561.502062436193228 ], [ 531190.513587089255452, 9538561.113040132448077 ], [ 531200.995260048075579, 9537666.207111932337284 ], [ 530091.820094428956509, 9537666.597023200243711 ], [ 530081.33411991968751, 9538561.502062436193228 ] ] ], [ [ [ 526722.426280096056871, 9541247.269817007705569 ], [ 527831.615970221930183, 9541246.925466122105718 ], [ 527842.049639267730527, 9540352.033323347568512 ], [ 526732.864226489677094, 9540352.378478944301605 ], [ 526722.426280096056871, 9541247.269817007705569 ] ] ], [ [ [ 564528.905223531997763, 9533173.163937125355005 ], [ 563419.70865859137848, 9533173.985808409750462 ], [ 563388.3970822901465, 9535858.861983638256788 ], [ 565606.818126962170936, 9535857.214338876307011 ], [ 565617.226647252915427, 9534962.25596334785223 ], [ 564508.0194656731328, 9534963.088608417659998 ], [ 564528.905223531997763, 9533173.163937125355005 ] ] ], [ [ [ 562279.189458321314305, 9535859.664551427587867 ], [ 561169.983721770928241, 9535860.452949658036232 ], [ 561180.409515962353908, 9534965.501361424103379 ], [ 562289.610933646676131, 9534964.71130733191967 ], [ 562310.514015470864251, 9533174.793428083881736 ], [ 561201.321260553319007, 9533175.586796272546053 ], [ 561190.855362255475484, 9534070.545979415997863 ], [ 560081.660126106231473, 9534071.32346610352397 ], [ 560029.609862714423798, 9538546.054373206570745 ], [ 561138.826652779011056, 9538545.285025350749493 ], [ 561149.19229008234106, 9537650.344774259254336 ], [ 562258.406639330205508, 9537649.559685386717319 ], [ 562279.189458321314305, 9535859.664551427587867 ] ] ], [ [ [ 565596.429625494172797, 9536752.168924840167165 ], [ 567814.867241993313655, 9536750.46815625205636 ], [ 567825.247124748537317, 9535855.510014368221164 ], [ 565606.818126962170936, 9535857.214338876307011 ], [ 565596.429625494172797, 9536752.168924840167165 ] ] ], [ [ [ 558920.394892041920684, 9538546.80963366292417 ], [ 558910.040735471295193, 9539441.742896927520633 ], [ 560019.25999215291813, 9539440.989234570413828 ], [ 560029.609862714423798, 9538546.054373206570745 ], [ 558920.394892041920684, 9538546.80963366292417 ] ] ], [ [ [ 557698.34312077856157, 9548391.594134112820029 ], [ 559916.864653511787765, 9548390.13247262686491 ], [ 559947.37260964687448, 9545705.42850324138999 ], [ 557728.876343144918792, 9545706.899629440158606 ], [ 557698.34312077856157, 9548391.594134112820029 ] ] ], [ [ [ 562125.272645023302175, 9549283.512872228398919 ], [ 559906.73545843991451, 9549285.026420747861266 ], [ 559876.468245461233892, 9551969.686243075877428 ], [ 560985.748445635545067, 9551968.941194761544466 ], [ 560975.703659630846232, 9552863.822099858894944 ], [ 563194.27796153514646, 9552862.294278943911195 ], [ 563224.447469848091714, 9550177.630661230534315 ], [ 562115.171882921247743, 9550178.406404629349709 ], [ 562125.272645023302175, 9549283.512872228398919 ] ] ] ] } }
]
}
