{
"type": "FeatureCollection",
"name": "urban-2005",
"crs": { "type": "name", "properties": { "name": "urn:ogc:def:crs:EPSG::32733" } },
"features": [
{ "type": "Feature", "properties": { "year": 2005 }, "geometry": { "type": "MultiPolygon", "coordinates": [ [ [ [ 520649.932021588785574, 9493814.728098580613732 ], [ 520696.224812867760193, 9490234.325997961685061 ], [ 518478.370515023707412, 9490234.875632502138615 ], [ 518466.757285738131031, 9491129.981042882427573 ], [ 516248.895726462360471, 9491130.467259297147393 ], [ 516225.711442532658111, 9492920.663362996652722 ], [ 517334.651432611048222, 9492920.42917344532907 ], [ 517311.5581493107602, 9494710.61000682041049 ], [ 519529.458613757975399, 9494710.097659781575203 ], [ 519540.98563423746964, 9493815.00806182436645 ], [ 520649.932021588785574, 9493814.728098580613732 ] ] ], [ [ [ 550423.017453575856052, 9507227.674372646957636 ], [ 551532.063733197865076, 9507226.983014598488808 ], [ 551554.301254949532449, 9505436.853523060679436 ], [ 550445.264161347062327, 9505437.547699652612209 ], [ 550423.017453575856052, 9507227.674372646957636 ] ] ], [ [ [ 537114.571570376632735, 9507234.797409737482667 ], [ 537103.423426645924337, 9508129.839955465868115 ], [ 533776.32575100788381, 9508131.279208038002253 ], [ 533798.669804169796407, 9506341.196269739419222 ], [ 532689.648514492553659, 9506341.647936537861824 ], [ 532700.855529836495407, 9505446.601430939510465 ], [ 531591.839832100318745, 9505447.038975169882178 ], [ 531603.071724182460457, 9504551.989400802180171 ], [ 529385.052386544994079, 9504552.821014182642102 ], [ 529373.811272245249711, 9505447.868777772411704 ], [ 526046.775017884443514, 9505449.000267960131168 ], [ 526069.305234032100998, 9503658.905746165663004 ], [ 524960.304004474775866, 9503659.254285361617804 ], [ 524982.924751907470636, 9501869.145233914256096 ], [ 521655.953266968019307, 9501870.104334495961666 ], [ 521633.304715029662475, 9503660.20900578610599 ], [ 523851.303530502715148, 9503659.587674997746944 ], [ 523783.901476815866772, 9509029.813966723158956 ], [ 522674.874121224624105, 9509030.127846878021955 ], [ 522663.707040696637705, 9509925.150868868455291 ], [ 524881.771614297991619, 9509924.509597634896636 ], [ 524892.929552513756789, 9509029.4851008746773 ], [ 526001.958381897187792, 9509029.141249282285571 ], [ 525979.671963611617684, 9510819.187826041132212 ], [ 524870.634001228609122, 9510819.53012178838253 ], [ 524859.516713402699679, 9511714.546680657193065 ], [ 523750.474949813913554, 9511714.873295892030001 ], [ 523717.231426171143539, 9514399.897010881453753 ], [ 521499.122794900613371, 9514400.501289470121264 ], [ 521477.044047296280041, 9516190.494592629373074 ], [ 520367.981689925538376, 9516190.773171732202172 ], [ 520324.050436710065696, 9519770.710164841264486 ], [ 522542.211740186496172, 9519770.143638927489519 ], [ 522531.288768546713982, 9520665.119492689147592 ], [ 523640.374898532696534, 9520664.814956571906805 ], [ 523629.476732453797013, 9521559.787640245631337 ], [ 524738.568040712038055, 9521559.46921369805932 ], [ 524727.694663246744312, 9522454.438760275021195 ], [ 529164.085537916980684, 9522453.022249581292272 ], [ 529153.250265871873125, 9523347.991153905168176 ], [ 523607.741404638451058, 9523349.72138505987823 ], [ 523618.59890112397261, 9522454.756447302177548 ], [ 521400.409489560755901, 9522455.348092930391431 ], [ 521411.296229544095695, 9521560.380683006718755 ], [ 518084.030255277291872, 9521561.160721976310015 ], [ 518094.950737158011179, 9520666.191330434754491 ], [ 519204.034338909026701, 9520665.945316921919584 ], [ 519225.927479381556623, 9518875.993676848709583 ], [ 518116.852830305520911, 9518876.240900449454784 ], [ 518105.891595532069914, 9519771.218059029430151 ], [ 515887.734947916469537, 9519771.667321801185608 ], [ 515876.785144289780874, 9520666.639465838670731 ], [ 514767.703085985907819, 9520666.841587800532579 ], [ 514756.769210860016756, 9521561.809331685304642 ], [ 515865.855733895499725, 9521561.607731642201543 ], [ 515854.946716824721079, 9522456.572126515209675 ], [ 516964.038176477479283, 9522456.356471696868539 ], [ 516942.29020966112148, 9524246.274772265926003 ], [ 518051.391069520032033, 9524246.045690519735217 ], [ 518040.552094538521487, 9525140.999635703861713 ], [ 519149.657931531313807, 9525140.756633194163442 ], [ 519138.843755451089237, 9526035.707334833219647 ], [ 520247.954594186332542, 9526035.450465319678187 ], [ 520204.919180464756209, 9529615.217477085068822 ], [ 521314.048234237183351, 9529614.948750231415033 ], [ 521324.772159012791235, 9528720.012076968327165 ], [ 523543.023462669108994, 9528719.430166019126773 ], [ 523521.613498316553887, 9530509.302470251917839 ], [ 524630.748968798667192, 9530508.991402583196759 ], [ 524598.799625661806203, 9533193.773543279618025 ], [ 525707.948927091551013, 9533193.450419072061777 ], [ 525665.651718760491349, 9536773.110042508691549 ], [ 526774.819127132417634, 9536772.775799717754126 ], [ 526764.299934893264435, 9537667.682083198800683 ], [ 527873.472465467406437, 9537667.334508776664734 ], [ 527852.503611551364884, 9539457.137454409152269 ], [ 526743.322484481032006, 9539457.483415497466922 ], [ 526722.426280096056871, 9541247.269817007705569 ], [ 527831.615970221930183, 9541246.925466122105718 ], [ 527842.049639267730527, 9540352.033323347568512 ], [ 528951.235895898658782, 9540351.674137430265546 ], [ 528940.806503908475861, 9541246.567112218588591 ], [ 530049.997914775973186, 9541246.194755241274834 ], [ 530081.33411991968751, 9538561.502062436193228 ], [ 531190.513587089255452, 9538561.113040132448077 ], [ 531200.995260048075579, 9537666.207111932337284 ], [ 534528.526564846746624, 9537664.952703485265374 ], [ 534570.604172230116092, 9534085.280066361650825 ], [ 535679.766036713961512, 9534084.82970454916358 ], [ 535711.523841593414545, 9531400.032531267032027 ], [ 534602.375028725364245, 9531400.485901813954115 ], [ 534645.019700534758158, 9527820.707057327032089 ], [ 533535.889456456061453, 9527821.150037750601768 ], [ 533546.605655088438652, 9526926.196741783991456 ], [ 531328.356984231155366, 9526927.041343012824655 ], [ 531339.102262483094819, 9526032.08608759008348 ], [ 530229.983777747722343, 9526032.487627420574427 ], [ 530240.75375126756262, 9525137.529426423832774 ], [ 532458.982833257759921, 9525136.71005192771554 ], [ 532448.221696623601019, 9526031.670080425217748 ], [ 533557.342113770311698, 9526031.23960586450994 ], [ 533568.09883240761701, 9525136.278622662648559 ], [ 536895.453065684414469, 9525134.897365996614099 ], [ 536906.216766884084791, 9524239.929497830569744 ], [ 538015.332610075478442, 9524239.439024358987808 ], [ 538026.112112425500527, 9523344.466226292774081 ], [ 539135.224673971184529, 9523343.960137628018856 ], [ 539167.67118815111462, 9520659.015195641666651 ], [ 540276.77158618089743, 9520658.491191947832704 ], [ 540298.494742596289143, 9518868.506185241043568 ], [ 541407.587420046213083, 9518867.965247610583901 ], [ 541418.474829044309445, 9517972.965729350224137 ], [ 542527.564278119360097, 9517972.408925665542483 ], [ 542538.467396821710281, 9517077.404307955875993 ], [ 543647.553643341059797, 9517076.831582700833678 ], [ 543658.472455226117745, 9516181.821829255670309 ], [ 545876.639950578217395, 9516180.629655973985791 ], [ 545887.569932409212925, 9515285.61346648260951 ], [ 546996.65124093729537, 9515284.993935534730554 ], [ 547018.562667142832652, 9513494.947131128981709 ], [ 549236.711513460148126, 9513493.658346813172102 ], [ 549225.754766570404172, 9514388.686393115669489 ], [ 550334.835931734414771, 9514388.021099543198943 ], [ 550323.903840454528108, 9515283.046565758064389 ], [ 551432.991043573012576, 9515282.367849856615067 ], [ 551422.083591008675285, 9516177.390768991783261 ], [ 552531.176856750389561, 9516176.698684446513653 ], [ 552498.588715406716801, 9518861.748103393241763 ], [ 554716.806980510358699, 9518860.32842930406332 ], [ 554705.993443177896552, 9519755.339983865618706 ], [ 555815.109515604446642, 9519754.609621977433562 ], [ 555782.802869263570756, 9522439.625345034524798 ], [ 556891.933993606478907, 9522438.884919237345457 ], [ 556881.209733364288695, 9523333.883895302191377 ], [ 557990.347017880296335, 9523333.130448764190078 ], [ 558001.066841325489804, 9522438.129914855584502 ], [ 560219.337841300293803, 9522436.576169872656465 ], [ 560240.819919741712511, 9520646.557011215016246 ], [ 558022.566715416149236, 9520648.11715629324317 ], [ 558087.548148104455322, 9515277.984824316576123 ], [ 555869.355768207809888, 9515279.505020255222917 ], [ 555891.194911626749672, 9513489.435568932443857 ], [ 553673.027366991504095, 9513490.902566557750106 ], [ 553683.986134657869115, 9512595.864892059937119 ], [ 551465.834151343209669, 9512597.275372356176376 ], [ 551476.822103624697775, 9511702.236615296453238 ], [ 550367.753005177248269, 9511702.92094162106514 ], [ 550378.765629192464985, 9510807.879611359909177 ], [ 549269.702603262849152, 9510808.550409441813827 ], [ 549291.7973697418347, 9509018.458545576781034 ], [ 550400.851275921217166, 9509017.784990256652236 ], [ 550423.017453575856052, 9507227.674372646957636 ], [ 548204.929440600913949, 9507229.011962408199906 ], [ 548216.051906805951148, 9506333.953372299671173 ], [ 545997.978911355952732, 9506335.233420850709081 ], [ 545986.84726545016747, 9507230.2893843986094 ], [ 544877.808283109567128, 9507230.905532725155354 ], [ 544900.100929718697444, 9505440.792133264243603 ], [ 543791.072495626867749, 9505441.395730810239911 ], [ 543779.911486269207671, 9506336.453193189576268 ], [ 540452.820205451804213, 9506338.169835424050689 ], [ 540475.190028969547711, 9504548.058037132024765 ], [ 538257.15377244958654, 9504549.131615735590458 ], [ 538223.601746855769306, 9507234.286551127210259 ], [ 537114.571570376632735, 9507234.797409737482667 ] ], [ [ 528972.155564422952011, 9538561.876999702304602 ], [ 528982.645840774290264, 9537666.97282212972641 ], [ 530091.820094428956509, 9537666.597023200243711 ], [ 530081.33411991968751, 9538561.502062436193228 ], [ 528972.155564422952011, 9538561.876999702304602 ] ], [ [ 529131.640601226943545, 9525137.917371779680252 ], [ 529142.435286943917163, 9524242.956192195415497 ], [ 530251.544009731151164, 9524242.567373238503933 ], [ 530240.75375126756262, 9525137.529426423832774 ], [ 529131.640601226943545, 9525137.917371779680252 ] ], [ [ 549247.688401938881725, 9512598.626339003443718 ], [ 550356.760514195775613, 9512597.95829483307898 ], [ 550345.788156347931363, 9513492.991678355261683 ], [ 549236.711513460148126, 9513493.658346813172102 ], [ 549247.688401938881725, 9512598.626339003443718 ] ], [ [ 540441.66560512536671, 9507233.219710418954492 ], [ 539332.633080579224043, 9507233.760651379823685 ], [ 539343.792272684979253, 9506338.711912181228399 ], [ 540452.820205451804213, 9506338.169835424050689 ], [ 540441.66560512536671, 9507233.219710418954492 ] ] ], [ [ [ 532289.236897467868403, 9539455.613033268600702 ], [ 533398.422581445425749, 9539455.196783496066928 ], [ 533408.875390912289731, 9538560.292740173637867 ], [ 532299.693999547860585, 9538560.709932731464505 ], [ 532289.236897467868403, 9539455.613033268600702 ] ] ], [ [ [ 535616.79701972566545, 9539454.322110127657652 ], [ 533398.422581445425749, 9539455.196783496066928 ], [ 533377.577746664872393, 9541244.993665290996432 ], [ 534486.773002457339317, 9541244.565295429900289 ], [ 534497.181013513705693, 9540349.667751042172313 ], [ 535606.373039262602106, 9540349.224381973966956 ], [ 535616.79701972566545, 9539454.322110127657652 ] ] ], [ [ [ 531138.409393788548186, 9543035.586680337786674 ], [ 533356.813958032405935, 9543034.775656105950475 ], [ 533377.577746664872393, 9541244.993665290996432 ], [ 530049.997914775973186, 9541246.194755241274834 ], [ 530039.593086160137318, 9542141.084868937730789 ], [ 531148.789675944950432, 9542140.699394669383764 ], [ 531138.409393788548186, 9543035.586680337786674 ] ] ], [ [ [ 533356.813958032405935, 9543034.775656105950475 ], [ 533346.462456250097603, 9543929.661085698753595 ], [ 535564.879565654671751, 9543928.796226315200329 ], [ 535575.222566636628471, 9543033.908837035298347 ], [ 533356.813958032405935, 9543034.775656105950475 ] ] ], [ [ [ 564528.905223531997763, 9533173.163937125355005 ], [ 563419.70865859137848, 9533173.985808409750462 ], [ 563388.3970822901465, 9535858.861983638256788 ], [ 565606.818126962170936, 9535857.214338876307011 ], [ 565617.226647252915427, 9534962.25596334785223 ], [ 564508.0194656731328, 9534963.088608417659998 ], [ 564528.905223531997763, 9533173.163937125355005 ] ] ], [ [ [ 562279.189458321314305, 9535859.664551427587867 ], [ 561169.983721770928241, 9535860.452949658036232 ], [ 561180.409515962353908, 9534965.501361424103379 ], [ 562289.610933646676131, 9534964.71130733191967 ], [ 562310.514015470864251, 9533174.793428083881736 ], [ 561201.321260553319007, 9533175.586796272546053 ], [ 561190.855362255475484, 9534070.545979415997863 ], [ 560081.660126106231473, 9534071.32346610352397 ], [ 560029.609862714423798, 9538546.054373206570745 ], [ 561138.826652779011056, 9538545.285025350749493 ], [ 561149.19229008234106, 9537650.344774259254336 ], [ 562258.406639330205508, 9537649.559685386717319 ], [ 562279.189458321314305, 9535859.664551427587867 ] ] ], [ [ [ 565596.429625494172797, 9536752.168924840167165 ], [ 567814.867241993313655, 9536750.46815625205636 ], [ 567825.247124748537317, 9535855.510014368221164 ], [ 565606.818126962170936, 9535857.214338876307011 ], [ 565596.429625494172797, 9536752.168924840167165 ] ] ], [ [ [ 558910.040735471295193, 9539441.742896927520633 ], [ 560019.25999215291813, 9539440.989234570413828 ], [ 560029.609862714423798, 9538546.054373206570745 ], [ 558920.394892041920684, 9538546.80963366292417 ], [ 558910.040735471295193, 9539441.742896927520633 ] ] ], [ [ [ 558848.337254187557846, 9544811.263870747759938 ], [ 557739.0942406343529, 9544811.994064772501588 ], [ 557698.34312077856157, 9548391.594134112820029 ], [ 559916.864653511787765, 9548390.13247262686491 ], [ 559947.37260964687448, 9545705.42850324138999 ], [ 558838.123584554181434, 9545706.171000754460692 ], [ 558848.337254187557846, 9544811.263870747759938 ] ] ], [ [ [ 562125.272645023302175, 9549283.512872228398919 ], [ 558797.469606396160088, 9549285.762555379420519 ], [ 558777.263038861332461, 9551075.536256412044168 ], [ 559886.537254320690408, 9551074.803298618644476 ], [ 559876.468245461233892, 9551969.686243075877428 ], [ 560985.748445635545067, 9551968.941194761544466 ], [ 560975.703659630846232, 9552863.822099858894944 ], [ 563194.27796153514646, 9552862.294278943911195 ], [ 563224.447469848091714, 9550177.630661230534315 ], [ 562115.171882921247743, 9550178.406404629349709 ], [ 562125.272645023302175, 9549283.512872228398919 ] ] ] ] } }
]
}
