{
"type": "FeatureCollection",
"name": "urban-2020",
"crs": { "type": "name", "properties": { "name": "urn:ogc:def:crs:EPSG::32733" } },
"features": [
{ "type": "Feature", "properties": { "year": 2020 }, "geometry": { "type": "MultiPolygon", "coordinates": [ [ [ [ 519540.98563423746964, 9493815.00806182436645 ], [ 520649.932021588785574, 9493814.728098580613732 ], [ 520696.224812867760193, 9490234.325997961685061 ], [ 517369.444221531681251, 9490235.127111507579684 ], [ 517357.826243493240327, 9491130.231916833668947 ], [ 516248.895726462360471, 9491130.467259297147393 ], [ 516237.293389411061071, 9492025.567367281764746 ], [ 515128.358622992876917, 9492025.786628706380725 ], [ 515116.771943443454802, 9492920.882075700908899 ], [ 517334.651432611048222, 9492920.42917344532907 ], [ 517311.5581493107602, 9494710.61000682041049 ], [ 518420.508102814608719, 9494710.361544458195567 ], [ 518408.996741131588351, 9495605.446421481668949 ], [ 519517.951958621968515, 9495605.183164855465293 ], [ 519540.98563423746964, 9493815.00806182436645 ] ] ], [ [ [ 519225.927479381556623, 9518875.993676848709583 ], [ 519247.902091603260487, 9517086.026455570012331 ], [ 517029.771315091347788, 9517086.508589724078774 ], [ 517018.764830222702585, 9517981.49296479858458 ], [ 514800.627120603923686, 9517981.915062392130494 ], [ 514767.703085985907819, 9520666.841587800532579 ], [ 513658.621474978106562, 9520667.029079308733344 ], [ 513647.683134803199209, 9521561.996328577399254 ], [ 514756.769210860016756, 9521561.809331685304642 ], [ 514745.855737427948043, 9522456.773205453529954 ], [ 515854.946716824721079, 9522456.572126515209675 ], [ 515833.189863025269005, 9524246.48933270201087 ], [ 516942.29020966112148, 9524246.274772265926003 ], [ 516931.446804055129178, 9525141.22814416885376 ], [ 518040.552094538521487, 9525140.999635703861713 ], [ 518008.157431698986329, 9527825.838440572842956 ], [ 519117.276509424787946, 9527825.597234975546598 ], [ 519085.078407101042103, 9530510.403436973690987 ], [ 521303.344661778130103, 9530509.881614316254854 ], [ 521314.048234237183351, 9529614.948750231415033 ], [ 522423.177933780651074, 9529614.665665727108717 ], [ 522412.478740511694923, 9530509.599207481369376 ], [ 523521.613498316553887, 9530509.302470251917839 ], [ 523500.2848766813986, 9532299.159560630097985 ], [ 524609.429079238208942, 9532298.849955117329955 ], [ 524598.799625661806203, 9533193.773543279618025 ], [ 523489.651069612358697, 9533194.082418903708458 ], [ 523447.319201797945425, 9536773.736109865829349 ], [ 524556.485088186920621, 9536773.430145874619484 ], [ 524545.957273482577875, 9537668.334895573556423 ], [ 525655.128215437056497, 9537668.015545446425676 ], [ 525602.815495925839059, 9542142.487008292227983 ], [ 530039.593086160137318, 9542141.084868937730789 ], [ 530029.208544245455414, 9543035.971269546076655 ], [ 531138.409393788548186, 9543035.586680337786674 ], [ 531117.709664867958054, 9544825.350139344111085 ], [ 534445.343490952509455, 9544824.118310974910855 ], [ 534435.036746712750755, 9545718.997310973703861 ], [ 536653.472928934264928, 9545718.108632516115904 ], [ 536663.771206361474469, 9544823.22762132063508 ], [ 538882.20336735364981, 9544822.281354445964098 ], [ 538861.643964097835124, 9546612.04392764903605 ], [ 539970.870252251625061, 9546611.552154116332531 ], [ 539950.400153325870633, 9548401.30219510383904 ], [ 541059.636075733462349, 9548400.798834722489119 ], [ 541090.358895770972595, 9545716.164870986714959 ], [ 539981.135619695996866, 9545716.671612126752734 ], [ 539991.421199006726965, 9544821.787379369139671 ], [ 541100.640242932830006, 9544821.279509767889977 ], [ 541121.263547428650782, 9543031.497683381661773 ], [ 540012.052992859040387, 9543032.007812228053808 ], [ 540022.3992072166875, 9542137.112463183701038 ], [ 541131.605504578445107, 9542136.601203551515937 ], [ 541141.967664873111062, 9541241.701002851128578 ], [ 540032.765633072354831, 9541242.213394047692418 ], [ 540043.152270333259366, 9540347.310597490519285 ], [ 537824.760361943161115, 9540348.295551517978311 ], [ 537835.175775895942934, 9539453.391204545274377 ], [ 536725.985841264948249, 9539453.8636863976717 ], [ 536736.425774615374394, 9538558.956650903448462 ], [ 535627.241244828910567, 9538559.416099326685071 ], [ 535648.190428587258793, 9536769.592831552028656 ], [ 534539.015587705536745, 9536770.040191754698753 ], [ 534570.604172230116092, 9534085.280066361650825 ], [ 535679.766036713961512, 9534084.82970454916358 ], [ 535711.523841593414545, 9531400.032531267032027 ], [ 534602.375028725364245, 9531400.485901813954115 ], [ 534645.019700534758158, 9527820.707057327032089 ], [ 533535.889456456061453, 9527821.150037750601768 ], [ 533546.605655088438652, 9526926.196741783991456 ], [ 531328.356984231155366, 9526927.041343012824655 ], [ 531339.102262483094819, 9526032.08608759008348 ], [ 530229.983777747722343, 9526032.487627420574427 ], [ 530240.75375126756262, 9525137.529426423832774 ], [ 532458.982833257759921, 9525136.71005192771554 ], [ 532448.221696623601019, 9526031.670080425217748 ], [ 535775.586031490704045, 9526030.335254285484552 ], [ 535786.333915020339191, 9525135.372279766947031 ], [ 536895.453065684414469, 9525134.897365996614099 ], [ 536906.216766884084791, 9524239.929497830569744 ], [ 538015.332610075478442, 9524239.439024358987808 ], [ 538026.112112425500527, 9523344.466226292774081 ], [ 539135.224673971184529, 9523343.960137628018856 ], [ 539146.019960951176472, 9522448.982373403385282 ], [ 540255.12926667695865, 9522448.460614049807191 ], [ 540265.940321766771376, 9521553.477847402915359 ], [ 539156.835465710260905, 9521554.000728521496058 ], [ 539167.67118815111462, 9520659.015195641666651 ], [ 540276.77158618089743, 9520658.491191947832704 ], [ 540298.494742596289143, 9518868.506185241043568 ], [ 541407.587420046213083, 9518867.965247610583901 ], [ 541418.474829044309445, 9517972.965729350224137 ], [ 542527.564278119360097, 9517972.408925665542483 ], [ 542538.467396821710281, 9517077.404307955875993 ], [ 544756.641211770591326, 9517076.244116244837642 ], [ 544767.555525006726384, 9516181.233126914128661 ], [ 545876.639950578217395, 9516180.629655973985791 ], [ 545887.569932409212925, 9515285.61346648260951 ], [ 546996.65124093729537, 9515284.993935534730554 ], [ 547007.596874840208329, 9514389.972509581595659 ], [ 549225.754766570404172, 9514388.686393115669489 ], [ 549214.818161369184963, 9515283.710485270246863 ], [ 551432.991043573012576, 9515282.367849856615067 ], [ 551400.32906151690986, 9517967.424791371449828 ], [ 552509.431312196305953, 9517966.735560053959489 ], [ 552498.588715406716801, 9518861.748103393241763 ], [ 554716.806980510358699, 9518860.32842930406332 ], [ 554673.673434696160257, 9522440.35119235701859 ], [ 555782.802869263570756, 9522439.625345034524798 ], [ 555772.074171950807795, 9523334.62279056198895 ], [ 559099.486059102229774, 9523332.362450830638409 ], [ 559110.201446022721939, 9522437.360331773757935 ], [ 560219.337841300293803, 9522436.576169872656465 ], [ 560230.068851036718115, 9521541.568542271852493 ], [ 561339.202626165002584, 9521540.768160851672292 ], [ 561360.715908736689016, 9519750.737904321402311 ], [ 559142.468010890763253, 9519752.330573493614793 ], [ 559153.263666882878169, 9518857.31282914429903 ], [ 560262.382233658921905, 9518856.522209271788597 ], [ 560284.024782248772681, 9517066.471705093979836 ], [ 559174.915179818752222, 9517067.265558855608106 ], [ 559207.54295009362977, 9514382.165088929235935 ], [ 556989.356109061976895, 9514383.718036798760295 ], [ 557000.281205974752083, 9513488.679792860522866 ], [ 554782.110309828771278, 9513490.176493460312486 ], [ 554793.064548001275398, 9512595.137334024533629 ], [ 553683.986134657869115, 9512595.864892059937119 ], [ 553694.965010395040736, 9511700.823245383799076 ], [ 552585.892760835122317, 9511701.537383252754807 ], [ 552596.896291026845574, 9510806.493216330185533 ], [ 551487.830180585267954, 9510807.19388035684824 ], [ 551543.172432038001716, 9506331.92027985304594 ], [ 552652.215683313435875, 9506331.212443392723799 ], [ 552674.484250953304581, 9504541.072025557979941 ], [ 549347.38675320125185, 9504543.158787043765187 ], [ 549325.090577363152988, 9506333.290744202211499 ], [ 547107.014695996418595, 9506334.600931148976088 ], [ 547118.161909404210746, 9505439.539649287238717 ], [ 544900.100929718697444, 9505440.792133264243603 ], [ 544911.277514246175997, 9504545.729400664567947 ], [ 543802.253687459393404, 9504546.334244906902313 ], [ 543791.072495626867749, 9505441.395730810239911 ], [ 542682.045387266436592, 9505441.984232185408473 ], [ 542693.231186700984836, 9504546.92396567389369 ], [ 541584.20997839642223, 9504547.4985630530864 ], [ 541595.4205848260317, 9503652.435459434986115 ], [ 539377.391144700697623, 9503653.541588323190808 ], [ 539366.171304845716804, 9504548.602388000115752 ], [ 538257.15377244958654, 9504549.131615735590458 ], [ 538234.765531042474322, 9506339.238920418545604 ], [ 537125.739946946385317, 9506339.750860216096044 ], [ 537103.423426645924337, 9508129.839955465868115 ], [ 535994.389789508888498, 9508130.33471997641027 ], [ 536005.542517563677393, 9507235.293227290734649 ], [ 534896.51455483911559, 9507235.774003863334656 ], [ 534918.889928800752386, 9505445.681056281551719 ], [ 531591.839832100318745, 9505447.038975169882178 ], [ 531603.071724182460457, 9504551.989400802180171 ], [ 530494.06159379647579, 9504552.412768766283989 ], [ 530505.318379559437744, 9503657.360092669725418 ], [ 529396.31379193905741, 9503657.769230665639043 ], [ 529373.811272245249711, 9505447.868777772411704 ], [ 528264.798342976602726, 9505448.261036271229386 ], [ 528276.044068853720091, 9504553.214137114584446 ], [ 526058.029967859853059, 9504553.955015763640404 ], [ 526069.305234032100998, 9503658.905746165663004 ], [ 524960.304004474775866, 9503659.254285361617804 ], [ 524971.60421600623522, 9502764.201775245368481 ], [ 526080.600816303631291, 9502763.852451838552952 ], [ 526091.91671457584016, 9501868.795125452801585 ], [ 524982.924751907470636, 9501869.145233914256096 ], [ 524994.265612081158906, 9500974.084654040634632 ], [ 521667.30806705984287, 9500975.045948509126902 ], [ 521655.953266968019307, 9501870.104334495961666 ], [ 520546.964127779065166, 9501870.393626587465405 ], [ 520535.625038156635128, 9502765.447300726547837 ], [ 521644.618816259200685, 9502765.158684480935335 ], [ 521622.010963377484586, 9504555.255305733531713 ], [ 522731.014648742449936, 9504554.952916529029608 ], [ 522708.497413145727478, 9506345.034882035106421 ], [ 523817.511004581581801, 9506344.718825669959188 ], [ 523806.287495402386412, 9507239.754530657082796 ], [ 522697.269307545677293, 9507240.069860782474279 ], [ 522652.560302051657345, 9510820.169919915497303 ], [ 523761.5967919024406, 9510819.857486395165324 ], [ 523772.738967601733748, 9509924.83771244622767 ], [ 524881.771614297991619, 9509924.509597634896636 ], [ 524859.516713402699679, 9511714.546680657193065 ], [ 523750.474949813913554, 9511714.873295892030001 ], [ 523739.373441432137042, 9512609.885148257017136 ], [ 522630.327850794768892, 9512610.19613846577704 ], [ 522619.242138373898342, 9513505.203320609405637 ], [ 520401.143902676412836, 9513505.779312847182155 ], [ 520335.002710754110012, 9518875.731768054887652 ], [ 519225.927479381556623, 9518875.993676848709583 ] ], [ [ 529131.640601226943545, 9525137.917371779680252 ], [ 529142.435286943917163, 9524242.956192195415497 ], [ 530251.544009731151164, 9524242.567373238503933 ], [ 530240.75375126756262, 9525137.529426423832774 ], [ 529131.640601226943545, 9525137.917371779680252 ] ], [ [ 523728.292266852338798, 9513504.893050814047456 ], [ 523717.231426171143539, 9514399.897010881453753 ], [ 522608.176768218865618, 9514400.206561090424657 ], [ 522619.242138373898342, 9513505.203320609405637 ], [ 523728.292266852338798, 9513504.893050814047456 ] ], [ [ 524716.841612259857357, 9523349.404436741024256 ], [ 524727.694663246744312, 9522454.438760275021195 ], [ 529164.085537916980684, 9522453.022249581292272 ], [ 529153.250265871873125, 9523347.991153905168176 ], [ 524716.841612259857357, 9523349.404436741024256 ] ], [ [ 522509.50385442742845, 9522455.059558171778917 ], [ 522520.386139929527417, 9521560.091463332995772 ], [ 521411.296229544095695, 9521560.380683006718755 ], [ 521422.203321009757929, 9520665.409398091956973 ], [ 520313.118522328382824, 9520665.684672821313143 ], [ 520324.050436710065696, 9519770.710164841264486 ], [ 522542.211740186496172, 9519770.143638927489519 ], [ 522531.288768546713982, 9520665.119492689147592 ], [ 523640.374898532696534, 9520664.814956571906805 ], [ 523629.476732453797013, 9521559.787640245631337 ], [ 524738.568040712038055, 9521559.46921369805932 ], [ 524727.694663246744312, 9522454.438760275021195 ], [ 522509.50385442742845, 9522455.059558171778917 ] ] ], [ [ [ 562248.045295858755708, 9538544.501589976251125 ], [ 562237.703996532247402, 9539439.439729459583759 ], [ 563346.928811477613635, 9539438.643886467441916 ], [ 563377.9999610792147, 9536753.813122915104032 ], [ 562268.788026850088499, 9536754.614008324220777 ], [ 562279.189458321314305, 9535859.664551427587867 ], [ 564497.606627297122031, 9535858.045246161520481 ], [ 564487.213816086878069, 9536752.998095126822591 ], [ 567814.867241993313655, 9536750.46815625205636 ], [ 567835.647009640466422, 9534960.548081338405609 ], [ 566726.435817368677817, 9534961.409121030941606 ], [ 566716.031614905805327, 9535856.369261655956507 ], [ 565606.818126962170936, 9535857.214338876307011 ], [ 565617.226647252915427, 9534962.25596334785223 ], [ 564508.0194656731328, 9534963.088608417659998 ], [ 564518.452331117587164, 9534068.128174528479576 ], [ 566736.860030213138089, 9534066.445182677358389 ], [ 566747.304253340349533, 9533171.477439222857356 ], [ 565638.103743909159675, 9533172.327814105898142 ], [ 565648.572320078499615, 9532277.358025655150414 ], [ 567866.966676154173911, 9532275.639461642131209 ], [ 567887.946462707128376, 9530485.681290939450264 ], [ 564560.384061613469385, 9530488.248330142349005 ], [ 564592.043138881446794, 9527803.298226241022348 ], [ 563482.872759379562922, 9527804.130386624485254 ], [ 563440.683219037484378, 9531384.04932009242475 ], [ 564549.871088878368028, 9531383.22402230091393 ], [ 564528.905223531997763, 9533173.163937125355005 ], [ 563419.70865859137848, 9533173.985808409750462 ], [ 563398.814239011029713, 9534963.907056372612715 ], [ 562289.610933646676131, 9534964.71130733191967 ], [ 562310.514015470864251, 9533174.793428083881736 ], [ 561201.321260553319007, 9533175.586796272546053 ], [ 561190.855362255475484, 9534070.545979415997863 ], [ 560081.660126106231473, 9534071.32346610352397 ], [ 560039.979794110520743, 9537651.115748304873705 ], [ 558930.769117792719044, 9537651.87260764464736 ], [ 558910.040735471295193, 9539441.742896927520633 ], [ 560019.25999215291813, 9539440.989234570413828 ], [ 560008.930182521929964, 9540335.92033975571394 ], [ 561118.155535737401806, 9540335.154241926968098 ], [ 561138.826652779011056, 9538545.285025350749493 ], [ 562248.045295858755708, 9538544.501589976251125 ] ] ], [ [ [ 562227.382741447887383, 9540334.374111197888851 ], [ 561118.155535737401806, 9540335.154241926968098 ], [ 561107.850056192022748, 9541230.083222135901451 ], [ 562217.081530701369047, 9541229.304742552340031 ], [ 562227.382741447887383, 9540334.374111197888851 ] ] ], [ [ [ 559957.582051682984456, 9544810.519780585542321 ], [ 557739.0942406343529, 9544811.994064772501588 ], [ 557708.500783122493885, 9547496.699656756594777 ], [ 556599.246860567829572, 9547497.411342969164252 ], [ 556589.084995141369291, 9548392.304284604266286 ], [ 558807.602995690773241, 9548390.87019682303071 ], [ 558777.263038861332461, 9551075.536256412044168 ], [ 559886.537254320690408, 9551074.803298618644476 ], [ 559876.468245461233892, 9551969.686243075877428 ], [ 560985.748445635545067, 9551968.941194761544466 ], [ 560975.703659630846232, 9552863.822099858894944 ], [ 563194.27796153514646, 9552862.294278943911195 ], [ 563214.370929906610399, 9551072.522194171324372 ], [ 564323.652610297547653, 9551071.734415279701352 ], [ 564333.724973716656677, 9550176.841185074299574 ], [ 563224.447469848091714, 9550177.630661230534315 ], [ 563234.544046834227629, 9549282.735458105802536 ], [ 562125.272645023302175, 9549283.512872228398919 ], [ 562135.393452417454682, 9548388.615663049742579 ], [ 561026.128127875970677, 9548389.380961406975985 ], [ 561036.273182521341369, 9547494.481713043525815 ], [ 559927.013910466455854, 9547495.234841905534267 ], [ 559957.582051682984456, 9544810.519780585542321 ] ], [ [ 561016.00312677025795, 9549284.276526402682066 ], [ 559906.73545843991451, 9549285.026420747861266 ], [ 559916.864653511787765, 9548390.13247262686491 ], [ 561026.128127875970677, 9548389.380961406975985 ], [ 561016.00312677025795, 9549284.276526402682066 ] ] ], [ [ [ 544246.55662090529222, 9560927.113745221868157 ], [ 544266.428013110184111, 9559137.455944215878844 ], [ 542047.85015862993896, 9559138.50304527208209 ], [ 542057.824336932739243, 9558243.671143241226673 ], [ 540948.541445898590609, 9558244.175651334226131 ], [ 540918.667205855948851, 9560928.65718686580658 ], [ 542027.962391674984246, 9560928.156109565868974 ], [ 542018.048803200596012, 9561822.977286480367184 ], [ 543127.349344965885393, 9561822.463975366204977 ], [ 543137.25885214318987, 9560927.641629043966532 ], [ 544246.55662090529222, 9560927.113745221868157 ] ] ] ] } }
]
}
