{
"type": "FeatureCollection",
"name": "urban-2010",
"crs": { "type": "name", "properties": { "name": "urn:ogc:def:crs:EPSG::32733" } },
"features": [
{ "type": "Feature", "properties": { "year": 2010 }, "geometry": { "type": "MultiPolygon", "coordinates": [ [ [ [ 520649.932021588785574, 9493814.728098580613732 ], [ 520696.224812867760193, 9490234.325997961685061 ], [ 518478.370515023707412, 9490234.875632502138615 ], [ 518466.757285738131031, 9491129.981042882427573 ], [ 516248.895726462360471, 9491130.467259297147393 ], [ 516225.711442532658111, 9492920.663362996652722 ], [ 517334.651432611048222, 9492920.42917344532907 ], [ 517311.5581493107602, 9494710.61000682041049 ], [ 519529.458613757975399, 9494710.097659781575203 ], [ 519540.98563423746964, 9493815.00806182436645 ], [ 520649.932021588785574, 9493814.728098580613732 ] ] ], [ [ [ 550445.264161347062327, 9505437.547699652612209 ], [ 550423.017453575856052, 9507227.674372646957636 ], [ 551532.063733197865076, 9507226.983014598488808 ], [ 551554.301254949532449, 9505436.853523060679436 ], [ 550445.264161347062327, 9505437.547699652612209 ] ] ], [ [ [ 551422.083591008675285, 9516177.390768991783261 ], [ 552531.176856750389561, 9516176.698684446513653 ], [ 552498.588715406716801, 9518861.748103393241763 ], [ 554716.806980510358699, 9518860.32842930406332 ], [ 554705.993443177896552, 9519755.339983865618706 ], [ 555815.109515604446642, 9519754.609621977433562 ], [ 555782.802869263570756, 9522439.625345034524798 ], [ 556891.933993606478907, 9522438.884919237345457 ], [ 556881.209733364288695, 9523333.883895302191377 ], [ 559099.486059102229774, 9523332.362450830638409 ], [ 559110.201446022721939, 9522437.360331773757935 ], [ 560219.337841300293803, 9522436.576169872656465 ], [ 560240.819919741712511, 9520646.557011215016246 ], [ 559131.69242201698944, 9520647.344400471076369 ], [ 559142.468010890763253, 9519752.330573493614793 ], [ 558033.346765862777829, 9519753.104916907846928 ], [ 558087.548148104455322, 9515277.984824316576123 ], [ 555869.355768207809888, 9515279.505020255222917 ], [ 555891.194911626749672, 9513489.435568932443857 ], [ 553673.027366991504095, 9513490.902566557750106 ], [ 553683.986134657869115, 9512595.864892059937119 ], [ 552574.909346967469901, 9512596.577571466565132 ], [ 552585.892760835122317, 9511701.537383252754807 ], [ 550367.753005177248269, 9511702.92094162106514 ], [ 550378.765629192464985, 9510807.879611359909177 ], [ 549269.702603262849152, 9510808.550409441813827 ], [ 549291.7973697418347, 9509018.458545576781034 ], [ 550400.851275921217166, 9509017.784990256652236 ], [ 550423.017453575856052, 9507227.674372646957636 ], [ 548204.929440600913949, 9507229.011962408199906 ], [ 548216.051906805951148, 9506333.953372299671173 ], [ 545997.978911355952732, 9506335.233420850709081 ], [ 545986.84726545016747, 9507230.2893843986094 ], [ 544877.808283109567128, 9507230.905532725155354 ], [ 544900.100929718697444, 9505440.792133264243603 ], [ 542682.045387266436592, 9505441.984232185408473 ], [ 542670.879778666072525, 9506337.040476014837623 ], [ 540452.820205451804213, 9506338.169835424050689 ], [ 540475.190028969547711, 9504548.058037132024765 ], [ 538257.15377244958654, 9504549.131615735590458 ], [ 538223.601746855769306, 9507234.286551127210259 ], [ 537114.571570376632735, 9507234.797409737482667 ], [ 537103.423426645924337, 9508129.839955465868115 ], [ 533776.32575100788381, 9508131.279208038002253 ], [ 533787.487648624461144, 9507236.239739529788494 ], [ 534896.51455483911559, 9507235.774003863334656 ], [ 534907.692117086844519, 9506340.729534801095724 ], [ 532689.648514492553659, 9506341.647936537861824 ], [ 532700.855529836495407, 9505446.601430939510465 ], [ 531591.839832100318745, 9505447.038975169882178 ], [ 531603.071724182460457, 9504551.989400802180171 ], [ 529385.052386544994079, 9504552.821014182642102 ], [ 529373.811272245249711, 9505447.868777772411704 ], [ 526046.775017884443514, 9505449.000267960131168 ], [ 526069.305234032100998, 9503658.905746165663004 ], [ 524960.304004474775866, 9503659.254285361617804 ], [ 524982.924751907470636, 9501869.145233914256096 ], [ 523873.933545463136397, 9501869.480138206854463 ], [ 523885.279051954625174, 9500974.420316932722926 ], [ 522776.29321480402723, 9500974.740748405456543 ], [ 522764.943061673082411, 9501869.799838384613395 ], [ 521655.953266968019307, 9501870.104334495961666 ], [ 521633.304715029662475, 9503660.20900578610599 ], [ 523851.303530502715148, 9503659.587674997746944 ], [ 523783.901476815866772, 9509029.813966723158956 ], [ 522674.874121224624105, 9509030.127846878021955 ], [ 522652.560302051657345, 9510820.169919915497303 ], [ 523761.5967919024406, 9510819.857486395165324 ], [ 523772.738967601733748, 9509924.83771244622767 ], [ 524881.771614297991619, 9509924.509597634896636 ], [ 524892.929552513756789, 9509029.4851008746773 ], [ 526001.958381897187792, 9509029.141249282285571 ], [ 525979.671963611617684, 9510819.187826041132212 ], [ 524870.634001228609122, 9510819.53012178838253 ], [ 524859.516713402699679, 9511714.546680657193065 ], [ 523750.474949813913554, 9511714.873295892030001 ], [ 523717.231426171143539, 9514399.897010881453753 ], [ 520390.069472630275413, 9514400.781196063384414 ], [ 520379.015401681885123, 9515295.779146585613489 ], [ 521488.073245686711743, 9515295.499904150143266 ], [ 521477.044047296280041, 9516190.494592629373074 ], [ 520367.981689925538376, 9516190.773171732202172 ], [ 520324.050436710065696, 9519770.710164841264486 ], [ 522542.211740186496172, 9519770.143638927489519 ], [ 522531.288768546713982, 9520665.119492689147592 ], [ 523640.374898532696534, 9520664.814956571906805 ], [ 523629.476732453797013, 9521559.787640245631337 ], [ 524738.568040712038055, 9521559.46921369805932 ], [ 524727.694663246744312, 9522454.438760275021195 ], [ 529164.085537916980684, 9522453.022249581292272 ], [ 529153.250265871873125, 9523347.991153905168176 ], [ 523607.741404638451058, 9523349.72138505987823 ], [ 523618.59890112397261, 9522454.756447302177548 ], [ 521400.409489560755901, 9522455.348092930391431 ], [ 521422.203321009757929, 9520665.409398091956973 ], [ 519204.034338909026701, 9520665.945316921919584 ], [ 519236.90460157050984, 9517981.012017516419291 ], [ 517018.764830222702585, 9517981.49296479858458 ], [ 516996.813014325278345, 9519771.450019324198365 ], [ 514778.657362713711336, 9519771.869966493919492 ], [ 514745.855737427948043, 9522456.773205453529954 ], [ 515854.946716824721079, 9522456.572126515209675 ], [ 515844.058093170577195, 9523351.532657766714692 ], [ 516953.154000499402173, 9523351.317550545558333 ], [ 516942.29020966112148, 9524246.274772265926003 ], [ 518051.391069520032033, 9524246.045690519735217 ], [ 518040.552094538521487, 9525140.999635703861713 ], [ 519149.657931531313807, 9525140.756633194163442 ], [ 519117.276509424787946, 9527825.597234975546598 ], [ 520226.396166328515392, 9527825.341617200523615 ], [ 520204.919180464756209, 9529615.217477085068822 ], [ 523532.308312699256931, 9529614.368223523721099 ], [ 523521.613498316553887, 9530509.302470251917839 ], [ 524630.748968798667192, 9530508.991402583196759 ], [ 524588.190499676857144, 9534088.693349123001099 ], [ 525697.344145936192945, 9534088.370981311425567 ], [ 525655.128215437056497, 9537668.015545446425676 ], [ 526764.299934893264435, 9537667.682083198800683 ], [ 526753.801053979317658, 9538562.584619354456663 ], [ 527862.977886981447227, 9538562.237851990386844 ], [ 527852.503611551364884, 9539457.137454409152269 ], [ 526743.322484481032006, 9539457.483415497466922 ], [ 526712.008645390509628, 9542142.157437002286315 ], [ 531148.789675944950432, 9542140.699394669383764 ], [ 531138.409393788548186, 9543035.586680337786674 ], [ 532247.611187176895328, 9543035.188142543658614 ], [ 532237.255434567341581, 9543930.072633249685168 ], [ 535564.879565654671751, 9543928.796226315200329 ], [ 535554.556809771922417, 9544823.679913265630603 ], [ 536663.771206361474469, 9544823.22762132063508 ], [ 536674.089720624033362, 9543928.342914348468184 ], [ 538892.513399217976257, 9543927.394525520503521 ], [ 538913.194122963002883, 9542137.609746377915144 ], [ 537803.990218194900081, 9542138.093053214251995 ], [ 537793.63548858393915, 9543032.986222598701715 ], [ 534466.017739978269674, 9543034.349220957607031 ], [ 534497.181013513705693, 9540349.667751042172313 ], [ 536715.566144199110568, 9540348.766982154920697 ], [ 536725.985841264948249, 9539453.8636863976717 ], [ 534507.609277658513747, 9539454.766475804150105 ], [ 534518.05779480014462, 9538559.861462393775582 ], [ 532299.693999547860585, 9538560.709932731464505 ], [ 532289.236897467868403, 9539455.613033268600702 ], [ 533398.422581445425749, 9539455.196783496066928 ], [ 533387.990033332258463, 9540350.097089428454638 ], [ 532278.800065099610947, 9540350.512397196143866 ], [ 532268.383502534125, 9541245.408031838014722 ], [ 531159.190236444352195, 9541245.808395134285092 ], [ 531200.995260048075579, 9537666.207111932337284 ], [ 534528.526564846746624, 9537664.952703485265374 ], [ 534570.604172230116092, 9534085.280066361650825 ], [ 535679.766036713961512, 9534084.82970454916358 ], [ 535711.523841593414545, 9531400.032531267032027 ], [ 534602.375028725364245, 9531400.485901813954115 ], [ 534645.019700534758158, 9527820.707057327032089 ], [ 533535.889456456061453, 9527821.150037750601768 ], [ 533546.605655088438652, 9526926.196741783991456 ], [ 531328.356984231155366, 9526927.041343012824655 ], [ 531339.102262483094819, 9526032.08608759008348 ], [ 530229.983777747722343, 9526032.487627420574427 ], [ 530240.75375126756262, 9525137.529426423832774 ], [ 532458.982833257759921, 9525136.71005192771554 ], [ 532448.221696623601019, 9526031.670080425217748 ], [ 534666.463547525578178, 9526030.794663840904832 ], [ 534677.215848461724818, 9525135.832698632031679 ], [ 536895.453065684414469, 9525134.897365996614099 ], [ 536906.216766884084791, 9524239.929497830569744 ], [ 538015.332610075478442, 9524239.439024358987808 ], [ 538026.112112425500527, 9523344.466226292774081 ], [ 539135.224673971184529, 9523343.960137628018856 ], [ 539167.67118815111462, 9520659.015195641666651 ], [ 540276.77158618089743, 9520658.491191947832704 ], [ 540298.494742596289143, 9518868.506185241043568 ], [ 541407.587420046213083, 9518867.965247610583901 ], [ 541418.474829044309445, 9517972.965729350224137 ], [ 542527.564278119360097, 9517972.408925665542483 ], [ 542538.467396821710281, 9517077.404307955875993 ], [ 544756.641211770591326, 9517076.244116244837642 ], [ 544767.555525006726384, 9516181.233126914128661 ], [ 545876.639950578217395, 9516180.629655973985791 ], [ 545887.569932409212925, 9515285.61346648260951 ], [ 546996.65124093729537, 9515284.993935534730554 ], [ 547007.596874840208329, 9514389.972509581595659 ], [ 548116.675092135672458, 9514389.336863094940782 ], [ 548127.636361587559804, 9513494.310164369642735 ], [ 549236.711513460148126, 9513493.658346813172102 ], [ 549214.818161369184963, 9515283.710485270246863 ], [ 551432.991043573012576, 9515282.367849856615067 ], [ 551422.083591008675285, 9516177.390768991783261 ] ], [ [ 529131.640601226943545, 9525137.917371779680252 ], [ 529142.435286943917163, 9524242.956192195415497 ], [ 530251.544009731151164, 9524242.567373238503933 ], [ 530240.75375126756262, 9525137.529426423832774 ], [ 529131.640601226943545, 9525137.917371779680252 ] ], [ [ 549247.688401938881725, 9512598.626339003443718 ], [ 550356.760514195775613, 9512597.95829483307898 ], [ 550345.788156347931363, 9513492.991678355261683 ], [ 549236.711513460148126, 9513493.658346813172102 ], [ 549247.688401938881725, 9512598.626339003443718 ] ] ], [ [ [ 564518.452331117587164, 9534068.128174528479576 ], [ 565627.655186267802492, 9534067.293790880590677 ], [ 565638.103743909159675, 9533172.327814105898142 ], [ 563419.70865859137848, 9533173.985808409750462 ], [ 563388.3970822901465, 9535858.861983638256788 ], [ 565606.818126962170936, 9535857.214338876307011 ], [ 565617.226647252915427, 9534962.25596334785223 ], [ 564508.0194656731328, 9534963.088608417659998 ], [ 564518.452331117587164, 9534068.128174528479576 ] ] ], [ [ [ 562279.189458321314305, 9535859.664551427587867 ], [ 561169.983721770928241, 9535860.452949658036232 ], [ 561180.409515962353908, 9534965.501361424103379 ], [ 562289.610933646676131, 9534964.71130733191967 ], [ 562310.514015470864251, 9533174.793428083881736 ], [ 561201.321260553319007, 9533175.586796272546053 ], [ 561190.855362255475484, 9534070.545979415997863 ], [ 560081.660126106231473, 9534071.32346610352397 ], [ 560039.979794110520743, 9537651.115748304873705 ], [ 558930.769117792719044, 9537651.87260764464736 ], [ 558910.040735471295193, 9539441.742896927520633 ], [ 561128.481067965272814, 9539440.221512120217085 ], [ 561138.826652779011056, 9538545.285025350749493 ], [ 562248.045295858755708, 9538544.501589976251125 ], [ 562279.189458321314305, 9535859.664551427587867 ] ] ], [ [ [ 565606.818126962170936, 9535857.214338876307011 ], [ 565596.429625494172797, 9536752.168924840167165 ], [ 567814.867241993313655, 9536750.46815625205636 ], [ 567825.247124748537317, 9535855.510014368221164 ], [ 565606.818126962170936, 9535857.214338876307011 ] ] ], [ [ [ 537824.760361943161115, 9540348.295551517978311 ], [ 537814.365176012157463, 9541243.196165297180414 ], [ 538923.564814658951946, 9541242.711781503632665 ], [ 538933.955726114334539, 9540347.810089986771345 ], [ 537824.760361943161115, 9540348.295551517978311 ] ] ], [ [ [ 538923.564814658951946, 9541242.711781503632665 ], [ 538913.194122963002883, 9542137.609746377915144 ], [ 540022.3992072166875, 9542137.112463183701038 ], [ 540032.765633072354831, 9541242.213394047692418 ], [ 538923.564814658951946, 9541242.711781503632665 ] ] ], [ [ [ 558848.337254187557846, 9544811.263870747759938 ], [ 557739.0942406343529, 9544811.994064772501588 ], [ 557708.500783122493885, 9547496.699656756594777 ], [ 556599.246860567829572, 9547497.411342969164252 ], [ 556589.084995141369291, 9548392.304284604266286 ], [ 559916.864653511787765, 9548390.13247262686491 ], [ 559947.37260964687448, 9545705.42850324138999 ], [ 558838.123584554181434, 9545706.171000754460692 ], [ 558848.337254187557846, 9544811.263870747759938 ] ] ], [ [ [ 562125.272645023302175, 9549283.512872228398919 ], [ 558797.469606396160088, 9549285.762555379420519 ], [ 558777.263038861332461, 9551075.536256412044168 ], [ 559886.537254320690408, 9551074.803298618644476 ], [ 559876.468245461233892, 9551969.686243075877428 ], [ 560985.748445635545067, 9551968.941194761544466 ], [ 560975.703659630846232, 9552863.822099858894944 ], [ 563194.27796153514646, 9552862.294278943911195 ], [ 563224.447469848091714, 9550177.630661230534315 ], [ 562115.171882921247743, 9550178.406404629349709 ], [ 562125.272645023302175, 9549283.512872228398919 ] ] ] ] } }
]
}
