{
"type": "FeatureCollection",
"name": "urban-2035",
"crs": { "type": "name", "properties": { "name": "urn:ogc:def:crs:EPSG::32733" } },
"features": [
{ "type": "Feature", "properties": { "year": 2035 }, "geometry": { "type": "MultiPolygon", "coordinates": [ [ [ [ 521770.416973952378612, 9492919.337646024301648 ], [ 520661.474684348679148, 9492919.633743343874812 ], [ 520673.037703881389461, 9492024.535279711708426 ], [ 521781.97526247688802, 9492024.238497156649828 ], [ 521793.553899300924968, 9491129.135231705382466 ], [ 520684.621080087381415, 9491129.432700360193849 ], [ 520696.224812867760193, 9490234.325997961685061 ], [ 517369.444221531681251, 9490235.127111507579684 ], [ 517357.826243493240327, 9491130.231916833668947 ], [ 516248.895726462360471, 9491130.467259297147393 ], [ 516237.293389411061071, 9492025.567367281764746 ], [ 515128.358622992876917, 9492025.786628706380725 ], [ 515116.771943443454802, 9492920.882075700908899 ], [ 516225.711442532658111, 9492920.663362996652722 ], [ 516202.608719687210396, 9494710.843046903610229 ], [ 518420.508102814608719, 9494710.361544458195567 ], [ 518408.996741131588351, 9495605.446421481668949 ], [ 519517.951958621968515, 9495605.183164855465293 ], [ 519529.458613757975399, 9494710.097659781575203 ], [ 521747.361442200373858, 9494709.523623319342732 ], [ 521770.416973952378612, 9492919.337646024301648 ] ] ], [ [ [ 523908.031062471156474, 9499184.288531994447112 ], [ 525017.008304851478897, 9499183.951349360868335 ], [ 525039.83229352987837, 9497393.801802573725581 ], [ 523930.864402376639191, 9497394.140508351847529 ], [ 523908.031062471156474, 9499184.288531994447112 ] ] ], [ [ [ 527200.909467036603019, 9501868.429812770336866 ], [ 527178.307252747588791, 9503658.542057355865836 ], [ 529396.31379193905741, 9503657.769230665639043 ], [ 529407.595488329418004, 9502762.713419890031219 ], [ 528298.596418894245289, 9502763.108274217694998 ], [ 528309.903042860445566, 9501868.04929581284523 ], [ 527200.909467036603019, 9501868.429812770336866 ] ] ], [ [ [ 515920.706717254710384, 9517086.727547200396657 ], [ 514811.642601580068003, 9517086.931764986366034 ], [ 514778.657362713711336, 9519771.869966493919492 ], [ 513669.580225126177538, 9519772.057953432202339 ], [ 513647.683134803199209, 9521561.996328577399254 ], [ 514756.769210860016756, 9521561.809331685304642 ], [ 514724.089996015594807, 9524246.689371861517429 ], [ 516942.29020966112148, 9524246.274772265926003 ], [ 516920.623783773451578, 9526036.177673559635878 ], [ 518029.733496513392311, 9526035.949737567454576 ], [ 518008.157431698986329, 9527825.838440572842956 ], [ 519117.276509424787946, 9527825.597234975546598 ], [ 519095.79073885793332, 9529615.471846325322986 ], [ 517986.662875812500715, 9529615.711857993155718 ], [ 517975.946163945889566, 9530510.642852874472737 ], [ 522412.478740511694923, 9530509.599207481369376 ], [ 522401.799891286878847, 9531404.528946571052074 ], [ 523510.939019613317214, 9531404.232913516461849 ], [ 523468.444463430263568, 9534983.916798189282417 ], [ 522359.2879366556881, 9534984.210022486746311 ], [ 522348.710809021955356, 9535879.120857909321785 ], [ 523457.871664499980398, 9535878.828333823010325 ], [ 523447.319201797945425, 9536773.736109865829349 ], [ 524556.485088186920621, 9536773.430145874619484 ], [ 524535.44978682603687, 9538563.235899519175291 ], [ 525644.625031799427234, 9538562.917301846668124 ], [ 525613.23739991185721, 9541247.60016492754221 ], [ 524504.049296049401164, 9541247.916509931907058 ], [ 524493.623122489079833, 9542142.802603967487812 ], [ 530039.593086160137318, 9542141.084868937730789 ], [ 530029.208544245455414, 9543035.971269546076655 ], [ 531138.409393788548186, 9543035.586680337786674 ], [ 531107.390218284795992, 9545720.226327320560813 ], [ 529998.176639613113366, 9545720.608265997841954 ], [ 529987.873245407594368, 9546615.47988741286099 ], [ 532206.309798106085509, 9546614.703934611752629 ], [ 532216.60473994165659, 9545719.830521963536739 ], [ 533325.820238208747469, 9545719.420849869027734 ], [ 533336.13121627853252, 9544824.542814513668418 ], [ 534445.343490952509455, 9544824.118310974910855 ], [ 534435.036746712750755, 9545718.997310973703861 ], [ 537762.692669904557988, 9545717.643492817878723 ], [ 537752.41885403485503, 9546612.521861337125301 ], [ 538861.643964097835124, 9546612.04392764903605 ], [ 538851.394592890050262, 9547506.919686581939459 ], [ 539960.625096764182672, 9547506.429012665525079 ], [ 539950.400153325870633, 9548401.30219510383904 ], [ 541059.636075733462349, 9548400.798834722489119 ], [ 541152.350028219865635, 9540346.797073950991035 ], [ 538933.955726114334539, 9540347.810089986771345 ], [ 538944.366857236949727, 9539452.904664497822523 ], [ 535616.79701972566545, 9539454.322110127657652 ], [ 535627.241244828910567, 9538559.416099326685071 ], [ 534518.05779480014462, 9538559.861462393775582 ], [ 534539.015587705536745, 9536770.040191754698753 ], [ 535648.190428587258793, 9536769.592831552028656 ], [ 535658.69538705679588, 9535874.675559923052788 ], [ 536767.866991447634064, 9535874.213032707571983 ], [ 536757.366349799442105, 9536769.131331386044621 ], [ 537866.543384958058596, 9536768.655691187828779 ], [ 537887.556262740399688, 9534978.813215283676982 ], [ 536778.38786900928244, 9534979.290964977815747 ], [ 536799.490331499837339, 9533189.435493040829897 ], [ 535690.331727714394219, 9533189.901106147095561 ], [ 535700.917662705760449, 9532294.968717494979501 ], [ 536810.071916242013685, 9532294.502074176445603 ], [ 536852.600609664339572, 9528714.730341680347919 ], [ 535743.463840699871071, 9528715.201113818213344 ], [ 535754.150994235416874, 9527820.249663980677724 ], [ 534645.019700534758158, 9527820.707057327032089 ], [ 534655.731498184963129, 9526925.752780962735415 ], [ 531328.356984231155366, 9526927.041343012824655 ], [ 531339.102262483094819, 9526032.08608759008348 ], [ 530229.983777747722343, 9526032.487627420574427 ], [ 530240.75375126756262, 9525137.529426423832774 ], [ 532458.982833257759921, 9525136.71005192771554 ], [ 532448.221696623601019, 9526031.670080425217748 ], [ 536884.709599267691374, 9526029.861377131193876 ], [ 536906.216766884084791, 9524239.929497830569744 ], [ 538015.332610075478442, 9524239.439024358987808 ], [ 538026.112112425500527, 9523344.466226292774081 ], [ 540244.338421007967554, 9523343.439499225467443 ], [ 540298.494742596289143, 9518868.506185241043568 ], [ 541407.587420046213083, 9518867.965247610583901 ], [ 541418.474829044309445, 9517972.965729350224137 ], [ 542527.564278119360097, 9517972.408925665542483 ], [ 542538.467396821710281, 9517077.404307955875993 ], [ 544756.641211770591326, 9517076.244116244837642 ], [ 544767.555525006726384, 9516181.233126914128661 ], [ 545876.639950578217395, 9516180.629655973985791 ], [ 545887.569932409212925, 9515285.61346648260951 ], [ 550323.903840454528108, 9515283.046565758064389 ], [ 550312.991882607922889, 9516178.068084353581071 ], [ 551422.083591008675285, 9516177.390768991783261 ], [ 551400.32906151690986, 9517967.424791371449828 ], [ 552509.431312196305953, 9517966.735560053959489 ], [ 552498.588715406716801, 9518861.748103393241763 ], [ 553607.697036115569063, 9518861.045610088855028 ], [ 553575.303337751189247, 9521546.064103726297617 ], [ 554684.42667017201893, 9521545.351358031854033 ], [ 554662.940300037735142, 9523335.347134657204151 ], [ 556881.209733364288695, 9523333.883895302191377 ], [ 556870.505557337659411, 9524228.878985080868006 ], [ 559088.79073969880119, 9524227.360681980848312 ], [ 559099.486059102229774, 9523332.362450830638409 ], [ 560208.626890632789582, 9523331.579901387915015 ], [ 560219.337841300293803, 9522436.576169872656465 ], [ 561328.476060759625398, 9522435.777429031208158 ], [ 561339.202626165002584, 9521540.768160851672292 ], [ 562448.338259347481653, 9521539.953173063695431 ], [ 562437.616138003650121, 9522434.964109130203724 ], [ 563546.758106635417789, 9522434.136210044845939 ], [ 563568.213495661504567, 9520644.10704162530601 ], [ 562459.080422963597812, 9520644.938331916928291 ], [ 562491.427166444365866, 9517959.870304271578789 ], [ 561382.309392988216132, 9517960.691971760243177 ], [ 561403.983078113291413, 9516170.630304208025336 ], [ 560294.876144294044934, 9516171.440546242520213 ], [ 560284.024782248772681, 9517066.471705093979836 ], [ 559174.915179818752222, 9517067.265558855608106 ], [ 559218.459006680175662, 9513487.123685613274574 ], [ 557000.281205974752083, 9513488.679792860522866 ], [ 557011.226386001799256, 9512593.637581624090672 ], [ 554793.064548001275398, 9512595.137334024533629 ], [ 554804.038885891321115, 9511700.094201581552625 ], [ 553694.965010395040736, 9511700.823245383799076 ], [ 553728.022285025450401, 9509015.674398666247725 ], [ 552618.963699980056845, 9509016.392916906625032 ], [ 552630.027578538632952, 9508121.336769681423903 ], [ 551520.975158531218767, 9508122.041734661906958 ], [ 551543.172432038001716, 9506331.92027985304594 ], [ 552652.215683313435875, 9506331.212443392723799 ], [ 552674.484250953304581, 9504541.072025557979941 ], [ 548238.357286539277993, 9504543.824126141145825 ], [ 548216.051906805951148, 9506333.953372299671173 ], [ 547107.014695996418595, 9506334.600931148976088 ], [ 547118.161909404210746, 9505439.539649287238717 ], [ 544900.100929718697444, 9505440.792133264243603 ], [ 544911.277514246175997, 9504545.729400664567947 ], [ 543802.253687459393404, 9504546.334244906902313 ], [ 543791.072495626867749, 9505441.395730810239911 ], [ 542682.045387266436592, 9505441.984232185408473 ], [ 542693.231186700984836, 9504546.92396567389369 ], [ 541584.20997839642223, 9504547.4985630530864 ], [ 541629.173597674118355, 9500967.221899947151542 ], [ 540520.172164663090371, 9500967.786041585728526 ], [ 540508.896319908322766, 9501862.860108714550734 ], [ 539399.891471460578032, 9501863.407877067103982 ], [ 539366.171304845716804, 9504548.602388000115752 ], [ 538257.15377244958654, 9504549.131615735590458 ], [ 538245.9495396069251, 9505444.187277738004923 ], [ 537136.928556255879812, 9505444.700299559161067 ], [ 537125.739946946385317, 9506339.750860216096044 ], [ 536016.715486819972284, 9506340.247731652110815 ], [ 536027.908697179402225, 9505445.198225716128945 ], [ 534918.889928800752386, 9505445.681056281551719 ], [ 534930.107989881769754, 9504550.628560965880752 ], [ 532712.082811275846325, 9504551.550910225138068 ], [ 532700.855529836495407, 9505446.601430939510465 ], [ 531591.839832100318745, 9505447.038975169882178 ], [ 531625.596331334440038, 9502761.878179894760251 ], [ 530516.595447952277027, 9502762.303388468921185 ], [ 530505.318379559437744, 9503657.360092669725418 ], [ 529396.31379193905741, 9503657.769230665639043 ], [ 529385.052386544994079, 9504552.821014182642102 ], [ 527167.036607150104828, 9504553.59213762357831 ], [ 527178.307252747588791, 9503658.542057355865836 ], [ 526069.305234032100998, 9503658.905746165663004 ], [ 526125.986304416437633, 9499183.598880650475621 ], [ 525017.008304851478897, 9499183.951349360868335 ], [ 525005.626796428347006, 9500079.020028300583363 ], [ 523896.644890989991836, 9500079.356450637802482 ], [ 523885.279051954625174, 9500974.420316932722926 ], [ 521667.30806705984287, 9500975.045948509126902 ], [ 521690.078715000941884, 9499184.917039236053824 ], [ 520581.103542780037969, 9499185.208363940939307 ], [ 520603.964940249861684, 9497395.064582098275423 ], [ 519494.999744774599094, 9497395.341925639659166 ], [ 519449.339705521648284, 9500975.610654789954424 ], [ 520558.32357515511103, 9500975.335917290300131 ], [ 520501.729916783748195, 9505450.584185425192118 ], [ 521610.737561399640981, 9505450.297591647133231 ], [ 521622.010963377484586, 9504555.255305733531713 ], [ 522731.014648742449936, 9504554.952916529029608 ], [ 522641.433905385725666, 9511715.185007341206074 ], [ 523750.474949813913554, 9511714.873295892030001 ], [ 523739.373441432137042, 9512609.885148257017136 ], [ 521521.282945420069154, 9512610.492252239957452 ], [ 521510.192694843106437, 9513505.498741272836924 ], [ 520401.143902676412836, 9513505.779312847182155 ], [ 520412.238691725768149, 9512610.773489622399211 ], [ 519303.195056127442513, 9512611.0398506578058 ], [ 519281.016767822729889, 9514401.046280913054943 ], [ 517062.913076255063061, 9514401.53198554366827 ], [ 517051.845438201504294, 9515296.528107408434153 ], [ 515942.789861264580395, 9515296.74817231297493 ], [ 515920.706717254710384, 9517086.727547200396657 ] ], [ [ 561360.715908736689016, 9519750.737904321402311 ], [ 560251.59104731620755, 9519751.541569339111447 ], [ 560273.193478670320474, 9517961.49892364628613 ], [ 561382.309392988216132, 9517960.691971760243177 ], [ 561360.715908736689016, 9519750.737904321402311 ] ], [ [ 520390.069472630275413, 9514400.781196063384414 ], [ 520367.981689925538376, 9516190.773171732202172 ], [ 519258.919949385279324, 9516191.036983694881201 ], [ 519281.016767822729889, 9514401.046280913054943 ], [ 520390.069472630275413, 9514400.781196063384414 ] ], [ [ 533450.889240475138649, 9534980.639046505093575 ], [ 533482.612367338733748, 9532295.859174769371748 ], [ 534591.764490941306576, 9532295.421084336936474 ], [ 534560.054391489829868, 9534980.20388051867485 ], [ 533450.889240475138649, 9534980.639046505093575 ] ], [ [ 525825.94256859656889, 9523349.072939516976476 ], [ 525836.791174390935339, 9522454.106497041881084 ], [ 529164.085537916980684, 9522453.022249581292272 ], [ 529153.250265871873125, 9523347.991153905168176 ], [ 525825.94256859656889, 9523349.072939516976476 ] ], [ [ 523640.374898532696534, 9520664.814956571906805 ], [ 523629.476732453797013, 9521559.787640245631337 ], [ 524738.568040712038055, 9521559.46921369805932 ], [ 524727.694663246744312, 9522454.438760275021195 ], [ 522509.50385442742845, 9522455.059558171778917 ], [ 522520.386139929527417, 9521560.091463332995772 ], [ 521411.296229544095695, 9521560.380683006718755 ], [ 521422.203321009757929, 9520665.409398091956973 ], [ 523640.374898532696534, 9520664.814956571906805 ] ], [ [ 519225.927479381556623, 9518875.993676848709583 ], [ 519247.902091603260487, 9517086.026455570012331 ], [ 520356.968337456171867, 9517085.763278815895319 ], [ 520335.002710754110012, 9518875.731768054887652 ], [ 519225.927479381556623, 9518875.993676848709583 ] ], [ [ 517029.771315091347788, 9517086.508589724078774 ], [ 517040.798184448911343, 9516191.52030636370182 ], [ 518149.858792088925838, 9516191.286028560250998 ], [ 518138.836428677721415, 9517086.274892525747418 ], [ 517029.771315091347788, 9517086.508589724078774 ] ] ], [ [ [ 535637.705714480369352, 9537664.506342243403196 ], [ 536746.885944157722406, 9537664.045868340879679 ], [ 536757.366349799442105, 9536769.131331386044621 ], [ 535648.190428587258793, 9536769.592831552028656 ], [ 535637.705714480369352, 9537664.506342243403196 ] ] ], [ [ [ 537856.067287496174686, 9537663.571281710639596 ], [ 538965.249778111930937, 9537663.082582278177142 ], [ 538975.721567678498104, 9536768.165910884737968 ], [ 537866.543384958058596, 9536768.655691187828779 ], [ 537856.067287496174686, 9537663.571281710639596 ] ] ], [ [ [ 541988.429218854871579, 9564507.419484216719866 ], [ 542008.155411513522267, 9562717.794903010129929 ], [ 540898.852070916676894, 9562718.293696848675609 ], [ 540879.117756875115447, 9564507.915997562929988 ], [ 541988.429218854871579, 9564507.419484216719866 ] ] ], [ [ [ 541988.429218854871579, 9564507.419484216719866 ], [ 541978.596418059780262, 9565402.226463543251157 ], [ 543087.913201533607207, 9565401.717822624370456 ], [ 543097.741954423487186, 9564506.909676861017942 ], [ 541988.429218854871579, 9564507.419484216719866 ] ] ], [ [ [ 560187.265166904078797, 9525121.575705628842115 ], [ 561296.416669268393889, 9525120.781881656497717 ], [ 561317.769546075374819, 9523330.782800313085318 ], [ 560208.626890632789582, 9523331.579901387915015 ], [ 560187.265166904078797, 9525121.575705628842115 ] ] ], [ [ [ 563377.9999610792147, 9536753.813122915104032 ], [ 567814.867241993313655, 9536750.46815625205636 ], [ 567835.647009640466422, 9534960.548081338405609 ], [ 566726.435817368677817, 9534961.409121030941606 ], [ 566716.031614905805327, 9535856.369261655956507 ], [ 565606.818126962170936, 9535857.214338876307011 ], [ 565627.655186267802492, 9534067.293790880590677 ], [ 566736.860030213138089, 9534066.445182677358389 ], [ 566747.304253340349533, 9533171.477439222857356 ], [ 565638.103743909159675, 9533172.327814105898142 ], [ 565648.572320078499615, 9532277.358025655150414 ], [ 567866.966676154173911, 9532275.639461642131209 ], [ 567887.946462707128376, 9530485.681290939450264 ], [ 565669.569527606945485, 9530487.406984241679311 ], [ 565680.098158768378198, 9529592.42571653611958 ], [ 564570.917060924926773, 9529593.268804991617799 ], [ 564592.043138881446794, 9527803.298226241022348 ], [ 562373.704303273931146, 9527804.948131546378136 ], [ 562363.122480637510307, 9528699.931938398629427 ], [ 563472.295322109479457, 9528699.115883016958833 ], [ 563440.683219037484378, 9531384.04932009242475 ], [ 564549.871088878368028, 9531383.22402230091393 ], [ 564539.378142818226479, 9532278.19588883779943 ], [ 563430.185921255149879, 9532279.019472979009151 ], [ 563419.70865859137848, 9533173.985808409750462 ], [ 560092.130360223469324, 9533176.365913096815348 ], [ 560050.369786244467832, 9536756.173352506011724 ], [ 558941.163412626832724, 9536756.931811513379216 ], [ 558899.706648176070303, 9540336.672404797747731 ], [ 561118.155535737401806, 9540335.154241926968098 ], [ 561128.481067965272814, 9539440.221512120217085 ], [ 563346.928811477613635, 9539438.643886467441916 ], [ 563377.9999610792147, 9536753.813122915104032 ] ] ], [ [ [ 561107.850056192022748, 9541230.083222135901451 ], [ 562217.081530701369047, 9541229.304742552340031 ], [ 562227.382741447887383, 9540334.374111197888851 ], [ 561118.155535737401806, 9540335.154241926968098 ], [ 561107.850056192022748, 9541230.083222135901451 ] ] ], [ [ [ 557739.0942406343529, 9544811.994064772501588 ], [ 557718.678523942944594, 9546601.801490982994437 ], [ 556609.428812815109268, 9546602.514713687822223 ], [ 556599.246860567829572, 9547497.411342969164252 ], [ 557708.500783122493885, 9547496.699656756594777 ], [ 557698.34312077856157, 9548391.594134112820029 ], [ 558807.602995690773241, 9548390.87019682303071 ], [ 558777.263038861332461, 9551075.536256412044168 ], [ 559886.537254320690408, 9551074.803298618644476 ], [ 559876.468245461233892, 9551969.686243075877428 ], [ 560985.748445635545067, 9551968.941194761544466 ], [ 560975.703659630846232, 9552863.822099858894944 ], [ 563194.27796153514646, 9552862.294278943911195 ], [ 563204.314427104545757, 9551967.410064289346337 ], [ 564313.600275676813908, 9551966.623981900513172 ], [ 564333.724973716656677, 9550176.841185074299574 ], [ 563224.447469848091714, 9550177.630661230534315 ], [ 563234.544046834227629, 9549282.735458105802536 ], [ 562125.272645023302175, 9549283.512872228398919 ], [ 562135.393452417454682, 9548388.615663049742579 ], [ 561026.128127875970677, 9548389.380961406975985 ], [ 561046.438290612190031, 9546599.578773956745863 ], [ 559937.183229209738784, 9546600.333521230146289 ], [ 559957.582051682984456, 9544810.519780585542321 ], [ 557739.0942406343529, 9544811.994064772501588 ] ], [ [ 561016.00312677025795, 9549284.276526402682066 ], [ 559906.73545843991451, 9549285.026420747861266 ], [ 559916.864653511787765, 9548390.13247262686491 ], [ 561026.128127875970677, 9548389.380961406975985 ], [ 561016.00312677025795, 9549284.276526402682066 ] ] ], [ [ [ 564293.555693206493743, 9553756.392153823748231 ], [ 564303.567969948402606, 9552861.509892294183373 ], [ 563194.27796153514646, 9552862.294278943911195 ], [ 563184.261533293290995, 9553757.174845494329929 ], [ 564293.555693206493743, 9553756.392153823748231 ] ] ], [ [ [ 564293.555693206493743, 9553756.392153823748231 ], [ 564283.563445545150898, 9554651.270773848518729 ], [ 565392.863697948050685, 9554650.47618005797267 ], [ 565402.851802698452957, 9553755.595838505774736 ], [ 564293.555693206493743, 9553756.392153823748231 ] ] ], [ [ [ 540948.541445898590609, 9558244.175651334226131 ], [ 540918.667205855948851, 9560928.65718686580658 ], [ 542027.962391674984246, 9560928.156109565868974 ], [ 542008.155411513522267, 9562717.794903010129929 ], [ 543117.460026228218339, 9562717.282760558649898 ], [ 543127.349344965885393, 9561822.463975366204977 ], [ 544236.651194761041552, 9561821.937288254499435 ], [ 544256.482227051164955, 9560032.286632984876633 ], [ 545365.777248636935838, 9560031.744121022522449 ], [ 545375.718937231809832, 9559136.912206746637821 ], [ 544266.428013110184111, 9559137.455944215878844 ], [ 544276.393978992011398, 9558242.621671583503485 ], [ 540948.541445898590609, 9558244.175651334226131 ] ] ], [ [ [ 545365.777248636935838, 9560031.744121022522449 ], [ 545355.855731607414782, 9560926.572458017617464 ], [ 546465.156217895215377, 9560926.01776735112071 ], [ 546475.073646072065458, 9560031.188178293406963 ], [ 545365.777248636935838, 9560031.744121022522449 ] ] ] ] } }
]
}
