{
"type": "FeatureCollection",
"name": "urban-2065",
"crs": { "type": "name", "properties": { "name": "urn:ogc:def:crs:EPSG::32733" } },
"features": [
{ "type": "Feature", "properties": { "year": 2065 }, "geometry": { "type": "MultiPolygon", "coordinates": [ [ [ [ 520638.409715700196102, 9494709.818352749571204 ], [ 521747.361442200373858, 9494709.523623319342732 ], [ 521758.879033827339299, 9493814.432685635983944 ], [ 522867.826704511535354, 9493814.121822943910956 ], [ 522914.081615546368994, 9490233.714127765968442 ], [ 521805.152884325769264, 9490234.027842342853546 ], [ 521816.772217451303732, 9489338.91632174141705 ], [ 518490.004117533448152, 9489339.766093481332064 ], [ 518501.658093167876359, 9488444.652418492361903 ], [ 517392.74132230784744, 9488444.905110208317637 ], [ 517381.082581169554032, 9489340.018178407102823 ], [ 516272.161570689408109, 9489340.254677241668105 ], [ 516260.518453587952536, 9490235.363031724467874 ], [ 515151.593177639879286, 9490235.58339318446815 ], [ 515139.965701090928633, 9491130.687070308253169 ], [ 514031.036133824789431, 9491130.891349900513887 ], [ 514007.832901787071023, 9492921.085311591625214 ], [ 515116.771943443454802, 9492920.882075700908899 ], [ 515093.659780384681653, 9494711.060664746910334 ], [ 516202.608719687210396, 9494710.843046903610229 ], [ 516191.087943916558288, 9495605.926749734207988 ], [ 517300.042080749990419, 9495605.694283094257116 ], [ 517288.546394379402045, 9496500.774475520476699 ], [ 519506.46566892816918, 9496500.264584366232157 ], [ 519517.951958621968515, 9495605.183164855465293 ], [ 520626.907766781921964, 9495604.9045131765306 ], [ 520638.409715700196102, 9494709.818352749571204 ] ] ], [ [ [ 545001.416446464369074, 9497385.081780241802335 ], [ 545012.774593466427177, 9496489.982497397810221 ], [ 543903.792608621763065, 9496490.598599998280406 ], [ 543892.42977907252498, 9497385.696628509089351 ], [ 545001.416446464369074, 9497385.081780241802335 ] ] ], [ [ [ 496218.379726825747639, 9496502.552619591355324 ], [ 496195.27130688901525, 9498292.6884098444134 ], [ 498413.200308501604013, 9498292.762857062742114 ], [ 498424.734871550870594, 9497397.69680224172771 ], [ 497315.775099422316998, 9497397.667341774329543 ], [ 497327.334883571078535, 9496502.597339853644371 ], [ 496218.379726825747639, 9496502.552619591355324 ] ] ], [ [ [ 500619.624437838967424, 9499187.838354248553514 ], [ 500631.129118012846448, 9498292.776053136214614 ], [ 498413.200308501604013, 9498292.762857062742114 ], [ 498401.686270378355402, 9499187.824864478781819 ], [ 500619.624437838967424, 9499187.838354248553514 ] ] ], [ [ [ 541674.460396006819792, 9497386.880299367010593 ], [ 541640.464999473653734, 9500072.142606068402529 ], [ 542749.463042861549184, 9500071.562035597860813 ], [ 542760.769985184306279, 9499176.477478614076972 ], [ 543869.764664762071334, 9499175.880423760041595 ], [ 543892.42977907252498, 9497385.696628509089351 ], [ 541674.460396006819792, 9497386.880299367010593 ] ] ], [ [ [ 500619.624437838967424, 9499187.838354248553514 ], [ 500585.233447213133331, 9501873.001035874709487 ], [ 503912.182875062397216, 9501872.908550029620528 ], [ 503923.612071307376027, 9500977.857714809477329 ], [ 501705.655029182787985, 9500977.935028033331037 ], [ 501728.593532917904668, 9499187.822170909494162 ], [ 500619.624437838967424, 9499187.838354248553514 ] ] ], [ [ [ 511562.227586916764267, 9510822.473054632544518 ], [ 511528.772984339506365, 9513507.489322941750288 ], [ 512637.817774623690639, 9513507.327542718499899 ], [ 512648.944341924565379, 9512612.325615694746375 ], [ 513757.984974183782469, 9512612.148511968553066 ], [ 513780.290254659368657, 9510822.131874144077301 ], [ 511562.227586916764267, 9510822.473054632544518 ] ] ], [ [ [ 513724.680122209130786, 9515297.14391927793622 ], [ 513746.862947599671315, 9513507.150913687422872 ], [ 512637.817774623690639, 9513507.327542718499899 ], [ 512615.625892917625606, 9515297.319601396098733 ], [ 513724.680122209130786, 9515297.14391927793622 ] ] ], [ [ [ 544702.372278681723401, 9521551.240277851000428 ], [ 544713.185713893733919, 9520656.248859044164419 ], [ 543604.080234433873557, 9520656.831390157341957 ], [ 543593.262342354981229, 9521551.821577170863748 ], [ 544702.372278681723401, 9521551.240277851000428 ] ] ], [ [ [ 537972.416864920058288, 9527819.291638232767582 ], [ 539081.551509112585336, 9527818.791005685925484 ], [ 539070.877530818339437, 9528713.74564004316926 ], [ 540180.017750219558366, 9528713.231710392981768 ], [ 540201.37713446712587, 9526923.316372010856867 ], [ 536873.986367728328332, 9526924.82153856754303 ], [ 536863.283371162251569, 9527819.777857640758157 ], [ 534645.019700534758158, 9527820.707057327032089 ], [ 534655.731498184963129, 9526925.752780962735415 ], [ 531328.356984231155366, 9526927.041343012824655 ], [ 531339.102262483094819, 9526032.08608759008348 ], [ 530229.983777747722343, 9526032.487627420574427 ], [ 530240.75375126756262, 9525137.529426423832774 ], [ 532458.982833257759921, 9525136.71005192771554 ], [ 532448.221696623601019, 9526031.670080425217748 ], [ 536884.709599267691374, 9526029.861377131193876 ], [ 536906.216766884084791, 9524239.929497830569744 ], [ 538015.332610075478442, 9524239.439024358987808 ], [ 538026.112112425500527, 9523344.466226292774081 ], [ 540244.338421007967554, 9523343.439499225467443 ], [ 540255.12926667695865, 9522448.460614049807191 ], [ 543582.464634529082105, 9522446.80787293240428 ], [ 543593.262342354981229, 9521551.821577170863748 ], [ 540265.940321766771376, 9521553.477847402915359 ], [ 540276.77158618089743, 9520658.491191947832704 ], [ 541385.873204173869453, 9520657.952556524425745 ], [ 541407.587420046213083, 9518867.965247610583901 ], [ 544734.873111622058786, 9518866.254315853118896 ], [ 544745.747073942911811, 9517971.251176774501801 ], [ 545854.840487877256237, 9517970.650231393054128 ], [ 545865.730135701713152, 9517075.641908492892981 ], [ 546974.820448727114126, 9517075.024959357455373 ], [ 546985.725765533279628, 9516180.011416343972087 ], [ 548094.813003462040797, 9516179.378407929092646 ], [ 548105.733972727088258, 9515284.359608497470617 ], [ 549214.818161369184963, 9515283.710485270246863 ], [ 549203.9016979560256, 9516178.730630630627275 ], [ 551422.083591008675285, 9516177.390768991783261 ], [ 551400.32906151690986, 9517967.424791371449828 ], [ 552509.431312196305953, 9517966.735560053959489 ], [ 552498.588715406716801, 9518861.748103393241763 ], [ 553607.697036115569063, 9518861.045610088855028 ], [ 553575.303337751189247, 9521546.064103726297617 ], [ 554684.42667017201893, 9521545.351358031854033 ], [ 554662.940300037735142, 9523335.347134657204151 ], [ 555772.074171950807795, 9523334.62279056198895 ], [ 555761.36556720326189, 9524229.616350615397096 ], [ 559088.79073969880119, 9524227.360681980848312 ], [ 559099.486059102229774, 9523332.362450830638409 ], [ 560208.626890632789582, 9523331.579901387915015 ], [ 560219.337841300293803, 9522436.576169872656465 ], [ 561328.476060759625398, 9522435.777429031208158 ], [ 561339.202626165002584, 9521540.768160851672292 ], [ 562448.338259347481653, 9521539.953173063695431 ], [ 562437.616138003650121, 9522434.964109130203724 ], [ 563546.758106635417789, 9522434.136210044845939 ], [ 563557.475784185808152, 9521539.12357878126204 ], [ 564666.615234281751327, 9521538.279377879574895 ], [ 564677.348493884783238, 9520643.261117404326797 ], [ 563568.213495661504567, 9520644.10704162530601 ], [ 563578.971240962157026, 9519749.086591200903058 ], [ 562469.842628752347082, 9519749.91957831569016 ], [ 562502.249498145421967, 9517064.839769084006548 ], [ 561393.13621049223002, 9517065.663108544424176 ], [ 561403.983078113291413, 9516170.630304208025336 ], [ 560294.876144294044934, 9516171.440546242520213 ], [ 560305.747564704855904, 9515276.405439723283052 ], [ 561414.849995750701055, 9515275.593551382422447 ], [ 561425.736963302828372, 9514380.552842695266008 ], [ 559207.54295009362977, 9514382.165088929235935 ], [ 559218.459006680175662, 9513487.123685613274574 ], [ 558109.369226462207735, 9513487.909165125340223 ], [ 558131.270603871322237, 9511697.817633436992764 ], [ 557022.191649042069912, 9511698.591395722702146 ], [ 557011.226386001799256, 9512593.637581624090672 ], [ 554793.064548001275398, 9512595.137334024533629 ], [ 554848.137232608743943, 9508119.881794454529881 ], [ 553739.081592037109658, 9508120.616789650171995 ], [ 553728.022285025450401, 9509015.674398666247725 ], [ 552618.963699980056845, 9509016.392916906625032 ], [ 552630.027578538632952, 9508121.336769681423903 ], [ 551520.975158531218767, 9508122.041734661906958 ], [ 551532.063733197865076, 9507226.983014598488808 ], [ 552641.111573017085902, 9507226.276614299044013 ], [ 552652.215683313435875, 9506331.212443392723799 ], [ 553761.260528654325753, 9506330.489537265151739 ], [ 553772.380158055690117, 9505435.419879168272018 ], [ 552663.339909326285124, 9505436.14424960128963 ], [ 552674.484250953304581, 9504541.072025557979941 ], [ 551565.450201831525192, 9504541.782736858353019 ], [ 551576.61927258153446, 9503646.707913883030415 ], [ 550467.591398423421197, 9503647.404912386089563 ], [ 550456.417713772971183, 9504542.478323984891176 ], [ 548238.357286539277993, 9504543.824126141145825 ], [ 548227.194522152305581, 9505438.890762664377689 ], [ 547118.161909404210746, 9505439.539649287238717 ], [ 547129.329280210193247, 9504544.474341377615929 ], [ 546020.302700637723319, 9504545.109432853758335 ], [ 546009.130723118782043, 9505440.173439454287291 ], [ 544900.100929718697444, 9505440.792133264243603 ], [ 544911.277514246175997, 9504545.729400664567947 ], [ 542693.231186700984836, 9504546.92396567389369 ], [ 542704.437176869134419, 9503651.859669130295515 ], [ 541595.4205848260317, 9503652.435459434986115 ], [ 541640.464999473653734, 9500072.142606068402529 ], [ 540531.468216470908374, 9500072.707916714251041 ], [ 540508.896319908322766, 9501862.860108714550734 ], [ 539399.891471460578032, 9501863.407877067103982 ], [ 539377.391144700697623, 9503653.541588323190808 ], [ 538268.378229471156374, 9503654.071927072480321 ], [ 538245.9495396069251, 9505444.187277738004923 ], [ 536027.908697179402225, 9505445.198225716128945 ], [ 536039.122148542432114, 9504550.144702142104506 ], [ 531603.071724182460457, 9504551.989400802180171 ], [ 531614.323890626546927, 9503656.935804821550846 ], [ 532723.330358712468296, 9503656.496367057785392 ], [ 532734.598172047175467, 9502761.437794100493193 ], [ 530516.595447952277027, 9502762.303388468921185 ], [ 530505.318379559437744, 9503657.360092669725418 ], [ 529396.31379193905741, 9503657.769230665639043 ], [ 529407.595488329418004, 9502762.713419890031219 ], [ 528298.596418894245289, 9502763.108274217694998 ], [ 528321.229965993552469, 9500972.986276326701045 ], [ 527212.241035531857051, 9500973.367633793503046 ], [ 527178.307252747588791, 9503658.542057355865836 ], [ 526069.305234032100998, 9503658.905746165663004 ], [ 526137.383465709397569, 9498288.525352735072374 ], [ 525028.410137251368724, 9498288.878609895706177 ], [ 525039.83229352987837, 9497393.801802573725581 ], [ 523930.864402376639191, 9497394.140508351847529 ], [ 523908.031062471156474, 9499184.288531994447112 ], [ 525017.008304851478897, 9499183.951349360868335 ], [ 525005.626796428347006, 9500079.020028300583363 ], [ 521678.68321643670788, 9500079.98351919837296 ], [ 521690.078715000941884, 9499184.917039236053824 ], [ 520581.103542780037969, 9499185.208363940939307 ], [ 520603.964940249861684, 9497395.064582098275423 ], [ 519494.999744774599094, 9497395.341925639659166 ], [ 519449.339705521648284, 9500975.610654789954424 ], [ 520558.32357515511103, 9500975.335917290300131 ], [ 520501.729916783748195, 9505450.584185425192118 ], [ 522719.745860243681818, 9505449.995903057977557 ], [ 522641.433905385725666, 9511715.185007341206074 ], [ 521532.393546535924543, 9511715.481815053150058 ], [ 521521.282945420069154, 9512610.492252239957452 ], [ 520412.238691725768149, 9512610.773489622399211 ], [ 520423.353839682415128, 9511715.763719072565436 ], [ 518205.27624763676431, 9511716.282816201448441 ], [ 518183.048138096753974, 9513506.295908901840448 ], [ 519292.095728288812097, 9513506.045035377144814 ], [ 519281.016767822729889, 9514401.046280913054943 ], [ 515953.862022324232385, 9514401.752605397254229 ], [ 515931.738092876737937, 9516191.739817144349217 ], [ 514822.678483786061406, 9516191.944560933858156 ], [ 514800.627120603923686, 9517981.915062392130494 ], [ 513691.5589549690485, 9517982.104042639955878 ], [ 513625.867684739059769, 9523351.919226506724954 ], [ 514734.962665782484692, 9523351.733216410502791 ], [ 514724.089996015594807, 9524246.689371861517429 ], [ 515833.189863025269005, 9524246.48933270201087 ], [ 515822.342026481521316, 9525141.442158626392484 ], [ 516931.446804055129178, 9525141.22814416885376 ], [ 516899.038899549515918, 9527826.065234031528234 ], [ 518008.157431698986329, 9527825.838440572842956 ], [ 517975.946163945889566, 9530510.642852874472737 ], [ 519085.078407101042103, 9530510.403436973690987 ], [ 519074.38644448411651, 9531405.331227347254753 ], [ 522401.799891286878847, 9531404.528946571052074 ], [ 522380.503225334337912, 9533194.377045994624496 ], [ 523489.651069612358697, 9533194.082418903708458 ], [ 523468.444463430263568, 9534983.916798189282417 ], [ 522359.2879366556881, 9534984.210022486746311 ], [ 522338.15402597974753, 9536774.027934528887272 ], [ 521228.989527118508704, 9536774.305619908496737 ], [ 521197.428334706986789, 9539459.002358386293054 ], [ 523415.783831970067695, 9539458.436953550204635 ], [ 523426.275285442359746, 9538563.540412418544292 ], [ 524535.44978682603687, 9538563.235899519175291 ], [ 524483.217277428600937, 9543037.684988800436258 ], [ 527810.809542204951867, 9543036.698602441698313 ], [ 527821.202604503836483, 9542141.813890049234033 ], [ 528930.397406886797398, 9542141.456367379054427 ], [ 528920.008604925125837, 9543036.341910228133202 ], [ 530029.208544245455414, 9543035.971269546076655 ], [ 530008.500320881372318, 9544825.732960758730769 ], [ 531117.709664867958054, 9544825.350139344111085 ], [ 531107.390218284795992, 9545720.226327320560813 ], [ 529998.176639613113366, 9545720.608265997841954 ], [ 529987.873245407594368, 9546615.47988741286099 ], [ 534424.750256109400652, 9546613.872624062001705 ], [ 534435.036746712750755, 9545718.997310973703861 ], [ 535544.254299079300836, 9545718.559905210509896 ], [ 535533.972033667960204, 9546613.436209473758936 ], [ 538861.643964097835124, 9546612.04392764903605 ], [ 538851.394592890050262, 9547506.919686581939459 ], [ 539960.625096764182672, 9547506.429012665525079 ], [ 539919.846596214687452, 9551085.899759043008089 ], [ 542138.344827334047295, 9551084.886082503944635 ], [ 542158.676908844150603, 9549295.153480676934123 ], [ 541049.435543174971826, 9549295.669473761692643 ], [ 541080.097752123023383, 9546611.046540664508939 ], [ 542189.32649734034203, 9546610.527087217196822 ], [ 542199.583417468005791, 9545715.644262546673417 ], [ 543308.809218414244242, 9545715.109786726534367 ], [ 543319.082102105836384, 9544820.222086675465107 ], [ 542209.860532756894827, 9544820.757745563983917 ], [ 542230.475348450709134, 9543030.973605325445533 ], [ 541121.263547428650782, 9543031.497683381661773 ], [ 541141.967664873111062, 9541241.701002851128578 ], [ 543360.375503124203533, 9541240.634208925068378 ], [ 543370.749319478054531, 9540345.727933425456285 ], [ 544479.950920091941953, 9540345.172316277399659 ], [ 544490.340641267015599, 9539450.261088645085692 ], [ 542271.947317711892538, 9539451.360694425180554 ], [ 542282.365796542726457, 9538556.448125910013914 ], [ 541173.175363697810099, 9538556.978002211079001 ], [ 541183.618335642968304, 9537662.062844704836607 ], [ 540074.433449622010812, 9537662.579769968986511 ], [ 540084.900931576616131, 9536767.661990402266383 ], [ 538975.721567678498104, 9536768.165910884737968 ], [ 538996.725804603891447, 9534978.321270877495408 ], [ 537887.556262740399688, 9534978.813215283676982 ], [ 537972.416864920058288, 9527819.291638232767582 ] ], [ [ 542261.549033394549042, 9540346.269519289955497 ], [ 540043.152270333259366, 9540347.310597490519285 ], [ 540053.559118907200173, 9539452.404066178947687 ], [ 542271.947317711892538, 9539451.360694425180554 ], [ 542261.549033394549042, 9540346.269519289955497 ] ], [ [ 540063.986178701044992, 9538557.493792783468962 ], [ 538954.798207933548838, 9538557.995497705414891 ], [ 538965.249778111930937, 9537663.082582278177142 ], [ 540074.433449622010812, 9537662.579769968986511 ], [ 540063.986178701044992, 9538557.493792783468962 ] ], [ [ 538944.366857236949727, 9539452.904664497822523 ], [ 537835.175775895942934, 9539453.391204545274377 ], [ 537845.611417777952738, 9538558.483117053285241 ], [ 538954.798207933548838, 9538557.995497705414891 ], [ 538944.366857236949727, 9539452.904664497822523 ] ], [ [ 535700.917662705760449, 9532294.968717494979501 ], [ 536810.071916242013685, 9532294.502074176445603 ], [ 536799.490331499837339, 9533189.435493040829897 ], [ 535690.331727714394219, 9533189.901106147095561 ], [ 535700.917662705760449, 9532294.968717494979501 ] ], [ [ 525836.791174390935339, 9522454.106497041881084 ], [ 529164.085537916980684, 9522453.022249581292272 ], [ 529153.250265871873125, 9523347.991153905168176 ], [ 525825.94256859656889, 9523349.072939516976476 ], [ 525836.791174390935339, 9522454.106497041881084 ] ], [ [ 519269.958174823434092, 9515296.043594582006335 ], [ 520379.015401681885123, 9515295.779146585613489 ], [ 520367.981689925538376, 9516190.773171732202172 ], [ 519258.919949385279324, 9516191.036983694881201 ], [ 519269.958174823434092, 9515296.043594582006335 ] ] ], [ [ [ 540169.368373185163364, 9529608.18363076262176 ], [ 540148.130249771522358, 9531398.076010543853045 ], [ 542366.440618410939351, 9531397.0119260083884 ], [ 542377.040843634400517, 9530502.065334487706423 ], [ 541267.889399789855815, 9530502.60569715872407 ], [ 541278.51419246813748, 9529607.656457737088203 ], [ 540169.368373185163364, 9529608.18363076262176 ] ] ], [ [ [ 500186.93926383118378, 9534092.187521325424314 ], [ 500208.369355641130824, 9532302.363611763343215 ], [ 499099.233055291813798, 9532302.35915594547987 ], [ 499056.437527601839975, 9535881.991432333365083 ], [ 501274.7449158616364, 9535881.98720246180892 ], [ 501285.404347290634178, 9534987.084483856335282 ], [ 502394.553747949597891, 9534987.060938205569983 ], [ 502405.229339907644317, 9534092.154286202043295 ], [ 500186.93926383118378, 9534092.187521325424314 ] ] ], [ [ [ 544459.232011539977975, 9542134.983565246686339 ], [ 544469.581376818590797, 9541240.079806031659245 ], [ 543360.375503124203533, 9541240.634208925068378 ], [ 543350.021873117075302, 9542135.536754664033651 ], [ 544459.232011539977975, 9542134.983565246686339 ] ] ], [ [ [ 544428.30498460563831, 9544819.672533022239804 ], [ 544438.593815340427682, 9543924.779921405017376 ], [ 543329.375172515166923, 9543925.330686204135418 ], [ 543319.082102105836384, 9544820.222086675465107 ], [ 544428.30498460563831, 9544819.672533022239804 ] ] ], [ [ [ 544226.765948708169162, 9562716.757269412279129 ], [ 544236.651194761041552, 9561821.937288254499435 ], [ 545345.954386231955141, 9561821.397225065156817 ], [ 545355.855731607414782, 9560926.572458017617464 ], [ 546465.156217895215377, 9560926.01776735112071 ], [ 546475.073646072065458, 9560031.188178293406963 ], [ 547584.3714530011639, 9560030.618804709985852 ], [ 547594.304947458207607, 9559135.784357508644462 ], [ 544266.428013110184111, 9559137.455944215878844 ], [ 544276.393978992011398, 9558242.621671583503485 ], [ 540948.541445898590609, 9558244.175651334226131 ], [ 540908.749535818235017, 9561823.477221677079797 ], [ 542018.048803200596012, 9561822.977286480367184 ], [ 542008.155411513522267, 9562717.794903010129929 ], [ 540898.852070916676894, 9562718.293696848675609 ], [ 540879.117756875115447, 9564507.915997562929988 ], [ 541988.429218854871579, 9564507.419484216719866 ], [ 541998.282216702122241, 9563612.60896648094058 ], [ 543107.590896017849445, 9563612.097991947084665 ], [ 543117.460026228218339, 9562717.282760558649898 ], [ 544226.765948708169162, 9562716.757269412279129 ] ] ], [ [ [ 541988.429218854871579, 9564507.419484216719866 ], [ 541968.783814405556768, 9566297.02991178445518 ], [ 543078.104637436568737, 9566296.522436564788222 ], [ 543068.316262220265344, 9567191.323526009917259 ], [ 544177.64242291264236, 9567190.804003575816751 ], [ 544197.231291982694529, 9565401.195914924144745 ], [ 543087.913201533607207, 9565401.717822624370456 ], [ 543097.741954423487186, 9564506.909676861017942 ], [ 541988.429218854871579, 9564507.419484216719866 ] ] ], [ [ [ 546121.757940606214106, 9496489.35102547518909 ], [ 546144.52536422770936, 9494699.137592818588018 ], [ 545035.551406662445515, 9494699.771630587056279 ], [ 545012.774593466427177, 9496489.982497397810221 ], [ 546121.757940606214106, 9496489.35102547518909 ] ] ], [ [ [ 560327.550580218317918, 9513486.323354203253984 ], [ 560338.482175118173473, 9512591.276360457763076 ], [ 559229.395129678654484, 9512592.0783133469522 ], [ 559218.459006680175662, 9513487.123685613274574 ], [ 560327.550580218317918, 9513486.323354203253984 ] ] ], [ [ [ 562513.091871615033597, 9516169.805291954427958 ], [ 562523.954286751919426, 9515274.766865512356162 ], [ 561414.849995750701055, 9515275.593551382422447 ], [ 561403.983078113291413, 9516170.630304208025336 ], [ 562513.091871615033597, 9516169.805291954427958 ] ] ], [ [ [ 561296.416669268393889, 9525120.781881656497717 ], [ 561317.769546075374819, 9523330.782800313085318 ], [ 560208.626890632789582, 9523331.579901387915015 ], [ 560187.265166904078797, 9525121.575705628842115 ], [ 561296.416669268393889, 9525120.781881656497717 ] ] ], [ [ [ 549042.571828449028544, 9529603.564196242019534 ], [ 549063.820621256600134, 9527813.636708065867424 ], [ 547954.674110915861093, 9527814.267062591388822 ], [ 547933.416548660723493, 9529604.191882465034723 ], [ 549042.571828449028544, 9529603.564196242019534 ] ] ], [ [ [ 564487.213816086878069, 9536752.998095126822591 ], [ 567814.867241993313655, 9536750.46815625205636 ], [ 567835.647009640466422, 9534960.548081338405609 ], [ 566726.435817368677817, 9534961.409121030941606 ], [ 566757.768486652057618, 9532276.505883300676942 ], [ 567866.966676154173911, 9532275.639461642131209 ], [ 567887.946462707128376, 9530485.681290939450264 ], [ 565669.569527606945485, 9530487.406984241679311 ], [ 565680.098158768378198, 9529592.42571653611958 ], [ 564570.917060924926773, 9529593.268804991617799 ], [ 564581.470086714019999, 9528698.285439481958747 ], [ 566799.825519765960053, 9528696.581387450918555 ], [ 566810.389802515506744, 9527801.590658584609628 ], [ 564592.043138881446794, 9527803.298226241022348 ], [ 564602.636217328021303, 9526908.307157898321748 ], [ 563493.470231274375692, 9526909.141035933047533 ], [ 563482.872759379562922, 9527804.130386624485254 ], [ 562373.704303273931146, 9527804.948131546378136 ], [ 562363.122480637510307, 9528699.931938398629427 ], [ 563472.295322109479457, 9528699.115883016958833 ], [ 563440.683219037484378, 9531384.04932009242475 ], [ 562331.497271540225483, 9531384.860311657190323 ], [ 562320.995621773530729, 9532279.828778199851513 ], [ 561211.807210758095607, 9532280.62380462884903 ], [ 561201.321260553319007, 9533175.586796272546053 ], [ 560092.130360223469324, 9533176.365913096815348 ], [ 560050.369786244467832, 9536756.173352506011724 ], [ 558941.163412626832724, 9536756.931811513379216 ], [ 558889.3926302526379, 9541231.598164631053805 ], [ 559998.620433917851187, 9541230.84769612364471 ], [ 560008.930182521929964, 9540335.92033975571394 ], [ 561118.155535737401806, 9540335.154241926968098 ], [ 561128.481067965272814, 9539440.221512120217085 ], [ 563346.928811477613635, 9539438.643886467441916 ], [ 563367.622875475441106, 9537648.760481568053365 ], [ 564476.841032139607705, 9537647.947162682190537 ], [ 564487.213816086878069, 9536752.998095126822591 ] ] ], [ [ [ 561107.850056192022748, 9541230.083222135901451 ], [ 562217.081530701369047, 9541229.304742552340031 ], [ 562227.382741447887383, 9540334.374111197888851 ], [ 561118.155535737401806, 9540335.154241926968098 ], [ 561107.850056192022748, 9541230.083222135901451 ] ] ], [ [ [ 555561.719794661039487, 9541233.765538424253464 ], [ 554452.498929181252606, 9541234.45998614653945 ], [ 554431.897042177035473, 9543024.288074357435107 ], [ 555541.126423360430636, 9543023.596598910167813 ], [ 555561.719794661039487, 9541233.765538424253464 ] ] ], [ [ [ 555530.859879704425111, 9543918.506540026515722 ], [ 556640.095189537969418, 9543917.802626436576247 ], [ 556650.357488124980591, 9543022.891173044219613 ], [ 555541.126423360430636, 9543023.596598910167813 ], [ 555530.859879704425111, 9543918.506540026515722 ] ] ], [ [ [ 557749.332216316252016, 9543917.084789626300335 ], [ 556640.095189537969418, 9543917.802626436576247 ], [ 556629.852977394359186, 9544812.710362773388624 ], [ 557739.0942406343529, 9544811.994064772501588 ], [ 557749.332216316252016, 9543917.084789626300335 ] ] ], [ [ [ 558757.136753355851397, 9552865.295318366959691 ], [ 559866.419298859778792, 9552864.565534356981516 ], [ 559876.468245461233892, 9551969.686243075877428 ], [ 560985.748445635545067, 9551968.941194761544466 ], [ 560975.703659630846232, 9552863.822099858894944 ], [ 563194.27796153514646, 9552862.294278943911195 ], [ 563184.261533293290995, 9553757.174845494329929 ], [ 564293.555693206493743, 9553756.392153823748231 ], [ 564333.724973716656677, 9550176.841185074299574 ], [ 563224.447469848091714, 9550177.630661230534315 ], [ 563234.544046834227629, 9549282.735458105802536 ], [ 562125.272645023302175, 9549283.512872228398919 ], [ 562135.393452417454682, 9548388.615663049742579 ], [ 561026.128127875970677, 9548389.380961406975985 ], [ 561046.438290612190031, 9546599.578773956745863 ], [ 559937.183229209738784, 9546600.333521230146289 ], [ 559957.582051682984456, 9544810.519780585542321 ], [ 557739.0942406343529, 9544811.994064772501588 ], [ 557718.678523942944594, 9546601.801490982994437 ], [ 556609.428812815109268, 9546602.514713687822223 ], [ 556599.246860567829572, 9547497.411342969164252 ], [ 555489.994653914007358, 9547498.109215186908841 ], [ 555459.556733479257673, 9550182.772483613342047 ], [ 556568.821525124832988, 9550182.079134341329336 ], [ 556558.719920722069219, 9551076.961057143285871 ], [ 557667.990605540457182, 9551076.255509216338396 ], [ 557657.913258038111962, 9551971.135306436568499 ], [ 558767.189860808080994, 9551970.417613597586751 ], [ 558757.136753355851397, 9552865.295318366959691 ] ], [ [ 556589.084995141369291, 9548392.304284604266286 ], [ 558807.602995690773241, 9548390.87019682303071 ], [ 558787.35628742177505, 9550180.651239456608891 ], [ 556568.821525124832988, 9550182.079134341329336 ], [ 556589.084995141369291, 9548392.304284604266286 ] ] ], [ [ [ 560965.678927636123262, 9553758.699358373880386 ], [ 560975.703659630846232, 9552863.822099858894944 ], [ 559866.419298859778792, 9552864.565534356981516 ], [ 559856.390414610155858, 9553759.441179813817143 ], [ 560965.678927636123262, 9553758.699358373880386 ] ] ], [ [ [ 565392.863697948050685, 9554650.47618005797267 ], [ 565402.851802698452957, 9553755.595838505774736 ], [ 564293.555693206493743, 9553756.392153823748231 ], [ 564283.563445545150898, 9554651.270773848518729 ], [ 565392.863697948050685, 9554650.47618005797267 ] ] ], [ [ [ 560965.678927636123262, 9553758.699358373880386 ], [ 560945.689626048901118, 9555548.442965071648359 ], [ 563164.288789165439084, 9555546.925063714385033 ], [ 563174.26514247211162, 9554652.05177129805088 ], [ 562064.968755085603334, 9554652.819172529503703 ], [ 562074.969289316679351, 9553757.943913638591766 ], [ 560965.678927636123262, 9553758.699358373880386 ] ] ], [ [ [ 545267.46981346141547, 9568979.86772284284234 ], [ 545277.209782403428108, 9568085.071251520887017 ], [ 544167.87825926579535, 9568085.602767378091812 ], [ 544148.410474188625813, 9569875.189770566299558 ], [ 545257.75001697067637, 9569874.660690175369382 ], [ 545219.072557266801596, 9573453.797666188329458 ], [ 547437.787670634686947, 9573452.710166037082672 ], [ 547447.418832680443302, 9572557.92863056063652 ], [ 546338.064544945023954, 9572558.480160346254706 ], [ 546376.806723833782598, 9568979.324267351999879 ], [ 545267.46981346141547, 9568979.86772284284234 ] ] ] ] } }
]
}
