{
"type": "FeatureCollection",
"name": "urban-1975",
"crs": { "type": "name", "properties": { "name": "urn:ogc:def:crs:EPSG::32636" } },
"features": [
{ "type": "Feature", "properties": { "year": 1975 }, "geometry": { "type": "MultiPolygon", "coordinates": [ [ [ [ 483699.94672503194306, 4403561.752558152191341 ], [ 483469.626163869339507, 4402570.511681750416756 ], [ 482463.303829707321711, 4402572.746503660455346 ], [ 482924.086803696467541, 4404555.225242318585515 ], [ 481917.861215984274168, 4404557.532873149029911 ], [ 482148.36864445451647, 4405548.826995814219117 ], [ 484160.722764774051029, 4405544.403142825700343 ], [ 484391.178236504958477, 4406535.812911472283304 ], [ 485397.306636655179318, 4406533.82888858858496 ], [ 484706.220501600124408, 4403559.679426919668913 ], [ 483699.94672503194306, 4403561.752558152191341 ] ] ], [ [ [ 468364.828740177385043, 4415514.562014090828598 ], [ 468133.093509426282253, 4414523.177588518708944 ], [ 467127.350128796766512, 4414527.438301670365036 ], [ 466895.611466965579893, 4413536.139428017660975 ], [ 465889.819206664222293, 4413540.561848629266024 ], [ 466353.439016632910352, 4415523.157113471068442 ], [ 467359.134002067847177, 4415518.793355743400753 ], [ 467822.83736953191692, 4417501.672126024961472 ], [ 470839.62889970256947, 4417489.551949450746179 ], [ 470376.217504892963916, 4415506.496577211655676 ], [ 468364.828740177385043, 4415514.562014090828598 ] ] ], [ [ [ 475325.217114446335472, 4419458.763689888641238 ], [ 475788.600043080456089, 4421442.506994192488492 ], [ 474783.198713146615773, 4421445.766109874472022 ], [ 474551.435986974509433, 4420453.895877681672573 ], [ 472540.53531152382493, 4420460.871142664924264 ], [ 473004.300774028874002, 4422444.549548549577594 ], [ 474009.653754484374076, 4422441.054899252019823 ], [ 474241.555427007144317, 4423433.008518491871655 ], [ 473236.251196703058667, 4423436.473503168672323 ], [ 474164.504084184532985, 4427404.735042318701744 ], [ 476174.722068097617012, 4427398.175596009008586 ], [ 475942.688788162835408, 4426405.965756504796445 ], [ 476947.846314933733083, 4426402.855365400202572 ], [ 476715.906908488133922, 4425410.67241395637393 ], [ 477721.113051302789245, 4425407.664937340654433 ], [ 477953.003670014208183, 4426399.877707130275667 ], [ 478958.160860889707692, 4426397.03278136998415 ], [ 479190.047733901999891, 4427389.332142515107989 ], [ 482205.372006990131922, 4427381.683540674857795 ], [ 482668.987949724134523, 4429366.632383551448584 ], [ 484679.008203920326196, 4429362.317253787070513 ], [ 484447.275379365310073, 4428369.754306602291763 ], [ 485452.334150274982676, 4428367.765880507417023 ], [ 485684.018156939244363, 4429360.358916291967034 ], [ 486689.028003838728182, 4429358.533396773040295 ], [ 487152.433163952431642, 4431343.950708081945777 ], [ 486147.5209929420962, 4431345.715925445780158 ], [ 486379.339815301587805, 4432338.479960099793971 ], [ 485374.476403710083105, 4432340.347898290492594 ], [ 485838.346607145271264, 4434325.986803553067148 ], [ 487847.877798632311169, 4434322.504645785316825 ], [ 487384.203126411943231, 4432336.744927206076682 ], [ 488389.066344452265184, 4432335.142799421213567 ], [ 488157.345240030845162, 4431342.318366713821888 ], [ 489162.257228603062686, 4431340.818901170045137 ], [ 488930.629871512763202, 4430348.021322830580175 ], [ 489935.590619700960815, 4430346.624483400955796 ], [ 489704.056982312118635, 4429353.853744171559811 ], [ 492719.085273892967962, 4429350.369447141885757 ], [ 492487.742940244264901, 4428357.564976091496646 ], [ 493492.801056012220215, 4428356.638856190256774 ], [ 493030.348483761423267, 4426371.140589389018714 ], [ 496045.815236355236266, 4426368.976877054199576 ], [ 495814.802468394162133, 4425376.22240240406245 ], [ 498830.415206695441157, 4425375.162051619030535 ], [ 498599.593440571858082, 4424382.37353347055614 ], [ 499604.846391323546413, 4424382.255046677775681 ], [ 499374.118097248894628, 4423389.49324141535908 ], [ 496358.213048550765961, 4423390.337869540788233 ], [ 496127.38338441302767, 4422397.724271599203348 ], [ 495122.032948983949609, 4422398.30140236299485 ], [ 494891.199382448161487, 4421405.775108253583312 ], [ 493885.800215254770592, 4421406.51510498393327 ], [ 493654.962777325301431, 4420414.076010602526367 ], [ 497676.753957731591072, 4420411.790425676852465 ], [ 497215.602814924786799, 4418426.841022064909339 ], [ 499226.692872561165132, 4418426.372239974327385 ], [ 498765.915318623592611, 4416441.529472400434315 ], [ 499771.55757233366603, 4416441.433168903924525 ], [ 499311.056212006194983, 4414456.757540749385953 ], [ 498305.316779386484995, 4414456.914412009529769 ], [ 498535.593670399975963, 4415449.193494065664709 ], [ 497529.902808825892862, 4415449.452501106075943 ], [ 497760.273055576719344, 4416441.758213608525693 ], [ 494743.346134322637226, 4416443.23906382266432 ], [ 494512.830081309482921, 4415451.023974098265171 ], [ 491495.75697955902433, 4415453.787126227281988 ], [ 491265.139963449619245, 4414461.719138536602259 ], [ 490259.400214202061761, 4414462.935047172009945 ], [ 490028.77947900124127, 4413470.953788098879158 ], [ 489022.991071934113279, 4413472.332065533846617 ], [ 488792.366648400668055, 4412480.437431341968477 ], [ 487786.529586683551315, 4412481.977997426874936 ], [ 487325.31834142387379, 4410498.418324805796146 ], [ 484307.515248538984451, 4410504.01303428132087 ], [ 484538.244050437875558, 4411495.675088523887098 ], [ 483532.358006514667068, 4411497.774743776768446 ], [ 483994.047632085508667, 4413481.208723649382591 ], [ 482988.258609698095825, 4413483.381110797636211 ], [ 483219.219472041528206, 4414475.15305985789746 ], [ 482213.478917648317292, 4414477.428014244884253 ], [ 482444.533371257828549, 4415469.226689969189465 ], [ 480433.149079446389806, 4415474.114216778427362 ], [ 480664.345782232703641, 4416465.909863164648414 ], [ 481669.989368153677788, 4416463.429665458388627 ], [ 481901.182442258868832, 4417455.311633413657546 ], [ 477878.801781684276648, 4417465.908068508841097 ], [ 478110.234503430081531, 4418457.72752982005477 ], [ 482132.42051455489127, 4418447.250182113610208 ], [ 482363.703581601730548, 4419439.245341959409416 ], [ 483369.201056514692027, 4419436.987117908895016 ], [ 483600.480428308073897, 4420429.068808130919933 ], [ 480584.133663090120535, 4420436.151483188383281 ], [ 480352.708225765149109, 4419444.159372193738818 ], [ 478341.712278105027508, 4419449.603513725101948 ], [ 478573.235102287086193, 4420441.536050602793694 ], [ 476562.335897072451189, 4420447.450847919099033 ], [ 476330.715678049542475, 4419455.57776889577508 ], [ 475325.217114446335472, 4419458.763689888641238 ] ], [ [ 479578.684459460782818, 4420438.777488307096064 ], [ 479810.203620756918099, 4421430.796403229236603 ], [ 478804.802972552657593, 4421433.525170846842229 ], [ 478573.235102287086193, 4420441.536050602793694 ], [ 479578.684459460782818, 4420438.777488307096064 ] ], [ [ 483057.822716784663498, 4422415.570792588405311 ], [ 482052.471218274964485, 4422417.871898220852017 ], [ 481821.004470016807318, 4421425.736626452766359 ], [ 482826.404686166439205, 4421423.405616752803326 ], [ 483057.822716784663498, 4422415.570792588405311 ] ], [ [ 486780.692431984294672, 4412483.650885753333569 ], [ 485774.855176645098254, 4412485.456096501089633 ], [ 485544.129976469383109, 4411493.707727020606399 ], [ 486550.015792276419234, 4411491.872659057378769 ], [ 486780.692431984294672, 4412483.650885753333569 ] ] ], [ [ [ 468133.845282612310257, 4427427.599704269319773 ], [ 469138.955631656339392, 4427423.457016305066645 ], [ 468906.580664667359088, 4426431.455043375492096 ], [ 466896.26208608673187, 4426439.932313686236739 ], [ 466663.834690154704731, 4425448.045947400853038 ], [ 469679.458625523198862, 4425435.44047550112009 ], [ 469911.739602858317085, 4426427.415512297302485 ], [ 470916.898316963866819, 4426423.508716689422727 ], [ 470684.666141635680106, 4425431.504064967855811 ], [ 471689.873439070419408, 4425427.700360434129834 ], [ 471457.73520902893506, 4424435.722622868604958 ], [ 470452.479126196005382, 4424439.55594920180738 ], [ 470220.337274032877758, 4423447.664338981732726 ], [ 471225.642127737635747, 4423443.801413020119071 ], [ 470993.594198585953563, 4422451.936700484715402 ], [ 471998.94759124040138, 4422448.176815496757627 ], [ 471071.402335678751115, 4418481.164126571267843 ], [ 470065.854071082198061, 4418485.042216193862259 ], [ 470297.721357831265777, 4419476.681243074126542 ], [ 467281.221280444529839, 4419489.022147689014673 ], [ 467513.279877657187171, 4420480.629104443825781 ], [ 465502.376047295634635, 4420489.46021780744195 ], [ 465270.220009591605049, 4419497.912079920060933 ], [ 464264.718985677696764, 4419502.555846193805337 ], [ 464496.923746851854958, 4420494.074618186801672 ], [ 462486.01833765313495, 4420503.70110881421715 ], [ 462718.365830464637838, 4421495.217465311288834 ], [ 461712.96145106467884, 4421500.200255638919771 ], [ 461945.402977665129583, 4422491.743548565544188 ], [ 460940.047072008135729, 4422496.829638533294201 ], [ 461172.58266020094743, 4423488.399882928468287 ], [ 460167.275239617447369, 4423493.589308981783688 ], [ 460399.904917214880697, 4424485.186519875191152 ], [ 459394.645993063808419, 4424490.479318462312222 ], [ 459627.369787890871521, 4425482.103510891087353 ], [ 460632.579903085657861, 4425476.840014755725861 ], [ 460865.300193899776787, 4426468.54982393514365 ], [ 461870.461194217205048, 4426463.448392290621996 ], [ 462103.177950915647671, 4427455.243921891786158 ], [ 465118.512783902871888, 4427440.824362377636135 ], [ 465351.128286723687779, 4428432.764657186344266 ], [ 468366.314267026027665, 4428419.628628437407315 ], [ 468133.845282612310257, 4427427.599704269319773 ] ], [ [ 469215.032197484164499, 4423451.659912849776447 ], [ 468982.886753541533835, 4422459.854326210916042 ], [ 469988.240588530723471, 4422455.829203915782273 ], [ 470220.337274032877758, 4423447.664338981732726 ], [ 469215.032197484164499, 4423451.659912849776447 ] ], [ [ 469447.222822604642715, 4424443.521952483803034 ], [ 467436.709523112454917, 4424451.851991628296673 ], [ 467204.421345772745553, 4423460.049006036482751 ], [ 469215.032197484164499, 4423451.659912849776447 ], [ 469447.222822604642715, 4424443.521952483803034 ] ] ], [ [ [ 458781.735902657324914, 4430451.701334991492331 ], [ 461796.634339875192381, 4430435.952810643240809 ], [ 462029.581105341902003, 4431427.944646732881665 ], [ 463034.4977820252534, 4431422.990315847098827 ], [ 462568.747312303748913, 4429439.004202966578305 ], [ 461563.732862652977929, 4429444.017440724186599 ], [ 461330.8766770218499, 4428452.138506554998457 ], [ 462335.939991392835509, 4428447.095848655328155 ], [ 462103.177950915647671, 4427455.243921891786158 ], [ 461098.065786323684733, 4427460.315977751277387 ], [ 460865.300193899776787, 4426468.54982393514365 ], [ 459860.13890213961713, 4426473.783995467238128 ], [ 460092.953332481672987, 4427465.520802516490221 ], [ 458082.727527164563071, 4427476.328761013224721 ], [ 458781.735902657324914, 4430451.701334991492331 ] ] ], [ [ [ 494418.244113360531628, 4432328.321031395345926 ], [ 494186.816118754155468, 4431335.314705641008914 ], [ 492176.992743534850888, 4431337.117757927626371 ], [ 491945.511900056677405, 4430344.229343586601317 ], [ 489935.590619700960815, 4430346.624483400955796 ], [ 490398.792530976177659, 4432332.337258508428931 ], [ 489393.929476836055983, 4432333.673576575703919 ], [ 489625.646612698503304, 4433326.585379743948579 ], [ 493644.902968753362074, 4433322.158885956741869 ], [ 493413.381298064778093, 4432329.125731630250812 ], [ 494418.244113360531628, 4432328.321031395345926 ] ] ], [ [ [ 488792.366648400668055, 4412480.437431341968477 ], [ 489798.203624791989569, 4412479.029187331907451 ], [ 489567.672655052330811, 4411487.161214489489794 ], [ 488561.787123898917343, 4411488.599402966909111 ], [ 488792.366648400668055, 4412480.437431341968477 ] ] ], [ [ [ 499311.056212006194983, 4414456.757540749385953 ], [ 500316.795639395888429, 4414456.733048935420811 ], [ 500086.660642412665766, 4413464.450302214361727 ], [ 499080.872649257420562, 4413464.505073811858892 ], [ 499311.056212006194983, 4414456.757540749385953 ] ] ], [ [ [ 495112.796968658745755, 4435307.683566882275045 ], [ 494881.234541860467289, 4434314.505431241355836 ], [ 492871.704342830809765, 4434316.126107206568122 ], [ 493103.364553770516068, 4435309.243361536413431 ], [ 492098.648274064355064, 4435310.222746509127319 ], [ 492330.402227456215769, 4436303.366868478246033 ], [ 496349.071444893837906, 4436300.369130897335708 ], [ 496580.674556557030883, 4437293.692489452660084 ], [ 498589.911142782715615, 4437293.052890714257956 ], [ 498126.945340327685699, 4435306.341311983764172 ], [ 495112.796968658745755, 4435307.683566882275045 ] ] ], [ [ [ 503071.741398133744951, 4452201.074718740768731 ], [ 504075.624217963311821, 4452201.549915367737412 ], [ 503843.546300166577566, 4451207.2383216554299 ], [ 502839.614346691465471, 4451206.794106860645115 ], [ 503071.741398133744951, 4452201.074718740768731 ] ] ], [ [ [ 501760.920051806373522, 4455183.528538305312395 ], [ 503768.39063842734322, 4455184.264367342926562 ], [ 503071.741398133744951, 4452201.074718740768731 ], [ 502067.85860023467103, 4452200.733009575866163 ], [ 502300.079485191847198, 4453195.04059436544776 ], [ 501296.245853778033052, 4453194.801426697522402 ], [ 501760.920051806373522, 4455183.528538305312395 ] ] ] ] } }
]
}
