{
"type": "FeatureCollection",
"name": "urban-2050",
"crs": { "type": "name", "properties": { "name": "urn:ogc:def:crs:EPSG::32636" } },
"features": [
{ "type": "Feature", "properties": { "year": 2050 }, "geometry": { "type": "MultiPolygon", "coordinates": [ [ [ [ 486202.92207480588695, 4392650.517557149752975 ], [ 485973.337782111717388, 4391659.746257625520229 ], [ 484966.48432283627335, 4391661.64699584338814 ], [ 485196.116878305037972, 4392652.38876205123961 ], [ 486202.92207480588695, 4392650.517557149752975 ] ] ], [ [ [ 484419.037353595718741, 4393645.15997167211026 ], [ 484648.808105889125727, 4394635.984268102794886 ], [ 483642.099245963676367, 4394638.059938069432974 ], [ 483871.963269265019335, 4395628.910755746997893 ], [ 482865.302593426487874, 4395631.088712813332677 ], [ 483095.259915222006384, 4396621.966066932305694 ], [ 484101.872264541452751, 4396619.817643784917891 ], [ 484331.826228385034483, 4397610.780632226727903 ], [ 483325.262220043281559, 4397612.89949950017035 ], [ 483555.309504486445803, 4398603.88904057815671 ], [ 485568.340690224431455, 4398599.842376976273954 ], [ 484878.623819110624027, 4395626.864626798778772 ], [ 485885.2842508276226, 4395624.950325745157897 ], [ 485196.116878305037972, 4392652.38876205123961 ], [ 484189.311565637530293, 4392654.391707489266992 ], [ 483959.630745417787693, 4391663.679445551708341 ], [ 482952.777041943569202, 4391665.843606972135603 ], [ 483412.280198043270502, 4393647.265160718001425 ], [ 484419.037353595718741, 4393645.15997167211026 ] ] ], [ [ [ 475188.380280373850837, 4401601.138582247309387 ], [ 475419.043259227706585, 4402592.087173460051417 ], [ 476425.366705674678087, 4402588.928120407275856 ], [ 476194.752158289600629, 4401597.950124814175069 ], [ 475188.380280373850837, 4401601.138582247309387 ] ] ], [ [ [ 482148.36864445451647, 4405548.826995814219117 ], [ 482609.518485260603484, 4407531.584121965803206 ], [ 485627.758583898597863, 4407525.324761915951967 ], [ 485397.306636655179318, 4406533.82888858858496 ], [ 488415.691194831568282, 4406528.669706979766488 ], [ 487955.212923330254853, 4404545.668438091874123 ], [ 486948.987916078767739, 4404547.31561965867877 ], [ 486488.592430767545011, 4402564.599406777881086 ], [ 485482.270456620666664, 4402566.438133528456092 ], [ 485252.091701169847511, 4401575.194191677495837 ], [ 484245.721201439213473, 4401577.194615718908608 ], [ 483555.309504486445803, 4398603.88904057815671 ], [ 482548.793723695736844, 4398606.110245507210493 ], [ 483009.11997606017394, 4400588.198610011488199 ], [ 482002.700821781414561, 4400590.492625273764133 ], [ 482463.303829707321711, 4402572.746503660455346 ], [ 481456.981359982863069, 4402575.113357754424214 ], [ 481226.608939270838164, 4401583.987904716283083 ], [ 478207.49536903045373, 4401591.969224309548736 ], [ 477977.022731200966518, 4400600.988429827615619 ], [ 478983.442490471177734, 4400598.166516611352563 ], [ 478753.06330522603821, 4399607.212341498583555 ], [ 479759.531295922352001, 4399604.492926633916795 ], [ 479529.245535710360855, 4398613.565355735830963 ], [ 476509.695914937416092, 4398622.207714907824993 ], [ 476279.310086181794759, 4397631.424405495636165 ], [ 475272.744819350948092, 4397634.598371936939657 ], [ 475503.179019757255446, 4398625.352335815317929 ], [ 474496.661934071336873, 4398628.628874536603689 ], [ 474727.189614430710208, 4399619.409462827257812 ], [ 475733.658311959996354, 4399616.162262570112944 ], [ 476194.752158289600629, 4401597.950124814175069 ], [ 477201.123851911688689, 4401594.893672278150916 ], [ 477892.957394038909115, 4404568.084304597228765 ], [ 479905.409614739299286, 4404562.544406699948013 ], [ 480136.013974654895719, 4405553.779327209107578 ], [ 482148.36864445451647, 4405548.826995814219117 ] ], [ [ 476970.602801176253706, 4400603.942318258807063 ], [ 476740.126821059791837, 4399613.047009151428938 ], [ 477746.595149543369189, 4399610.063702234067023 ], [ 477977.022731200966518, 4400600.988429827615619 ], [ 476970.602801176253706, 4400603.942318258807063 ] ] ], [ [ [ 481587.129759210161865, 4433341.819206709973514 ], [ 481355.02160426491173, 4432349.148708229884505 ], [ 482359.885491912486032, 4432346.749146711081266 ], [ 482591.94476284540724, 4433339.44970640912652 ], [ 484601.574392872105818, 4433335.109511409886181 ], [ 484369.61288422299549, 4432342.348741976544261 ], [ 483364.749249427637551, 4432344.482491374015808 ], [ 482668.987949724134523, 4429366.632383551448584 ], [ 483673.998137331393082, 4429364.408409464173019 ], [ 483905.824752970889676, 4430356.998221642337739 ], [ 484910.785985150490887, 4430354.937147707678378 ], [ 486070.349119458987843, 4435318.891890904866159 ], [ 487075.065857865614817, 4435317.114552462473512 ], [ 486843.11225126311183, 4434324.179242908023298 ], [ 489857.4086326751858, 4434319.554341398179531 ], [ 490321.067310889658984, 4436305.663863116875291 ], [ 492330.402227456215769, 4436303.366868478246033 ], [ 493025.933138488268014, 4439283.143129972741008 ], [ 495034.974202528770547, 4439281.561090433970094 ], [ 494571.43787024077028, 4437294.864287659525871 ], [ 496580.674556557030883, 4437293.692489452660084 ], [ 497507.534785459749401, 4441267.560387826524675 ], [ 499516.379747204482555, 4441267.165818065404892 ], [ 499748.108752288098913, 4442260.837932273745537 ], [ 500752.48223685787525, 4442260.871125366538763 ], [ 500289.166924689314328, 4440273.523046617396176 ], [ 499284.695480121299624, 4440273.551287737675011 ], [ 499053.055954631592613, 4439279.994310351088643 ], [ 501062.096759930427652, 4439280.00956913549453 ], [ 500830.599864187592175, 4438286.448762241750956 ], [ 502839.738578325370327, 4438286.934985317289829 ], [ 502377.07461550552398, 4436299.863145840354264 ], [ 501372.407419801689684, 4436299.614925108850002 ], [ 501141.09358823223738, 4435306.19598051905632 ], [ 502145.809677787357941, 4435306.413519624620676 ], [ 501914.589440662821289, 4434313.021381232887506 ], [ 496890.764590323844459, 4434313.416605228558183 ], [ 496659.344718405394815, 4433320.234817067161202 ], [ 495654.530836328107398, 4433320.743240064941347 ], [ 495885.999581218580715, 4434313.894537025131285 ], [ 493876.469464860914741, 4434315.249287942424417 ], [ 493644.902968753362074, 4433322.158885956741869 ], [ 494649.716922244406305, 4433321.384596339426935 ], [ 493261.55235390830785, 4427363.861179958097637 ], [ 494266.659208027471323, 4427363.037519346922636 ], [ 494035.504109888686799, 4426370.286622635088861 ], [ 498056.126245013379958, 4426368.198048264719546 ], [ 497825.210979318304453, 4425375.382801895961165 ], [ 498830.415206695441157, 4425375.162051619030535 ], [ 498599.593440571858082, 4424382.37353347055614 ], [ 499604.846391323546413, 4424382.255046677775681 ], [ 499374.118097248894628, 4423389.49324141535908 ], [ 498368.816429064667318, 4423389.642142442055047 ], [ 498138.084175724477973, 4422396.967847879976034 ], [ 497132.733790814352687, 4422397.27975345402956 ], [ 496671.306207732995972, 4420412.162990379147232 ], [ 497676.753957731591072, 4420411.790425676852465 ], [ 497446.156000161310658, 4419419.287236835807562 ], [ 499457.148771195614245, 4419418.879090299829841 ], [ 499687.649412882165052, 4420411.442959067411721 ], [ 500693.097133154748008, 4420411.468057123944163 ], [ 500923.593844362942036, 4421404.119380791671574 ], [ 502934.391973293328192, 4421404.62813879083842 ], [ 502473.637916017498355, 4419419.260808793827891 ], [ 500462.64514679525746, 4419418.873804690316319 ], [ 500001.87536283605732, 4417433.856391151435673 ], [ 498996.281720523897093, 4417433.922377525828779 ], [ 498765.915318623592611, 4416441.529472400434315 ], [ 499771.55757233366603, 4416441.433168903924525 ], [ 499541.284520877350587, 4415449.066895610652864 ], [ 500546.975367878039833, 4415449.072705729864538 ], [ 500316.795639395888429, 4414456.733048935420811 ], [ 501322.535069190547802, 4414456.840936565771699 ], [ 501092.448636226647068, 4413464.527880932204425 ], [ 499080.872649257420562, 4413464.505073811858892 ], [ 499311.056212006194983, 4414456.757540749385953 ], [ 497299.577333905734122, 4414457.203662731684744 ], [ 497529.902808825892862, 4415449.452501106075943 ], [ 494512.830081309482921, 4415451.023974098265171 ], [ 494282.358843955851626, 4414458.865692062303424 ], [ 491265.139963449619245, 4414461.719138536602259 ], [ 491034.567810273030773, 4413469.70786167960614 ], [ 490028.77947900124127, 4413470.953788098879158 ], [ 489337.186573254235554, 4410495.349839203059673 ], [ 488331.25250189419603, 4410496.817950054071844 ], [ 488100.762785852188244, 4409505.093042261898518 ], [ 485082.814417970599607, 4409510.380485305562615 ], [ 485313.44972242845688, 4410502.015866727568209 ], [ 483301.580654813908041, 4410506.14246651250869 ], [ 483994.047632085508667, 4413481.208723649382591 ], [ 481982.469457999744918, 4413485.68585029989481 ], [ 482213.478917648317292, 4414477.428014244884253 ], [ 480201.997396257473156, 4414482.375068293884397 ], [ 479739.829102367744781, 4412499.066143718548119 ], [ 480745.667122346756514, 4412496.466993862763047 ], [ 480283.7760778068332, 4410513.324353646486998 ], [ 479277.840927923214622, 4410515.982847028411925 ], [ 479046.914394027786329, 4409524.525733467191458 ], [ 481058.881627619965002, 4409519.281706012785435 ], [ 480828.097189201915171, 4408527.821646397002041 ], [ 481834.129109554225579, 4408525.368312620557845 ], [ 481603.438195843715221, 4407533.934930433519185 ], [ 479591.277185895654839, 4407539.033081538975239 ], [ 479822.065121995226946, 4408530.407187465578318 ], [ 478816.032900227524806, 4408533.124936103820801 ], [ 478585.196449929557275, 4407541.780424728058279 ], [ 477579.115549677924719, 4407544.659946730360389 ], [ 477348.275644547306001, 4406553.401234600692987 ], [ 475336.016310729784891, 4406559.615816105157137 ], [ 475105.124489724868909, 4405568.47226329986006 ], [ 476111.302738870144822, 4405565.269433988258243 ], [ 475880.504491850850172, 4404574.152569231577218 ], [ 472861.823725087975617, 4404584.245659602805972 ], [ 473785.86920329509303, 4408548.696803602389991 ], [ 472779.835892354196403, 4408552.207804311998188 ], [ 473242.226436691824347, 4410534.711403668858111 ], [ 471230.353386922448408, 4410542.012395978905261 ], [ 470999.038434143818449, 4409550.791346025653183 ], [ 472005.023624637280591, 4409547.045309363864362 ], [ 471542.626266012550332, 4407564.712852226570249 ], [ 469530.461507330823224, 4407572.454600306227803 ], [ 470224.416536346077919, 4410545.861295092850924 ], [ 468212.542145408224314, 4410553.955901307985187 ], [ 468444.047985607176088, 4411545.145010295324028 ], [ 467438.159012435644399, 4411549.361405998468399 ], [ 467669.758642204571515, 4412540.577314663678408 ], [ 468675.599018376145978, 4412536.390253281220794 ], [ 468907.195240364759229, 4413527.691660440526903 ], [ 467901.403475651750341, 4413531.849365443922579 ], [ 468133.093509426282253, 4414523.177588518708944 ], [ 467127.350128796766512, 4414527.438301670365036 ], [ 466895.611466965579893, 4413536.139428017660975 ], [ 465889.819206664222293, 4413540.561848629266024 ], [ 466585.316757123160642, 4416514.539013622328639 ], [ 467590.963083430891857, 4416510.204620452597737 ], [ 468286.721542522602249, 4419484.775980777107179 ], [ 463259.217692678503226, 4419507.332146568223834 ], [ 463491.471179490268696, 4420498.821581684052944 ], [ 462486.01833765313495, 4420503.70110881421715 ], [ 462718.365830464637838, 4421495.217465311288834 ], [ 460707.556784274289384, 4421505.315639672800899 ], [ 460940.047072008135729, 4422496.829638533294201 ], [ 457923.977568523027003, 4422512.883650305680931 ], [ 458156.659496779262554, 4423504.366120181046426 ], [ 459161.967520983482245, 4423498.911387874744833 ], [ 459627.369787890871521, 4425482.103510891087353 ], [ 458622.159371560846921, 4425487.499718460254371 ], [ 458854.977311453549191, 4426479.150907446630299 ], [ 456844.653203372145072, 4426490.282955071888864 ], [ 457543.672140789683908, 4429465.398666866123676 ], [ 456538.656192277150694, 4429471.076045048423111 ], [ 457004.993365547037683, 4431454.709587400779128 ], [ 458009.911519095709082, 4431449.090825877152383 ], [ 458243.099224287259858, 4432441.021501853130758 ], [ 459247.968150617205538, 4432435.564998248592019 ], [ 458781.735902657324914, 4430451.701334991492331 ], [ 460791.668486749695148, 4430441.069462045095861 ], [ 461024.664148128940724, 4431433.03186262678355 ], [ 462029.581105341902003, 4431427.944646732881665 ], [ 462262.573155702557415, 4432419.992979416623712 ], [ 463267.440924127760809, 4432415.068135278299451 ], [ 463034.4977820252534, 4431422.990315847098827 ], [ 464039.414185601868667, 4431418.168869436718524 ], [ 463573.761484521091916, 4429434.12379162479192 ], [ 464578.775386753084604, 4429429.376206172630191 ], [ 464346.065788784762844, 4428437.408924491144717 ], [ 466356.19052743667271, 4428428.253185728564858 ], [ 466588.802411046752241, 4429420.279510917142034 ], [ 468598.828444764541928, 4429411.7141132960096 ], [ 468366.314267026027665, 4428419.628628437407315 ], [ 469371.375780821603257, 4428415.515541676431894 ], [ 469138.955631656339392, 4427423.457016305066645 ], [ 470144.065751223766711, 4427419.447093289345503 ], [ 470608.8535474864766, 4429403.680009629577398 ], [ 471613.865768344374374, 4429399.86219194252044 ], [ 470916.898316963866819, 4426423.508716689422727 ], [ 472927.215102853311691, 4426416.093330218456686 ], [ 473391.619636745657772, 4428400.391130405478179 ], [ 476406.800428361049853, 4428390.442143344320357 ], [ 476638.923865524819121, 4429382.765429022721946 ], [ 477643.934935679310001, 4429379.74453897215426 ], [ 477876.054598285700195, 4430372.154471641406417 ], [ 478881.016656680381857, 4430369.296308847144246 ], [ 479577.499337693792768, 4433346.957014188170433 ], [ 481587.129759210161865, 4433341.819206709973514 ] ], [ [ 498821.461174323805608, 4438286.49485497828573 ], [ 498126.945340327685699, 4435306.341311983764172 ], [ 499131.661426878534257, 4435306.159876700490713 ], [ 499594.529416740755551, 4437292.932666049338877 ], [ 500599.147687731543556, 4437292.945491167716682 ], [ 500830.599864187592175, 4438286.448762241750956 ], [ 498821.461174323805608, 4438286.49485497828573 ] ], [ [ 478271.905619796481915, 4410518.773606379516423 ], [ 478502.925750081776641, 4411510.257434708997607 ], [ 475485.264490686240606, 4411519.334590937942266 ], [ 475716.475403491698671, 4412510.785986972972751 ], [ 474710.636535749479663, 4412514.046760320663452 ], [ 474479.377040619438048, 4411522.624901830218732 ], [ 473473.489395970129408, 4411526.047509375959635 ], [ 473242.226436691824347, 4410534.711403668858111 ], [ 478271.905619796481915, 4410518.773606379516423 ] ], [ [ 490862.173934126738459, 4434318.278633819893003 ], [ 491866.939168382668868, 4434317.1358891306445 ], [ 492098.648274064355064, 4435310.222746509127319 ], [ 491093.93193634855561, 4435311.335123382508755 ], [ 490862.173934126738459, 4434318.278633819893003 ] ], [ [ 472850.822139131953008, 4417482.134196580387652 ], [ 473856.418447425705381, 4417478.624028380960226 ], [ 474319.718365030013956, 4419462.082140273414552 ], [ 471303.220926202833652, 4419472.832671414129436 ], [ 471071.402335678751115, 4418481.164126571267843 ], [ 472076.950382094888482, 4418477.4185388116166 ], [ 471613.546012843318749, 4416494.191494336351752 ], [ 472619.191189276694786, 4416490.519322295673192 ], [ 472850.822139131953008, 4417482.134196580387652 ] ], [ [ 476179.032489346573129, 4414493.857765235938132 ], [ 478190.515273842960596, 4414487.851651171222329 ], [ 478653.058163905283436, 4416471.267579863779247 ], [ 477647.414116282830946, 4416474.145099434070289 ], [ 477878.801781684276648, 4417465.908068508841097 ], [ 476873.206217766040936, 4417468.888352236710489 ], [ 477336.214063412277028, 4419452.524376950226724 ], [ 475325.217114446335472, 4419458.763689888641238 ], [ 475093.59328808466671, 4418466.976782755926251 ], [ 476099.140537604747806, 4418463.761198562569916 ], [ 475636.125506082316861, 4416480.297462562099099 ], [ 476641.769899544247892, 4416477.155060224235058 ], [ 476179.032489346573129, 4414493.857765235938132 ] ] ], [ [ [ 475633.912622208357789, 4429385.919139452278614 ], [ 475866.129982864134945, 4430378.269344950094819 ], [ 476871.092376158456318, 4430375.14548356924206 ], [ 476638.923865524819121, 4429382.765429022721946 ], [ 475633.912622208357789, 4429385.919139452278614 ] ] ], [ [ [ 455228.490567660774104, 4432458.188512838445604 ], [ 455461.870420276129153, 4433450.08762254845351 ], [ 456466.691354655544274, 4433444.261674053966999 ], [ 456700.067634352308232, 4434436.246513755992055 ], [ 457704.839297707774676, 4434430.582868811674416 ], [ 457471.511968452832662, 4433438.568672078661621 ], [ 458476.332269064849243, 4433433.008616014383733 ], [ 458243.099224287259858, 4432441.021501853130758 ], [ 455228.490567660774104, 4432458.188512838445604 ] ] ], [ [ [ 467446.703067996248137, 4437362.773200731724501 ], [ 467679.770787939603906, 4438355.279808182269335 ], [ 468684.343813141866121, 4438351.064699595794082 ], [ 467985.423193622205872, 4435373.626010186038911 ], [ 468990.142901273153257, 4435369.454757871106267 ], [ 468757.308695579995401, 4434377.058996356092393 ], [ 470766.845311627956107, 4434369.056001523509622 ], [ 470068.907287491078023, 4431392.03073700517416 ], [ 471073.821987159026321, 4431388.139468242414296 ], [ 470608.8535474864766, 4429403.680009629577398 ], [ 469603.841108776046894, 4429407.630649938248098 ], [ 469836.351612130121794, 4430399.802371552214026 ], [ 468831.387812443601433, 4430403.856189295649529 ], [ 469063.992366677033715, 4431396.054886922240257 ], [ 466049.246203124930616, 4431408.924627991393209 ], [ 466282.042633339820895, 4432401.091081878170371 ], [ 464272.308421602356248, 4432410.276204648427665 ], [ 464505.247910091478843, 4433402.440111342817545 ], [ 466514.884286969027016, 4433393.314151699654758 ], [ 466747.771160634350963, 4434385.593867965042591 ], [ 465743.002030109229963, 4434390.060758695937693 ], [ 465975.983065888984129, 4435382.367511359974742 ], [ 462961.820982601202559, 4435396.47726162429899 ], [ 463428.212563443055842, 4437381.083158135414124 ], [ 464432.835572604672052, 4437376.306081206537783 ], [ 464666.05026631092187, 4438368.723653752356768 ], [ 465670.624021860654466, 4438364.109284786507487 ], [ 465204.337856790109072, 4436379.271565301343799 ], [ 466209.00932949106209, 4436374.730949273332953 ], [ 466442.080817532376386, 4437367.151102994568646 ], [ 467446.703067996248137, 4437362.773200731724501 ] ] ], [ [ [ 462961.820982601202559, 4435396.47726162429899 ], [ 462728.693097689538263, 4434404.259256384335458 ], [ 461723.922915316186845, 4434409.258032470010221 ], [ 461957.099754227267113, 4435401.446513313800097 ], [ 462961.820982601202559, 4435396.47726162429899 ] ] ], [ [ [ 457166.956276218465064, 4436420.385587456636131 ], [ 456700.067634352308232, 4434436.246513755992055 ], [ 455695.295652645349037, 4434442.043134234845638 ], [ 456162.282243365421891, 4436426.123485230840743 ], [ 457166.956276218465064, 4436420.385587456636131 ] ] ], [ [ [ 462190.321879136550706, 4436393.691590414382517 ], [ 461957.099754227267113, 4435401.446513313800097 ], [ 460952.378246592241339, 4435406.54876668099314 ], [ 461185.649342197924852, 4436398.764326178468764 ], [ 462190.321879136550706, 4436393.691590414382517 ] ] ], [ [ [ 488311.732110543933231, 4436308.492942891083658 ], [ 488079.78250138182193, 4435315.470206657424569 ], [ 487075.065857865614817, 4435317.114552462473512 ], [ 487307.064385542878881, 4436310.107015075162053 ], [ 488311.732110543933231, 4436308.492942891083658 ] ] ], [ [ [ 456395.843595068785362, 4437418.248385444283485 ], [ 456162.282243365421891, 4436426.123485230840743 ], [ 455157.607889248989522, 4436431.99441719148308 ], [ 455391.218239373352844, 4437424.089951714500785 ], [ 456395.843595068785362, 4437418.248385444283485 ] ] ], [ [ [ 463661.476252638385631, 4438373.471110478974879 ], [ 463428.212563443055842, 4437381.083158135414124 ], [ 462423.589286684175022, 4437385.993294292129576 ], [ 462656.901973506319337, 4438378.351655476726592 ], [ 463661.476252638385631, 4438373.471110478974879 ] ] ], [ [ [ 499979.882491776370443, 4443254.567661333829165 ], [ 499748.108752288098913, 4442260.837932273745537 ], [ 498743.73526588990353, 4442260.93793479539454 ], [ 498975.558009198750369, 4443254.636942337267101 ], [ 499979.882491776370443, 4443254.567661333829165 ] ] ], [ [ [ 471787.676757063600235, 4447282.639313188381493 ], [ 472021.098090254701674, 4448275.775241666473448 ], [ 473025.180032659030985, 4448272.125477153807878 ], [ 472791.807828547374811, 4447278.959530836902559 ], [ 471787.676757063600235, 4447282.639313188381493 ] ] ], [ [ [ 474192.71785918821115, 4453238.813427242450416 ], [ 475196.553752413950861, 4453235.44760912284255 ], [ 474729.501660569920205, 4451248.540366481989622 ], [ 473725.567381206143182, 4451251.966480060480535 ], [ 473492.059812441468239, 4450258.62892091833055 ], [ 474496.043262863066047, 4450255.172693233937025 ], [ 474029.2617812048411, 4448268.609088450670242 ], [ 473025.180032659030985, 4448272.125477153807878 ], [ 473258.597361774533056, 4449265.348596902564168 ], [ 472254.564563098712824, 4449268.968321195803583 ], [ 472021.098090254701674, 4448275.775241666473448 ], [ 471017.015946778061334, 4448279.558382380753756 ], [ 471951.349312464415561, 4452252.553736277855933 ], [ 472955.234785071399529, 4452248.890774454921484 ], [ 473422.573901385301724, 4454235.792064245790243 ], [ 474426.360761477670167, 4454232.32287709787488 ], [ 474192.71785918821115, 4453238.813427242450416 ] ] ], [ [ [ 494366.855862272030208, 4410489.993238463066518 ], [ 493360.92212123342324, 4410490.800031885504723 ], [ 493821.550830253807362, 4412474.719429228454828 ], [ 495833.224120128026698, 4412473.358479361981153 ], [ 495372.789560292614624, 4410489.318708209320903 ], [ 496378.723222976026591, 4410488.776441050693393 ], [ 495918.564889979490545, 4408504.903283228166401 ], [ 494912.534216477593873, 4408505.505736201070249 ], [ 495142.639484631479718, 4409497.38388750795275 ], [ 494136.657272097945679, 4409498.088492610491812 ], [ 494366.855862272030208, 4410489.993238463066518 ] ] ], [ [ [ 498390.590473061543889, 4410488.088695800863206 ], [ 496378.723222976026591, 4410488.776441050693393 ], [ 496839.060713652172126, 4412472.87648643180728 ], [ 497844.897283111407887, 4412472.526814761571586 ], [ 497614.754684902203735, 4411480.418238639831543 ], [ 498620.639776257215999, 4411480.170681794174016 ], [ 498390.590473061543889, 4410488.088695800863206 ] ] ], [ [ [ 499856.570380466175266, 4412472.224435069598258 ], [ 499626.524857094103936, 4411480.055417029187083 ], [ 498620.639776257215999, 4411480.170681794174016 ], [ 498850.733836163883097, 4412472.309464315883815 ], [ 499856.570380466175266, 4412472.224435069598258 ] ] ], [ [ [ 502098.236638345406391, 4413464.73780997376889 ], [ 501638.295017895579804, 4411480.221763703040779 ], [ 500632.40993508376414, 4411480.072444330900908 ], [ 501092.448636226647068, 4413464.527880932204425 ], [ 502098.236638345406391, 4413464.73780997376889 ] ] ], [ [ [ 502558.357081935449969, 4415449.481551702134311 ], [ 502788.484353528241627, 4416441.938884656876326 ], [ 500777.199824315262958, 4416441.469303109683096 ], [ 501007.46900516183814, 4417433.922871608287096 ], [ 505029.843726540566422, 4417435.51346212439239 ], [ 504799.768967134179547, 4416442.938217241317034 ], [ 503794.126645977376029, 4416442.37233204767108 ], [ 503564.047964234312531, 4415449.884587598964572 ], [ 502558.357081935449969, 4415449.481551702134311 ] ] ], [ [ [ 504400.626518379256595, 4423390.738361296243966 ], [ 503939.791067028942052, 4421405.081392925232649 ], [ 502934.391973293328192, 4421404.62813879083842 ], [ 503395.324798380606808, 4423390.224053918384016 ], [ 504400.626518379256595, 4423390.738361296243966 ] ] ], [ [ [ 506180.887385579582769, 4422399.246654788963497 ], [ 505175.536901320156176, 4422398.497659808956087 ], [ 505405.928271310927812, 4423391.385310461744666 ], [ 508421.833802937762812, 4423394.12200946547091 ], [ 508191.588500619924162, 4422401.142483188770711 ], [ 507186.23791616782546, 4422400.128262550570071 ], [ 506955.988555890566204, 4421407.236656489782035 ], [ 505950.589350779773667, 4421406.385651702992618 ], [ 506180.887385579582769, 4422399.246654788963497 ] ] ], [ [ [ 508882.458237897255458, 4425380.253049151040614 ], [ 510892.867399338982068, 4425382.863651751540601 ], [ 510432.437793282326311, 4423396.609686070121825 ], [ 508421.833802937762812, 4423394.12200946547091 ], [ 508882.458237897255458, 4425380.253049151040614 ] ] ], [ [ [ 502851.232103938818909, 4425375.606049971655011 ], [ 502620.605255909147672, 4424382.695611094124615 ], [ 499604.846391323546413, 4424382.255046677775681 ], [ 499835.619425346783828, 4425375.07400129083544 ], [ 502851.232103938818909, 4425375.606049971655011 ] ] ], [ [ [ 507877.253760321356822, 4425379.146798660047352 ], [ 507646.870521986100357, 4424386.08330291416496 ], [ 505636.364296723389998, 4424384.330213188193738 ], [ 505866.844973965489771, 4425377.332398703321815 ], [ 507877.253760321356822, 4425379.146798660047352 ] ] ], [ [ [ 513678.390809403790627, 4424394.52668531332165 ], [ 513448.344383151619695, 4423401.336019554175436 ], [ 512443.042095916694961, 4423399.627932370640337 ], [ 512212.991527783451602, 4422406.525496900081635 ], [ 511207.640652518544812, 4422404.980823522433639 ], [ 511667.883718238794245, 4424391.181537881493568 ], [ 512673.137216475384776, 4424392.787775632925332 ], [ 512903.276885825383943, 4425386.005057466216385 ], [ 513908.481769706937484, 4425387.774811906740069 ], [ 514368.797277883510105, 4427374.443570835515857 ], [ 513363.689856340468396, 4427372.612060046754777 ], [ 513593.963150218303781, 4428366.001842439174652 ], [ 515604.080595085804816, 4428369.859476111829281 ], [ 515834.300888575438876, 4429363.368717385455966 ], [ 516839.311016043531708, 4429365.527710065245628 ], [ 515918.89185623958474, 4425391.712424898520112 ], [ 514913.68675734550925, 4425389.677267649210989 ], [ 514683.644504534313455, 4424396.398267106153071 ], [ 513678.390809403790627, 4424394.52668531332165 ] ] ], [ [ [ 509343.261089200619608, 4427366.61361004319042 ], [ 508882.458237897255458, 4425380.253049151040614 ], [ 507877.253760321356822, 4425379.146798660047352 ], [ 508338.1540898027597, 4427365.445895024575293 ], [ 509343.261089200619608, 4427366.61361004319042 ] ] ], [ [ [ 503844.307962845952716, 4438287.377715338952839 ], [ 502839.738578325370327, 4438286.934985317289829 ], [ 503071.137596218322869, 4439280.557260402478278 ], [ 504075.658044301264454, 4439281.030768282711506 ], [ 503844.307962845952716, 4438287.377715338952839 ] ] ], [ [ [ 504307.052797168376856, 4440274.741455082781613 ], [ 505311.524325415259227, 4440275.378900600597262 ], [ 505080.178522113303188, 4439281.637384388595819 ], [ 504075.658044301264454, 4439281.030768282711506 ], [ 504307.052797168376856, 4440274.741455082781613 ] ] ], [ [ [ 504538.49221782933455, 4441268.509806714020669 ], [ 504307.052797168376856, 4440274.741455082781613 ], [ 503302.581300287740305, 4440274.237146973609924 ], [ 503534.069686920731328, 4441267.974675990641117 ], [ 504538.49221782933455, 4441268.509806714020669 ] ] ], [ [ [ 511107.302423617627937, 4439288.07235842011869 ], [ 510102.781613560160622, 4439286.667091091163456 ], [ 510333.882693155843299, 4440280.563192173838615 ], [ 509329.410898357571568, 4440279.260058314539492 ], [ 509560.605513383226935, 4441273.182960812933743 ], [ 505542.914781735627912, 4441269.178104025311768 ], [ 506005.829638909606729, 4443256.949696537107229 ], [ 507010.154273305495735, 4443257.812989671714604 ], [ 507473.149669948325027, 4445245.877622112631798 ], [ 508477.376329315709881, 4445246.93611759506166 ], [ 508014.478958501946181, 4443258.809507937170565 ], [ 510023.128510408161674, 4443261.202220307663083 ], [ 509791.844718619424384, 4442267.163671122863889 ], [ 511800.592531494970899, 4442270.027171121910214 ], [ 511107.302423617627937, 4439288.07235842011869 ] ] ], [ [ [ 503611.513054608600214, 4450212.984667290002108 ], [ 501603.550928689423017, 4450212.291585482656956 ], [ 501835.682413523027208, 4451206.483350333757699 ], [ 500831.750493482802995, 4451206.306052038446069 ], [ 501296.245853778033052, 4453194.801426697522402 ], [ 500292.412231603753753, 4453194.695775625295937 ], [ 501222.1361980214715, 4457172.258093419484794 ], [ 502225.773058487742674, 4457172.487636439502239 ], [ 501993.32420588482637, 4456177.979073448106647 ], [ 504000.696401696128305, 4456178.776958553120494 ], [ 503768.39063842734322, 4455184.264367342926562 ], [ 504772.125968326348811, 4455184.832644429989159 ], [ 503611.513054608600214, 4450212.984667290002108 ] ] ] ] } }
]
}
