{
"type": "FeatureCollection",
"name": "urban-2020",
"crs": { "type": "name", "properties": { "name": "urn:ogc:def:crs:EPSG::32636" } },
"features": [
{ "type": "Feature", "properties": { "year": 2020 }, "geometry": { "type": "MultiPolygon", "coordinates": [ [ [ [ 480681.124609384045471, 4403568.764318808913231 ], [ 480450.658746917324606, 4402577.612244287505746 ], [ 481456.981359982863069, 4402575.113357754424214 ], [ 481226.608939270838164, 4401583.987904716283083 ], [ 478207.49536903045373, 4401591.969224309548736 ], [ 477977.022731200966518, 4400600.988429827615619 ], [ 478983.442490471177734, 4400598.166516611352563 ], [ 478522.72916508722119, 4398616.314225186593831 ], [ 476509.695914937416092, 4398622.207714907824993 ], [ 476279.310086181794759, 4397631.424405495636165 ], [ 475272.744819350948092, 4397634.598371936939657 ], [ 475503.179019757255446, 4398625.352335815317929 ], [ 474496.661934071336873, 4398628.628874536603689 ], [ 474727.189614430710208, 4399619.409462827257812 ], [ 475733.658311959996354, 4399616.162262570112944 ], [ 476194.752158289600629, 4401597.950124814175069 ], [ 477201.123851911688689, 4401594.893672278150916 ], [ 477892.957394038909115, 4404568.084304597228765 ], [ 479905.409614739299286, 4404562.544406699948013 ], [ 479674.850282965286169, 4403571.365695521235466 ], [ 480681.124609384045471, 4403568.764318808913231 ] ], [ [ 476970.602801176253706, 4400603.942318258807063 ], [ 476740.126821059791837, 4399613.047009151428938 ], [ 477746.595149543369189, 4399610.063702234067023 ], [ 477977.022731200966518, 4400600.988429827615619 ], [ 476970.602801176253706, 4400603.942318258807063 ] ], [ [ 478668.575799668557011, 4403574.099134271033108 ], [ 478438.013059648976196, 4402583.006115759722888 ], [ 479444.335982731601689, 4402580.243163527920842 ], [ 479674.850282965286169, 4403571.365695521235466 ], [ 478668.575799668557011, 4403574.099134271033108 ] ] ], [ [ [ 475188.380280373850837, 4401601.138582247309387 ], [ 475419.043259227706585, 4402592.087173460051417 ], [ 476425.366705674678087, 4402588.928120407275856 ], [ 476194.752158289600629, 4401597.950124814175069 ], [ 475188.380280373850837, 4401601.138582247309387 ] ] ], [ [ [ 476111.302738870144822, 4405565.269433988258243 ], [ 475880.504491850850172, 4404574.152569231577218 ], [ 473868.050846144265961, 4404580.749203219078481 ], [ 474098.946049016085453, 4405571.807214329019189 ], [ 476111.302738870144822, 4405565.269433988258243 ] ] ], [ [ [ 473092.767409003339708, 4405575.274287432432175 ], [ 473323.756218920752872, 4406566.359000627882779 ], [ 474329.886363438447006, 4406562.921332813799381 ], [ 474098.946049016085453, 4405571.807214329019189 ], [ 473092.767409003339708, 4405575.274287432432175 ] ] ], [ [ [ 480745.667122346756514, 4412496.466993862763047 ], [ 480283.7760778068332, 4410513.324353646486998 ], [ 479277.840927923214622, 4410515.982847028411925 ], [ 479046.914394027786329, 4409524.525733467191458 ], [ 481058.881627619965002, 4409519.281706012785435 ], [ 480828.097189201915171, 4408527.821646397002041 ], [ 481834.129109554225579, 4408525.368312620557845 ], [ 481603.438195843715221, 4407533.934930433519185 ], [ 479591.277185895654839, 4407539.033081538975239 ], [ 479822.065121995226946, 4408530.407187465578318 ], [ 478816.032900227524806, 4408533.124936103820801 ], [ 478585.196449929557275, 4407541.780424728058279 ], [ 476573.034477423818316, 4407547.671647858805954 ], [ 476342.146068522357382, 4406556.44245014898479 ], [ 474329.886363438447006, 4406562.921332813799381 ], [ 474791.902313444879837, 4408545.318012434057891 ], [ 472779.835892354196403, 4408552.207804311998188 ], [ 473242.226436691824347, 4410534.711403668858111 ], [ 475254.098669151309878, 4410527.939483314752579 ], [ 475022.977942276338581, 4409536.600633880123496 ], [ 478040.930540700093843, 4409527.346102421171963 ], [ 478733.990928148909006, 4412501.797617657110095 ], [ 480745.667122346756514, 4412496.466993862763047 ] ] ], [ [ [ 468675.599018376145978, 4412536.390253281220794 ], [ 468907.195240364759229, 4413527.691660440526903 ], [ 469912.986768748494796, 4413523.666312563233078 ], [ 470144.579552803654224, 4414515.053321561776102 ], [ 467127.350128796766512, 4414527.438301670365036 ], [ 466895.611466965579893, 4413536.139428017660975 ], [ 465889.819206664222293, 4413540.561848629266024 ], [ 466585.316757123160642, 4416514.539013622328639 ], [ 467590.963083430891857, 4416510.204620452597737 ], [ 468286.721542522602249, 4419484.775980777107179 ], [ 463259.217692678503226, 4419507.332146568223834 ], [ 463491.471179490268696, 4420498.821581684052944 ], [ 462486.01833765313495, 4420503.70110881421715 ], [ 462718.365830464637838, 4421495.217465311288834 ], [ 460707.556784274289384, 4421505.315639672800899 ], [ 460940.047072008135729, 4422496.829638533294201 ], [ 457923.977568523027003, 4422512.883650305680931 ], [ 458156.659496779262554, 4423504.366120181046426 ], [ 459161.967520983482245, 4423498.911387874744833 ], [ 459860.13890213961713, 4426473.783995467238128 ], [ 456844.653203372145072, 4426490.282955071888864 ], [ 457543.672140789683908, 4429465.398666866123676 ], [ 456538.656192277150694, 4429471.076045048423111 ], [ 456771.80209854664281, 4430462.86463862657547 ], [ 457776.76915682060644, 4430457.216557678766549 ], [ 458243.099224287259858, 4432441.021501853130758 ], [ 459247.968150617205538, 4432435.564998248592019 ], [ 458781.735902657324914, 4430451.701334991492331 ], [ 460791.668486749695148, 4430441.069462045095861 ], [ 461024.664148128940724, 4431433.03186262678355 ], [ 464039.414185601868667, 4431418.168869436718524 ], [ 463806.565205453545786, 4430426.118075245060027 ], [ 462801.599910297780298, 4430430.969015222974122 ], [ 462335.939991392835509, 4428447.095848655328155 ], [ 466356.19052743667271, 4428428.253185728564858 ], [ 466588.802411046752241, 4429420.279510917142034 ], [ 468598.828444764541928, 4429411.7141132960096 ], [ 468366.314267026027665, 4428419.628628437407315 ], [ 469371.375780821603257, 4428415.515541676431894 ], [ 469138.955631656339392, 4427423.457016305066645 ], [ 471149.175648788106628, 4427415.569934791885316 ], [ 470916.898316963866819, 4426423.508716689422727 ], [ 471922.056814466719516, 4426419.734656130895019 ], [ 471225.642127737635747, 4423443.801413020119071 ], [ 473236.251196703058667, 4423436.473503168672323 ], [ 473468.24674245971255, 4424428.453999426215887 ], [ 472462.99107861390803, 4424432.021973076276481 ], [ 473391.619636745657772, 4428400.391130405478179 ], [ 475401.740349598927423, 4428393.625680599361658 ], [ 475169.613168461131863, 4427401.388937873765826 ], [ 477179.830790568201337, 4427395.095016379840672 ], [ 477643.934935679310001, 4429379.74453897215426 ], [ 478648.945840119500645, 4429376.856468974612653 ], [ 479577.499337693792768, 4433346.957014188170433 ], [ 481587.129759210161865, 4433341.819206709973514 ], [ 481355.02160426491173, 4432349.148708229884505 ], [ 483364.749249427637551, 4432344.482491374015808 ], [ 483132.783836073765997, 4431351.808835485950112 ], [ 482127.871211088553537, 4431354.105558875016868 ], [ 481663.977633648144547, 4429368.989176286384463 ], [ 483673.998137331393082, 4429364.408409464173019 ], [ 483905.824752970889676, 4430356.998221642337739 ], [ 484910.785985150490887, 4430354.937147707678378 ], [ 485142.608719575917348, 4431347.614018998108804 ], [ 486147.5209929420962, 4431345.715925445780158 ], [ 486379.339815301587805, 4432338.479960099793971 ], [ 485374.476403710083105, 4432340.347898290492594 ], [ 486070.349119458987843, 4435318.891890904866159 ], [ 487075.065857865614817, 4435317.114552462473512 ], [ 486843.11225126311183, 4434324.179242908023298 ], [ 487847.877798632311169, 4434322.504645785316825 ], [ 487384.203126411943231, 4432336.744927206076682 ], [ 489393.929476836055983, 4432333.673576575703919 ], [ 489625.646612698503304, 4433326.585379743948579 ], [ 488620.832351158431266, 4433328.024337613023818 ], [ 488852.643256640061736, 4434320.963012003339827 ], [ 490862.173934126738459, 4434318.278633819893003 ], [ 490630.460797827749047, 4433325.279355775564909 ], [ 494649.716922244406305, 4433321.384596339426935 ], [ 493724.094586542574689, 4429349.473648754879832 ], [ 492719.085273892967962, 4429350.369447141885757 ], [ 492487.742940244264901, 4428357.564976091496646 ], [ 493492.801056012220215, 4428356.638856190256774 ], [ 493261.55235390830785, 4427363.861179958097637 ], [ 494266.659208027471323, 4427363.037519346922636 ], [ 494035.504109888686799, 4426370.286622635088861 ], [ 498056.126245013379958, 4426368.198048264719546 ], [ 497825.210979318304453, 4425375.382801895961165 ], [ 498830.415206695441157, 4425375.162051619030535 ], [ 498599.593440571858082, 4424382.37353347055614 ], [ 499604.846391323546413, 4424382.255046677775681 ], [ 499374.118097248894628, 4423389.49324141535908 ], [ 498368.816429064667318, 4423389.642142442055047 ], [ 498138.084175724477973, 4422396.967847879976034 ], [ 496127.38338441302767, 4422397.724271599203348 ], [ 495665.85843270609621, 4420412.668109396472573 ], [ 497676.753957731591072, 4420411.790425676852465 ], [ 497446.156000161310658, 4419419.287236835807562 ], [ 499457.148771195614245, 4419418.879090299829841 ], [ 499687.649412882165052, 4420411.442959067411721 ], [ 500693.097133154748008, 4420411.468057123944163 ], [ 500923.593844362942036, 4421404.119380791671574 ], [ 502934.391973293328192, 4421404.62813879083842 ], [ 502473.637916017498355, 4419419.260808793827891 ], [ 500462.64514679525746, 4419418.873804690316319 ], [ 500001.87536283605732, 4417433.856391151435673 ], [ 498996.281720523897093, 4417433.922377525828779 ], [ 498765.915318623592611, 4416441.529472400434315 ], [ 499771.55757233366603, 4416441.433168903924525 ], [ 499541.284520877350587, 4415449.066895610652864 ], [ 500546.975367878039833, 4415449.072705729864538 ], [ 500316.795639395888429, 4414456.733048935420811 ], [ 501322.535069190547802, 4414456.840936565771699 ], [ 501092.448636226647068, 4413464.527880932204425 ], [ 499080.872649257420562, 4413464.505073811858892 ], [ 499311.056212006194983, 4414456.757540749385953 ], [ 497299.577333905734122, 4414457.203662731684744 ], [ 497529.902808825892862, 4415449.452501106075943 ], [ 495518.52102190174628, 4415450.367741073481739 ], [ 495748.988471034856047, 4416442.61300927400589 ], [ 494743.346134322637226, 4416443.23906382266432 ], [ 494282.358843955851626, 4414458.865692062303424 ], [ 493276.619270693627186, 4414459.684461090713739 ], [ 493507.139099135703873, 4415451.812615906819701 ], [ 491495.75697955902433, 4415453.787126227281988 ], [ 491034.567810273030773, 4413469.70786167960614 ], [ 489022.991071934113279, 4413472.332065533846617 ], [ 488792.366648400668055, 4412480.437431341968477 ], [ 489798.203624791989569, 4412479.029187331907451 ], [ 489567.672655052330811, 4411487.161214489489794 ], [ 488561.787123898917343, 4411488.599402966909111 ], [ 488331.25250189419603, 4410496.817950054071844 ], [ 483301.580654813908041, 4410506.14246651250869 ], [ 483994.047632085508667, 4413481.208723649382591 ], [ 481982.469457999744918, 4413485.68585029989481 ], [ 482213.478917648317292, 4414477.428014244884253 ], [ 480201.997396257473156, 4414482.375068293884397 ], [ 479970.890736090776045, 4413490.692387376911938 ], [ 478965.10115059139207, 4413493.394185489043593 ], [ 478733.990928148909006, 4412501.797617657110095 ], [ 477728.152592034661211, 4412504.661415970884264 ], [ 477497.038837749336381, 4411513.150857711210847 ], [ 476491.151753840211313, 4411516.176576345227659 ], [ 476722.314086367725395, 4412507.657538968138397 ], [ 474710.636535749479663, 4412514.046760320663452 ], [ 474479.377040619438048, 4411522.624901830218732 ], [ 473473.489395970129408, 4411526.047509375959635 ], [ 473242.226436691824347, 4410534.711403668858111 ], [ 468212.542145408224314, 4410553.955901307985187 ], [ 468444.047985607176088, 4411545.145010295324028 ], [ 467438.159012435644399, 4411549.361405998468399 ], [ 467669.758642204571515, 4412540.577314663678408 ], [ 468675.599018376145978, 4412536.390253281220794 ] ], [ [ 472850.822139131953008, 4417482.134196580387652 ], [ 473856.418447425705381, 4417478.624028380960226 ], [ 474088.045850714668632, 4418470.324867285788059 ], [ 475093.59328808466671, 4418466.976782755926251 ], [ 474862.01455823238939, 4417475.24633183144033 ], [ 475867.610479147406295, 4417472.001106565818191 ], [ 475636.125506082316861, 4416480.297462562099099 ], [ 476641.769899544247892, 4416477.155060224235058 ], [ 475947.731404177087825, 4413502.293701653368771 ], [ 477959.311405202315655, 4413496.228337032720447 ], [ 478653.058163905283436, 4416471.267579863779247 ], [ 477647.414116282830946, 4416474.145099434070289 ], [ 478110.234503430081531, 4418457.72752982005477 ], [ 480121.327808857371565, 4418452.223858458921313 ], [ 480352.708225765149109, 4419444.159372193738818 ], [ 478341.712278105027508, 4419449.603513725101948 ], [ 478573.235102287086193, 4420441.536050602793694 ], [ 476562.335897072451189, 4420447.450847919099033 ], [ 476330.715678049542475, 4419455.57776889577508 ], [ 473314.219422231893986, 4419465.533120405860245 ], [ 473545.985748697654344, 4420457.317230588756502 ], [ 471535.08466789405793, 4420464.55761429015547 ], [ 471071.402335678751115, 4418481.164126571267843 ], [ 472076.950382094888482, 4418477.4185388116166 ], [ 471613.546012843318749, 4416494.191494336351752 ], [ 472619.191189276694786, 4416490.519322295673192 ], [ 472850.822139131953008, 4417482.134196580387652 ] ], [ [ 469060.305580721527804, 4418489.052808095701039 ], [ 470065.854071082198061, 4418485.042216193862259 ], [ 470297.721357831265777, 4419476.681243074126542 ], [ 469292.221565795014612, 4419480.66234605293721 ], [ 469060.305580721527804, 4418489.052808095701039 ] ] ], [ [ [ 471613.865768344374374, 4429399.86219194252044 ], [ 471381.498133714310825, 4428407.687749720178545 ], [ 470376.437067230581306, 4428411.535248914733529 ], [ 470608.8535474864766, 4429403.680009629577398 ], [ 471613.865768344374374, 4429399.86219194252044 ] ] ], [ [ [ 469603.841108776046894, 4429407.630649938248098 ], [ 469836.351612130121794, 4430399.802371552214026 ], [ 470841.315188595675863, 4430395.881405905820429 ], [ 470608.8535474864766, 4429403.680009629577398 ], [ 469603.841108776046894, 4429407.630649938248098 ] ] ], [ [ [ 456466.691354655544274, 4433444.261674053966999 ], [ 456233.360440218180884, 4432452.333258541300893 ], [ 455228.490567660774104, 4432458.188512838445604 ], [ 455461.870420276129153, 4433450.08762254845351 ], [ 456466.691354655544274, 4433444.261674053966999 ] ] ], [ [ [ 458476.332269064849243, 4433433.008616014383733 ], [ 458243.099224287259858, 4432441.021501853130758 ], [ 457238.229989957297221, 4432446.61092175077647 ], [ 457471.511968452832662, 4433438.568672078661621 ], [ 458476.332269064849243, 4433433.008616014383733 ] ] ], [ [ [ 484601.574392872105818, 4433335.109511409886181 ], [ 484369.61288422299549, 4432342.348741976544261 ], [ 483364.749249427637551, 4432344.482491374015808 ], [ 483596.759638265764806, 4433337.213141388259828 ], [ 484601.574392872105818, 4433335.109511409886181 ] ] ], [ [ [ 457704.839297707774676, 4434430.582868811674416 ], [ 457471.511968452832662, 4433438.568672078661621 ], [ 456466.691354655544274, 4433444.261674053966999 ], [ 456700.067634352308232, 4434436.246513755992055 ], [ 457704.839297707774676, 4434430.582868811674416 ] ] ], [ [ [ 468831.387812443601433, 4430403.856189295649529 ], [ 469063.992366677033715, 4431396.054886922240257 ], [ 466049.246203124930616, 4431408.924627991393209 ], [ 466282.042633339820895, 4432401.091081878170371 ], [ 465277.175655536644626, 4432405.617187015712261 ], [ 465510.066225532442331, 4433397.810660751536489 ], [ 466514.884286969027016, 4433393.314151699654758 ], [ 466747.771160634350963, 4434385.593867965042591 ], [ 465743.002030109229963, 4434390.060758695937693 ], [ 466442.080817532376386, 4437367.151102994568646 ], [ 467446.703067996248137, 4437362.773200731724501 ], [ 467679.770787939603906, 4438355.279808182269335 ], [ 468684.343813141866121, 4438351.064699595794082 ], [ 467752.54004666232504, 4434381.259947340004146 ], [ 470766.845311627956107, 4434369.056001523509622 ], [ 469836.351612130121794, 4430399.802371552214026 ], [ 468831.387812443601433, 4430403.856189295649529 ] ] ], [ [ [ 457166.956276218465064, 4436420.385587456636131 ], [ 456700.067634352308232, 4434436.246513755992055 ], [ 455695.295652645349037, 4434442.043134234845638 ], [ 456162.282243365421891, 4436426.123485230840743 ], [ 457166.956276218465064, 4436420.385587456636131 ] ] ], [ [ [ 488311.732110543933231, 4436308.492942891083658 ], [ 488079.78250138182193, 4435315.470206657424569 ], [ 487075.065857865614817, 4435317.114552462473512 ], [ 487307.064385542878881, 4436310.107015075162053 ], [ 488311.732110543933231, 4436308.492942891083658 ] ] ], [ [ [ 456162.282243365421891, 4436426.123485230840743 ], [ 455157.607889248989522, 4436431.99441719148308 ], [ 455391.218239373352844, 4437424.089951714500785 ], [ 456395.843595068785362, 4437418.248385444283485 ], [ 456162.282243365421891, 4436426.123485230840743 ] ] ], [ [ [ 463428.212563443055842, 4437381.083158135414124 ], [ 464432.835572604672052, 4437376.306081206537783 ], [ 464666.05026631092187, 4438368.723653752356768 ], [ 465670.624021860654466, 4438364.109284786507487 ], [ 464971.262631058343686, 4435386.937761157751083 ], [ 463966.541939086746424, 4435391.641011077910662 ], [ 464199.666129071556497, 4436383.945210497826338 ], [ 463194.994138974114321, 4436388.751885364763439 ], [ 463428.212563443055842, 4437381.083158135414124 ] ] ], [ [ [ 473959.120064608869143, 4452245.361305203288794 ], [ 473492.059812441468239, 4450258.62892091833055 ], [ 474496.043262863066047, 4450255.172693233937025 ], [ 474262.629968587891199, 4449261.86227751057595 ], [ 471250.53156535862945, 4449272.721450776793063 ], [ 471951.349312464415561, 4452252.553736277855933 ], [ 472955.234785071399529, 4452248.890774454921484 ], [ 473422.573901385301724, 4454235.792064245790243 ], [ 474426.360761477670167, 4454232.32287709787488 ], [ 474192.71785918821115, 4453238.813427242450416 ], [ 475196.553752413950861, 4453235.44760912284255 ], [ 474963.005158242362086, 4452241.965328143909574 ], [ 473959.120064608869143, 4452245.361305203288794 ] ] ], [ [ [ 484189.311565637530293, 4392654.391707489266992 ], [ 483959.630745417787693, 4391663.679445551708341 ], [ 482952.777041943569202, 4391665.843606972135603 ], [ 483182.50612890382763, 4392656.52639368455857 ], [ 484189.311565637530293, 4392654.391707489266992 ] ] ], [ [ [ 484189.311565637530293, 4392654.391707489266992 ], [ 484648.808105889125727, 4394635.984268102794886 ], [ 483642.099245963676367, 4394638.059938069432974 ], [ 483871.963269265019335, 4395628.910755746997893 ], [ 482865.302593426487874, 4395631.088712813332677 ], [ 483095.259915222006384, 4396621.966066932305694 ], [ 485108.484489849884994, 4396617.801077801734209 ], [ 484878.623819110624027, 4395626.864626798778772 ], [ 485885.2842508276226, 4395624.950325745157897 ], [ 485196.116878305037972, 4392652.38876205123961 ], [ 484189.311565637530293, 4392654.391707489266992 ] ] ], [ [ [ 486948.987916078767739, 4404547.31561965867877 ], [ 486718.767708365863655, 4403555.929346574470401 ], [ 485712.494160122703761, 4403557.738356464542449 ], [ 485252.091701169847511, 4401575.194191677495837 ], [ 484245.721201439213473, 4401577.194615718908608 ], [ 484015.538998598232865, 4400586.036568582989275 ], [ 482002.700821781414561, 4400590.492625273764133 ], [ 482463.303829707321711, 4402572.746503660455346 ], [ 481456.981359982863069, 4402575.113357754424214 ], [ 481687.398786690144334, 4403566.295003851875663 ], [ 480681.124609384045471, 4403568.764318808913231 ], [ 480911.635488916595932, 4404559.972594521939754 ], [ 481917.861215984274168, 4404557.532873149029911 ], [ 482378.921068686118815, 4406540.177402020432055 ], [ 483385.049716425302904, 4406537.929082539863884 ], [ 483615.598641263321042, 4407529.36549121607095 ], [ 484621.678671570378356, 4407527.279037941247225 ], [ 484391.178236504958477, 4406535.812911472283304 ], [ 488415.691194831568282, 4406528.669706979766488 ], [ 487955.212923330254853, 4404545.668438091874123 ], [ 486948.987916078767739, 4404547.31561965867877 ] ], [ [ 484936.537592071981635, 4404551.006251304410398 ], [ 485942.762808244209737, 4404549.09489066619426 ], [ 486173.076397551340051, 4405540.507766331546009 ], [ 485166.89963823457947, 4405542.389395126141608 ], [ 484936.537592071981635, 4404551.006251304410398 ] ] ], [ [ [ 494366.855862272030208, 4410489.993238463066518 ], [ 493360.92212123342324, 4410490.800031885504723 ], [ 493821.550830253807362, 4412474.719429228454828 ], [ 495833.224120128026698, 4412473.358479361981153 ], [ 495372.789560292614624, 4410489.318708209320903 ], [ 496378.723222976026591, 4410488.776441050693393 ], [ 495918.564889979490545, 4408504.903283228166401 ], [ 494912.534216477593873, 4408505.505736201070249 ], [ 495142.639484631479718, 4409497.38388750795275 ], [ 494136.657272097945679, 4409498.088492610491812 ], [ 494366.855862272030208, 4410489.993238463066518 ] ] ], [ [ [ 496839.060713652172126, 4412472.87648643180728 ], [ 497844.897283111407887, 4412472.526814761571586 ], [ 497384.656858004862443, 4410488.366436929441988 ], [ 496378.723222976026591, 4410488.776441050693393 ], [ 496839.060713652172126, 4412472.87648643180728 ] ] ], [ [ [ 502098.236638345406391, 4413464.73780997376889 ], [ 501638.295017895579804, 4411480.221763703040779 ], [ 500632.40993508376414, 4411480.072444330900908 ], [ 501092.448636226647068, 4413464.527880932204425 ], [ 502098.236638345406391, 4413464.73780997376889 ] ] ], [ [ [ 502788.484353528241627, 4416441.938884656876326 ], [ 500777.199824315262958, 4416441.469303109683096 ], [ 501007.46900516183814, 4417433.922871608287096 ], [ 505029.843726540566422, 4417435.51346212439239 ], [ 504799.768967134179547, 4416442.938217241317034 ], [ 503794.126645977376029, 4416442.37233204767108 ], [ 503564.047964234312531, 4415449.884587598964572 ], [ 502558.357081935449969, 4415449.481551702134311 ], [ 502788.484353528241627, 4416441.938884656876326 ] ] ], [ [ [ 503939.791067028942052, 4421405.081392925232649 ], [ 502934.391973293328192, 4421404.62813879083842 ], [ 503395.324798380606808, 4423390.224053918384016 ], [ 504400.626518379256595, 4423390.738361296243966 ], [ 503939.791067028942052, 4421405.081392925232649 ] ] ], [ [ [ 506180.887385579582769, 4422399.246654788963497 ], [ 505175.536901320156176, 4422398.497659808956087 ], [ 505405.928271310927812, 4423391.385310461744666 ], [ 508421.833802937762812, 4423394.12200946547091 ], [ 508191.588500619924162, 4422401.142483188770711 ], [ 507186.23791616782546, 4422400.128262550570071 ], [ 506955.988555890566204, 4421407.236656489782035 ], [ 505950.589350779773667, 4421406.385651702992618 ], [ 506180.887385579582769, 4422399.246654788963497 ] ] ], [ [ [ 508882.458237897255458, 4425380.253049151040614 ], [ 510892.867399338982068, 4425382.863651751540601 ], [ 510432.437793282326311, 4423396.609686070121825 ], [ 508421.833802937762812, 4423394.12200946547091 ], [ 508882.458237897255458, 4425380.253049151040614 ] ] ], [ [ [ 514913.68675734550925, 4425389.677267649210989 ], [ 513908.481769706937484, 4425387.774811906740069 ], [ 514138.617260416329373, 4426381.080430140718818 ], [ 515143.7735258116154, 4426383.013782107271254 ], [ 514913.68675734550925, 4425389.677267649210989 ] ] ], [ [ [ 515834.300888575438876, 4429363.368717385455966 ], [ 516839.311016043531708, 4429365.527710065245628 ], [ 516148.929903999320231, 4426385.079864774830639 ], [ 515143.7735258116154, 4426383.013782107271254 ], [ 515373.904806277249008, 4427376.407841309905052 ], [ 513363.689856340468396, 4427372.612060046754777 ], [ 513593.963150218303781, 4428366.001842439174652 ], [ 515604.080595085804816, 4428369.859476111829281 ], [ 515834.300888575438876, 4429363.368717385455966 ] ] ], [ [ [ 498821.461174323805608, 4438286.49485497828573 ], [ 498126.945340327685699, 4435306.341311983764172 ], [ 499131.661426878534257, 4435306.159876700490713 ], [ 499594.529416740755551, 4437292.932666049338877 ], [ 501603.765963106940035, 4437293.09136606939137 ], [ 501835.169214552443009, 4438286.625334294512868 ], [ 502839.738578325370327, 4438286.934985317289829 ], [ 502377.07461550552398, 4436299.863145840354264 ], [ 500367.740234156954102, 4436299.499725008383393 ], [ 500136.377507054770831, 4435306.11143287923187 ], [ 502145.809677787357941, 4435306.413519624620676 ], [ 501914.589440662821289, 4434313.021381232887506 ], [ 496890.764590323844459, 4434313.416605228558183 ], [ 496659.344718405394815, 4433320.234817067161202 ], [ 495654.530836328107398, 4433320.743240064941347 ], [ 495885.999581218580715, 4434313.894537025131285 ], [ 491866.939168382668868, 4434317.1358891306445 ], [ 492098.648274064355064, 4435310.222746509127319 ], [ 490089.215533246926498, 4435312.580492272973061 ], [ 490321.067310889658984, 4436305.663863116875291 ], [ 492330.402227456215769, 4436303.366868478246033 ], [ 492794.04466321185464, 4438289.827029389329255 ], [ 494803.183632552449126, 4438288.183988190256059 ], [ 494571.43787024077028, 4437294.864287659525871 ], [ 496580.674556557030883, 4437293.692489452660084 ], [ 496812.322450017032679, 4438287.073263544589281 ], [ 497816.891820145188831, 4438286.717519773170352 ], [ 498280.224030344106723, 4440273.712666139006615 ], [ 499284.695480121299624, 4440273.551287737675011 ], [ 499053.055954631592613, 4439279.994310351088643 ], [ 500057.576357070996892, 4439279.935385689139366 ], [ 499826.030519891181029, 4438286.405269137583673 ], [ 498821.461174323805608, 4438286.49485497828573 ] ] ], [ [ [ 497275.752568043360952, 4440274.007181835360825 ], [ 497507.534785459749401, 4441267.560387826524675 ], [ 498511.957271741295699, 4441267.296519716270268 ], [ 498280.224030344106723, 4440273.712666139006615 ], [ 497275.752568043360952, 4440274.007181835360825 ] ] ], [ [ [ 500752.48223685787525, 4442260.871125366538763 ], [ 500289.166924689314328, 4440273.523046617396176 ], [ 499284.695480121299624, 4440273.551287737675011 ], [ 499748.108752288098913, 4442260.837932273745537 ], [ 500752.48223685787525, 4442260.871125366538763 ] ] ], [ [ [ 510333.882693155843299, 4440280.563192173838615 ], [ 509329.410898357571568, 4440279.260058314539492 ], [ 509560.605513383226935, 4441273.182960812933743 ], [ 505542.914781735627912, 4441269.178104025311768 ], [ 505774.349887444812339, 4442263.035025663673878 ], [ 506778.723514142096974, 4442263.867393014021218 ], [ 507010.154273305495735, 4443257.812989671714604 ], [ 508014.478958501946181, 4443258.809507937170565 ], [ 507783.097190043481532, 4442264.832956301979721 ], [ 511800.592531494970899, 4442270.027171121910214 ], [ 511107.302423617627937, 4439288.07235842011869 ], [ 510102.781613560160622, 4439286.667091091163456 ], [ 510333.882693155843299, 4440280.563192173838615 ] ] ], [ [ [ 502067.85860023467103, 4452200.733009575866163 ], [ 501063.975817098398693, 4452200.524787836708128 ], [ 501296.245853778033052, 4453194.801426697522402 ], [ 500292.412231603753753, 4453194.695775625295937 ], [ 500757.184780824230984, 4455183.360986276529729 ], [ 501760.920051806373522, 4455183.528538305312395 ], [ 501993.32420588482637, 4456177.979073448106647 ], [ 502997.010293163650203, 4456178.311213892884552 ], [ 502764.655335297400597, 4455183.829665317200124 ], [ 504772.125968326348811, 4455184.832644429989159 ], [ 503843.546300166577566, 4451207.2383216554299 ], [ 501835.682413523027208, 4451206.483350333757699 ], [ 502067.85860023467103, 4452200.733009575866163 ] ] ] ] } }
]
}
