{
"type": "FeatureCollection",
"name": "urban-1980",
"crs": { "type": "name", "properties": { "name": "urn:ogc:def:crs:EPSG::32650" } },
"features": [
{ "type": "Feature", "properties": { "year": 1980 }, "geometry": { "type": "MultiPolygon", "coordinates": [ [ [ [ 58807.460668330604676, 2481093.83745306963101 ], [ 57892.360920391627587, 2479269.983603039756417 ], [ 56812.044286197051406, 2479300.864240129012614 ], [ 56354.70806866773637, 2478388.988037277944386 ], [ 53113.60713755391771, 2478482.145071569364518 ], [ 54944.272234151721932, 2482129.532008237671107 ], [ 56024.533390770084225, 2482098.483875737059861 ], [ 55566.653489046904724, 2481186.586552336346358 ], [ 56646.933144164504483, 2481155.594273222610354 ], [ 57104.783930768142454, 2482067.511687775142491 ], [ 58185.023880040214863, 2482036.615440011024475 ], [ 57727.202195291873068, 2481124.677908244542778 ], [ 58807.460668330604676, 2481093.83745306963101 ] ] ], [ [ [ 64175.484866995597258, 2487416.804601678159088 ], [ 63095.451019186584745, 2487447.351148803718388 ], [ 63554.347103113483172, 2488359.47375020198524 ], [ 62474.331934404792264, 2488390.0759670403786 ], [ 62933.418917494942434, 2489302.19893299555406 ], [ 61853.422433858679142, 2489332.856840972322971 ], [ 62312.700336619396694, 2490244.980161100625992 ], [ 66632.507310249318834, 2490122.88734087953344 ], [ 66173.345874248538166, 2489210.682032621931285 ], [ 67253.30078124650754, 2489180.32865944551304 ], [ 66794.330190675624181, 2488268.123741135001183 ], [ 65714.346205402747728, 2488298.497641518246382 ], [ 64796.832182685029693, 2486474.191476351581514 ], [ 63716.779661729699001, 2486504.682375202421099 ], [ 64175.484866995597258, 2487416.804601678159088 ] ] ], [ [ [ 63691.504741546697915, 2492981.475119998678565 ], [ 64771.384647065773606, 2492950.899253971874714 ], [ 64311.65055186196696, 2492038.692837882321328 ], [ 62151.822016848716885, 2492099.961918683256954 ], [ 63071.568623936851509, 2493924.313427275978029 ], [ 64151.429764124215581, 2493893.681884645484388 ], [ 63691.504741546697915, 2492981.475119998678565 ] ] ], [ [ [ 83735.17202886310406, 2523889.498691080603749 ], [ 84200.478129876544699, 2524802.524082003626972 ], [ 86358.101787351537496, 2524743.550524457823485 ], [ 84962.844037696020678, 2522004.409683930221945 ], [ 82805.044750209141057, 2522063.514530514366925 ], [ 83270.027567868994083, 2522976.495518871583045 ], [ 82191.142404531186912, 2523006.141733049880713 ], [ 82656.316157031746116, 2523919.123062905389816 ], [ 83735.17202886310406, 2523889.498691080603749 ] ] ], [ [ [ 90697.952158073952887, 2531106.445774266961962 ], [ 91776.534676355600823, 2531077.30670904321596 ], [ 91310.214388022548519, 2530164.036037353798747 ], [ 89152.98110752820503, 2530222.435920703690499 ], [ 90085.900434692332055, 2532048.910958932247013 ], [ 91164.463324637501501, 2532019.71681997179985 ], [ 90697.952158073952887, 2531106.445774266961962 ] ] ], [ [ [ 93643.431725035305135, 2534730.616164342500269 ], [ 94721.887478631106205, 2534701.64379956619814 ], [ 93321.560158832522575, 2531961.560562010388821 ], [ 92243.016557508090045, 2531990.600022351369262 ], [ 93643.431725035305135, 2534730.616164342500269 ] ] ], [ [ [ 66211.151036425726488, 2534567.286149168387055 ], [ 66678.854176216293126, 2535480.096054592635483 ], [ 68836.2503829554189, 2535418.355579696595669 ], [ 68368.606469119898975, 2534505.502150172833353 ], [ 66211.151036425726488, 2534567.286149168387055 ] ] ], [ [ [ 73007.863812372263055, 2537152.230252262670547 ], [ 74086.457130417693406, 2537121.752658877521753 ], [ 73618.608155809226446, 2536208.767627257853746 ], [ 72539.985274488222785, 2536239.267171416897327 ], [ 73007.863812372263055, 2537152.230252262670547 ] ] ], [ [ [ 79622.624775578500703, 2535114.303213695529848 ], [ 78544.032413377251942, 2535144.359769750386477 ], [ 79011.572122536308598, 2536057.432628990616649 ], [ 77932.999302814248949, 2536087.544613058213145 ], [ 78400.730157477897592, 2537000.617708341218531 ], [ 76243.61364196887007, 2537061.030107468366623 ], [ 76711.565190929104574, 2537974.081363720819354 ], [ 75633.021489210950676, 2538004.38182960357517 ], [ 76101.164242752769496, 2538917.433291459456086 ], [ 75022.640090112457983, 2538947.789277271833271 ], [ 75490.974068537529092, 2539860.840934345964342 ], [ 78726.427901934133843, 2539770.0720868203789 ], [ 78258.182579872838687, 2538856.954098842572421 ], [ 79336.676815330924001, 2538826.830883608199656 ], [ 78868.62266275571892, 2537913.713120126631111 ], [ 79947.136483851878438, 2537883.645334000699222 ], [ 79479.273480468604248, 2536970.527805347926915 ], [ 80557.806880954478402, 2536940.515427805949003 ], [ 79622.624775578500703, 2535114.303213695529848 ] ] ], [ [ [ 90588.998968615720514, 2539443.228250806685537 ], [ 91057.081829246599227, 2540356.614240384660661 ], [ 93213.727688798855525, 2540298.241609719116241 ], [ 92745.703584544127807, 2539384.810623610392213 ], [ 90588.998968615720514, 2539443.228250806685537 ] ] ], [ [ [ 88758.867664664576296, 2542271.460683005396277 ], [ 85523.915814405248966, 2542360.165576617699116 ], [ 85992.660102117108181, 2543273.4851118423976 ], [ 87070.957638282969128, 2543243.86158629739657 ], [ 87539.834047960932367, 2544157.22630082257092 ], [ 89696.34103272279026, 2544098.257342337165028 ], [ 88758.867664664576296, 2542271.460683005396277 ] ] ], [ [ [ 100806.775144445593469, 2546577.723244440276176 ], [ 99728.700601568329148, 2546606.401136483997107 ], [ 98321.98446541314479, 2543865.489552941638976 ], [ 97243.812413504696451, 2543894.313615353778005 ], [ 99119.874468744441401, 2547548.817543424200267 ], [ 101275.974241847114172, 2547491.429784175939858 ], [ 100806.775144445593469, 2546577.723244440276176 ] ] ], [ [ [ 105642.720776289643254, 2553859.614739625249058 ], [ 104232.304249008302577, 2551118.004333594348282 ], [ 100998.521148307190742, 2551203.693387468811125 ], [ 100528.617181302222889, 2550289.939433977939188 ], [ 99450.641348287055735, 2550318.681221150793135 ], [ 98511.259206893970259, 2548491.289216628298163 ], [ 97433.215130655269604, 2548520.154700914397836 ], [ 96963.736964981886558, 2547606.516444046981633 ], [ 95885.654000570706557, 2547635.482582408003509 ], [ 98234.807397273136303, 2552203.791777258738875 ], [ 97156.862130794790573, 2552232.721310577355325 ], [ 97627.206894210481551, 2553146.429965223651379 ], [ 96549.281629491713829, 2553175.414468064438552 ], [ 97019.817407939874101, 2554089.123439943417907 ], [ 98097.713197575707454, 2554060.161935650743544 ], [ 99039.210411106643733, 2555887.695967684499919 ], [ 102272.664493005431723, 2555801.417973572853953 ], [ 102743.567004683951382, 2556715.289584418293089 ], [ 103821.336882084433455, 2556686.709518595598638 ], [ 103350.463807984779123, 2555772.814696426969022 ], [ 104428.253809057408944, 2555744.289439752232283 ], [ 103957.571663951792289, 2554830.394984444603324 ], [ 105035.381782556825783, 2554801.924516805447638 ], [ 104564.890546280017588, 2553888.030438352841884 ], [ 105642.720776289643254, 2553859.614739625249058 ] ] ], [ [ [ 35697.547593141556717, 2554010.655515801627189 ], [ 34619.011197510233615, 2554044.112116104923189 ], [ 34147.096941536699887, 2553131.713426055852324 ], [ 31989.930800799920689, 2553198.903994092252105 ], [ 32934.042162748170085, 2555023.6368717844598 ], [ 36169.593453941401094, 2554923.096875383984298 ], [ 35697.547593141556717, 2554010.655515801627189 ] ] ], [ [ [ 94727.806369135447312, 2556003.82582240877673 ], [ 95805.671591344929766, 2555974.676289938855916 ], [ 95334.753722249472048, 2555060.966713928617537 ], [ 93178.954697822569869, 2555119.389790199231356 ], [ 94121.070118261559401, 2556946.740267949644476 ], [ 95198.91531384276459, 2556917.535685291513801 ], [ 94727.806369135447312, 2556003.82582240877673 ] ] ], [ [ [ 31721.833025835570879, 2556915.786340849474072 ], [ 30643.332593358121812, 2556949.569750005379319 ], [ 31116.045641412201803, 2557861.94585735257715 ], [ 28959.072345894644968, 2557929.704697218257934 ], [ 29432.007932640030049, 2558842.059042612556368 ], [ 30510.469749476818834, 2558808.161907502450049 ], [ 30983.53683862631442, 2559720.558844331651926 ], [ 27748.209317704255227, 2559822.420935155358166 ], [ 28221.529379400133621, 2560734.77458824776113 ], [ 33613.535008957667742, 2560565.50385897513479 ], [ 33140.366750738001429, 2559653.042630657553673 ], [ 35297.15281826275168, 2559585.839850571937859 ], [ 34824.207015096151736, 2558673.35673907911405 ], [ 35902.613957998284604, 2558639.851266504731029 ], [ 35429.860269767756108, 2557727.367875690106302 ], [ 38665.106573528435547, 2557627.25647770287469 ], [ 37720.2661781598581, 2555802.224122626241297 ], [ 34484.83838956663385, 2555902.464940738398582 ], [ 34957.268412481294945, 2556814.905778811778873 ], [ 32800.32245625089854, 2556882.081212393008173 ], [ 32327.831875395902898, 2555969.68334874836728 ], [ 31249.312145565636456, 2556003.409925566520542 ], [ 31721.833025835570879, 2556915.786340849474072 ] ] ], [ [ [ 40083.580775674490724, 2560364.965614858549088 ], [ 41161.883805298130028, 2560331.816848506685346 ], [ 39743.500302099506371, 2557594.042575112078339 ], [ 38665.106573528435547, 2557627.25647770287469 ], [ 40083.580775674490724, 2560364.965614858549088 ] ] ], [ [ [ 65959.932324753084686, 2559591.011101761832833 ], [ 68116.025266567070503, 2559528.550199910067022 ], [ 68588.391693510115147, 2560441.73770746961236 ], [ 69666.393055838649161, 2560410.647078052628785 ], [ 68721.881654127966613, 2558584.249627643730491 ], [ 67643.820512887847144, 2558615.385139815043658 ], [ 67171.77743580902461, 2557702.24249151814729 ], [ 66093.676249969925266, 2557733.47857877612114 ], [ 66565.749222290585749, 2558646.598865903913975 ], [ 65487.66775697824778, 2558677.89081025402993 ], [ 65959.932324753084686, 2559591.011101761832833 ] ] ], [ [ [ 39005.26695076370379, 2560398.192737576086074 ], [ 39478.445556985854637, 2561310.783660370856524 ], [ 40556.729125156300142, 2561277.578296055085957 ], [ 40083.580775674490724, 2560364.965614858549088 ], [ 39005.26695076370379, 2560398.192737576086074 ] ] ], [ [ [ 37190.554288478160743, 2563235.985930677503347 ], [ 38268.809743527614046, 2563202.588861498050392 ], [ 37795.24695190548664, 2562289.998472885228693 ], [ 36716.961189135618042, 2562323.417295033112168 ], [ 37190.554288478160743, 2563235.985930677503347 ] ] ], [ [ [ 101261.908403756737243, 2562313.557714440859854 ], [ 103417.159649039618671, 2562256.130150166805834 ], [ 102945.229140556533821, 2561342.163365900982171 ], [ 104022.870298920199275, 2561313.543532591313124 ], [ 103551.130785489047412, 2560399.577085204888135 ], [ 101395.78016586008016, 2560456.941594627685845 ], [ 101867.57867150317179, 2561370.861388370860368 ], [ 100789.918866445193999, 2561399.637603990733624 ], [ 101261.908403756737243, 2562313.557714440859854 ] ] ], [ [ [ 78235.52530020812992, 2568507.791900519281626 ], [ 81468.543204138753936, 2568416.544031418859959 ], [ 80521.540386659209616, 2566589.418777007143945 ], [ 77288.343353996460792, 2566680.804186734370887 ], [ 78235.52530020812992, 2568507.791900519281626 ] ] ], [ [ [ 76684.131282423739322, 2567624.882365536876023 ], [ 75606.399132735095918, 2567655.556620046962053 ], [ 76554.023884836176876, 2569482.498694109264761 ], [ 78709.35869699093746, 2569421.320220566354692 ], [ 78235.52530020812992, 2568507.791900519281626 ], [ 77157.832948602328543, 2568538.36480861203745 ], [ 76684.131282423739322, 2567624.882365536876023 ] ] ], [ [ [ 107198.417527611658443, 2569568.721147504635155 ], [ 106121.032811900076922, 2569597.207715030759573 ], [ 106594.446278030925896, 2570511.365549967624247 ], [ 105517.08191200287547, 2570539.906895353458822 ], [ 105990.686428193410393, 2571454.065048208460212 ], [ 108145.34682596771745, 2571397.108211406506598 ], [ 107198.417527611658443, 2569568.721147504635155 ] ] ], [ [ [ 72460.569876773748547, 2574234.988498017657548 ], [ 71382.97766678215703, 2574266.052538646850735 ], [ 71858.050440000370145, 2575179.512184880208224 ], [ 70780.478247960447334, 2575210.631989133078605 ], [ 71255.742703376570717, 2576124.091602624394 ], [ 73410.817001658084337, 2576061.976611739955842 ], [ 72460.569876773748547, 2574234.988498017657548 ] ] ], [ [ [ 91252.662846903316677, 2574632.809161451179534 ], [ 91727.358734739013016, 2575546.709201722405851 ], [ 93882.062317000003532, 2575487.584241953678429 ], [ 93407.425997899088543, 2574573.637293932028115 ], [ 91252.662846903316677, 2574632.809161451179534 ] ] ], [ [ [ 88495.231738746864721, 2575635.98652271553874 ], [ 90649.992644309997559, 2575576.389653751626611 ], [ 90175.266952132515144, 2574662.513028249610215 ], [ 88020.446397906402126, 2574722.156648554839194 ], [ 88495.231738746864721, 2575635.98652271553874 ] ] ], [ [ [ 91473.254524067218881, 2579261.79739451687783 ], [ 93627.757682527997531, 2579202.545779515523463 ], [ 92677.235135872964747, 2577374.580134174786508 ], [ 93754.532087844389025, 2577345.025322576053441 ], [ 93279.542918569408357, 2576431.054521822370589 ], [ 91124.879884442489129, 2576490.289847958367318 ], [ 91599.928669261047617, 2577404.213647381402552 ], [ 90522.612662804021966, 2577433.925866312813014 ], [ 91473.254524067218881, 2579261.79739451687783 ] ] ], [ [ [ 115298.511869113252033, 2576770.450188024900854 ], [ 116247.788023366534617, 2578599.41666731890291 ], [ 117324.831928869301919, 2578571.561891808174551 ], [ 116375.614835813175887, 2576742.547179013956338 ], [ 115298.511869113252033, 2576770.450188024900854 ] ] ], [ [ [ 113966.701704333536327, 2580512.372755170334131 ], [ 115043.713402049907017, 2580484.330180568154901 ], [ 114093.673310043697711, 2578655.362232284620404 ], [ 113016.602451859333087, 2578683.453029505442828 ], [ 113966.701704333536327, 2580512.372755170334131 ] ] ], [ [ [ 58657.913441654585768, 2587623.41872437344864 ], [ 57580.550914232269861, 2587655.660801170859486 ], [ 58058.460708060883917, 2588569.003994387574494 ], [ 56981.118235573580023, 2588601.302264709025621 ], [ 57459.220087041554507, 2589514.645222281571478 ], [ 60691.125558796862606, 2589418.056815600022674 ], [ 60213.114782652177382, 2588504.644889035262167 ], [ 61290.426435064000543, 2588472.584045067895204 ], [ 60812.607660918380134, 2587559.171914814040065 ], [ 59735.265682164346799, 2587591.255763743538409 ], [ 59257.578260671696626, 2586677.889403317589313 ], [ 58180.195685265643988, 2586710.075306374114007 ], [ 58657.913441654585768, 2587623.41872437344864 ] ] ], [ [ [ 106405.349167315580416, 2589055.001890166662633 ], [ 106882.420529719733167, 2589969.4527409048751 ], [ 107959.235143256781157, 2589940.784309638198465 ], [ 107482.193559334729798, 2589026.309250779915601 ], [ 106405.349167315580416, 2589055.001890166662633 ] ] ], [ [ [ 111189.624320057046134, 2589855.253207346890122 ], [ 110112.837013316573575, 2589883.684546818956733 ], [ 111067.28546590131009, 2591712.805372083559632 ], [ 109990.548600992653519, 2591741.267107466235757 ], [ 110468.04474744212348, 2592655.840083379298449 ], [ 111544.751845347287599, 2592627.402718412224203 ], [ 112022.379655947443098, 2593542.024736929684877 ], [ 114175.707260224153288, 2593485.436210697516799 ], [ 113698.13895392959239, 2592570.765299540944397 ], [ 115851.490113450272474, 2592514.444269265979528 ], [ 115374.142669697292149, 2591599.749180036596954 ], [ 114297.441856936726253, 2591627.894623474217951 ], [ 112866.27891229983652, 2588884.031101373955607 ], [ 110712.671992081741337, 2588940.705367450136691 ], [ 111189.624320057046134, 2589855.253207346890122 ] ] ], [ [ [ 124101.295476885279641, 2597864.459194464143366 ], [ 126254.166644820943475, 2597809.542561553884298 ], [ 125776.058621332922485, 2596894.524395604617894 ], [ 123623.128136687155347, 2596949.490759455598891 ], [ 124101.295476885279641, 2597864.459194464143366 ] ] ], [ [ [ 104605.200262940430548, 2600231.053390968125314 ], [ 105084.418123417068273, 2601145.62829450936988 ], [ 106160.938484574027825, 2601116.697679321747273 ], [ 105681.750555438455194, 2600202.098309295717627 ], [ 107834.823694868769962, 2600144.426190746948123 ], [ 107355.857028937840369, 2599229.802523426245898 ], [ 103049.554443720029667, 2599345.561929712072015 ], [ 103528.640788532444276, 2600260.087826251517981 ], [ 104605.200262940430548, 2600231.053390968125314 ] ] ], [ [ [ 98562.783338595472742, 2619878.444351511076093 ], [ 99638.840186998422723, 2619848.811881573870778 ], [ 99155.972070843272377, 2618934.087146913632751 ], [ 97003.788623704225756, 2618993.481653295923024 ], [ 97969.80727098393254, 2620822.856716588139534 ], [ 99045.843146944185719, 2620793.16911105858162 ], [ 98562.783338595472742, 2619878.444351511076093 ] ] ], [ [ [ 111254.939173137536272, 2623245.766747158486396 ], [ 113406.620262360083871, 2623188.381972780451179 ], [ 112440.417543578427285, 2621358.205780878663063 ], [ 111364.521272002137266, 2621386.908621520735323 ], [ 110881.631912294542417, 2620471.883764630183578 ], [ 108729.752190464816522, 2620529.579633469227701 ], [ 109212.701776869653258, 2621444.554215828888118 ], [ 110288.616024728107732, 2621415.691431844141334 ], [ 111254.939173137536272, 2623245.766747158486396 ] ] ], [ [ [ 101947.592515089141671, 2626282.041440713219345 ], [ 100495.99131074140314, 2623537.492810610216111 ], [ 99420.04621021746425, 2623567.105713927652687 ], [ 100387.679444332781713, 2625396.729757361579686 ], [ 99311.785664518247359, 2625426.372795552015305 ], [ 99795.874745779728983, 2626341.19732155976817 ], [ 101947.592515089141671, 2626282.041440713219345 ] ] ], [ [ [ 96084.048751850205008, 2625515.782685409765691 ], [ 95008.117840346472804, 2625545.746254195459187 ], [ 95492.328221542062238, 2626460.470946404151618 ], [ 93340.499068913399242, 2626520.58875637082383 ], [ 94794.281261688563973, 2629264.762555280234665 ], [ 96945.928164203709457, 2629204.794474558439106 ], [ 96461.233386696316302, 2628289.995018444955349 ], [ 97537.073248222470284, 2628260.106319616083056 ], [ 96568.228787943779025, 2626430.532297012396157 ], [ 97644.120047546166461, 2626400.673812491819263 ], [ 96675.982100832276046, 2624571.149617982562631 ], [ 95600.03018275287468, 2624601.057956121861935 ], [ 96084.048751850205008, 2625515.782685409765691 ] ] ], [ [ [ 86187.318022028717678, 2629507.845428460743278 ], [ 89415.000102135294583, 2629416.087299566715956 ], [ 88930.092430049262475, 2628501.46233313716948 ], [ 85702.318907490640413, 2628593.294853155501187 ], [ 86187.318022028717678, 2629507.845428460743278 ] ] ], [ [ [ 86672.47864434303483, 2630422.420628459192812 ], [ 87157.80077119008638, 2631337.020491224713624 ], [ 92536.918790430878289, 2631184.740454975515604 ], [ 92051.749049060919788, 2630270.01610397035256 ], [ 86672.47864434303483, 2630422.420628459192812 ] ] ], [ [ [ 72789.946924539515749, 2493651.375076774973422 ], [ 73869.715461542655248, 2493621.429853856097907 ], [ 73410.052382663590834, 2492709.036766977515072 ], [ 72330.254793688247446, 2492739.002796719782054 ], [ 72789.946924539515749, 2493651.375076774973422 ] ] ], [ [ [ 89904.420309022709262, 2495035.639234820846468 ], [ 88824.849418843456078, 2495064.475070708431304 ], [ 89284.620975287805777, 2495977.206277263350785 ], [ 90364.162981772213243, 2495948.391719241160899 ], [ 91284.13324271584861, 2497773.962287179660052 ], [ 93443.072514333587606, 2497716.647419042885303 ], [ 92523.217741314554587, 2495890.991371839307249 ], [ 93602.730545919504948, 2495862.405574433039874 ], [ 93143.074445641192142, 2494949.589099523611367 ], [ 92063.532796641637105, 2494978.196253245696425 ], [ 91604.009484263486229, 2494065.423025728203356 ], [ 89444.839279166655615, 2494122.908571210689843 ], [ 89904.420309022709262, 2495035.639234820846468 ] ] ], [ [ [ 99287.394826304924209, 2504963.490014362614602 ], [ 98365.06980549742002, 2503137.393602986820042 ], [ 99444.332534770597704, 2503109.132828352972865 ], [ 98983.44127135083545, 2502196.096355391200632 ], [ 96824.84852667019004, 2502252.737709832377732 ], [ 98208.180308043607511, 2504991.783805849030614 ], [ 99287.394826304924209, 2504963.490014362614602 ] ] ], [ [ [ 93891.226462347374763, 2505105.724082735832781 ], [ 96049.722591137106065, 2505048.600914160255343 ], [ 95127.224202741577756, 2503222.634647787548602 ], [ 92968.612364600761794, 2503279.844318139366806 ], [ 93891.226462347374763, 2505105.724082735832781 ] ] ], [ [ [ 91732.691716009867378, 2505163.153343504294753 ], [ 92811.963929225981701, 2505134.400449594017118 ], [ 92350.547123147232924, 2504221.471106867771596 ], [ 91271.245947176183108, 2504250.24557849438861 ], [ 91732.691716009867378, 2505163.153343504294753 ] ] ], [ [ [ 90191.935052276297938, 2504279.0965550490655 ], [ 88033.284002828237135, 2504337.028039085213095 ], [ 88494.816738699038979, 2505249.871227784547955 ], [ 87415.505548005516175, 2505278.930270192213356 ], [ 87877.228942615620326, 2506191.773936999496073 ], [ 91115.046169350796845, 2506104.891039080452174 ], [ 90191.935052276297938, 2504279.0965550490655 ] ] ], [ [ [ 86797.936976984608918, 2506220.888044323306531 ], [ 85718.63519015169004, 2506250.078729094006121 ], [ 86180.578315994993318, 2507162.901372435037047 ], [ 85101.295747546071652, 2507192.147173338104039 ], [ 85563.429591286985669, 2508104.970265450887382 ], [ 87721.92676649481291, 2508046.598298848140985 ], [ 86797.936976984608918, 2506220.888044323306531 ] ] ], [ [ [ 96972.867384768498596, 2506874.656115128193051 ], [ 97434.682175324996933, 2507787.717152435332537 ], [ 99592.966406374471262, 2507731.030640190467238 ], [ 99131.209454964438919, 2506817.926000216044486 ], [ 96972.867384768498596, 2506874.656115128193051 ] ] ], [ [ [ 97742.02648352086544, 2510555.427072974853218 ], [ 98204.516580393596087, 2511468.555763992946595 ], [ 99283.557219163922127, 2511440.185021514073014 ], [ 98358.796527488448191, 2509613.906273694243282 ], [ 99437.885543997050263, 2509585.568405338563025 ], [ 98975.776510469557252, 2508672.440799771342427 ], [ 96817.531053604267072, 2508729.236874079331756 ], [ 95893.681997356063221, 2506903.136021663434803 ], [ 96972.867384768498596, 2506874.656115128193051 ], [ 96511.214188945188653, 2505961.617380557116121 ], [ 94352.775930635922123, 2506018.697192368563265 ], [ 94814.487007471383549, 2506931.692499553319067 ], [ 92656.068117514427286, 2506989.035185362678021 ], [ 94042.34482986968942, 2509728.024245325941592 ], [ 95121.47215036151465, 2509699.3797697275877 ], [ 95583.858609673276078, 2510612.442396930418909 ], [ 97742.02648352086544, 2510555.427072974853218 ] ] ], [ [ [ 100516.965048696205486, 2509557.307178872637451 ], [ 101904.174811766541097, 2512296.890654127579182 ], [ 105141.096340716991108, 2512212.764860600698739 ], [ 104216.30172509275144, 2510386.221197919920087 ], [ 103137.27949135605013, 2510414.230523365084082 ], [ 102213.073323213262483, 2508587.821296418085694 ], [ 101133.983867733855732, 2508615.951188385020941 ], [ 101596.035067257063929, 2509529.122590347193182 ], [ 100516.965048696205486, 2509557.307178872637451 ] ] ], [ [ [ 97588.147063696000259, 2512410.13242747168988 ], [ 98667.16826083190972, 2512381.70689566899091 ], [ 98204.516580393596087, 2511468.555763992946595 ], [ 97125.466404670616612, 2511497.003208597656339 ], [ 97588.147063696000259, 2512410.13242747168988 ] ] ], [ [ [ 98977.158540819364134, 2515149.654863120988011 ], [ 101135.017516109044664, 2515093.012508194893599 ], [ 100671.9100858651218, 2514179.771800675429404 ], [ 98513.993135051277932, 2514236.45821995055303 ], [ 98977.158540819364134, 2515149.654863120988011 ] ] ], [ [ [ 102677.172824683133513, 2515978.091966618783772 ], [ 103140.574403497099411, 2516891.400082007981837 ], [ 106377.090066995355301, 2516807.376007380895317 ], [ 105913.77534543920774, 2515894.001307919621468 ], [ 104834.91721599228913, 2515921.954708985053003 ], [ 104371.735101333528291, 2515008.624987026210874 ], [ 103292.838655775354709, 2515036.67736449977383 ], [ 103756.049717615125701, 2515949.984927247744054 ], [ 102677.172824683133513, 2515978.091966618783772 ] ] ], [ [ [ 104082.641279521049, 2525196.313554100226611 ], [ 106239.861833970586304, 2525140.160594603978097 ], [ 105774.977366046281531, 2524226.669193993322551 ], [ 103617.69872116210172, 2524282.866999654099345 ], [ 104082.641279521049, 2525196.313554100226611 ] ] ], [ [ [ 113199.816532035823911, 2532365.815107241738588 ], [ 116434.798502022458706, 2532283.403009314090014 ], [ 115502.955168289830908, 2530455.799918252509087 ], [ 116581.322315732715651, 2530428.438003812916577 ], [ 115650.182848189084325, 2528600.882991086691618 ], [ 113493.323540907003917, 2528655.77525440370664 ], [ 114424.578937648155261, 2530483.239057214464992 ], [ 112267.799124685814604, 2530538.349024013616145 ], [ 113199.816532035823911, 2532365.815107241738588 ] ] ], [ [ [ 103349.191257265920285, 2534472.651361759752035 ], [ 102882.487732902460266, 2533559.087363054975867 ], [ 103960.887475781200919, 2533530.788922384846956 ], [ 103494.374651883495972, 2532617.22539247572422 ], [ 100259.059739259537309, 2532702.420501764398068 ], [ 101192.421997263852973, 2534529.43511377600953 ], [ 103349.191257265920285, 2534472.651361759752035 ] ] ], [ [ [ 111509.425302188144997, 2533334.865406560245901 ], [ 110431.09047422040021, 2533362.622482356149703 ], [ 110897.590089029807132, 2534276.345483462326229 ], [ 108740.951010772376321, 2534332.046057305298746 ], [ 109207.670327104395255, 2535245.746781864669174 ], [ 112442.527868413832039, 2535162.380438226740807 ], [ 111509.425302188144997, 2533334.865406560245901 ] ] ], [ [ [ 103671.978658190811984, 2537241.767267199233174 ], [ 105828.554050544567872, 2537185.274446381255984 ], [ 105361.395121487381402, 2536271.618283721618354 ], [ 103204.761346366081852, 2536328.156565436162055 ], [ 103671.978658190811984, 2537241.767267199233174 ] ] ], [ [ [ 94577.849740588164423, 2536557.407447002828121 ], [ 95045.301109681720845, 2537470.837350790854543 ], [ 98280.376132380217314, 2537384.354974799789488 ], [ 97813.012633541191462, 2536470.857467762660235 ], [ 94577.849740588164423, 2536557.407447002828121 ] ] ], [ [ [ 110465.530834063014481, 2539842.430032004602253 ], [ 111543.689403321361169, 2539814.600903469603509 ], [ 110141.593468405131716, 2537073.218223850242794 ], [ 109063.347471100976691, 2537101.116111872252077 ], [ 110465.530834063014481, 2539842.430032004602253 ] ] ], [ [ [ 110465.530834063014481, 2539842.430032004602253 ], [ 109387.3630830051261, 2539870.33668151171878 ], [ 110323.017799068300519, 2541697.950576550327241 ], [ 111401.127212728257291, 2541670.089893683325499 ], [ 110465.530834063014481, 2539842.430032004602253 ] ] ], [ [ [ 100151.445638432865962, 2541038.575321106240153 ], [ 100619.61687628866639, 2541952.188164967112243 ], [ 103854.167624890862498, 2541866.743931250181049 ], [ 103386.084216153307352, 2540953.062711257487535 ], [ 100151.445638432865962, 2541038.575321106240153 ] ] ], [ [ [ 112196.265104637655895, 2545353.460619487334043 ], [ 114352.241355464269873, 2545298.001660097390413 ], [ 113883.745673662866466, 2544384.04246212542057 ], [ 114961.749335435801186, 2544356.406298266723752 ], [ 114493.444285777863115, 2543442.447615530341864 ], [ 112337.36953720805468, 2543497.843887721654028 ], [ 112805.73292104259599, 2544411.756273942068219 ], [ 111727.711052154365461, 2544439.547737576067448 ], [ 112196.265104637655895, 2545353.460619487334043 ] ] ], [ [ [ 120679.207859812479001, 2546988.936097366269678 ], [ 122834.941505734226666, 2546934.658022984862328 ], [ 122366.326847610238474, 2546020.487929540220648 ], [ 123444.209431742958259, 2545993.441991463303566 ], [ 122975.78528208786156, 2545079.272481768392026 ], [ 120819.953055296267848, 2545133.488838530611247 ], [ 121288.435376682027709, 2546047.611541272606701 ], [ 120210.534993553243112, 2546074.81283043557778 ], [ 120679.207859812479001, 2546988.936097366269678 ] ] ], [ [ [ 121947.259168491524179, 2551587.050807829014957 ], [ 121477.750003883207683, 2550672.830911297351122 ], [ 124711.014365432900377, 2550591.579122700262815 ], [ 124241.754022833658382, 2549677.312666528392583 ], [ 119930.600561823695898, 2549785.898136083502322 ], [ 120869.515782233676873, 2551614.266836376395077 ], [ 121947.259168491524179, 2551587.050807829014957 ] ] ], [ [ [ 109621.757014069124125, 2550976.746749584097415 ], [ 107466.003616163972765, 2551033.016180990729481 ], [ 107935.892914060561452, 2551946.932256742846221 ], [ 109013.744894345989451, 2551918.781823804602027 ], [ 109953.949307936010882, 2553746.731468570418656 ], [ 112109.508495791174937, 2553690.757492430042475 ], [ 111169.421313139901031, 2551862.714618966449052 ], [ 112247.245802399003878, 2551834.797839266713709 ], [ 111777.473704703617841, 2550920.788751209620386 ], [ 110699.619935104914475, 2550948.728823218494654 ], [ 110229.980036908527836, 2550034.766740009188652 ], [ 109152.087827525625471, 2550062.807896479964256 ], [ 109621.757014069124125, 2550976.746749584097415 ] ] ], [ [ [ 123964.437958007445559, 2553388.471994991414249 ], [ 125042.105312456667889, 2553361.458915786352009 ], [ 124572.331606593448669, 2552447.143485762644559 ], [ 122416.929758413694799, 2552501.294813635293394 ], [ 123356.755201393389143, 2554329.855298172682524 ], [ 124434.402224208926782, 2554302.78799051977694 ], [ 123964.437958007445559, 2553388.471994991414249 ] ] ], [ [ [ 119516.350059558055364, 2555353.125793559476733 ], [ 120594.003393868624698, 2555325.770373904611915 ], [ 120123.760959190374706, 2554411.524760737083852 ], [ 121201.434594231657684, 2554384.223679500631988 ], [ 120731.382794595847372, 2553469.978592405095696 ], [ 121809.076724430604372, 2553442.731829528231174 ], [ 121339.215539711352903, 2552528.487278223969042 ], [ 117028.269442374643404, 2552638.035895972047001 ], [ 117968.386899434204679, 2554466.360723341349512 ], [ 119046.078402706480119, 2554438.903774082195014 ], [ 119516.350059558055364, 2555353.125793559476733 ] ] ], [ [ [ 109817.064993093488738, 2555602.833324947394431 ], [ 113050.24155903031351, 2555518.895649446640164 ], [ 112579.794293949846178, 2554604.814642407931387 ], [ 109346.529746688669547, 2554688.822470912709832 ], [ 109817.064993093488738, 2555602.833324947394431 ] ] ], [ [ [ 121671.647819824458566, 2555298.49291254254058 ], [ 122749.283362770569511, 2555271.293405680917203 ], [ 122279.099333184480201, 2554357.0005265744403 ], [ 121201.434594231657684, 2554384.223679500631988 ], [ 121671.647819824458566, 2555298.49291254254058 ] ] ], [ [ [ 122412.699208883743268, 2567321.82537758955732 ], [ 123358.099385787616484, 2569150.831358287483454 ], [ 122280.8498960591387, 2569178.141970995813608 ], [ 122753.821442671935074, 2570092.657698648050427 ], [ 121676.592483879358042, 2570120.022638748865575 ], [ 122623.078534149040934, 2571949.079586816485971 ], [ 123700.248739182075951, 2571921.762841103132814 ], [ 124173.704482689034194, 2572836.352329595945776 ], [ 125250.836517347022891, 2572809.138210418168455 ], [ 124304.145163787121419, 2570979.935537694022059 ], [ 125381.3271492497297, 2570952.75151758082211 ], [ 124908.252909837639891, 2570038.163003271445632 ], [ 125985.455468682223, 2570011.033240428660065 ], [ 125512.571951227087993, 2569096.445227785035968 ], [ 126589.79507742455462, 2569069.369702437892556 ], [ 125172.200798579491675, 2566325.681027554906905 ], [ 126249.50306824821746, 2566298.611554504837841 ], [ 125777.323710341763217, 2565384.073780415579677 ], [ 127931.960548516595736, 2565330.121513258200139 ], [ 127460.001100757857785, 2564415.560224670916796 ], [ 130691.978745154337958, 2564335.146316105034202 ], [ 131163.85051472572377, 2565249.779894893523306 ], [ 132241.129860250337515, 2565223.15581584488973 ], [ 131297.606086335435975, 2563393.865088919177651 ], [ 132374.935187766735908, 2563367.270919447764754 ], [ 131903.444528674182948, 2562452.638509853277355 ], [ 135135.467704270558897, 2562373.252528376411647 ], [ 134664.225848401838448, 2561458.572453526314348 ], [ 136818.923395279096439, 2561405.990756150335073 ], [ 136347.901109636237379, 2560491.287148417904973 ], [ 138502.622767307504546, 2560438.969437954481691 ], [ 138031.819982609536964, 2559524.242300598416477 ], [ 139109.197142603574321, 2559498.17633868381381 ], [ 138638.584750402136706, 2558583.449868841096759 ], [ 137561.17853822640609, 2558609.539998461026698 ], [ 137090.698437321232632, 2557694.862494833767414 ], [ 134935.802349626552314, 2557747.324975405819714 ], [ 134465.425472490780521, 2556832.720345544163138 ], [ 133387.935512463795021, 2556859.092588897794485 ], [ 132917.690919561253395, 2555944.53659234335646 ], [ 131840.163267109775916, 2555971.010759537108243 ], [ 133722.226203104306478, 2559629.28655838733539 ], [ 132644.806346832076088, 2559655.742743615061045 ], [ 133115.754612996941432, 2560570.349254912696779 ], [ 126651.228678798885085, 2560730.581778431776911 ], [ 126180.105405023263302, 2559816.119153082836419 ], [ 125102.624711170559749, 2559843.121805685106665 ], [ 124160.8039445100585, 2558014.317499070428312 ], [ 122005.699252304330003, 2558068.652235805988312 ], [ 121534.972543630108703, 2557154.334075065329671 ], [ 120457.377669019741006, 2557181.642198943067342 ], [ 119516.350059558055364, 2555353.125793559476733 ], [ 113050.24155903031351, 2555518.895649446640164 ], [ 113520.850287803972606, 2556433.000549763441086 ], [ 110287.761718539346475, 2556516.867963893804699 ], [ 109817.064993093488738, 2555602.833324947394431 ], [ 108739.321181296603754, 2555630.968538567889482 ], [ 107328.111847275111359, 2552889.077074341010302 ], [ 106250.270763977139723, 2552917.360098055563867 ], [ 106720.541742098692339, 2553831.276997220236808 ], [ 105642.720776289643254, 2553859.614739625249058 ], [ 106583.805970887129661, 2555687.472971953917295 ], [ 105506.034521574678365, 2555715.842199580278248 ], [ 106447.824494856933597, 2557543.748522572219372 ], [ 105370.10260984924389, 2557572.149199438747019 ], [ 106784.087038856407162, 2560314.11650408199057 ], [ 105706.444210785499308, 2560342.525212013628334 ], [ 106178.12478482053848, 2561256.538417543750256 ], [ 107255.738162983616348, 2561228.153127879370004 ], [ 107727.550772279559169, 2562142.213573268614709 ], [ 108805.125499178888276, 2562113.929937526583672 ], [ 109277.07014349201927, 2563028.037757680751383 ], [ 110354.606265696638729, 2562999.855860429350287 ], [ 112243.881760890770238, 2566656.621345168445259 ], [ 111166.463424537039828, 2566684.708707948215306 ], [ 114479.117779464344494, 2573084.811222916003317 ], [ 115556.329795026103966, 2573056.890693659428507 ], [ 116030.182415198767558, 2573971.312070047948509 ], [ 117107.355961598921567, 2573943.494051189627498 ], [ 118055.486510244722012, 2575772.458178766071796 ], [ 120209.688902950903866, 2575717.154115818906575 ], [ 118314.309219512040727, 2572059.131131357513368 ], [ 119391.514872798055876, 2572031.500553338322788 ], [ 117498.835624599014409, 2568373.772813931573182 ], [ 118576.150022698973771, 2568346.124770485330373 ], [ 118103.413173296547029, 2567431.729864011052996 ], [ 119180.748029547859915, 2567404.136258271057159 ], [ 118708.201987413922325, 2566489.741801386233419 ], [ 120862.903701116272714, 2566434.741720927413553 ], [ 121335.391022081836127, 2567349.184018876869231 ], [ 122412.699208883743268, 2567321.82537758955732 ] ] ], [ [ [ 121889.827655328204855, 2574747.573465368244797 ], [ 121415.960906624270137, 2573833.007213910575956 ], [ 122493.089958808792289, 2573805.581794954836369 ], [ 121545.899504890665412, 2571976.474784887395799 ], [ 119391.514872798055876, 2572031.500553338322788 ], [ 120812.719188717950601, 2574775.053250543307513 ], [ 121889.827655328204855, 2574747.573465368244797 ] ] ], [ [ [ 116375.614835813175887, 2576742.547179013956338 ], [ 118529.7939138218062, 2576686.976998681668192 ], [ 118055.486510244722012, 2575772.458178766071796 ], [ 115901.248425696161576, 2575828.076561634428799 ], [ 116375.614835813175887, 2576742.547179013956338 ] ] ], [ [ [ 120428.637648471747525, 2580345.298181217163801 ], [ 121505.595825505908579, 2580317.72792906826362 ], [ 120555.910142942389939, 2578488.469546802807599 ], [ 119478.892963476595469, 2578516.088335399981588 ], [ 120428.637648471747525, 2580345.298181217163801 ] ] ], [ [ [ 127840.291286843130365, 2582010.658728440757841 ], [ 126890.254733663285151, 2580181.057196510024369 ], [ 124736.4174651374924, 2580235.489399100188166 ], [ 125211.413956604665145, 2581150.228804594837129 ], [ 126288.307500303140841, 2581122.997785123065114 ], [ 126763.435909555992112, 2582037.786539531312883 ], [ 127840.291286843130365, 2582010.658728440757841 ] ] ], [ [ [ 130093.852980293391738, 2588442.008744411636144 ], [ 131170.502079316531308, 2588415.05339114041999 ], [ 130218.206515888101421, 2586585.100623266305774 ], [ 129141.498455052031204, 2586612.105433346703649 ], [ 130093.852980293391738, 2588442.008744411636144 ] ] ], [ [ [ 122681.067780463024974, 2586775.790801686700433 ], [ 120527.520834788621869, 2586830.983732608146966 ], [ 121003.853721308114473, 2587745.726058761589229 ], [ 122080.602018345089164, 2587718.114643197506666 ], [ 122557.066708359750919, 2588632.906395852100104 ], [ 123633.776627819403075, 2588605.398471516091377 ], [ 122681.067780463024974, 2586775.790801686700433 ] ] ], [ [ [ 125310.794196580478456, 2587635.75394762866199 ], [ 126263.707572121405974, 2589465.510064100846648 ], [ 127340.361734104342759, 2589438.263657277449965 ], [ 126387.507435414765496, 2587608.458220123313367 ], [ 125310.794196580478456, 2587635.75394762866199 ] ] ], [ [ [ 151968.399942055926658, 2607375.813237269409001 ], [ 149816.49829007772496, 2607427.15787788014859 ], [ 150296.039298968215007, 2608342.916634160559624 ], [ 149220.105804177932441, 2608368.682353304699063 ], [ 150179.730515113391448, 2610200.22741695586592 ], [ 151255.605017157213297, 2610174.513342841528356 ], [ 150775.741542364296038, 2609258.701776348054409 ], [ 155079.276921590790153, 2609156.537055754568428 ], [ 154599.692523443780374, 2608240.648435115814209 ], [ 153523.791280625562649, 2608266.09629033273086 ], [ 152565.047262558946386, 2606434.450319580268115 ], [ 151489.079099528782535, 2606460.029289877507836 ], [ 151968.399942055926658, 2607375.813237269409001 ] ] ], [ [ [ 146356.32361740549095, 2611219.587923770304769 ], [ 148508.070441940333694, 2611167.654624480754137 ], [ 148027.957188225060236, 2610251.894150789827108 ], [ 145876.151264667976648, 2610303.87902260478586 ], [ 146356.32361740549095, 2611219.587923770304769 ] ] ], [ [ [ 142052.731537116167601, 2611324.409366210456938 ], [ 143013.796758983342443, 2613155.700049007311463 ], [ 144089.64791368925944, 2613129.426771614234895 ], [ 143128.64192342676688, 2611298.084641076158732 ], [ 142052.731537116167601, 2611324.409366210456938 ] ] ], [ [ [ 117214.96869911858812, 2490632.754006127361208 ], [ 118294.389716153440531, 2490605.963470711838454 ], [ 117836.257994395506103, 2489692.718256765976548 ], [ 118915.698388222663198, 2489665.981877337675542 ], [ 118457.756651532603428, 2488752.737468902952969 ], [ 115219.322634629032109, 2488833.239987613167614 ], [ 115677.349833348533139, 2489746.41899429820478 ], [ 116756.808484702545684, 2489719.530627836473286 ], [ 117214.96869911858812, 2490632.754006127361208 ] ] ], [ [ [ 124312.764522166980896, 2489533.439724342897534 ], [ 123233.369320759549737, 2489559.796201430261135 ], [ 123691.358772952109575, 2490473.150987284723669 ], [ 121532.598252758267336, 2490526.047956814058125 ], [ 121990.806065526674502, 2491439.381607173010707 ], [ 125228.848071648681071, 2491360.216159596573561 ], [ 124312.764522166980896, 2489533.439724342897534 ] ] ], [ [ [ 121666.740307149419095, 2495145.92554954951629 ], [ 120587.470871382567566, 2495172.530231005046517 ], [ 119669.753912946209311, 2493345.835250826086849 ], [ 118590.418405755364802, 2493372.560068695340306 ], [ 119967.321639478672296, 2496112.570746889803559 ], [ 122125.812513261218555, 2496059.329353946261108 ], [ 121666.740307149419095, 2495145.92554954951629 ] ] ], [ [ [ 96681.40887114679208, 2497631.24737065192312 ], [ 98840.251709118485451, 2497574.695461164228618 ], [ 97920.685197889979463, 2495748.82480028597638 ], [ 95761.727133653650526, 2495805.462712221313268 ], [ 96681.40887114679208, 2497631.24737065192312 ] ] ], [ [ [ 122884.58930763846729, 2499739.667975462041795 ], [ 123963.716132568311878, 2499713.17400915781036 ], [ 123503.998014963348396, 2498799.678360330872238 ], [ 122424.842657280445565, 2498826.194540082011372 ], [ 122884.58930763846729, 2499739.667975462041795 ] ] ], [ [ [ 111934.203635025420226, 2501862.666473642922938 ], [ 114092.53359869326232, 2501808.164244258776307 ], [ 113632.206529195187613, 2500894.844123564194888 ], [ 111473.819206877960823, 2500949.390370017383248 ], [ 111934.203635025420226, 2501862.666473642922938 ] ] ], [ [ [ 125962.697595410689246, 2501513.861380748916417 ], [ 127343.703901952598244, 2504254.692705918569118 ], [ 128422.670242723135743, 2504228.4631477156654 ], [ 127041.74952036247123, 2501487.564601555932313 ], [ 125962.697595410689246, 2501513.861380748916417 ] ] ], [ [ [ 106067.591626110195648, 2507562.809032406192273 ], [ 107146.662925878306851, 2507535.04008793272078 ], [ 106685.107999666477554, 2506621.782014293596148 ], [ 107764.19877545099007, 2506594.067604241427034 ], [ 106841.631169655767735, 2504767.575342728290707 ], [ 105762.482792591676116, 2504795.333694431465119 ], [ 106223.714620816113893, 2505708.546561358030885 ], [ 105144.585683162440546, 2505736.359465758316219 ], [ 106067.591626110195648, 2507562.809032406192273 ] ] ], [ [ [ 117936.866872195503674, 2507261.560711661819369 ], [ 120094.797930984175764, 2507207.783198338001966 ], [ 119172.539250341826119, 2505380.758065524511039 ], [ 117014.493513951660134, 2505434.62470412813127 ], [ 117936.866872195503674, 2507261.560711661819369 ] ] ], [ [ [ 123020.090354882879183, 2510835.426420604344457 ], [ 123482.0791309135966, 2511749.088772682007402 ], [ 125639.669630939431954, 2511695.995161451399326 ], [ 125177.738173831254244, 2510782.287700156215578 ], [ 123020.090354882879183, 2510835.426420604344457 ] ] ], [ [ [ 106682.662150040152483, 2513098.204321200028062 ], [ 107761.578995485615451, 2513070.414662984665483 ], [ 106836.576811377424747, 2511243.73715224955231 ], [ 105757.602212790923659, 2511271.571090175304562 ], [ 106682.662150040152483, 2513098.204321200028062 ] ] ], [ [ [ 113310.229335556039587, 2511078.343474816996604 ], [ 110073.444719680876005, 2511160.695347377564758 ], [ 111460.930622137326282, 2513900.945676004048437 ], [ 112539.781566838850267, 2513873.485184779856354 ], [ 113002.571066620119382, 2514786.97011747257784 ], [ 115160.187775710306596, 2514732.324077893514186 ], [ 114697.455911909113638, 2513818.79440017323941 ], [ 115776.279363546695095, 2513791.564099158160388 ], [ 115313.737793323001824, 2512878.035086384508759 ], [ 116392.580912097531836, 2512850.859105249401182 ], [ 115930.229615194490179, 2511937.330767070408911 ], [ 113772.476688593858853, 2511991.80413364386186 ], [ 113310.229335556039587, 2511078.343474816996604 ] ] ], [ [ [ 133498.476691992254928, 2514280.22523073060438 ], [ 133036.232638222456444, 2513366.31098525878042 ], [ 134114.904652938130312, 2513340.384457879699767 ], [ 133652.850583406048827, 2512426.471034165471792 ], [ 131495.440691912954208, 2512478.446370533201844 ], [ 132419.824565440241713, 2514306.205589636228979 ], [ 133498.476691992254928, 2514280.22523073060438 ] ] ], [ [ [ 117164.873031910567079, 2516532.289738404564559 ], [ 116086.135991407674737, 2516559.452697532717139 ], [ 116549.352336832962465, 2517473.051709664519876 ], [ 115470.635023833136074, 2517500.268981596920639 ], [ 115934.041689091012813, 2518413.868647885974497 ], [ 118091.409576563921291, 2518359.556016479153186 ], [ 117628.06056315015303, 2517445.91126881306991 ], [ 118706.759728391072713, 2517418.847655256744474 ], [ 118243.600998334470205, 2516505.20358035992831 ], [ 119322.319916292035487, 2516478.194219619035721 ], [ 118859.351449354318902, 2515564.550827105063945 ], [ 116701.846986074582674, 2515618.691390078049153 ], [ 117164.873031910567079, 2516532.289738404564559 ] ] ], [ [ [ 123484.671401923405938, 2518225.119308491237462 ], [ 124563.29690435557859, 2518198.462486098054796 ], [ 124100.120534634042997, 2517284.681865110062063 ], [ 125178.765871119510848, 2517258.079136403743178 ], [ 124252.95492858014768, 2515430.542782105971128 ], [ 123174.252150719694328, 2515457.190878962632269 ], [ 123637.105615683074575, 2516370.924674486741424 ], [ 122558.422635480004828, 2516397.626883589662611 ], [ 123484.671401923405938, 2518225.119308491237462 ] ] ], [ [ [ 118403.832560289709363, 2521127.679927675053477 ], [ 116246.619596210599411, 2521182.010764084756374 ], [ 115782.699611313582864, 2520268.364055946469307 ], [ 114704.050639204564504, 2520295.667469308245927 ], [ 115167.999498245539144, 2521209.291595635935664 ], [ 114089.370288888225332, 2521236.649374488741159 ], [ 114553.50953047449002, 2522150.274125611409545 ], [ 113474.90008956764359, 2522177.686290593352169 ], [ 113939.229733935964759, 2523091.311656806617975 ], [ 115017.810264199157245, 2523063.922092400025576 ], [ 116411.681385851930827, 2525805.005639895331115 ], [ 117490.166081096802372, 2525777.761173 ], [ 117025.409803611692041, 2524864.020613670349121 ], [ 120260.896375603973866, 2524782.681309580802917 ], [ 119332.04153186728945, 2522955.133831847459078 ], [ 120410.576763281656895, 2522928.129247015342116 ], [ 119946.420387400896288, 2522014.367884319741279 ], [ 118867.856310445582494, 2522041.395200749859214 ], [ 118403.832560289709363, 2521127.679927675053477 ] ] ], [ [ [ 127810.051844350644387, 2524595.58585227932781 ], [ 129966.873789779143408, 2524542.823195094708353 ], [ 129502.624871790409088, 2523628.831572337076068 ], [ 127345.745409099094104, 2523681.64022858813405 ], [ 127810.051844350644387, 2524595.58585227932781 ] ] ], [ [ [ 130282.268723189539742, 2527311.214486688841134 ], [ 132438.900601119850762, 2527258.744430310092866 ], [ 131509.653208982374053, 2525430.595861573703587 ], [ 129352.906296208908316, 2525483.158377600368112 ], [ 130282.268723189539742, 2527311.214486688841134 ] ] ], [ [ [ 123516.974200054013636, 2531179.838467727415264 ], [ 124595.249587173573673, 2531153.04007137240842 ], [ 124129.640161675284617, 2530239.06657039327547 ], [ 123051.335882159532048, 2530265.888019348029047 ], [ 123516.974200054013636, 2531179.838467727415264 ] ] ], [ [ [ 135377.520032732922118, 2530889.302626671269536 ], [ 136308.646606089314446, 2532717.785920860711485 ], [ 137386.768354023282882, 2532691.883537150919437 ], [ 136455.699295820377301, 2530863.353453244548291 ], [ 135377.520032732922118, 2530889.302626671269536 ] ] ], [ [ [ 135550.450237968529109, 2535512.588097777683288 ], [ 137706.546775115595665, 2535460.692287437617779 ], [ 137240.418681810202543, 2534546.365927294362336 ], [ 135084.26455438346602, 2534598.308699118904769 ], [ 135550.450237968529109, 2535512.588097777683288 ] ] ], [ [ [ 119378.615978407906368, 2535911.667295452207327 ], [ 117222.220637000049464, 2535966.193003457039595 ], [ 117689.059398079873063, 2536880.101071850862354 ], [ 118767.232543518126477, 2536852.822584613692015 ], [ 119234.203732975409366, 2537766.777387543581426 ], [ 120312.338866720674559, 2537739.599427828099579 ], [ 119378.615978407906368, 2535911.667295452207327 ] ] ], [ [ [ 131093.201971958682407, 2537472.077877859584987 ], [ 130160.057996329036541, 2535643.680827816016972 ], [ 128003.840205276967026, 2535696.659278185106814 ], [ 128470.389275591180194, 2536610.799101958516985 ], [ 129548.473648661572952, 2536584.294524384196848 ], [ 130015.155225775844883, 2537498.481703141704202 ], [ 131093.201971958682407, 2537472.077877859584987 ] ] ], [ [ [ 122935.627906064677518, 2538599.523856205865741 ], [ 125091.7777705603512, 2538545.756409347057343 ], [ 124157.963902353832964, 2536717.59119109949097 ], [ 122001.698130608245265, 2536771.451555071398616 ], [ 122935.627906064677518, 2538599.523856205865741 ] ] ], [ [ [ 127714.983435501693748, 2539406.463882349897176 ], [ 125558.926841974374838, 2539459.874892278574407 ], [ 126026.237333991506603, 2540374.017338974867016 ], [ 123870.20341811463004, 2540427.691581825725734 ], [ 124337.733317343925592, 2541341.811318586114794 ], [ 123259.732091574347578, 2541368.741374709177762 ], [ 123727.452434938924853, 2542282.861723960842937 ], [ 122649.471366065845359, 2542309.845986220054328 ], [ 123117.382173714227974, 2543223.966938328929245 ], [ 124195.334204792336095, 2543197.006037203129381 ], [ 124663.377397929318249, 2544111.174350454937667 ], [ 127897.093444126716349, 2544030.827483194880188 ], [ 127429.137301678711083, 2543116.588821463286877 ], [ 130662.861437930900138, 2543036.869758933782578 ], [ 131130.730646797979716, 2543951.179005128331482 ], [ 133286.445318826474249, 2543898.46796444337815 ], [ 133754.418015779636335, 2544812.848721793387085 ], [ 134832.233458047790918, 2544786.633242881391197 ], [ 133896.507299939461518, 2542957.848749752622098 ], [ 132818.634000707359519, 2542984.111530791968107 ], [ 132350.984064603224397, 2542069.77938466379419 ], [ 130195.153621398902033, 2542122.584728380665183 ], [ 129727.607200389262289, 2541208.323877357877791 ], [ 128649.649971766746603, 2541234.866332759615034 ], [ 127714.983435501693748, 2539406.463882349897176 ] ] ], [ [ [ 138065.628316883987281, 2544708.45240938058123 ], [ 138533.646722429257352, 2545622.952504174783826 ], [ 141766.878298526746221, 2545545.541508300229907 ], [ 141298.946507262357045, 2544630.969904696568847 ], [ 138065.628316883987281, 2544708.45240938058123 ] ] ], [ [ [ 130239.295161789923441, 2548602.38367381086573 ], [ 129161.543703995586839, 2548628.970440994948149 ], [ 129630.497261054464616, 2549543.33081725332886 ], [ 128552.766130327188876, 2549569.971652602776885 ], [ 129491.2155241149012, 2551398.717977946158499 ], [ 131646.5528819168685, 2551345.608997560106218 ], [ 130239.295161789923441, 2548602.38367381086573 ] ] ], [ [ [ 135818.298613550025038, 2553095.61129581881687 ], [ 136895.870477031567134, 2553069.454769697040319 ], [ 136426.416523165302351, 2552154.877432706765831 ], [ 135348.815656356746331, 2552181.057899691630155 ], [ 135818.298613550025038, 2553095.61129581881687 ] ] ], [ [ [ 144300.167811841936782, 2554743.667968318331987 ], [ 142891.843231863691472, 2551999.428727912716568 ], [ 141814.293236048426479, 2552025.142328048590571 ], [ 142753.07282625476364, 2553854.562029836699367 ], [ 141675.572297429316677, 2553880.305251775775105 ], [ 142145.233027975482401, 2554795.028242566157132 ], [ 144300.167811841936782, 2554743.667968318331987 ] ] ], [ [ [ 140322.97877240809612, 2557616.753651634324342 ], [ 141400.388639638375025, 2557590.873323457781225 ], [ 140460.144640236278065, 2555761.399632261134684 ], [ 139382.676772108476143, 2555787.328272384125739 ], [ 140322.97877240809612, 2557616.753651634324342 ] ] ], [ [ [ 144495.956498357991222, 2559369.016963333357126 ], [ 146650.601705624430906, 2559317.89934887457639 ], [ 145709.944227933883667, 2557488.131679355632514 ], [ 143555.18315928807715, 2557539.346574841067195 ], [ 144495.956498357991222, 2559369.016963333357126 ] ] ], [ [ [ 148334.862261831352953, 2558352.148608604911715 ], [ 148805.213767881388776, 2559267.093769232276827 ], [ 149882.507432875107042, 2559241.807983637787402 ], [ 149412.184849465556908, 2558326.838392695877701 ], [ 148334.862261831352953, 2558352.148608604911715 ] ] ], [ [ [ 145908.326321263099089, 2562113.710532179102302 ], [ 146985.566126845311373, 2562088.185911891516298 ], [ 146514.643871223495807, 2561173.238507736008614 ], [ 148669.156630125304218, 2561122.374590100720525 ], [ 147727.911867231363431, 2559292.457556470297277 ], [ 146650.601705624430906, 2559317.89934887457639 ], [ 147121.172395122470334, 2560232.820852670352906 ], [ 144966.585133901331574, 2560283.889717967249453 ], [ 145908.326321263099089, 2562113.710532179102302 ] ] ], [ [ [ 157757.513353731774259, 2561837.23413721146062 ], [ 158834.663549594872165, 2561812.568325876258314 ], [ 158364.059328175673727, 2560897.350413871929049 ], [ 157286.880284590879455, 2560922.040948304347694 ], [ 157757.513353731774259, 2561837.23413721146062 ] ] ], [ [ [ 157286.880284590879455, 2560922.040948304347694 ], [ 156816.40846250805771, 2560006.873284439556301 ], [ 157893.616348693962209, 2559982.158063170965761 ], [ 157423.33461427205475, 2559066.991236716974527 ], [ 150959.792887509509455, 2559216.600196171551943 ], [ 151430.247840105730575, 2560131.61951357126236 ], [ 150352.991300314490218, 2560156.802808217238635 ], [ 151294.442874740227126, 2561986.868305963929743 ], [ 152371.641569494036958, 2561961.734105695970356 ], [ 152842.580340021930169, 2562876.829454376362264 ], [ 153919.741971158713568, 2562851.797955471090972 ], [ 154862.045458345208317, 2564682.114307843148708 ], [ 155939.14115723624127, 2564657.210322452709079 ], [ 155467.937699168571271, 2563742.014673936646432 ], [ 156545.054242663492914, 2563717.164080915506929 ], [ 155603.188876842730679, 2561886.799931900575757 ], [ 156680.355137904698495, 2561861.978004740551114 ], [ 156209.693208167562261, 2560946.809512624517083 ], [ 157286.880284590879455, 2560922.040948304347694 ] ] ], [ [ [ 143619.117543244443368, 2564020.527826742269099 ], [ 144696.324246157426387, 2563994.817731089424342 ], [ 143753.821790821617469, 2562164.994060104712844 ], [ 142676.557015406200662, 2562190.752974865492433 ], [ 143619.117543244443368, 2564020.527826742269099 ] ] ], [ [ [ 140859.056684881565161, 2565012.978940163273364 ], [ 141936.259424472809769, 2564987.058745550923049 ], [ 141464.679068441560958, 2564072.182495063636452 ], [ 140387.447246019321028, 2564098.127074906602502 ], [ 140859.056684881565161, 2565012.978940163273364 ] ] ], [ [ [ 157487.564600197190885, 2565547.630484956782311 ], [ 157959.061643057852052, 2566462.902125492691994 ], [ 159036.08346004266059, 2566438.204095207154751 ], [ 157622.162741422536783, 2563692.3916035736911 ], [ 156545.054242663492914, 2563717.164080915506929 ], [ 157016.228799025411718, 2564632.384482489898801 ], [ 155939.14115723624127, 2564657.210322452709079 ], [ 156410.505865219922271, 2565572.431535541079938 ], [ 157487.564600197190885, 2565547.630484956782311 ] ] ], [ [ [ 143351.968377530749422, 2567731.838199841789901 ], [ 142274.852917017124128, 2567757.685020853299648 ], [ 141802.759523533692118, 2566842.757876172661781 ], [ 140725.60658015368972, 2566868.707438713870943 ], [ 141670.01290633372264, 2568698.537922947201878 ], [ 143824.193979707721155, 2568646.81504220655188 ], [ 143351.968377530749422, 2567731.838199841789901 ] ] ], [ [ [ 149029.320954184688162, 2578713.234363644383848 ], [ 150106.078649921633769, 2578687.762898143846542 ], [ 149632.108026301430073, 2577772.481405782047659 ], [ 147478.526138846646063, 2577823.552811056375504 ], [ 148426.745270627201535, 2579654.041631401982158 ], [ 149503.481993044610135, 2579628.516548831947148 ], [ 149029.320954184688162, 2578713.234363644383848 ] ] ], [ [ [ 153810.347355826874264, 2579527.202296711970121 ], [ 154887.043440569599625, 2579502.070235657971352 ], [ 154413.02802794193849, 2578586.66281641414389 ], [ 152259.569569597311784, 2578637.055708252824843 ], [ 153207.878068943216931, 2580467.795999563764781 ], [ 154284.553113560599741, 2580442.610450861975551 ], [ 153810.347355826874264, 2579527.202296711970121 ] ] ], [ [ [ 146371.610504939802922, 2454826.944103975314647 ], [ 147451.721437292522751, 2454802.570900203194469 ], [ 147000.933681335765868, 2453889.254896602127701 ], [ 142680.327810088696424, 2453987.283351296093315 ], [ 143582.28680353256641, 2455813.765253419522196 ], [ 146822.587403469951823, 2455740.261295969597995 ], [ 146371.610504939802922, 2454826.944103975314647 ] ] ], [ [ [ 143052.160865520650987, 2461367.546423736028373 ], [ 145212.087273116980214, 2461318.279299511108547 ], [ 144760.030785022012424, 2460404.911682743579149 ], [ 145840.009028379921801, 2460380.368941475171596 ], [ 144033.508427299850155, 2456727.040331018157303 ], [ 141873.320851029537152, 2456776.374299303162843 ], [ 142324.759512452001218, 2457689.628915382549167 ], [ 141244.680659487668891, 2457714.386715639848262 ], [ 143052.160865520650987, 2461367.546423736028373 ] ] ], [ [ [ 133889.854634554008953, 2467122.878580832388252 ], [ 137129.51366634410806, 2467047.001160955522209 ], [ 136223.066798422427382, 2465220.449359821621329 ], [ 132983.239709655637853, 2465296.456710858736187 ], [ 133889.854634554008953, 2467122.878580832388252 ] ] ], [ [ [ 137129.51366634410806, 2467047.001160955522209 ], [ 137582.97925902530551, 2467960.31122703384608 ], [ 139742.65243384311907, 2467910.146128464024514 ], [ 138835.994618622062262, 2466083.461761836893857 ], [ 140995.745083311572671, 2466033.510543815325946 ], [ 140542.714218804088887, 2465120.159100621938705 ], [ 137302.99167640885571, 2465195.263993986882269 ], [ 138209.382576334115583, 2467021.859210764057934 ], [ 137129.51366634410806, 2467047.001160955522209 ] ] ], [ [ [ 143435.584665343631059, 2468748.905185544397682 ], [ 147754.613410108664539, 2468650.469361235853285 ], [ 147301.237901643617079, 2467736.939373011700809 ], [ 142982.097497758397367, 2467835.4630605452694 ], [ 143435.584665343631059, 2468748.905185544397682 ] ] ], [ [ [ 133717.267603645042982, 2468974.790851624682546 ], [ 132637.411053017422091, 2469000.265841758809984 ], [ 133091.339717757364269, 2469913.512834371533245 ], [ 132011.502442729601171, 2469939.041482516098768 ], [ 132465.620647623960394, 2470852.289485547691584 ], [ 134625.230249873478897, 2470801.350984072312713 ], [ 133717.267603645042982, 2468974.790851624682546 ] ] ], [ [ [ 132410.078982467937749, 2477322.178968683816493 ], [ 131499.574868665135, 2475495.517705637030303 ], [ 129340.158420765772462, 2475546.993194249458611 ], [ 129795.386099582887255, 2476460.2688236865215 ], [ 130875.07056445768103, 2476434.51509738015011 ], [ 131330.431522058090195, 2477347.835292185191065 ], [ 132410.078982467937749, 2477322.178968683816493 ] ] ], [ [ [ 133700.30004590790486, 2493005.336063568014652 ], [ 134779.510999409656506, 2492979.676262949127704 ], [ 134321.292531447543297, 2492066.053015233483166 ], [ 133242.053249684162438, 2492091.735124478582293 ], [ 133700.30004590790486, 2493005.336063568014652 ] ] ], [ [ [ 128762.66391023324104, 2494048.288715207483619 ], [ 127683.428605632449035, 2494074.382677898276597 ], [ 127224.850109449413139, 2493160.892022598534822 ], [ 125066.296001673443243, 2493213.352536095771939 ], [ 125524.931357886001933, 2494126.798897962551564 ], [ 124445.669363224296831, 2494153.121162662748247 ], [ 124904.494642041216139, 2495066.568362519610673 ], [ 123825.252166723425034, 2495092.944619008805603 ], [ 125202.782244946225546, 2497833.357677306514233 ], [ 127361.08743008505553, 2497780.814496807288378 ], [ 126901.806221367034595, 2496867.276005019899458 ], [ 127980.973952398344409, 2496841.096456378232688 ], [ 127521.882654342218302, 2495927.55881003011018 ], [ 130759.418081986776087, 2495849.410351398400962 ], [ 130300.573504063882865, 2494935.829020743723959 ], [ 129221.375447760219686, 2494961.824642541352659 ], [ 128762.66391023324104, 2494048.288715207483619 ] ] ], [ [ [ 138772.168317484436557, 2496583.490241527091712 ], [ 137693.088008627179079, 2496608.908158499281853 ], [ 138611.243832980166189, 2498436.456463598646224 ], [ 139690.267478301830124, 2498411.083655977156013 ], [ 138772.168317484436557, 2496583.490241527091712 ] ] ], [ [ [ 137234.252202858042438, 2495695.16917817061767 ], [ 133996.874366472417023, 2495771.947173250839114 ], [ 133538.114936686586589, 2494858.298836853355169 ], [ 132458.943222777219489, 2494884.066121516283602 ], [ 134754.496486249612644, 2499452.428953137714416 ], [ 135833.526297889184207, 2499426.773828103207052 ], [ 136752.820746246899944, 2501254.327629413455725 ], [ 141068.626664089097176, 2501152.650427049491554 ], [ 140609.012213794165291, 2500238.771236784756184 ], [ 139530.045253178162966, 2500264.098794124554843 ], [ 139070.563845190918073, 2499350.265858203638345 ], [ 137991.559951643459499, 2499375.692284203134477 ], [ 136613.999073363782372, 2496634.402222481556237 ], [ 137693.088008627179079, 2496608.908158499281853 ], [ 137234.252202858042438, 2495695.16917817061767 ] ] ], [ [ [ 132596.410764865286183, 2499503.967927297577262 ], [ 133675.457983814179897, 2499478.160318338312209 ], [ 133215.99608057225123, 2498564.463566954247653 ], [ 132136.920444874325767, 2498590.293625709135085 ], [ 132596.410764865286183, 2499503.967927297577262 ] ] ], [ [ [ 145208.925989490817301, 2515852.999115879181772 ], [ 146287.427018139802385, 2515827.908490973990411 ], [ 145825.173920424946118, 2514913.693188739940524 ], [ 143668.106521591602359, 2514963.997501935809851 ], [ 144592.887937835475896, 2516792.359462092164904 ], [ 145671.368896572384983, 2516767.215331763029099 ], [ 145208.925989490817301, 2515852.999115879181772 ] ] ], [ [ [ 137969.110349186346866, 2518798.651478934567422 ], [ 140126.068383620760869, 2518747.457854646723717 ], [ 139663.131662553874776, 2517833.332558820489794 ], [ 137506.116483525489457, 2517884.572385296691209 ], [ 137969.110349186346866, 2518798.651478934567422 ] ] ], [ [ [ 149216.431620918621775, 2519460.090769628528506 ], [ 148138.052816841285676, 2519485.011464412324131 ], [ 147212.417242240102496, 2517656.411553578451276 ], [ 146133.973149679077324, 2517681.455688546877354 ], [ 147522.753953537903726, 2520424.321960458531976 ], [ 149679.462933217000682, 2520374.450528009794652 ], [ 149216.431620918621775, 2519460.090769628528506 ] ] ], [ [ [ 149376.720344739849679, 2524081.817125782836229 ], [ 150454.964996123802848, 2524056.936826202552766 ], [ 149527.716155701491516, 2522228.093545367009938 ], [ 148449.414494982804172, 2522253.020833110902458 ], [ 149376.720344739849679, 2524081.817125782836229 ] ] ], [ [ [ 194193.623407383856829, 2522187.630529265385121 ], [ 194656.170653569803108, 2523103.051066724117845 ], [ 195734.090059655078221, 2523081.399378093425184 ], [ 195271.5707878312096, 2522165.954220526851714 ], [ 194193.623407383856829, 2522187.630529265385121 ] ] ], [ [ [ 167554.698707189993002, 2525522.617579729296267 ], [ 168632.757524117245339, 2525499.015878711827099 ], [ 167705.772426284616813, 2523669.313494065776467 ], [ 166627.656987870868761, 2523692.963168751448393 ], [ 167554.698707189993002, 2525522.617579729296267 ] ] ], [ [ [ 144449.409846673952416, 2525121.690264583099633 ], [ 143371.143644552852493, 2525147.00888520758599 ], [ 143835.371245718502905, 2526061.327169072348624 ], [ 145991.838065543677658, 2526010.813791822642088 ], [ 146920.662917300185654, 2527839.617216681595892 ], [ 149076.981977989256848, 2527789.506056767422706 ], [ 148612.546032166748773, 2526875.045023483224213 ], [ 147534.362094222393353, 2526900.085649768356234 ], [ 146605.91705332841957, 2525071.283980391919613 ], [ 145527.66764108708594, 2525096.448630817234516 ], [ 144599.810810811759438, 2523267.79123245831579 ], [ 143521.495868200843688, 2523293.079662669450045 ], [ 144449.409846673952416, 2525121.690264583099633 ] ] ], [ [ [ 172330.536586537957191, 2526343.633503949735314 ], [ 171866.887076889630407, 2525428.672392561100423 ], [ 172944.914713532896712, 2525405.378425259143114 ], [ 172481.45467650325736, 2524490.418415974825621 ], [ 170325.335108668543398, 2524537.131473097018898 ], [ 171252.529473545670044, 2526366.980280284769833 ], [ 172330.536586537957191, 2526343.633503949735314 ] ] ], [ [ [ 194966.936352385266218, 2525871.122874872758985 ], [ 196044.77898697584169, 2525849.468374682124704 ], [ 195581.748446414596401, 2524933.969952905550599 ], [ 194503.877809200901538, 2524955.649153866339475 ], [ 194966.936352385266218, 2525871.122874872758985 ] ] ], [ [ [ 157701.928558485233225, 2527592.143350490368903 ], [ 158780.010214988025837, 2527567.81967296032235 ], [ 158315.830791955231689, 2526653.145274301525205 ], [ 156159.602475036343094, 2526701.917255907319486 ], [ 157088.236434075981379, 2528531.195604535285383 ], [ 158166.297709748381749, 2528506.818721200805157 ], [ 157701.928558485233225, 2527592.143350490368903 ] ] ], [ [ [ 155596.022241642756853, 2540594.549316402990371 ], [ 156062.877636442135554, 2541509.381624942645431 ], [ 158218.305857445346192, 2541460.295729564968497 ], [ 157751.507713211409282, 2540545.415116030722857 ], [ 155596.022241642756853, 2540594.549316402990371 ] ] ], [ [ [ 184547.267561749496963, 2541810.914058895315975 ], [ 186702.23648224939825, 2541765.902884121052921 ], [ 186236.016821129422169, 2540850.358664325904101 ], [ 184080.991302287904546, 2540895.419587167911232 ], [ 184547.267561749496963, 2541810.914058895315975 ] ] ], [ [ [ 190256.631905177608132, 2544468.140562430024147 ], [ 192411.372467499808408, 2544423.898750445339829 ], [ 191944.782552443793975, 2543508.175917518790811 ], [ 189789.98546182498103, 2543552.467904989607632 ], [ 190256.631905177608132, 2544468.140562430024147 ] ] ], [ [ [ 180416.830950505507644, 2546524.922077151946723 ], [ 181494.222067241149489, 2546502.037454955279827 ], [ 181026.998322508472484, 2545586.537353545427322 ], [ 178872.151745815295726, 2545632.433878359384835 ], [ 179806.874045149830636, 2547463.360550386365503 ], [ 180884.24425218050601, 2547440.423278371803463 ], [ 180416.830950505507644, 2546524.922077151946723 ] ] ], [ [ [ 165049.979611691378523, 2550562.201101295650005 ], [ 166127.379525088181254, 2550538.173622005619109 ], [ 165659.054844270809554, 2549622.966487507801503 ], [ 166736.475531973526813, 2549598.99207336967811 ], [ 166268.340682912385091, 2548683.785895714070648 ], [ 165190.891381094988901, 2548707.784904923755676 ], [ 164722.889138657948934, 2547792.628837426193058 ], [ 163645.403344526712317, 2547816.730022920295596 ], [ 165049.979611691378523, 2550562.201101295650005 ] ] ], [ [ [ 169687.925420503190253, 2553236.275132164824754 ], [ 170765.21606304863235, 2553212.555000104475766 ], [ 170296.493613741418812, 2552297.196690958924592 ], [ 168141.847341648594011, 2552344.764281891286373 ], [ 169079.56790250109043, 2554175.40751972142607 ], [ 170156.837673896516208, 2554151.634420952759683 ], [ 169687.925420503190253, 2553236.275132164824754 ] ] ], [ [ [ 195591.020008467079606, 2559166.241618641652167 ], [ 197744.883053026336711, 2559122.500913938507438 ], [ 197275.659313330776058, 2558206.403489442542195 ], [ 195121.739524774777237, 2558250.195420682895929 ], [ 195591.020008467079606, 2559166.241618641652167 ] ] ], [ [ [ 190068.644133602792863, 2561131.199185468256474 ], [ 189598.87092482909793, 2560215.252843617461622 ], [ 188521.913838799693622, 2560237.681958926375955 ], [ 188052.273251206148416, 2559321.787681680172682 ], [ 186975.280380512180272, 2559344.320156747009605 ], [ 187914.779628711461555, 2561176.084402136038989 ], [ 190068.644133602792863, 2561131.199185468256474 ] ] ], [ [ [ 184683.927964519592933, 2561243.996967908460647 ], [ 186837.83642015629448, 2561198.643955492414534 ], [ 186367.977741724404041, 2560282.773997225798666 ], [ 184214.012242840777617, 2560328.177799986675382 ], [ 184683.927964519592933, 2561243.996967908460647 ] ] ], [ [ [ 178085.729312529903837, 2563236.552002860233188 ], [ 179162.682220755144954, 2563213.341131160501391 ], [ 179633.252808106888551, 2564129.087428343482316 ], [ 180710.169582262285985, 2564105.979934923816472 ], [ 179299.027088500151876, 2561358.744096314534545 ], [ 180376.022191831201781, 2561335.638703936710954 ], [ 179905.992231081123464, 2560419.920799931045622 ], [ 177751.93731389567256, 2560466.260048068128526 ], [ 178692.272773887147196, 2562297.621160338167101 ], [ 177615.291238324192818, 2562320.857301888987422 ], [ 178085.729312529903837, 2563236.552002860233188 ] ] ], [ [ [ 190402.087142452655826, 2563901.525213237851858 ], [ 190872.533191434748005, 2564817.552751010283828 ], [ 191949.347840149654076, 2564795.251436947844923 ], [ 191478.930288889270741, 2563879.198266254272312 ], [ 190402.087142452655826, 2563901.525213237851858 ] ] ], [ [ [ 184882.270865087746643, 2565868.90099189337343 ], [ 185959.100732309161685, 2565846.156740210019052 ], [ 185017.762167682230938, 2564014.33061831118539 ], [ 183940.875147519866005, 2564037.125855275429785 ], [ 184882.270865087746643, 2565868.90099189337343 ] ] ], [ [ [ 171488.607619247515686, 2565232.328902460169047 ], [ 170411.65116156975273, 2565256.114030004944652 ], [ 170882.802264653379098, 2566171.685631825122982 ], [ 169805.866848672158085, 2566195.523745580110699 ], [ 170277.207891880127136, 2567111.096281006000936 ], [ 172431.01350777130574, 2567063.548589928541332 ], [ 171488.607619247515686, 2565232.328902460169047 ] ] ], [ [ [ 161795.719602988450788, 2565449.207931166049093 ], [ 162738.643869118008297, 2567279.976164782419801 ], [ 164892.55838698282605, 2567231.333783650305122 ], [ 163949.749495567579288, 2565400.465595610439777 ], [ 161795.719602988450788, 2565449.207931166049093 ] ] ], [ [ [ 188583.59225430211518, 2566716.906707493122667 ], [ 190737.143686697585508, 2566672.016217968426645 ], [ 190266.346953854779713, 2565755.960791862104088 ], [ 188112.738442093483172, 2565800.90256063407287 ], [ 188583.59225430211518, 2566716.906707493122667 ] ] ], [ [ [ 178892.247198431403376, 2566922.781665172427893 ], [ 177815.393848353298381, 2566946.047406206373125 ], [ 178286.694963993213605, 2567861.8231081222184 ], [ 177209.862766074656975, 2567885.141637564171106 ], [ 177681.353718501282856, 2568800.918335430789739 ], [ 179834.95320819504559, 2568754.41030799318105 ], [ 178892.247198431403376, 2566922.781665172427893 ] ] ], [ [ [ 175527.724073902470991, 2568847.739230420906097 ], [ 175999.433610001928173, 2569763.491522804368287 ], [ 178153.005813439027406, 2569716.721439328044653 ], [ 177681.353718501282856, 2568800.918335430789739 ], [ 175527.724073902470991, 2568847.739230420906097 ] ] ], [ [ [ 174789.848634354479145, 2571642.056709312833846 ], [ 176943.33612805820303, 2571595.075257551856339 ], [ 176471.3042957460857, 2570679.270185974892229 ], [ 174317.759289336914662, 2570726.302489533554763 ], [ 174789.848634354479145, 2571642.056709312833846 ] ] ], [ [ [ 175472.596523104177322, 2577184.12586054392159 ], [ 174395.999022959265858, 2577207.737908092793077 ], [ 174869.302851172280498, 2578123.600685329642147 ], [ 173792.726600722817238, 2578147.265647022519261 ], [ 174266.220431025663856, 2579063.129352667368948 ], [ 173189.665435829665512, 2579086.847247927915305 ], [ 173663.349288121098652, 2580002.711873032618314 ], [ 175816.393946785537992, 2579955.40586099261418 ], [ 176290.181208037945908, 2580871.348335162736475 ], [ 177366.663330594659783, 2580847.838863701093942 ], [ 176892.90492135414388, 2579931.870690633542836 ], [ 177969.408359597378876, 2579908.414073027204722 ], [ 177495.839920688478742, 2578992.44685141230002 ], [ 178572.36466907535214, 2578969.043068281840533 ], [ 178098.986180614330806, 2578053.076807014178485 ], [ 175945.871514537604526, 2578100.014226942323148 ], [ 175472.596523104177322, 2577184.12586054392159 ] ] ], [ [ [ 209216.684256952547003, 2473843.395250143948942 ], [ 209669.860722949379124, 2474758.354108226951212 ], [ 212907.142469693091698, 2474698.065677264239639 ], [ 212454.047718221147079, 2473783.035524205770344 ], [ 213533.155080746335443, 2473763.066196151543409 ], [ 213080.248592647199985, 2472848.037658610381186 ], [ 215238.497165262000635, 2472808.277210609056056 ], [ 214785.806098647066392, 2471893.226495140232146 ], [ 216944.081737990025431, 2471853.719378781504929 ], [ 217396.71848519530613, 2472768.817776702344418 ], [ 219554.912759209808428, 2472729.659334825351834 ], [ 219102.330282252456527, 2471814.513148181140423 ], [ 220181.444458355137613, 2471795.022858182433993 ], [ 219729.050116353377234, 2470879.878344536758959 ], [ 220808.18469529482536, 2470860.439341861288995 ], [ 219452.04907371790614, 2468115.087522221263498 ], [ 217293.61064077395713, 2468154.183771510142833 ], [ 216390.217021984397434, 2466324.171810966450721 ], [ 217469.493785303377081, 2466304.538647861219943 ], [ 217018.065615949395578, 2465389.547035938128829 ], [ 218097.362676162330899, 2465369.965209750924259 ], [ 217195.043575701478403, 2463540.010702367872 ], [ 213956.969597281189635, 2463599.123093998990953 ], [ 214408.129833717481233, 2464514.016805519349873 ], [ 213328.785251280933153, 2464533.847323954571038 ], [ 213780.133639017411042, 2465448.742688746657223 ], [ 211621.478065199800767, 2465488.581630121450871 ], [ 211170.075444221904036, 2464573.733390390872955 ], [ 210090.710167795012239, 2464593.788943971507251 ], [ 209188.333882820501458, 2462764.214824600145221 ], [ 208108.907378009404056, 2462784.39228350808844 ], [ 207657.933723955473397, 2461869.666203064844012 ], [ 204419.53063631040277, 2461930.71840980835259 ], [ 204870.585757867607754, 2462845.374473810195923 ], [ 203791.131096195604187, 2462865.851817918010056 ], [ 204242.374506009742618, 2463780.509469077922404 ], [ 203162.939938569557853, 2463801.038497678935528 ], [ 203614.37165673810523, 2464715.697727956809103 ], [ 202534.95718770311214, 2464736.278462236281484 ], [ 202986.577234323078301, 2465650.939263576641679 ], [ 201907.18286788649857, 2465671.571724707260728 ], [ 202358.991263055300806, 2466586.234089044388384 ], [ 201279.617003424325958, 2466606.918298185337335 ], [ 201731.613767235772684, 2467521.582217434421182 ], [ 203890.300652784411795, 2467480.335625738371164 ], [ 204342.404018540808465, 2468395.07125654257834 ], [ 206501.008065045811236, 2468354.17204128857702 ], [ 206953.218057578545995, 2469268.979664051439613 ], [ 205873.946792831411585, 2469289.368198783136904 ], [ 206326.345107823843136, 2470204.177401996683329 ], [ 203088.570731156272814, 2470265.7235665069893 ], [ 203541.211933143204078, 2471180.487330109812319 ], [ 199224.189025077153929, 2471263.508020885754377 ], [ 200130.173271066392772, 2473092.922899562865496 ], [ 199050.954305852996185, 2473113.819340786896646 ], [ 199504.215462816879153, 2474028.540767048019916 ], [ 198425.016665519797243, 2474049.489066228736192 ], [ 199785.848980885581113, 2476793.732839865610003 ], [ 200864.965639500005636, 2476772.855065033771098 ], [ 201318.871256831451319, 2477687.676621411927044 ], [ 203477.02840253879549, 2477646.194511218927801 ], [ 203931.040373233845457, 2478561.08849366940558 ], [ 206089.114465240621939, 2478519.955487021710724 ], [ 205635.157199121895246, 2477605.014093016739935 ], [ 206714.211031042039394, 2477584.537011211272329 ], [ 205353.387730045593344, 2474839.793223852291703 ], [ 206432.516484056599438, 2474819.320449902676046 ], [ 205979.258192473731469, 2473904.432647921144962 ], [ 209216.684256952547003, 2473843.395250143948942 ] ], [ [ 212349.469634545559529, 2469168.164396287873387 ], [ 211270.233199145295657, 2469188.1771384710446 ], [ 210818.132005607127212, 2468273.275239713024348 ], [ 211897.395609949948266, 2468253.238862164784223 ], [ 212349.469634545559529, 2469168.164396287873387 ] ] ], [ [ [ 216597.536605754052289, 2475553.582307009957731 ], [ 218755.594902983400971, 2475514.266339447814971 ], [ 218302.47507070255233, 2474599.091221629176289 ], [ 216144.362421830592211, 2474638.455081168096513 ], [ 216597.536605754052289, 2475553.582307009957731 ] ] ], [ [ [ 197173.767407583654858, 2475920.988686637487262 ], [ 196094.601717892510351, 2475942.116149398498237 ], [ 195640.908731956733391, 2475027.438601883593947 ], [ 194561.708345995633863, 2475048.664854268543422 ], [ 195469.310316684073769, 2476877.998020528815687 ], [ 197627.594106390140951, 2476835.714608056470752 ], [ 197173.767407583654858, 2475920.988686637487262 ] ] ], [ [ [ 184052.568733415449969, 2478030.397233228664845 ], [ 183144.039221906801686, 2476201.526784481015056 ], [ 182064.777045162045397, 2476223.634519249666482 ], [ 182518.988786920206621, 2477138.034361170604825 ], [ 181439.746603867039084, 2477160.194429930765182 ], [ 181894.147149281168822, 2478074.5956353074871 ], [ 184052.568733415449969, 2478030.397233228664845 ] ] ], [ [ [ 217958.025343938381411, 2478299.117571962531656 ], [ 220115.920521836611442, 2478259.945699869655073 ], [ 219208.875757605361287, 2476429.467101430054754 ], [ 217050.871822756482288, 2476468.735107112675905 ], [ 217958.025343938381411, 2478299.117571962531656 ] ] ], [ [ [ 211655.743164421524853, 2476568.223965850658715 ], [ 210576.696856833295897, 2476588.34784745844081 ], [ 210123.198257251118775, 2475673.338295555207878 ], [ 209044.117757190542761, 2475693.561335430946201 ], [ 208590.752954673196655, 2474778.600894935429096 ], [ 207511.638216987717897, 2474798.923007880803198 ], [ 208418.583459157904144, 2476628.821742970030755 ], [ 207339.516317422676366, 2476649.171762531157583 ], [ 207793.257853138027713, 2477564.135343783069402 ], [ 208872.29769122885773, 2477543.80908788042143 ], [ 210234.406795039074495, 2480288.923456589691341 ], [ 211313.357768908143044, 2480268.744189866352826 ], [ 211767.688949896313716, 2481183.857139054685831 ], [ 212846.605728052498307, 2481163.777314541861415 ], [ 213755.696627668628935, 2482994.127893716096878 ], [ 214834.551956493174657, 2482974.171650103759021 ], [ 215289.311665371875279, 2483889.409482950344682 ], [ 217446.947357373719569, 2483849.771928082685918 ], [ 216537.698107061500195, 2482019.225502945482731 ], [ 215458.829091859981418, 2482039.054736743215472 ], [ 213642.153909351676702, 2478378.36629312299192 ], [ 214721.131967367371544, 2478358.440983809996396 ], [ 214267.393025218159892, 2477443.308882205281407 ], [ 212109.375559649255592, 2477483.282760975882411 ], [ 211655.743164421524853, 2476568.223965850658715 ] ] ], [ [ [ 195701.43257378594717, 2486110.693449770100415 ], [ 195245.829705763724633, 2485195.8586195865646 ], [ 196324.75690484844381, 2485174.58907461958006 ], [ 195869.342700522276573, 2484259.755686409305781 ], [ 194790.387968950089999, 2484281.048877505585551 ], [ 194335.10736640059622, 2483366.264188139233738 ], [ 192177.120933348836843, 2483409.124638376291841 ], [ 191721.946387151372619, 2482494.41203894186765 ], [ 190642.914602060278412, 2482515.979189573321491 ], [ 189278.275236722140107, 2479772.061001670081168 ], [ 190357.3896672775154, 2479750.423571479506791 ], [ 189902.859743783832528, 2478835.810408524703234 ], [ 190981.994301609753165, 2478814.225109722930938 ], [ 190527.65306142962072, 2477899.613369882572442 ], [ 191606.807742062956095, 2477878.08018147200346 ], [ 191152.655165089468937, 2476963.469873059540987 ], [ 192231.829964086588006, 2476941.988774030003697 ], [ 191324.063252822088543, 2475112.795807300601155 ], [ 190244.833490524208173, 2475134.323533565737307 ], [ 190698.66374688729411, 2476048.884335454553366 ], [ 188540.236965674615931, 2476092.119406038895249 ], [ 188994.283389912103303, 2477006.658360914792866 ], [ 185756.669896690582391, 2477072.006862551905215 ], [ 187574.797828824084718, 2480730.130291458684951 ], [ 186495.688629816868342, 2480751.970970900263637 ], [ 186950.651139614696149, 2481666.540234414860606 ], [ 188029.732752696494572, 2481644.722902078181505 ], [ 188484.82884675153764, 2482559.340284362435341 ], [ 189563.875430526211858, 2482537.621937038842589 ], [ 190474.49594328913372, 2484366.978079764172435 ], [ 189395.504533123224974, 2484388.649504804052413 ], [ 190306.824863364046905, 2486218.058234870433807 ], [ 189227.881260069203563, 2486239.758306151255965 ], [ 189683.810776942991652, 2487154.476518164388835 ], [ 188604.887390245043207, 2487176.2287702918984 ], [ 189517.285169120470528, 2489005.692907428834587 ], [ 192753.867395021836273, 2488940.805023386608809 ], [ 192297.670811816409696, 2488025.989597560837865 ], [ 193376.544473335437942, 2488004.488196650985628 ], [ 192920.536631838651374, 2487089.674179303925484 ], [ 195078.317205069994088, 2487046.851271184161305 ], [ 194622.525653278979007, 2486132.015007298905402 ], [ 195701.43257378594717, 2486110.693449770100415 ] ] ], [ [ [ 200353.93785112950718, 2482324.59596046898514 ], [ 198195.983426827413496, 2482366.59650062629953 ], [ 198650.992879492579959, 2483281.450635630171746 ], [ 199729.946209638670553, 2483260.436261032707989 ], [ 200640.393499620666262, 2485090.267508326098323 ], [ 201719.28472678543767, 2485069.37625542236492 ], [ 201264.00799833756173, 2484154.424239127896726 ], [ 202342.919566343422048, 2484133.584830710664392 ], [ 201887.831392675347161, 2483218.634307483676821 ], [ 200808.892372104921378, 2483239.497485958971083 ], [ 200353.93785112950718, 2482324.59596046898514 ] ] ], [ [ [ 198650.992879492579959, 2483281.450635630171746 ], [ 197572.032355880306568, 2483302.540612687822431 ], [ 198482.589591001276858, 2485132.276974663604051 ], [ 199561.495129616989288, 2485111.234413763973862 ], [ 198650.992879492579959, 2483281.450635630171746 ] ] ], [ [ [ 208480.0197334595141, 2487711.42158511094749 ], [ 208024.3969622302684, 2486796.27374907489866 ], [ 211260.75848517823033, 2486735.332548810634762 ], [ 209895.103082149405964, 2483989.826175567228347 ], [ 207737.371366345207207, 2484030.522033700719476 ], [ 208192.483533333637752, 2484945.617278530262411 ], [ 206034.778722482617013, 2484986.567710939794779 ], [ 206945.595895348407794, 2486816.73885518219322 ], [ 205866.78783925663447, 2486837.279652388766408 ], [ 206322.465471538424026, 2487752.379481913987547 ], [ 208480.0197334595141, 2487711.42158511094749 ] ] ], [ [ [ 211260.75848517823033, 2486735.332548810634762 ], [ 211716.29905767069431, 2487650.552593594416976 ], [ 213873.784195104788523, 2487610.351801987737417 ], [ 213418.29835994791938, 2486695.083485343493521 ], [ 214497.058032437518705, 2486675.072466175537556 ], [ 214041.760581797396298, 2485759.805729782674462 ], [ 211884.179700183856767, 2485799.951696927193552 ], [ 212339.531852779386099, 2486715.170178620610386 ], [ 211260.75848517823033, 2486735.332548810634762 ] ] ], [ [ [ 181052.214280527550727, 2487330.61546333739534 ], [ 178894.239596699888352, 2487375.407766484189779 ], [ 179350.607191732036881, 2488289.916456721257418 ], [ 180429.570601787767373, 2488267.505750147625804 ], [ 180886.071650310652331, 2489182.062436041422188 ], [ 181964.999698362895288, 2489159.750911456998438 ], [ 181052.214280527550727, 2487330.61546333739534 ] ] ], [ [ [ 195367.85472954279976, 2489812.813338154926896 ], [ 197525.455296833068132, 2489770.284360392484814 ], [ 197069.207934536680114, 2488855.34882328286767 ], [ 198148.024950302671641, 2488834.174213798716664 ], [ 197691.966260823362973, 2487919.240120118949562 ], [ 195534.269887285772711, 2487961.712658931966871 ], [ 195990.383696876000613, 2488876.599206011276692 ], [ 194911.55221156909829, 2488897.925364950206131 ], [ 195367.85472954279976, 2489812.813338154926896 ] ] ], [ [ [ 204620.776826951478142, 2488708.717630155384541 ], [ 205076.831536252633668, 2489623.820475618354976 ], [ 203998.084795751783531, 2489644.516526652034372 ], [ 204454.328073610959109, 2490559.620867884717882 ], [ 202296.868418942263816, 2490601.192367155570537 ], [ 203209.948280516895466, 2492431.381506287492812 ], [ 206445.962123865669128, 2492369.282224704977125 ], [ 205989.424187744851224, 2491454.102737185079604 ], [ 207068.108938639168628, 2491433.5305854100734 ], [ 206155.571247491519898, 2489603.200203869026154 ], [ 207234.303955208684783, 2489582.655708525329828 ], [ 206778.304177867015824, 2488667.50482207396999 ], [ 204620.776826951478142, 2488708.717630155384541 ] ] ], [ [ [ 183335.386769191827625, 2491903.639707623980939 ], [ 184414.22401667345548, 2491881.474457619246095 ], [ 183957.294882671732921, 2490966.796540474519134 ], [ 185036.15234325628262, 2490944.68363458616659 ], [ 184579.412118182750419, 2490030.007048670668155 ], [ 181342.733897729835007, 2490096.643824880477041 ], [ 181799.557340959727298, 2491011.249951987527311 ], [ 182878.429890486644581, 2490988.985311909113079 ], [ 183335.386769191827625, 2491903.639707623980939 ] ] ], [ [ [ 215366.421089414041489, 2494973.240665117278695 ], [ 213209.347134702082258, 2495013.356423652265221 ], [ 214123.597711242327932, 2496844.189785243012011 ], [ 213045.105432313866913, 2496864.312794499564916 ], [ 213502.499734358629212, 2497779.743988719303161 ], [ 214580.964542779373005, 2497759.645409863442183 ], [ 215038.49239914183272, 2498675.127045070752501 ], [ 216116.922954897861928, 2498655.128962323535234 ], [ 217032.406787233368959, 2500486.219499280210584 ], [ 215954.031174291449133, 2500506.168491537682712 ], [ 216870.214012596989051, 2502337.314413578715175 ], [ 217948.534661510027945, 2502317.414653222542256 ], [ 217490.390220633416902, 2501401.803981042001396 ], [ 220725.394439475610852, 2501342.487431579269469 ], [ 219352.174217800842598, 2498595.590868638828397 ], [ 218273.763838556595147, 2498615.36087688151747 ], [ 217816.318335446761921, 2497699.805685265455395 ], [ 216737.873817645770032, 2497719.676260925363749 ], [ 215366.421089414041489, 2494973.240665117278695 ] ] ], [ [ [ 221803.715870633081067, 2501322.86745007103309 ], [ 222261.750496418680996, 2502238.576922356616706 ], [ 225496.592991882120259, 2502180.247923485469073 ], [ 225038.640597847057506, 2501264.464072176255286 ], [ 221803.715870633081067, 2501322.86745007103309 ] ] ], [ [ [ 207445.586415777856018, 2511757.044092539697886 ], [ 206367.446124749141745, 2511777.765451821498573 ], [ 207288.266712765325792, 2513608.848737707361579 ], [ 206210.174923097423743, 2513629.597251662518829 ], [ 206670.854529429227114, 2514545.153375241905451 ], [ 205592.78352919628378, 2514565.953716423828155 ], [ 206053.651942541298922, 2515481.51126541569829 ], [ 208209.731490878213663, 2515440.036545257084072 ], [ 208670.705443657643627, 2516355.669735725503415 ], [ 211904.689814115175977, 2516294.106218486092985 ], [ 211443.799036789103411, 2515378.398565117269754 ], [ 210365.783390947675798, 2515398.868015644140542 ], [ 208983.994118620757945, 2512651.977098807226866 ], [ 210062.092870998079889, 2512631.433319286443293 ], [ 208681.836017897585407, 2509884.70387943321839 ], [ 206525.465459331695456, 2509926.015839515253901 ], [ 207445.586415777856018, 2511757.044092539697886 ] ] ], [ [ [ 203125.314210378390271, 2518311.912426208145916 ], [ 204203.302006492333021, 2518290.904572833329439 ], [ 203280.593159884272609, 2516459.807119373697788 ], [ 202202.549723162082955, 2516480.864350405987352 ], [ 203125.314210378390271, 2518311.912426208145916 ] ] ], [ [ [ 242233.342151137359906, 2520371.637816344853491 ], [ 241772.363159491302213, 2519455.138074438087642 ], [ 243927.763300143298693, 2519418.663311657495797 ], [ 243466.999970771372318, 2518502.139548716600984 ], [ 241311.545041742938338, 2518538.665753243025392 ], [ 240850.887800845812308, 2517622.220815690699965 ], [ 239773.123758979869308, 2517640.624424656387419 ], [ 240694.653937525348738, 2519473.490357216913253 ], [ 239616.938580439978978, 2519491.91924432432279 ], [ 240077.972420052508824, 2520408.367579602170736 ], [ 239000.278344726364594, 2520426.847410218790174 ], [ 239461.500513458595378, 2521343.297432809136808 ], [ 236228.463558895222377, 2521399.119813925586641 ], [ 236689.929043865879066, 2522315.520179554354399 ], [ 237767.586743035877589, 2522296.861707146279514 ], [ 238690.945404396683443, 2524129.795845809392631 ], [ 237613.342700561799575, 2524148.402901056222618 ], [ 238075.290866359951906, 2525064.885331190191209 ], [ 241307.997996437421534, 2525009.371772492304444 ], [ 240384.427499256591545, 2523176.279678479768336 ], [ 241462.03921583344345, 2523157.877052316907793 ], [ 240539.16714112702175, 2521324.843301282729954 ], [ 241616.827632711589104, 2521306.465829889290035 ], [ 241155.660347019176697, 2520389.96438249759376 ], [ 242233.342151137359906, 2520371.637816344853491 ] ] ], [ [ [ 202663.969044314522762, 2523868.72162818768993 ], [ 203741.810728223528713, 2523847.632343898992985 ], [ 202817.002064436674118, 2522016.369654344394803 ], [ 203894.892497860826552, 2521995.30747989192605 ], [ 203432.757626809587236, 2521079.690618007443845 ], [ 205588.573208937421441, 2521037.746854638680816 ], [ 205126.655087824561633, 2520122.106565128546208 ], [ 207282.498449975915719, 2520080.419979715254158 ], [ 206820.79701090673916, 2519164.756262660492212 ], [ 208976.668247017485555, 2519123.326691277325153 ], [ 208053.859634897613432, 2517291.978679311461747 ], [ 209131.840434890415054, 2517271.329165963921696 ], [ 208670.705443657643627, 2516355.669735725503415 ], [ 204358.629569204582367, 2516438.826476995367557 ], [ 205281.282800178625621, 2518269.973361103795469 ], [ 204203.302006492333021, 2518290.904572833329439 ], [ 204664.898019333952107, 2519206.492483374662697 ], [ 203586.938051402976271, 2519227.475594489369541 ], [ 204048.722953328920994, 2520143.064898342825472 ], [ 200814.884429759869818, 2520206.400095075834543 ], [ 200353.015952558023855, 2519290.884965972974896 ], [ 199275.027769459236879, 2519312.17477899370715 ], [ 200198.981569599127397, 2521143.181722791399807 ], [ 199121.042066014313605, 2521164.498892093542963 ], [ 199583.288487777288537, 2522080.016727935522795 ], [ 198505.36978502117563, 2522101.385945723857731 ], [ 198967.805209015670698, 2523016.905122416093946 ], [ 197889.907311859598849, 2523038.326408939436078 ], [ 198352.531758053111844, 2523953.846918119117618 ], [ 196196.770427413459402, 2523996.870496272109449 ], [ 196659.61188806098653, 2524912.367611586581916 ], [ 198815.317286662699189, 2524869.393495855852962 ], [ 199278.263894650561269, 2525784.96617873897776 ], [ 200356.077950166072696, 2525763.619204990100116 ], [ 201282.398471511143725, 2527594.892753263935447 ], [ 200204.640336586395279, 2527616.190006477758288 ], [ 201131.661059550824575, 2529447.518694735597819 ], [ 202209.363252975803334, 2529426.271305150352418 ], [ 201745.800331247155555, 2528510.568885388784111 ], [ 202823.523454589012545, 2528489.373499690555036 ], [ 202360.149550463596825, 2527573.672427164390683 ], [ 203437.893598927126732, 2527552.52902522450313 ], [ 202974.708692467771471, 2526636.829308256972581 ], [ 204052.473661275289487, 2526615.737869935110211 ], [ 202663.969044314522762, 2523868.72162818768993 ] ] ], [ [ [ 205897.473109410842881, 2523805.684200560674071 ], [ 208053.107678475556895, 2523764.043271427042782 ], [ 207590.734259605233092, 2522848.299191912636161 ], [ 205435.04399419343099, 2522889.989988790359348 ], [ 205897.473109410842881, 2523805.684200560674071 ] ] ], [ [ [ 235767.072255980048794, 2526953.982490936294198 ], [ 236844.610996751347557, 2526935.222331556025892 ], [ 236382.285989562049508, 2526018.736593661364168 ], [ 238537.399919836054323, 2525981.395190479233861 ], [ 238075.290866359951906, 2525064.885331190191209 ], [ 235920.121877588098869, 2525102.278250548522919 ], [ 235458.118663788540289, 2524185.847265031654388 ], [ 234380.497279872419313, 2524204.684578971005976 ], [ 235767.072255980048794, 2526953.982490936294198 ] ] ], [ [ [ 225454.127124589460436, 2528062.041551295667887 ], [ 226531.701737026916817, 2528042.538417386356741 ], [ 225606.338608481280971, 2526210.05255397874862 ], [ 224528.708637918520253, 2526229.606699963565916 ], [ 225454.127124589460436, 2528062.041551295667887 ] ] ], [ [ [ 210981.907225011906121, 2527406.678842277266085 ], [ 212059.595946919464041, 2527386.150728575419635 ], [ 211596.634093428612687, 2526470.250608847942203 ], [ 210518.917533582658507, 2526490.803865667432547 ], [ 210056.088863132637925, 2525574.955425109248608 ], [ 207900.579497825412545, 2525616.342699994333088 ], [ 207437.856159020622727, 2524700.570822338107973 ], [ 206360.063270381186157, 2524721.404730887617916 ], [ 207748.799997550377157, 2527468.724600369110703 ], [ 206671.083816213940736, 2527489.560334990266711 ], [ 207134.346023022546433, 2528405.361434007994831 ], [ 206056.65081870125141, 2528426.249034718610346 ], [ 206520.101972169068176, 2529342.051518173422664 ], [ 205442.427749605558347, 2529362.991005083080381 ], [ 206369.869029982422944, 2531194.625193017534912 ], [ 208525.098846519482322, 2531152.923678071238101 ], [ 208061.35354119661497, 2530237.043068679049611 ], [ 210216.611648410849739, 2530195.599240484181792 ], [ 209753.083167485310696, 2529279.694855981972069 ], [ 210830.729826691793278, 2529259.063225124962628 ], [ 210367.390241493587382, 2528343.160254019778222 ], [ 211445.057934399927035, 2528322.580391786061227 ], [ 210981.907225011906121, 2527406.678842277266085 ] ] ], [ [ [ 226229.425170135160442, 2531746.71413144050166 ], [ 227306.895437021972612, 2531727.236454117111862 ], [ 226843.461948988609947, 2530810.896985536906868 ], [ 224688.459513867332134, 2530849.980595199856907 ], [ 225615.598320126184262, 2532682.584174807183444 ], [ 226693.047313366434537, 2532663.055147351697087 ], [ 226229.425170135160442, 2531746.71413144050166 ] ] ], [ [ [ 256872.275406242290046, 2538619.58219495229423 ], [ 257336.494612378097372, 2539536.799144579097629 ], [ 259490.629240773647325, 2539502.246010063681751 ], [ 259026.464931454538601, 2538584.975774236954749 ], [ 256872.275406242290046, 2538619.58219495229423 ] ] ], [ [ [ 261496.444106311275391, 2541319.764675936661661 ], [ 262573.442426035297103, 2541302.734562362544239 ], [ 261644.741220051189885, 2539468.001558935269713 ], [ 260567.688048865122255, 2539485.085200269240886 ], [ 261496.444106311275391, 2541319.764675936661661 ] ] ], [ [ [ 264114.999476059922017, 2542203.21796365454793 ], [ 265191.959237668430433, 2542186.369158032815903 ], [ 264727.422329411376268, 2541268.905991252977401 ], [ 263650.435158617037814, 2541285.781668252777308 ], [ 264114.999476059922017, 2542203.21796365454793 ] ] ], [ [ [ 224263.373021073755808, 2542880.946793457958847 ], [ 224729.121040902740788, 2543797.434966147877276 ], [ 226883.422821421234403, 2543758.147221009712666 ], [ 226417.73052836448187, 2542841.607177128549665 ], [ 224263.373021073755808, 2542880.946793457958847 ] ] ], [ [ [ 265656.656888814759441, 2543103.86108042486012 ], [ 264579.72454161325004, 2543120.682978569995612 ], [ 265509.656905389274471, 2544955.699319454841316 ], [ 267663.406423135078512, 2544922.240691353101283 ], [ 267198.41470761783421, 2544004.664136874489486 ], [ 268275.308660756098107, 2543988.023769727908075 ], [ 267810.505072364932857, 2543070.449086299631745 ], [ 268887.420959403156303, 2543053.858985680155456 ], [ 268422.805478434194811, 2542136.286180643364787 ], [ 265191.959237668430433, 2542186.369158032815903 ], [ 265656.656888814759441, 2543103.86108042486012 ] ] ], [ [ [ 263821.14752455346752, 2545906.964693828020245 ], [ 262744.280873327166773, 2545923.937711603008211 ], [ 263209.73128114559222, 2546841.436990222893655 ], [ 266440.232226657099091, 2546790.830996275879443 ], [ 265509.656905389274471, 2544955.699319454841316 ], [ 263355.885335468628909, 2544989.467243153136224 ], [ 263821.14752455346752, 2545906.964693828020245 ] ] ], [ [ [ 224117.897295016911812, 2544733.68454727018252 ], [ 224583.995080042339396, 2545650.201634201221168 ], [ 223506.883792864042334, 2545669.987072786316276 ], [ 224439.617996516753919, 2547503.051677362062037 ], [ 225516.673458436445799, 2547483.318229815457016 ], [ 226449.995561393618118, 2549316.54497211240232 ], [ 227526.988751032797154, 2549296.941186695359647 ], [ 227993.863273414841387, 2550213.622105677612126 ], [ 230147.774675725027919, 2550174.699480508454144 ], [ 229680.955952787655406, 2549257.966184708289802 ], [ 228603.975539724982809, 2549277.414925131946802 ], [ 228137.289838078257162, 2548360.735515435226262 ], [ 227060.275148641609121, 2548380.287915963213891 ], [ 225195.029998614627402, 2544713.950561130419374 ], [ 224117.897295016911812, 2544733.68454727018252 ] ] ], [ [ [ 235999.283033343206625, 2550995.642550565768033 ], [ 237076.170080852694809, 2550976.711639150045812 ], [ 236609.357583113771398, 2550059.792599646374583 ], [ 235532.44271125580417, 2550078.749908408150077 ], [ 235999.283033343206625, 2550995.642550565768033 ] ] ], [ [ [ 232811.387663989444263, 2557528.779953702818602 ], [ 231734.652215067471843, 2557548.069335398729891 ], [ 232671.458442179195117, 2559381.960277980659157 ], [ 233748.137980936851818, 2559362.723935191519558 ], [ 233279.682379916019272, 2558445.737912483979017 ], [ 234356.383624832029454, 2558426.552818920928985 ], [ 233888.116848996956833, 2557509.568332270719111 ], [ 236041.556528311746661, 2557471.378359542228281 ], [ 235573.506468012055848, 2556554.368872152175754 ], [ 236650.244910576322582, 2556535.363944246433675 ], [ 236182.383618357882369, 2555618.356018457561731 ], [ 237259.143765844113659, 2555599.40225202171132 ], [ 236791.471221936692018, 2554682.395895716268569 ], [ 237868.253069685917581, 2554663.49327121861279 ], [ 237400.769254323269706, 2553746.488492264878005 ], [ 238477.572797684581019, 2553727.636990159749985 ], [ 238010.27769109790097, 2552810.633796414360404 ], [ 236933.446307838545181, 2552829.511804518289864 ], [ 235999.283033343206625, 2550995.642550565768033 ], [ 234922.389786877436563, 2551014.651020255405456 ], [ 235389.418828632275108, 2551931.545232682023197 ], [ 234312.547212193603627, 2551950.604882912710309 ], [ 234779.764993401593529, 2552867.50065772049129 ], [ 233702.915011636621784, 2552886.611508093308657 ], [ 234170.32155207847245, 2553803.508837384171784 ], [ 230939.81771056947764, 2553861.227996228728443 ], [ 232811.387663989444263, 2557528.779953702818602 ] ] ], [ [ [ 239131.442593236075481, 2559267.709369466640055 ], [ 240208.085076133807888, 2559248.939867509528995 ], [ 239271.66969945456367, 2557414.67653612466529 ], [ 238194.971455101476749, 2557433.49939601495862 ], [ 239131.442593236075481, 2559267.709369466640055 ] ] ], [ [ [ 234216.754464084748179, 2560279.738059971947223 ], [ 236370.038961122394539, 2560241.55203961301595 ], [ 235901.478366410068702, 2559324.48468720074743 ], [ 236978.139263621822465, 2559305.481776691973209 ], [ 236509.767461167823058, 2558388.415981671772897 ], [ 234356.383624832029454, 2558426.552818920928985 ], [ 234824.811280597816221, 2559343.565405818168074 ], [ 233748.137980936851818, 2559362.723935191519558 ], [ 234216.754464084748179, 2560279.738059971947223 ] ] ], [ [ [ 220883.916259899269789, 2566076.349955840036273 ], [ 223037.054692395788152, 2566036.144320681225508 ], [ 221627.69768185261637, 2563285.71591926086694 ], [ 219474.390309098293073, 2563326.079938632436097 ], [ 220883.916259899269789, 2566076.349955840036273 ] ] ], [ [ [ 234272.18870112451259, 2566756.9292889717035 ], [ 235348.656748189823702, 2566737.750496402848512 ], [ 234878.858162879711017, 2565820.592217097990215 ], [ 233802.362092081049923, 2565839.797785238362849 ], [ 234272.18870112451259, 2566756.9292889717035 ] ] ] ] } }
]
}
