{
"type": "FeatureCollection",
"name": "urban-2005",
"crs": { "type": "name", "properties": { "name": "urn:ogc:def:crs:EPSG::32718" } },
"features": [
{ "type": "Feature", "properties": { "year": 2005 }, "geometry": { "type": "MultiPolygon", "coordinates": [ [ [ [ 261872.721833397692535, 8658579.292166486382484 ], [ 262024.216835121565964, 8659483.248598955571651 ], [ 263125.853783769882284, 8659492.0578225068748 ], [ 262974.347002531285398, 8658588.113033786416054 ], [ 261872.721833397692535, 8658579.292166486382484 ] ] ], [ [ [ 259972.293134427338373, 8660369.472689753398299 ], [ 261073.95551447183243, 8660378.35213010199368 ], [ 261225.23717880572076, 8661282.291451402008533 ], [ 262326.904473569709808, 8661291.118318617343903 ], [ 262024.216835121565964, 8659483.248598955571651 ], [ 259820.922453040082473, 8659465.507296295836568 ], [ 259972.293134427338373, 8660369.472689753398299 ] ] ], [ [ [ 259324.096039155032486, 8663072.397251198068261 ], [ 260425.800531924556708, 8663081.282542986795306 ], [ 260274.732175042590825, 8662177.360300166532397 ], [ 259173.039419715380063, 8662168.463328372687101 ], [ 259324.096039155032486, 8663072.397251198068261 ] ] ], [ [ [ 258373.328772668231977, 8663967.402364064007998 ], [ 259475.051889143767767, 8663976.316804684698582 ], [ 259324.096039155032486, 8663072.397251198068261 ], [ 258222.384648686886067, 8663063.471114575862885 ], [ 258373.328772668231977, 8663967.402364064007998 ] ] ], [ [ [ 258373.328772668231977, 8663967.402364064007998 ], [ 256169.861731232580496, 8663949.451025910675526 ], [ 256320.681666860968107, 8664853.391358997672796 ], [ 258524.172133748914348, 8664871.319245498627424 ], [ 258373.328772668231977, 8663967.402364064007998 ] ] ], [ [ [ 279533.156878649897408, 8692106.377052469179034 ], [ 280635.14130405918695, 8692114.335370533168316 ], [ 280339.032063357473817, 8690307.694154053926468 ], [ 279237.070729165221564, 8690299.713974783197045 ], [ 279533.156878649897408, 8692106.377052469179034 ] ] ], [ [ [ 282839.091274563688785, 8692130.132181607186794 ], [ 283941.056883081095293, 8692137.970676986500621 ], [ 283793.018076015461702, 8691234.689578460529447 ], [ 282691.064020351390354, 8691226.840240960940719 ], [ 282839.091274563688785, 8692130.132181607186794 ] ] ], [ [ [ 267781.839171722182073, 8701041.575751468539238 ], [ 266679.65539470303338, 8701033.21028977073729 ], [ 266532.82067696203012, 8700129.880028340965509 ], [ 265430.641601306095254, 8700121.463685464113951 ], [ 264842.340226060070563, 8696507.959270382300019 ], [ 265944.473572807735763, 8696516.420518606901169 ], [ 265797.134744161332492, 8695613.02096189931035 ], [ 264695.012848964484874, 8695604.548459015786648 ], [ 264547.584660830558278, 8694701.123739261180162 ], [ 266751.798795580514707, 8694718.051400592550635 ], [ 266604.24685987632256, 8693814.635286867618561 ], [ 262195.837375838891603, 8693780.575288612395525 ], [ 262490.748731333413161, 8695587.483901664614677 ], [ 263592.884188599535264, 8695596.036106029525399 ], [ 263740.200117795495316, 8696499.458199677988887 ], [ 262638.053216275060549, 8696490.917305219918489 ], [ 262785.256904494133778, 8697394.336790386587381 ], [ 261683.091745086479932, 8697385.767397083342075 ], [ 261830.183210282499203, 8698289.18429141305387 ], [ 262932.359794851974584, 8698297.742369858548045 ], [ 263079.361886213126127, 8699201.134056316688657 ], [ 264181.543074141198304, 8699209.64108906313777 ], [ 264328.455778715899214, 8700113.0076305847615 ], [ 263226.263177437824197, 8700104.511862436309457 ], [ 263519.763354940572754, 8701911.225884325802326 ], [ 264621.978759738616645, 8701919.699157187715173 ], [ 264768.589033917523921, 8702823.024167571216822 ], [ 266973.02235228009522, 8702839.829361911863089 ], [ 266826.389286854304373, 8701936.52673008479178 ], [ 267928.584472687158268, 8701944.881032641977072 ], [ 267781.839171722182073, 8701041.575751468539238 ] ] ], [ [ [ 303705.847317898878828, 8620066.139011040329933 ], [ 304806.68253489251947, 8620073.617619374766946 ], [ 304963.059134666458704, 8620977.685422712936997 ], [ 306063.90106973843649, 8620985.111008828505874 ], [ 305594.431136141764, 8618272.897092908620834 ], [ 303392.81545322376769, 8618257.938218029215932 ], [ 303705.847317898878828, 8620066.139011040329933 ] ] ], [ [ [ 310467.213798489421606, 8621014.392535304650664 ], [ 312668.837596050580032, 8621028.780823033303022 ], [ 312512.374910917133093, 8620124.788814779371023 ], [ 309209.968037486076355, 8620103.110947826877236 ], [ 309366.393805157684255, 8621007.135274190455675 ], [ 308265.568373546993826, 8620999.835933467373252 ], [ 308578.091984064842109, 8622807.86314045265317 ], [ 309678.941988069680519, 8622815.14086146466434 ], [ 309522.718455758295022, 8621911.145241130143404 ], [ 310623.550743143539876, 8621918.391713969409466 ], [ 310467.213798489421606, 8621014.392535304650664 ] ] ], [ [ [ 304784.737217431771569, 8632714.565605049952865 ], [ 305885.749218736193143, 8632721.933894893154502 ], [ 305730.699010653363075, 8631818.04160537570715 ], [ 306831.693286833236925, 8631825.378951443359256 ], [ 306676.529797602095641, 8630921.483190942555666 ], [ 307777.506364493921865, 8630928.789551077410579 ], [ 307311.372682216693647, 8628217.048992285504937 ], [ 306210.432739498326555, 8628209.710259471088648 ], [ 306365.899522725550923, 8629113.648857742547989 ], [ 305264.94183554162737, 8629106.279092025011778 ], [ 305420.295317848620471, 8630010.214216727763414 ], [ 304319.319870384235401, 8630002.813460242003202 ], [ 304629.699186164536513, 8631810.662505231797695 ], [ 303528.693781887530349, 8631803.24164991080761 ], [ 303683.719640253344551, 8632707.155587613582611 ], [ 302582.696455722791143, 8632699.703841481357813 ], [ 302737.60907466430217, 8633603.61435610987246 ], [ 301636.568094011163339, 8633596.131761319935322 ], [ 301791.367491815355606, 8634500.038869457319379 ], [ 303993.468121090438217, 8634514.940645884722471 ], [ 303838.644420390191954, 8633611.05524867773056 ], [ 304939.674162673181854, 8633618.454440131783485 ], [ 304784.737217431771569, 8632714.565605049952865 ] ] ], [ [ [ 300999.580030594021082, 8636300.318630719557405 ], [ 302100.663091067573987, 8636307.810273967683315 ], [ 301791.367491815355606, 8634500.038869457319379 ], [ 300690.30869915423682, 8634492.525468174368143 ], [ 300999.580030594021082, 8636300.318630719557405 ] ] ], [ [ [ 305135.174242406152189, 8660699.98464373126626 ], [ 304033.76103565946687, 8660692.741236176341772 ], [ 303729.971571936155669, 8658885.688408505171537 ], [ 301527.175942540052347, 8658871.036437246948481 ], [ 301679.097380304476246, 8659774.591094542294741 ], [ 300577.67914324067533, 8659767.214383771643043 ], [ 300881.195015195698943, 8661574.303132737055421 ], [ 303084.073417980514932, 8661588.973061870783567 ], [ 303235.703542897361331, 8662492.475244024768472 ], [ 306540.01461897889385, 8662514.14207443036139 ], [ 306843.042962601175532, 8664321.041447926312685 ], [ 307944.49265334190568, 8664328.161107491701841 ], [ 307489.762784243794158, 8661617.822709938511252 ], [ 305286.92925676505547, 8661603.479584710672498 ], [ 305135.174242406152189, 8660699.98464373126626 ] ] ], [ [ [ 308095.867053697700612, 8665231.579533461481333 ], [ 309197.323129619995598, 8665238.647986328229308 ], [ 309045.936840975773521, 8664335.240002512931824 ], [ 307944.49265334190568, 8664328.161107491701841 ], [ 308095.867053697700612, 8665231.579533461481333 ] ] ], [ [ [ 298288.425674680154771, 8646212.259612524881959 ], [ 297187.181165678717662, 8646204.680189024657011 ], [ 296726.6383163316641, 8643493.27539249137044 ], [ 297827.84672714874614, 8643500.887494001537561 ], [ 297674.118333508260548, 8642597.0683922059834 ], [ 298775.308910957421176, 8642604.649976912885904 ], [ 298621.467420456290711, 8641700.827556535601616 ], [ 299722.640180530375801, 8641708.378582205623388 ], [ 299876.493734857765958, 8642612.190129674971104 ], [ 300977.6728367296746, 8642619.688851615414023 ], [ 300515.772794617863838, 8639908.244143256917596 ], [ 301616.909967860789038, 8639915.733924176543951 ], [ 301308.447123366990127, 8638108.054748641327024 ], [ 302409.554420485976152, 8638115.524681342765689 ], [ 302255.159290107549168, 8637211.674595909193158 ], [ 300052.963242408121005, 8637196.671437716111541 ], [ 300207.334147824672982, 8638100.543249422684312 ], [ 298005.091035453719087, 8638085.395546935498714 ], [ 298159.336692758719437, 8638989.274924106895924 ], [ 297058.194401825836394, 8638981.649666422978044 ], [ 297366.358436697162688, 8640789.387518594041467 ], [ 295164.008127213455737, 8640774.056257599964738 ], [ 295471.719791874289513, 8642581.78092241846025 ], [ 294370.511764642549679, 8642574.07503505051136 ], [ 294677.795270581147633, 8644381.764660112559795 ], [ 288070.278253034688532, 8644334.791874188929796 ], [ 288223.696413521538489, 8645238.681603567674756 ], [ 287122.410549202410039, 8645230.719094639644027 ], [ 287275.715748889138922, 8646134.605666330084205 ], [ 285073.101753105758689, 8646118.578902821987867 ], [ 285226.282035291660577, 8647022.473506353795528 ], [ 283023.619508890493307, 8647006.30382414907217 ], [ 283176.674918745469768, 8647910.206535657867789 ], [ 280973.963655431754887, 8647893.894122403115034 ], [ 281126.894238079665229, 8648797.805018071085215 ], [ 278924.134031443682034, 8648781.350061362609267 ], [ 279076.939831966767088, 8649685.269217420369387 ], [ 277975.538330588955432, 8649676.991178525611758 ], [ 278585.704833014751785, 8653292.569849172607064 ], [ 277484.249371000565588, 8653284.295891001820564 ], [ 277788.703448684536852, 8655092.022028001025319 ], [ 278890.182667638524435, 8655100.273398792371154 ], [ 279194.256878597894683, 8656907.919894922524691 ], [ 278092.753933717787731, 8656899.691064666956663 ], [ 278244.627826042240486, 8657803.504202462732792 ], [ 277143.106678623706102, 8657795.245637418702245 ], [ 277294.867829447379336, 8658699.055807273834944 ], [ 276193.328463206649758, 8658690.767549755051732 ], [ 276344.976890628109686, 8659594.574768744409084 ], [ 275243.419289259822108, 8659586.256861062720418 ], [ 275394.955011374666356, 8660490.061146283522248 ], [ 274293.379158564202953, 8660481.713630760088563 ], [ 274444.802193457842804, 8661385.514999322593212 ], [ 272241.607458147453144, 8661368.719953984022141 ], [ 272392.906033915583976, 8662272.529783099889755 ], [ 271291.287107210897375, 8662264.082321979105473 ], [ 271442.473043404403143, 8663167.889284688979387 ], [ 269239.191951815620996, 8663150.894621668383479 ], [ 269390.253503237734549, 8664054.710154810920358 ], [ 266085.246921218349598, 8664028.94633368961513 ], [ 266236.172388290404342, 8664932.782004984095693 ], [ 265134.478420741856098, 8664924.123966246843338 ], [ 264983.564694255823269, 8664020.276776408776641 ], [ 262780.180001152097248, 8664002.815228713676333 ], [ 262931.070257634622976, 8664906.685538535937667 ], [ 264032.777721066726372, 8664915.425144530832767 ], [ 264183.578907989140134, 8665819.269583560526371 ], [ 265285.291336795082316, 8665827.956870727241039 ], [ 267386.086413100885693, 8678480.124764643609524 ], [ 266284.210588344256394, 8678471.597745032981038 ], [ 266582.687780311272945, 8680278.846704494208097 ], [ 267684.586823621182702, 8680287.351013299077749 ], [ 267833.685784176690504, 8681190.943029956892133 ], [ 266731.775143191567622, 8681182.450059320777655 ], [ 266880.761682463809848, 8682086.03934789635241 ], [ 270186.508421911450569, 8682111.363506771624088 ], [ 269888.364934740879107, 8680304.238692233338952 ], [ 270990.244065907318145, 8680312.622064888477325 ], [ 271288.410762874642387, 8682119.724380284547806 ], [ 272390.306537221651524, 8682128.044999502599239 ], [ 272539.250199707923457, 8683031.563934646546841 ], [ 273641.151039812422823, 8683039.833123676478863 ], [ 273790.005430646822788, 8683943.326909687370062 ], [ 272688.092997591709718, 8683935.068886335939169 ], [ 272985.475994939915836, 8685742.03689013235271 ], [ 269679.629960188234691, 8685717.088850593194366 ], [ 269531.023605183698237, 8684813.578233677893877 ], [ 270632.967290013679303, 8684821.945617156103253 ], [ 270484.248517203726806, 8683918.43224492482841 ], [ 269382.316406490281224, 8683910.053624372929335 ], [ 269233.508365260320716, 8683006.515009956434369 ], [ 267029.64739697315963, 8682989.614582972601056 ], [ 267327.116347095114179, 8684796.722943609580398 ], [ 266225.152710442896932, 8684788.235034495592117 ], [ 266670.565278355265036, 8687498.826383832842112 ], [ 265568.560295968374703, 8687490.332271009683609 ], [ 265716.81797715567518, 8688393.846028575673699 ], [ 264614.794735319796018, 8688385.323149051517248 ], [ 264762.940082113724202, 8689288.834237422794104 ], [ 263660.898564181290567, 8689280.282633751630783 ], [ 263808.931594555673655, 8690183.791070459410548 ], [ 262706.871783870155923, 8690175.210785210132599 ], [ 263002.612450132379308, 8691982.208407126367092 ], [ 264104.695241618785076, 8691990.766002789139748 ], [ 264252.425856015179306, 8692894.232523843646049 ], [ 266456.594099958078004, 8692911.20526210591197 ], [ 266604.24685987632256, 8693814.635286867618561 ], [ 268808.411220908630639, 8693831.425864072516561 ], [ 268660.735493212065194, 8692928.01827866025269 ], [ 274170.973170121491421, 8692969.352103471755981 ], [ 274023.139081519737374, 8692065.986289039254189 ], [ 275125.155502671957947, 8692074.144335499033332 ], [ 275273.001106786774471, 8692977.499098371714354 ], [ 276375.022584560792893, 8692985.6061727758497 ], [ 276522.778815150610171, 8693888.936090283095837 ], [ 277624.805380894918926, 8693896.992260428145528 ], [ 277477.037635162239894, 8692993.673327904194593 ], [ 278579.046290309284814, 8693001.700564961880445 ], [ 278135.10305184853496, 8690291.69379703886807 ], [ 279237.070729165221564, 8690299.713974783197045 ], [ 279088.876285044825636, 8689396.361704582348466 ], [ 280190.826061998493969, 8689404.352831535041332 ], [ 280339.032063357473817, 8690307.694154053926468 ], [ 281440.987086131586693, 8690315.634336046874523 ], [ 281589.103720392100513, 8691218.950936153531075 ], [ 282691.064020351390354, 8691226.840240960940719 ], [ 282542.935829191235825, 8690323.534521948546171 ], [ 283644.878324243880343, 8690331.394712947309017 ], [ 283348.295991171617061, 8688524.763630677014589 ], [ 282246.376640615693759, 8688516.88169851154089 ], [ 281949.413718024385162, 8686710.173610588535666 ], [ 283051.309893051395193, 8686718.077329533174634 ], [ 282753.920039084739983, 8684911.335708767175674 ], [ 280550.16783183044754, 8684895.444445461034775 ], [ 280401.344725388451479, 8683992.030964346602559 ], [ 281503.212352982722223, 8684000.007637228816748 ], [ 281354.27670760313049, 8683096.591237915679812 ], [ 282456.126438485807739, 8683104.538667526096106 ], [ 282307.078236083732918, 8682201.119332678616047 ], [ 284510.735719213960692, 8682216.9153793156147 ], [ 284659.807193668442778, 8683120.312884405255318 ], [ 283557.969923282274976, 8683112.445882627740502 ], [ 283706.928817733889446, 8684015.840419890359044 ], [ 284808.777718253026251, 8684023.696532038971782 ], [ 284957.647291814326309, 8684927.066334826871753 ], [ 286059.501639441936277, 8684934.871411835774779 ], [ 286356.961157803074457, 8686741.547866385430098 ], [ 288560.69793425546959, 8686756.994386006146669 ], [ 288411.995423257467337, 8685853.684635521844029 ], [ 287310.14170529373223, 8685845.97065288759768 ], [ 286863.46321792359231, 8683135.926252691075206 ], [ 289067.094764660694636, 8683151.378781735897064 ], [ 288320.494661373610143, 8678634.469529911875725 ], [ 287218.740273821167648, 8678626.70930153504014 ], [ 287069.129014800069854, 8677723.275029636919498 ], [ 285967.380208734655753, 8677715.463578972965479 ], [ 285817.679679199121892, 8676812.004521165043116 ], [ 286919.416789562092163, 8676819.826859001070261 ], [ 286769.60359927394893, 8675916.364776996895671 ], [ 287871.322888449823949, 8675924.157584112137556 ], [ 288021.147785964421928, 8676827.608795031905174 ], [ 289122.87270005478058, 8676835.350330423563719 ], [ 289272.608327970374376, 8677738.776809500530362 ], [ 290374.338898383430205, 8677746.467141021043062 ], [ 290074.743240235489793, 8675939.621914803981781 ], [ 293379.828676212695427, 8675962.515219310298562 ], [ 293529.71216633770382, 8676865.91248868778348 ], [ 295733.096228527254425, 8676880.951193826273084 ], [ 295433.181295288144611, 8675074.185590190812945 ], [ 294331.515685416932683, 8675066.66506707854569 ], [ 294181.41843003226677, 8674163.250803859904408 ], [ 295283.07229072554037, 8674170.782027963548899 ], [ 295132.862262425129302, 8673267.364608688279986 ], [ 296234.498490258352831, 8673274.866042323410511 ], [ 296384.720279302098788, 8674178.272776663303375 ], [ 298587.998766648466699, 8674193.132852323353291 ], [ 298888.186268044984899, 8675999.862291913479567 ], [ 299989.840350982849486, 8676007.210451288148761 ], [ 299839.785367853823118, 8675103.86321559175849 ], [ 302043.052826932515018, 8675118.459363589063287 ], [ 302193.131334567966405, 8676021.785523723810911 ], [ 303294.768298494862393, 8676029.012438967823982 ], [ 303444.757493519340642, 8676932.314351370558143 ], [ 310054.532521136337891, 8676974.764886451885104 ], [ 310204.491228655679151, 8677877.990798557177186 ], [ 311306.112921462859958, 8677884.914276028051972 ], [ 311605.750481011869851, 8679691.304614212363958 ], [ 312707.39030221675057, 8679698.167270375415683 ], [ 312857.069132328382693, 8680601.331783331930637 ], [ 315060.356212778599001, 8680614.915860876441002 ], [ 315209.957408902118914, 8681518.046445462852716 ], [ 316311.604735110653564, 8681524.767963014543056 ], [ 316461.116520999057684, 8682427.874872973188758 ], [ 317562.770334279513918, 8682434.546069514006376 ], [ 317861.513876162120141, 8684240.699151713401079 ], [ 318963.185955358087085, 8684247.310059925541282 ], [ 318664.418910961714573, 8682441.177058888599277 ], [ 319766.062282698054332, 8682447.767842095345259 ], [ 319616.51520786609035, 8681544.691105373203754 ], [ 320718.141635656589642, 8681551.251686042174697 ], [ 320568.481585541157983, 8680648.171447454020381 ], [ 317263.622063022106886, 8680628.338881317526102 ], [ 317113.896156783157494, 8679725.214966535568237 ], [ 316012.277644391055219, 8679718.513479739427567 ], [ 315862.462341885780916, 8678815.365881642326713 ], [ 314760.850328510743566, 8678808.613956786692142 ], [ 314610.945642694365233, 8677905.442612471058965 ], [ 312407.729200313566253, 8677891.797403484582901 ], [ 312257.746930848283228, 8676988.592024695128202 ], [ 311156.142434882814996, 8676981.698644360527396 ], [ 310855.898053941549733, 8675175.226393641903996 ], [ 307551.122654461301863, 8675154.242031518369913 ], [ 307400.884158361062873, 8674250.954359993338585 ], [ 305197.696587957441807, 8674236.741784919053316 ], [ 305047.380576218187343, 8673333.419537212699652 ], [ 302844.194234676309861, 8673319.024143792688847 ], [ 302693.800724375178106, 8672415.667150992900133 ], [ 303795.384911434957758, 8672422.895598214119673 ], [ 303644.878522302722558, 8671519.53531894646585 ], [ 304746.445275943842717, 8671526.733731804415584 ], [ 304595.825989745324478, 8670623.370149049907923 ], [ 303494.271050645038486, 8670616.161237252876163 ], [ 303343.562497632810846, 8669712.773340588435531 ], [ 302242.013742742768954, 8669705.513313820585608 ], [ 302091.215935849002562, 8668802.101039994508028 ], [ 300989.67333370342385, 8668794.789830453693867 ], [ 301140.459318109322339, 8669698.212681494653225 ], [ 298937.33333315042546, 8669683.489595785737038 ], [ 299087.994634996226523, 8670586.919810196384788 ], [ 297986.411208169942256, 8670579.508002996444702 ], [ 297835.761709588521626, 8669676.067140202969313 ], [ 296734.184289808792528, 8669668.604074653238058 ], [ 296432.605792340473272, 8667861.659293731674552 ], [ 295331.046159384655766, 8667854.134175283834338 ], [ 295180.117182377260178, 8666950.630169617012143 ], [ 294078.563497557886876, 8666943.053617920726538 ], [ 293776.426131920306943, 8665135.982188306748867 ], [ 295979.480315632710699, 8665151.137674629688263 ], [ 295828.236433286452666, 8664247.602565029636025 ], [ 298031.243533402972389, 8664262.616518737748265 ], [ 297879.874912941595539, 8663359.088923119008541 ], [ 298981.357904411968775, 8663366.545439844951034 ], [ 298829.876373775419779, 8662463.014595730230212 ], [ 297728.405251657473855, 8662455.547365423291922 ], [ 297576.834550727682654, 8661551.991833010688424 ], [ 298678.293795708508696, 8661559.469788532704115 ], [ 298526.610171388252638, 8660655.911005616188049 ], [ 297425.162811328831594, 8660648.42231323570013 ], [ 296665.288578547479119, 8656130.364460814744234 ], [ 297766.676397241884843, 8656137.907012423500419 ], [ 297309.503653229097836, 8653426.936097532510757 ], [ 296208.151652751374058, 8653419.361090140417218 ], [ 296513.010633093887009, 8655226.71075090393424 ], [ 295411.628920265648048, 8655219.116342190653086 ], [ 295259.261880173580721, 8654315.437710018828511 ], [ 294157.886241748230532, 8654307.791376182809472 ], [ 294310.241350105963647, 8655211.480882126837969 ], [ 293208.847891049052123, 8655203.804369572550058 ], [ 293056.504710592795163, 8654300.103962263092399 ], [ 291955.11725513957208, 8654292.375467108562589 ], [ 291650.151749828655738, 8652484.910374956205487 ], [ 292751.515333806630224, 8652492.66076317243278 ], [ 292598.869139844959136, 8651588.917945917695761 ], [ 293700.214840629254468, 8651596.638134229928255 ], [ 293394.595521695446223, 8649789.131908822804689 ], [ 295597.221367478254251, 8649804.492448957636952 ], [ 296055.570620227023028, 8652515.665113877505064 ], [ 297156.910665733856149, 8652523.250963287428021 ], [ 296545.528383258264512, 8648908.369274338707328 ], [ 299849.370026176213287, 8648931.009830087423325 ], [ 299543.000669167260639, 8647123.549224872142076 ], [ 298441.749908747267909, 8647116.021965589374304 ], [ 298288.425674680154771, 8646212.259612524881959 ] ], [ [ 295444.236235456832219, 8648900.739939510822296 ], [ 294984.674712723644916, 8646189.397369340062141 ], [ 296085.930855539510958, 8646197.059441676363349 ], [ 296545.528383258264512, 8648908.369274338707328 ], [ 295444.236235456832219, 8648900.739939510822296 ] ], [ [ 269589.818064928636886, 8678497.057699451223016 ], [ 269440.393364421732258, 8677593.446104358881712 ], [ 270542.237622853950597, 8677601.863311875611544 ], [ 270691.673955343139824, 8678505.46361718326807 ], [ 269589.818064928636886, 8678497.057699451223016 ] ], [ [ 268391.596944431134034, 8671267.76990494504571 ], [ 268091.03330040385481, 8669460.30648928321898 ], [ 269192.772522763581946, 8669468.825823733583093 ], [ 269493.359562304918654, 8671276.266463652253151 ], [ 268391.596944431134034, 8671267.76990494504571 ] ], [ [ 290816.355687189556193, 8660602.631540846079588 ], [ 290664.654186473228037, 8659698.982950629666448 ], [ 289563.177409627009183, 8659691.197099912911654 ], [ 289411.386793218029197, 8658787.523473741486669 ], [ 290512.851696312078275, 8658795.320277769118547 ], [ 290208.943752357386984, 8656987.952633239328861 ], [ 291310.378877077775542, 8656995.730376984924078 ], [ 291158.261524767091032, 8656092.036340614780784 ], [ 292259.678768811398186, 8656099.784016754478216 ], [ 292411.808025821228512, 8657003.467119969427586 ], [ 293513.231230169534683, 8657011.162863349542022 ], [ 293361.090064636198804, 8656107.490665694698691 ], [ 295563.89493793254951, 8656122.780886581167579 ], [ 296020.086844548699446, 8658833.690120054408908 ], [ 294918.651625251106452, 8658826.098038140684366 ], [ 295222.250651314971037, 8660633.322273280471563 ], [ 294120.785788180597592, 8660625.710923448204994 ], [ 294272.42189575365046, 8661529.312819318845868 ], [ 292069.450709816883318, 8661513.989176264032722 ], [ 292220.962082350160927, 8662417.598748564720154 ], [ 291119.455715571995825, 8662409.886524179950356 ], [ 290967.956197280786, 8661506.266061129048467 ], [ 289866.455696242977865, 8661498.502082049846649 ], [ 289714.867044361075386, 8660594.856631776317954 ], [ 290816.355687189556193, 8660602.631540846079588 ] ] ] ] } }
]
}
