{
"type": "FeatureCollection",
"name": "urban-1990",
"crs": { "type": "name", "properties": { "name": "urn:ogc:def:crs:EPSG::32718" } },
"features": [
{ "type": "Feature", "properties": { "year": 1990 }, "geometry": { "type": "MultiPolygon", "coordinates": [ [ [ [ 259820.922453040082473, 8659465.507296295836568 ], [ 259972.293134427338373, 8660369.472689753398299 ], [ 261073.95551447183243, 8660378.35213010199368 ], [ 261225.23717880572076, 8661282.291451402008533 ], [ 262326.904473569709808, 8661291.118318617343903 ], [ 262024.216835121565964, 8659483.248598955571651 ], [ 259820.922453040082473, 8659465.507296295836568 ] ] ], [ [ [ 259324.096039155032486, 8663072.397251198068261 ], [ 260425.800531924556708, 8663081.282542986795306 ], [ 260274.732175042590825, 8662177.360300166532397 ], [ 259173.039419715380063, 8662168.463328372687101 ], [ 259324.096039155032486, 8663072.397251198068261 ] ] ], [ [ [ 259324.096039155032486, 8663072.397251198068261 ], [ 258222.384648686886067, 8663063.471114575862885 ], [ 258373.328772668231977, 8663967.402364064007998 ], [ 259475.051889143767767, 8663976.316804684698582 ], [ 259324.096039155032486, 8663072.397251198068261 ] ] ], [ [ [ 256169.861731232580496, 8663949.451025910675526 ], [ 256320.681666860968107, 8664853.391358997672796 ], [ 258524.172133748914348, 8664871.319245498627424 ], [ 258373.328772668231977, 8663967.402364064007998 ], [ 256169.861731232580496, 8663949.451025910675526 ] ] ], [ [ [ 263592.884188599535264, 8695596.036106029525399 ], [ 263297.949921421008185, 8693789.150146836414933 ], [ 262195.837375838891603, 8693780.575288612395525 ], [ 262490.748731333413161, 8695587.483901664614677 ], [ 263592.884188599535264, 8695596.036106029525399 ] ] ], [ [ [ 261683.091745086479932, 8697385.767397083342075 ], [ 261830.183210282499203, 8698289.18429141305387 ], [ 262932.359794851974584, 8698297.742369858548045 ], [ 263079.361886213126127, 8699201.134056316688657 ], [ 264181.543074141198304, 8699209.64108906313777 ], [ 264475.267674293601885, 8701016.360315741971135 ], [ 263373.063667393173091, 8701007.875800885260105 ], [ 263519.763354940572754, 8701911.225884325802326 ], [ 264621.978759738616645, 8701919.699157187715173 ], [ 264768.589033917523921, 8702823.024167571216822 ], [ 266973.02235228009522, 8702839.829361911863089 ], [ 266826.389286854304373, 8701936.52673008479178 ], [ 267928.584472687158268, 8701944.881032641977072 ], [ 267781.839171722182073, 8701041.575751468539238 ], [ 266679.65539470303338, 8701033.21028977073729 ], [ 266532.82067696203012, 8700129.880028340965509 ], [ 265430.641601306095254, 8700121.463685464113951 ], [ 264695.012848964484874, 8695604.548459015786648 ], [ 263592.884188599535264, 8695596.036106029525399 ], [ 263740.200117795495316, 8696499.458199677988887 ], [ 262638.053216275060549, 8696490.917305219918489 ], [ 262785.256904494133778, 8697394.336790386587381 ], [ 261683.091745086479932, 8697385.767397083342075 ] ] ], [ [ [ 297674.118333508260548, 8642597.0683922059834 ], [ 298775.308910957421176, 8642604.649976912885904 ], [ 298621.467420456290711, 8641700.827556535601616 ], [ 299722.640180530375801, 8641708.378582205623388 ], [ 299876.493734857765958, 8642612.190129674971104 ], [ 300977.6728367296746, 8642619.688851615414023 ], [ 300361.603998959762976, 8639004.400813676416874 ], [ 299260.473214633821044, 8638996.858639480546117 ], [ 299106.21546235535061, 8638092.990182563662529 ], [ 298005.091035453719087, 8638085.395546935498714 ], [ 298313.481310160947032, 8639893.140042908489704 ], [ 297212.326935922261328, 8639885.525721222162247 ], [ 297520.288902957749087, 8641693.235071329399943 ], [ 296419.10459651844576, 8641685.601125452667475 ], [ 296572.921970988158137, 8642589.445374421775341 ], [ 295471.719791874289513, 8642581.78092241846025 ], [ 295625.42409278836567, 8643485.621884357184172 ], [ 294524.204024989157915, 8643477.926968453451991 ], [ 294677.795270581147633, 8644381.764660112559795 ], [ 295779.02737116580829, 8644389.448616363108158 ], [ 296085.930855539510958, 8646197.059441676363349 ], [ 297187.181165678717662, 8646204.680189024657011 ], [ 296726.6383163316641, 8643493.27539249137044 ], [ 297827.84672714874614, 8643500.887494001537561 ], [ 297674.118333508260548, 8642597.0683922059834 ] ] ], [ [ [ 298594.973099942493718, 8648019.770163334906101 ], [ 298288.425674680154771, 8646212.259612524881959 ], [ 297187.181165678717662, 8646204.680189024657011 ], [ 297493.704564408399165, 8648012.21246624365449 ], [ 298594.973099942493718, 8648019.770163334906101 ] ] ], [ [ [ 298594.973099942493718, 8648019.770163334906101 ], [ 298748.095247073099017, 8648923.504218496382236 ], [ 299849.370026176213287, 8648931.009830087423325 ], [ 299696.235873598023318, 8648027.28659288957715 ], [ 298594.973099942493718, 8648019.770163334906101 ] ] ], [ [ [ 296360.631657434627414, 8654323.042964912950993 ], [ 296513.010633093887009, 8655226.71075090393424 ], [ 297614.386520165833645, 8655234.264109402894974 ], [ 297461.995605100411922, 8654330.607142003253102 ], [ 296360.631657434627414, 8654323.042964912950993 ] ] ], [ [ [ 262024.216835121565964, 8659483.248598955571651 ], [ 263125.853783769882284, 8659492.0578225068748 ], [ 262974.347002531285398, 8658588.113033786416054 ], [ 261872.721833397692535, 8658579.292166486382484 ], [ 262024.216835121565964, 8659483.248598955571651 ] ] ], [ [ [ 268429.073301441443618, 8684805.170676250010729 ], [ 268280.377673175302334, 8683901.634802250191569 ], [ 267178.43228556739632, 8683893.175777297466993 ], [ 267475.699580403743312, 8685700.256094643846154 ], [ 266373.72438843047712, 8685691.77949401922524 ], [ 266967.002872548648156, 8689305.817319486290216 ], [ 269171.038880502106622, 8689322.640242990106344 ], [ 269319.129475818015635, 8690226.092284617945552 ], [ 268217.103283465083223, 8690217.712065830826759 ], [ 268365.081523347878829, 8691121.161392215639353 ], [ 266160.986112047336064, 8691104.30342872440815 ], [ 266013.030886341584846, 8690200.831594720482826 ], [ 263808.931594555673655, 8690183.791070459410548 ], [ 263956.863820750382729, 8691087.285522565245628 ], [ 265058.928342258674093, 8691095.814469113945961 ], [ 265206.771253322483972, 8691999.28363786265254 ], [ 266308.840516967815347, 8692007.761313620954752 ], [ 266604.24685987632256, 8693814.635286867618561 ], [ 268808.411220908630639, 8693831.425864072516561 ], [ 268660.735493212065194, 8692928.01827866025269 ], [ 271966.897793237236328, 8692952.938347309827805 ], [ 271819.086724612279795, 8692049.550346929579973 ], [ 276227.165461244643666, 8692082.262433856725693 ], [ 276522.778815150610171, 8693888.936090283095837 ], [ 277624.805380894918926, 8693896.992260428145528 ], [ 277477.037635162239894, 8692993.673327904194593 ], [ 278579.046290309284814, 8693001.700564961880445 ], [ 278135.10305184853496, 8690291.69379703886807 ], [ 274829.161644079140387, 8690267.393260924145579 ], [ 274681.013391895336099, 8689363.996923957020044 ], [ 279088.876285044825636, 8689396.361704582348466 ], [ 278940.58092953171581, 8688492.99559666402638 ], [ 280042.519141495926306, 8688500.997682696208358 ], [ 280190.826061998493969, 8689404.352831535041332 ], [ 281292.769523827591911, 8689412.30393360927701 ], [ 281440.987086131586693, 8690315.634336046874523 ], [ 283644.878324243880343, 8690331.394712947309017 ], [ 283348.295991171617061, 8688524.763630677014589 ], [ 282246.376640615693759, 8688516.88169851154089 ], [ 281949.413718024385162, 8686710.173610588535666 ], [ 283051.309893051395193, 8686718.077329533174634 ], [ 282902.665434972906951, 8685814.713440403342247 ], [ 281800.780859344638884, 8685806.798810943961143 ], [ 281652.047070614527911, 8684903.410157363861799 ], [ 280550.16783183044754, 8684895.444445461034775 ], [ 280401.344725388451479, 8683992.030964346602559 ], [ 281503.212352982722223, 8684000.007637228816748 ], [ 281354.27670760313049, 8683096.591237915679812 ], [ 282456.126438485807739, 8683104.538667526096106 ], [ 282307.078236083732918, 8682201.119332678616047 ], [ 284510.735719213960692, 8682216.9153793156147 ], [ 284808.777718253026251, 8684023.696532038971782 ], [ 285910.620439775870182, 8684031.512459637597203 ], [ 286059.501639441936277, 8684934.871411835774779 ], [ 287161.349843490694184, 8684942.636333061382174 ], [ 286863.46321792359231, 8683135.926252691075206 ], [ 289067.094764660694636, 8683151.378781735897064 ], [ 288320.494661373610143, 8678634.469529911875725 ], [ 287218.740273821167648, 8678626.70930153504014 ], [ 287069.129014800069854, 8677723.275029636919498 ], [ 285967.380208734655753, 8677715.463578972965479 ], [ 285817.679679199121892, 8676812.004521165043116 ], [ 286919.416789562092163, 8676819.826859001070261 ], [ 286769.60359927394893, 8675916.364776996895671 ], [ 285667.878192377509549, 8675908.531540481373668 ], [ 285217.867999784764834, 8673198.028934691101313 ], [ 286319.55824969621608, 8673205.894936380907893 ], [ 286619.689445090363733, 8675012.888770988211036 ], [ 287721.397019275755156, 8675020.692460704594851 ], [ 288021.147785964421928, 8676827.608795031905174 ], [ 289122.87270005478058, 8676835.350330423563719 ], [ 289272.608327970374376, 8677738.776809500530362 ], [ 290374.338898383430205, 8677746.467141021043062 ], [ 290074.743240235489793, 8675939.621914803981781 ], [ 293379.828676212695427, 8675962.515219310298562 ], [ 293529.71216633770382, 8676865.91248868778348 ], [ 295733.096228527254425, 8676880.951193826273084 ], [ 295433.181295288144611, 8675074.185590190812945 ], [ 294331.515685416932683, 8675066.66506707854569 ], [ 294031.220158685347997, 8673259.822672061622143 ], [ 296234.498490258352831, 8673274.866042323410511 ], [ 296384.720279302098788, 8674178.272776663303375 ], [ 297486.362427397514693, 8674185.723051078617573 ], [ 297336.128873820533045, 8673282.326974093914032 ], [ 298437.753444742178544, 8673289.747405109927058 ], [ 298888.186268044984899, 8675999.862291913479567 ], [ 299989.840350982849486, 8676007.210451288148761 ], [ 299839.785367853823118, 8675103.86321559175849 ], [ 302043.052826932515018, 8675118.459363589063287 ], [ 302193.131334567966405, 8676021.785523723810911 ], [ 303294.768298494862393, 8676029.012438967823982 ], [ 303444.757493519340642, 8676932.314351370558143 ], [ 306749.669956830563024, 8676953.721336862072349 ], [ 306599.6454584649764, 8676050.450713759288192 ], [ 307701.260039979591966, 8676057.515985274687409 ], [ 307851.296313747297972, 8676960.776233749464154 ], [ 310054.532521136337891, 8676974.764886451885104 ], [ 310204.491228655679151, 8677877.990798557177186 ], [ 311306.112921462859958, 8677884.914276028051972 ], [ 311455.982270560285542, 8678788.116261832416058 ], [ 312557.610324490524363, 8678794.989147901535034 ], [ 312857.069132328382693, 8680601.331783331930637 ], [ 316161.991775853326544, 8680621.647502731531858 ], [ 316311.604735110653564, 8681524.767963014543056 ], [ 317413.246789241384249, 8681531.449244849383831 ], [ 317712.192696972982958, 8683337.629367679357529 ], [ 318813.85302881966345, 8683344.250310754403472 ], [ 318664.418910961714573, 8682441.177058888599277 ], [ 319766.062282698054332, 8682447.767842095345259 ], [ 319616.51520786609035, 8681544.691105373203754 ], [ 320718.141635656589642, 8681551.251686042174697 ], [ 320568.481585541157983, 8680648.171447454020381 ], [ 317263.622063022106886, 8680628.338881317526102 ], [ 317113.896156783157494, 8679725.214966535568237 ], [ 316012.277644391055219, 8679718.513479739427567 ], [ 315862.462341885780916, 8678815.365881642326713 ], [ 314760.850328510743566, 8678808.613956786692142 ], [ 314610.945642694365233, 8677905.442612471058965 ], [ 312407.729200313566253, 8677891.797403484582901 ], [ 312257.746930848283228, 8676988.592024695128202 ], [ 311156.142434882814996, 8676981.698644360527396 ], [ 310855.898053941549733, 8675175.226393641903996 ], [ 307551.122654461301863, 8675154.242031518369913 ], [ 307400.884158361062873, 8674250.954359993338585 ], [ 305197.696587957441807, 8674236.741784919053316 ], [ 305047.380576218187343, 8673333.419537212699652 ], [ 303945.790216874913312, 8673326.242087591439486 ], [ 304096.094437452557031, 8674229.574799612164497 ], [ 302994.486667905584909, 8674222.36734770052135 ], [ 302693.800724375178106, 8672415.667150992900133 ], [ 303795.384911434957758, 8672422.895598214119673 ], [ 303343.562497632810846, 8669712.773340588435531 ], [ 302242.013742742768954, 8669705.513313820585608 ], [ 302091.215935849002562, 8668802.101039994508028 ], [ 300989.67333370342385, 8668794.789830453693867 ], [ 301140.459318109322339, 8669698.212681494653225 ], [ 298937.33333315042546, 8669683.489595785737038 ], [ 299087.994634996226523, 8670586.919810196384788 ], [ 297986.411208169942256, 8670579.508002996444702 ], [ 298136.959664334834088, 8671482.934993023052812 ], [ 297035.358653418836184, 8671475.493267845362425 ], [ 296734.184289808792528, 8669668.604074653238058 ], [ 295632.601042195630725, 8669661.10039802081883 ], [ 295481.8741130476119, 8668757.624247210100293 ], [ 296583.445557222119533, 8668765.138638962060213 ], [ 296432.605792340473272, 8667861.659293731674552 ], [ 295331.046159384655766, 8667854.134175283834338 ], [ 295180.117182377260178, 8666950.630169617012143 ], [ 290773.866901803645305, 8666920.07978168129921 ], [ 290622.884171714773402, 8666016.518554242327809 ], [ 289521.318495098617859, 8666008.768323462456465 ], [ 289370.246590664261021, 8665105.182191165164113 ], [ 291573.348307882202789, 8665120.663696873933077 ], [ 291724.443847218877636, 8666024.228057894855738 ], [ 292825.997553228284232, 8666031.896835571154952 ], [ 292674.890190745180007, 8665128.343318799510598 ], [ 294877.956163013237529, 8665143.58030653744936 ], [ 294726.724123005522415, 8664240.034423844888806 ], [ 298031.243533402972389, 8664262.616518737748265 ], [ 297879.874912941595539, 8663359.088923119008541 ], [ 298981.357904411968775, 8663366.545439844951034 ], [ 298829.876373775419779, 8662463.014595730230212 ], [ 296626.928334421012551, 8662448.039305597543716 ], [ 296475.369506804621778, 8661544.473020385950804 ], [ 297576.834550727682654, 8661551.991833010688424 ], [ 296969.541374098276719, 8657937.629703167825937 ], [ 295868.123901253798977, 8657930.06776282005012 ], [ 296020.086844548699446, 8658833.690120054408908 ], [ 294918.651625251106452, 8658826.098038140684366 ], [ 295222.250651314971037, 8660633.322273280471563 ], [ 294120.785788180597592, 8660625.710923448204994 ], [ 294272.42189575365046, 8661529.312819318845868 ], [ 293170.939265442080796, 8661521.671428611502051 ], [ 293322.46249602700118, 8662425.270137753337622 ], [ 291119.455715571995825, 8662409.886524179950356 ], [ 290967.956197280786, 8661506.266061129048467 ], [ 289866.455696242977865, 8661498.502082049846649 ], [ 289411.386793218029197, 8658787.523473741486669 ], [ 290512.851696312078275, 8658795.320277769118547 ], [ 290208.943752357386984, 8656987.952633239328861 ], [ 291310.378877077775542, 8656995.730376984924078 ], [ 291158.261524767091032, 8656092.036340614780784 ], [ 292259.678768811398186, 8656099.784016754478216 ], [ 292411.808025821228512, 8657003.467119969427586 ], [ 293513.231230169534683, 8657011.162863349542022 ], [ 293361.090064636198804, 8656107.490665694698691 ], [ 296665.288578547479119, 8656130.364460814744234 ], [ 296513.010633093887009, 8655226.71075090393424 ], [ 295411.628920265648048, 8655219.116342190653086 ], [ 295259.261880173580721, 8654315.437710018828511 ], [ 294157.886241748230532, 8654307.791376182809472 ], [ 294310.241350105963647, 8655211.480882126837969 ], [ 293208.847891049052123, 8655203.804369572550058 ], [ 293056.504710592795163, 8654300.103962263092399 ], [ 291955.11725513957208, 8654292.375467108562589 ], [ 291497.517503268143628, 8651581.156593583524227 ], [ 293700.214840629254468, 8651596.638134229928255 ], [ 293394.595521695446223, 8649789.131908822804689 ], [ 294495.911384767387062, 8649796.832787342369556 ], [ 294342.938234998495318, 8648893.069361330941319 ], [ 295444.236235456832219, 8648900.739939510822296 ], [ 294677.795270581147633, 8644381.764660112559795 ], [ 288070.278253034688532, 8644334.791874188929796 ], [ 288223.696413521538489, 8645238.681603567674756 ], [ 287122.410549202410039, 8645230.719094639644027 ], [ 287275.715748889138922, 8646134.605666330084205 ], [ 285073.101753105758689, 8646118.578902821987867 ], [ 285226.282035291660577, 8647022.473506353795528 ], [ 283023.619508890493307, 8647006.30382414907217 ], [ 283176.674918745469768, 8647910.206535657867789 ], [ 280973.963655431754887, 8647893.894122403115034 ], [ 281126.894238079665229, 8648797.805018071085215 ], [ 278924.134031443682034, 8648781.350061362609267 ], [ 279076.939831966767088, 8649685.269217420369387 ], [ 277975.538330588955432, 8649676.991178525611758 ], [ 278585.704833014751785, 8653292.569849172607064 ], [ 277484.249371000565588, 8653284.295891001820564 ], [ 277788.703448684536852, 8655092.022028001025319 ], [ 278890.182667638524435, 8655100.273398792371154 ], [ 279194.256878597894683, 8656907.919894922524691 ], [ 278092.753933717787731, 8656899.691064666956663 ], [ 278244.627826042240486, 8657803.504202462732792 ], [ 277143.106678623706102, 8657795.245637418702245 ], [ 277294.867829447379336, 8658699.055807273834944 ], [ 276193.328463206649758, 8658690.767549755051732 ], [ 276344.976890628109686, 8659594.574768744409084 ], [ 275243.419289259822108, 8659586.256861062720418 ], [ 275394.955011374666356, 8660490.061146283522248 ], [ 274293.379158564202953, 8660481.713630760088563 ], [ 274444.802193457842804, 8661385.514999322593212 ], [ 272241.607458147453144, 8661368.719953984022141 ], [ 272392.906033915583976, 8662272.529783099889755 ], [ 271291.287107210897375, 8662264.082321979105473 ], [ 271442.473043404403143, 8663167.889284688979387 ], [ 269239.191951815620996, 8663150.894621668383479 ], [ 269390.253503237734549, 8664054.710154810920358 ], [ 266085.246921218349598, 8664028.94633368961513 ], [ 266236.172388290404342, 8664932.782004984095693 ], [ 265134.478420741856098, 8664924.123966246843338 ], [ 264983.564694255823269, 8664020.276776408776641 ], [ 262780.180001152097248, 8664002.815228713676333 ], [ 262931.070257634622976, 8664906.685538535937667 ], [ 264032.777721066726372, 8664915.425144530832767 ], [ 264183.578907989140134, 8665819.269583560526371 ], [ 265285.291336795082316, 8665827.956870727241039 ], [ 265436.003441248030867, 8666731.775502718985081 ], [ 266537.72086677106563, 8666740.410539239645004 ], [ 267139.607968363910913, 8670355.49673424102366 ], [ 268241.365538869053125, 8670364.045289663597941 ], [ 267940.600230201380327, 8668556.553490985184908 ], [ 270144.04863387014484, 8668573.574301764369011 ], [ 270444.86077196476981, 8670381.020557887852192 ], [ 269343.116462854028214, 8670372.55323045514524 ], [ 269643.501819950761274, 8672179.965536126866937 ], [ 267439.94657282019034, 8672162.954600367695093 ], [ 268189.028582492668647, 8676681.351496383547783 ], [ 269290.867821722989902, 8676689.82042646035552 ], [ 269440.393364421732258, 8677593.446104358881712 ], [ 270542.237622853950597, 8677601.863311875611544 ], [ 270691.673955343139824, 8678505.46361718326807 ], [ 268487.95556140516419, 8678488.611415691673756 ], [ 268338.542489177663811, 8677584.988503195345402 ], [ 267236.684965448861476, 8677576.490507120266557 ], [ 267535.387032878235914, 8679383.744929116219282 ], [ 269739.141922086360864, 8679400.655224492773414 ], [ 269888.364934740879107, 8680304.238692233338952 ], [ 270990.244065907318145, 8680312.622064888477325 ], [ 271288.410762874642387, 8682119.724380284547806 ], [ 272390.306537221651524, 8682128.044999502599239 ], [ 272539.250199707923457, 8683031.563934646546841 ], [ 273641.151039812422823, 8683039.833123676478863 ], [ 273790.005430646822788, 8683943.326909687370062 ], [ 272688.092997591709718, 8683935.068886335939169 ], [ 272985.475994939915836, 8685742.03689013235271 ], [ 271883.533879082649946, 8685733.761021204292774 ], [ 272180.490279895544518, 8687540.695549983531237 ], [ 271078.518495287979022, 8687532.401898957788944 ], [ 270781.585211397847161, 8685725.445008439943194 ], [ 269679.629960188234691, 8685717.088850593194366 ], [ 269531.023605183698237, 8684813.578233677893877 ], [ 268429.073301441443618, 8684805.170676250010729 ] ], [ [ 286169.341210811981, 8672302.377082474529743 ], [ 289474.340086895623244, 8672325.764687899500132 ], [ 289624.592351952160243, 8673229.249872993677855 ], [ 286319.55824969621608, 8673205.894936380907893 ], [ 286169.341210811981, 8672302.377082474529743 ] ], [ [ 290726.258275674423203, 8673236.953832928091288 ], [ 290876.421298857429065, 8674140.414267813786864 ], [ 289774.743633302685339, 8674132.721130754798651 ], [ 289624.592351952160243, 8673229.249872993677855 ], [ 290726.258275674423203, 8673236.953832928091288 ] ], [ [ 271226.833855491830036, 8688435.859423575922847 ], [ 269022.847443489765283, 8688419.174261048436165 ], [ 268874.555165929486975, 8687515.694326106458902 ], [ 271078.518495287979022, 8687532.401898957788944 ], [ 271226.833855491830036, 8688435.859423575922847 ] ] ] ] } }
]
}
