{
"type": "FeatureCollection",
"name": "urban-2000",
"crs": { "type": "name", "properties": { "name": "urn:ogc:def:crs:EPSG::32735" } },
"features": [
{ "type": "Feature", "properties": { "year": 2000 }, "geometry": { "type": "MultiPolygon", "coordinates": [ [ [ [ 583628.641637594206259, 7036445.609335796907544 ], [ 583142.266528213745914, 7040190.53695578314364 ], [ 585270.572886263718829, 7040176.372893081977963 ], [ 585635.123843059875071, 7037367.645655488595366 ], [ 584571.057991855544969, 7037374.810385904274881 ], [ 584692.676297754282132, 7036438.521569962613285 ], [ 583628.641637594206259, 7036445.609335796907544 ] ] ], [ [ [ 600968.53600180731155, 7050348.821475265547633 ], [ 599904.02848805708345, 7050357.237478303723037 ], [ 600024.675059885717928, 7049421.157125329598784 ], [ 598960.198888132930733, 7049429.496842418797314 ], [ 598839.523068848531693, 7050365.564252288080752 ], [ 596710.518424785463139, 7050381.950117532163858 ], [ 596831.252744691562839, 7049445.908510077744722 ], [ 595766.782728381338529, 7049453.980462837964296 ], [ 595646.019155295216478, 7050390.009210981428623 ], [ 594581.521891076234169, 7050397.979079752229154 ], [ 594702.314719264861196, 7049461.963162994012237 ], [ 593637.848695031367242, 7049469.856611611321568 ], [ 593758.706652196473442, 7048533.824044935405254 ], [ 592694.271859986707568, 7048541.641028761863708 ], [ 592815.194967571645975, 7047605.591790524311364 ], [ 590686.389753174735233, 7047620.983435053378344 ], [ 590323.552440553670749, 7050428.966329170390964 ], [ 589259.064867923501879, 7050436.490090279839933 ], [ 589138.161650435067713, 7051372.412870248779655 ], [ 588073.646692851791158, 7051379.834759186953306 ], [ 588315.547566253808327, 7049507.985118081793189 ], [ 589380.004000724176876, 7049500.537911589257419 ], [ 589500.979047387139872, 7048564.556320155970752 ], [ 588436.551890187431127, 7048572.01620065793395 ], [ 588557.592137011699378, 7047636.017866628244519 ], [ 587493.196122530265711, 7047643.401130072772503 ], [ 587614.301590996794403, 7046707.38603181950748 ], [ 588678.668305276194587, 7046699.990101957693696 ], [ 589042.112324196728878, 7043891.730083748698235 ], [ 587977.83357342123054, 7043899.16407389100641 ], [ 587856.620317892520688, 7044835.267517767846584 ], [ 586792.314074070192873, 7044842.599426977336407 ], [ 586913.556663227500394, 7043906.508652117103338 ], [ 585849.281571349594742, 7043913.763819409534335 ], [ 586091.933260705205612, 7042041.5191690325737 ], [ 585027.718671537237242, 7042048.710183263756335 ], [ 585149.127802285831422, 7041112.556282287463546 ], [ 581956.582731626927853, 7041133.630303418263793 ], [ 581835.085481697693467, 7042069.746440690942109 ], [ 580770.877870137337595, 7042076.579601195640862 ], [ 580649.387239743722603, 7043012.653772954829037 ], [ 581713.624217904754914, 7043005.833134341984987 ], [ 581592.198941690498032, 7043941.890398410148919 ], [ 580527.93260741152335, 7043948.698525309562683 ], [ 580406.513974579051137, 7044884.713872281834483 ], [ 579342.21997735707555, 7044891.420120248571038 ], [ 579463.667957855388522, 7043955.41724690515548 ], [ 578399.404970757430419, 7043962.046564090996981 ], [ 578156.486332254018635, 7045833.998048312030733 ], [ 577092.166292338399217, 7045840.513136509805918 ], [ 576606.644046364352107, 7049584.014403712004423 ], [ 578735.520274828420952, 7049570.994049161672592 ], [ 578856.7881838909816, 7048635.137941752560437 ], [ 582050.027079309569672, 7048614.900778161361814 ], [ 581928.847050049691461, 7049550.79423772636801 ], [ 582993.292713035945781, 7049543.882489101029932 ], [ 582872.177949707722291, 7050479.759103383868933 ], [ 583936.654628906515427, 7050472.770638445392251 ], [ 583815.605109995463863, 7051408.630429049953818 ], [ 585944.62229657813441, 7051394.410969356074929 ], [ 585823.667252377490513, 7052330.266517708078027 ], [ 586888.207787946099415, 7052323.035594638437033 ], [ 586767.317932702600956, 7053258.874380307272077 ], [ 587831.889528386993334, 7053251.566902061924338 ], [ 587952.750146278995089, 7052315.715510900132358 ], [ 589017.294349707546644, 7052308.306265514343977 ], [ 588896.462967189610936, 7053244.170290084555745 ], [ 589961.038271451019682, 7053236.684543386101723 ], [ 589840.272031522355974, 7054172.531862449832261 ], [ 590904.87844455067534, 7054164.969659129157662 ], [ 591025.615463509573601, 7053229.109660966321826 ], [ 592090.194565705838613, 7053221.445641813799739 ], [ 591848.814855507924221, 7055093.16167907603085 ], [ 592913.454313838854432, 7055085.433981904760003 ], [ 592672.276549993548542, 7056957.058001974597573 ], [ 593736.976337146479636, 7056949.266696892678738 ], [ 593857.51809429586865, 7056013.456632017157972 ], [ 594922.19066908932291, 7056005.563538408838212 ], [ 595283.943556515965611, 7053197.918753664009273 ], [ 597413.119510638993233, 7053181.788458816707134 ], [ 597292.557776674046181, 7054117.725117919966578 ], [ 598357.178016260033473, 7054109.53913101926446 ], [ 598598.278894713614136, 7052237.610615705139935 ], [ 600727.40875079901889, 7052220.919606018811464 ], [ 600968.53600180731155, 7050348.821475265547633 ] ], [ [ 594219.358589869341813, 7053205.850189204327762 ], [ 594340.043824920197949, 7052269.922578822821379 ], [ 592210.938253892119974, 7052285.543549517169595 ], [ 592452.533289178856649, 7050413.6511475071311 ], [ 593517.026609809952788, 7050405.859724909998477 ], [ 593396.240397989866324, 7051341.833398871123791 ], [ 595525.291434648795985, 7051326.008499473333359 ], [ 595283.943556515965611, 7053197.918753664009273 ], [ 594219.358589869341813, 7053205.850189204327762 ] ] ], [ [ [ 589218.330354190431535, 7067263.932885343208909 ], [ 590283.346643021912314, 7067256.458408854901791 ], [ 590523.792976671364158, 7065385.503708892501891 ], [ 589458.83484347583726, 7065393.003326389938593 ], [ 589579.140965064289048, 7064457.494760911911726 ], [ 590644.07000477053225, 7064449.982557779178023 ], [ 590884.731776317348704, 7062578.852583568543196 ], [ 588754.99202409456484, 7062593.838535355404019 ], [ 588875.435016316128895, 7061658.254888288676739 ], [ 586745.760996099677868, 7061672.910506019368768 ], [ 586866.298190954374149, 7060737.322730453684926 ], [ 585801.493073165649548, 7060744.529729416593909 ], [ 586042.733604160486721, 7058873.291519187390804 ], [ 584977.988612988498062, 7058880.434611954726279 ], [ 585098.691979612805881, 7057944.784151808358729 ], [ 586163.407794225495309, 7057937.628542230464518 ], [ 586525.646045439410955, 7055130.463956403546035 ], [ 584396.391395536251366, 7055144.761321904137731 ], [ 584154.746467356570065, 7057016.18355161882937 ], [ 582025.382074993220158, 7057030.074727626517415 ], [ 582146.244961128919385, 7056094.403184438124299 ], [ 581081.594566668849438, 7056101.227671377360821 ], [ 580960.702475026249886, 7057036.886789139360189 ], [ 579896.02457604452502, 7057043.609834207221866 ], [ 579533.476738839759491, 7059850.374732132069767 ], [ 581663.009351456305012, 7059836.913973016664386 ], [ 581542.290426666731946, 7060772.4686399102211 ], [ 580477.494109213235788, 7060779.231100863777101 ], [ 579994.861813101684675, 7064521.108626568689942 ], [ 581059.774680864531547, 7064514.395604530349374 ], [ 580939.235739880474284, 7065449.804489552043378 ], [ 579874.29376064799726, 7065456.505177088081837 ], [ 579753.761719667701982, 7066391.872623059898615 ], [ 580818.732799930730835, 7066385.184259943664074 ], [ 580457.440000505652279, 7069191.14902232401073 ], [ 581522.500018268125132, 7069184.408917346969247 ], [ 581402.170153928222135, 7070119.684680202975869 ], [ 582467.260946415481158, 7070112.868259575217962 ], [ 582346.996124583878554, 7071048.12729705311358 ], [ 581281.876287293736823, 7071054.931387821212411 ], [ 581161.618419782724231, 7071990.149054072797298 ], [ 582226.767291445634328, 7071983.357283106073737 ], [ 582106.574448422063142, 7072918.558231616392732 ], [ 583171.754077908699401, 7072911.690225492231548 ], [ 583051.626237915595993, 7073846.874477917328477 ], [ 584116.836633257218637, 7073839.930281458422542 ], [ 583996.773774845525622, 7074775.097859464585781 ], [ 586127.257910707267001, 7074760.968683609738946 ], [ 586247.262777021969669, 7073825.776331035420299 ], [ 587312.478570447652601, 7073818.566575177945197 ], [ 587792.741457343567163, 7070077.456708953715861 ], [ 588857.843026531394571, 7070070.108502699062228 ], [ 589218.330354190431535, 7067263.932885343208909 ] ] ], [ [ [ 545189.958024735446088, 7070298.714784307405353 ], [ 547320.049010991933756, 7070291.01915281265974 ], [ 547683.940221443539485, 7067486.246079833246768 ], [ 546618.981649340363219, 7067490.172488382086158 ], [ 546740.380532330833375, 7066555.202049693092704 ], [ 545675.452102339244448, 7066559.05119295231998 ], [ 545189.958024735446088, 7070298.714784307405353 ] ] ], [ [ [ 551822.567951434408315, 7068404.652711007744074 ], [ 550757.576086261658929, 7068408.922324335202575 ], [ 550636.366411114577204, 7069343.881135180592537 ], [ 549571.346486637718044, 7069348.050572643056512 ], [ 549692.585291357478127, 7068413.103275571018457 ], [ 548627.595544266630895, 7068417.195565276779234 ], [ 548021.619067864259705, 7073091.587184755131602 ], [ 549086.75437000754755, 7073087.5522242449224 ], [ 549207.8479310979601, 7072152.719914337620139 ], [ 550272.955181866069324, 7072148.584957931190729 ], [ 550515.19303442153614, 7070278.81116855237633 ], [ 551580.243143860716373, 7070274.564628429710865 ], [ 551822.567951434408315, 7068404.652711007744074 ] ] ], [ [ [ 575595.201332500670105, 7073893.005401782691479 ], [ 576660.399919856106862, 7073886.680811944417655 ], [ 576540.134025480481796, 7074821.762557633221149 ], [ 577605.363243442960083, 7074815.361633287742734 ], [ 577845.873044326319359, 7072945.144816104322672 ], [ 576780.701859295833856, 7072951.57010667398572 ], [ 576901.039842392201535, 7072016.43042797408998 ], [ 575835.899312927620485, 7072022.779348354786634 ], [ 575595.201332500670105, 7073893.005401782691479 ] ] ], [ [ [ 545285.992500666063279, 7077772.951861317269504 ], [ 541024.887396156555042, 7077787.272521431557834 ], [ 540903.808498729136772, 7078721.853647913783789 ], [ 545165.02975555753801, 7078707.578029265627265 ], [ 545285.992500666063279, 7077772.951861317269504 ] ] ], [ [ [ 550612.395599569077604, 7077753.062448335811496 ], [ 549547.112929119030014, 7077757.217097057029605 ], [ 549305.45598284015432, 7079626.531766666099429 ], [ 550370.796689601265825, 7079622.399990607053041 ], [ 550612.395599569077604, 7077753.062448335811496 ] ] ], [ [ [ 550250.051688524195924, 7080557.025800327770412 ], [ 549184.681979189277627, 7080561.146155063062906 ], [ 548943.24291765189264, 7082430.28910755738616 ], [ 552139.529167789733037, 7082417.731745976954699 ], [ 552380.794320777058601, 7080548.520188437774777 ], [ 551315.422461536247283, 7080552.817144974134862 ], [ 551436.138462278875522, 7079618.179886082187295 ], [ 550370.796689601265825, 7079622.399990607053041 ], [ 550250.051688524195924, 7080557.025800327770412 ] ] ], [ [ [ 559717.981777272536419, 7081450.670151947066188 ], [ 561848.803726367186755, 7081440.5984772965312 ], [ 561608.13244451652281, 7083309.961433684453368 ], [ 562673.603272544918582, 7083304.816638411954045 ], [ 562793.891872036154382, 7082370.137787256389856 ], [ 563859.335085057537071, 7082364.89301398396492 ], [ 564099.96291324950289, 7080495.425615478307009 ], [ 559838.42964418802876, 7080515.969009755179286 ], [ 559717.981777272536419, 7081450.670151947066188 ] ] ], [ [ [ 583863.654534968547523, 7084118.282882673665881 ], [ 582798.123968340922147, 7084125.18004307243973 ], [ 582558.825813940842636, 7085994.849505506455898 ], [ 583624.414135097409599, 7085987.976861253380775 ], [ 583863.654534968547523, 7084118.282882673665881 ] ] ], [ [ [ 566455.170161539572291, 7087021.972055712714791 ], [ 564323.987715426832438, 7087032.784839823842049 ], [ 564203.937828654539771, 7087967.343755822628736 ], [ 563138.319774767616764, 7087972.60624435916543 ], [ 562898.270766163477674, 7089841.614698927849531 ], [ 570358.030677150236443, 7089803.092633150517941 ], [ 570717.552149995230138, 7086999.289089616388083 ], [ 567520.763487720163539, 7087016.433490040712059 ], [ 567280.873159807990305, 7088885.593361781910062 ], [ 566215.222079340484925, 7088891.108307549729943 ], [ 566455.170161539572291, 7087021.972055712714791 ] ] ], [ [ [ 572591.589959276141599, 7105663.304128712043166 ], [ 571525.410752841620706, 7105669.221218924969435 ], [ 571882.831935840193182, 7102866.76974986307323 ], [ 570816.740304290084168, 7102872.634685401804745 ], [ 570935.981601403327659, 7101938.438990475609899 ], [ 572002.044529295177199, 7101932.562231982126832 ], [ 572240.578006618656218, 7100064.061571912840009 ], [ 571174.57251713972073, 7100069.962006079033017 ], [ 571413.307852370431647, 7098201.370804448612034 ], [ 570347.361362912575714, 7098207.207167813554406 ], [ 570705.821432068361901, 7095404.141532534733415 ], [ 569639.962750273058191, 7095409.925590908154845 ], [ 569759.550449342350475, 7094475.525018448010087 ], [ 570825.380340317147784, 7094469.729113383218646 ], [ 570944.975355528993532, 7093535.288067698478699 ], [ 572010.777953261160292, 7093529.392381263896823 ], [ 572369.693167257704772, 7090725.861634575761855 ], [ 571303.977029104833491, 7090731.793034285306931 ], [ 571184.273701306665316, 7091666.320041867904365 ], [ 567987.047778484644368, 7091683.550618162378669 ], [ 567747.576519451919012, 7093552.447581732645631 ], [ 568813.374661278212443, 7093546.815667159855366 ], [ 568454.525186659535393, 7096349.981941763311625 ], [ 569520.411169923143461, 7096344.29756048694253 ], [ 569400.895709672477096, 7097278.640940880402923 ], [ 568334.980954226688482, 7097284.313523218035698 ], [ 567976.565053522353992, 7100087.13692897092551 ], [ 569042.566063296049833, 7100081.499683832749724 ], [ 568923.195097217918374, 7101015.728844340890646 ], [ 567857.165356735000387, 7101021.354330269619823 ], [ 567737.801797292893752, 7101955.543220707215369 ], [ 568803.860258121276274, 7101949.929484066553414 ], [ 568684.56154738063924, 7102884.101616672240198 ], [ 567618.474376568570733, 7102889.703613942489028 ], [ 567379.927956756902859, 7104757.938963416963816 ], [ 566313.784834267687984, 7104763.429922826588154 ], [ 566194.537156886071898, 7105697.49322457332164 ], [ 565128.366765700164251, 7105702.884941934607923 ], [ 565009.126570055144839, 7106636.90816693380475 ], [ 567141.526108257705346, 7106626.060487863607705 ], [ 567022.379401670768857, 7107560.07859979569912 ], [ 570221.075481306412257, 7107543.185733820311725 ], [ 570102.050858841976151, 7108477.210553815588355 ], [ 571168.314494785154238, 7108471.416347918100655 ], [ 571406.34256221819669, 7106603.314725950360298 ], [ 573538.759842063998803, 7106591.416630890220404 ], [ 573776.817669064272195, 7104723.153814362362027 ], [ 572710.665582192479633, 7104729.170318376272917 ], [ 572591.589959276141599, 7105663.304128712043166 ] ] ], [ [ [ 565017.650923501001671, 7098235.072218906134367 ], [ 563951.713078362983651, 7098240.381881212815642 ], [ 563832.126083969487809, 7099174.609507570043206 ], [ 561700.196928537683561, 7099184.942238341085613 ], [ 561819.841449309024028, 7098250.737863682210445 ], [ 560753.907620013225824, 7098255.784185234457254 ], [ 560514.5972527571721, 7100124.141297703608871 ], [ 562646.581267941161059, 7100114.007247176021338 ], [ 562527.037885646568611, 7101048.166270288638771 ], [ 563593.06062472704798, 7101042.979278482496738 ], [ 563712.575265634804964, 7100108.80863544344902 ], [ 564778.570620334707201, 7100103.522298470139503 ], [ 564539.63498542457819, 7101971.858399013057351 ], [ 566671.744780046632513, 7101961.069284919649363 ], [ 566791.137061956455, 7101026.892115910537541 ], [ 565725.110190169769339, 7101032.342202007770538 ], [ 565964.06067602452822, 7099163.925764416344464 ], [ 564898.092689070384949, 7099169.311512894928455 ], [ 565017.650923501001671, 7098235.072218906134367 ] ] ], [ [ [ 565128.366765700164251, 7105702.884941934607923 ], [ 565247.643126248149201, 7104768.833294118754566 ], [ 564181.502809958648868, 7104774.149078017100692 ], [ 564062.197764103882946, 7105708.189099756069481 ], [ 565128.366765700164251, 7105702.884941934607923 ] ] ], [ [ [ 554822.791326136561111, 7153320.510205546393991 ], [ 553755.177948383847252, 7153324.889917250722647 ], [ 553637.643182882340625, 7154257.426221337169409 ], [ 554705.284718745620921, 7154253.057515040040016 ], [ 554587.814387032412924, 7155185.577141867950559 ], [ 555655.485253195394762, 7155181.133349530398846 ], [ 556007.920606356114149, 7152383.458308043889701 ], [ 557075.508217009599321, 7152378.895250228233635 ], [ 557310.590076547116041, 7150513.617812387645245 ], [ 555175.528789248201065, 7150522.702047683298588 ], [ 554822.791326136561111, 7153320.510205546393991 ] ] ], [ [ [ 567985.974588960874826, 7150463.023207526654005 ], [ 566918.429901004652493, 7150468.470686256885529 ], [ 566683.855073928833008, 7152333.95016313996166 ], [ 565616.255513790762052, 7152339.28874231968075 ], [ 565498.994195317733102, 7153271.975428873673081 ], [ 563363.743017065222375, 7153282.371513839811087 ], [ 563246.461595533881336, 7154215.007868039421737 ], [ 564314.114625674439594, 7154209.864152962341905 ], [ 564079.716610791394487, 7156075.076076684519649 ], [ 565147.427275503287092, 7156069.868784366175532 ], [ 565030.310651859152131, 7157002.444379380904138 ], [ 567165.792443774174899, 7156991.794205261394382 ], [ 567048.768181239487603, 7157924.364634029567242 ], [ 569184.311971610877663, 7157913.393008193001151 ], [ 569418.284281515399925, 7156048.179003382101655 ], [ 568350.567831667722203, 7156053.730541836470366 ], [ 568936.271578180021606, 7151390.265917670913041 ], [ 567868.697258885484189, 7151395.788229066878557 ], [ 567985.974588960874826, 7150463.023207526654005 ] ] ], [ [ [ 549014.364130004192702, 7157071.35189195163548 ], [ 546878.924357835319825, 7157079.077121265232563 ], [ 546761.365994507796131, 7158011.437597269192338 ], [ 547829.113491529133171, 7158007.62879385240376 ], [ 547476.740852799266577, 7160804.577246437780559 ], [ 548544.573710047989152, 7160800.714872965589166 ], [ 548661.966814188635908, 7159868.415472657419741 ], [ 549729.772629472077824, 7159864.456360623240471 ], [ 549964.611619463423267, 7157999.753201509825885 ], [ 548896.862025464884937, 7158003.733995440416038 ], [ 549014.364130004192702, 7157071.35189195163548 ] ] ], [ [ [ 551865.387519367970526, 7159856.280314669013023 ], [ 550797.579523477586918, 7159860.411308141425252 ], [ 550680.242607636842877, 7160792.732389165088534 ], [ 551748.078694316674955, 7160788.612277758307755 ], [ 551630.806174591532908, 7161720.916670715436339 ], [ 553766.5378939678194, 7161712.440534346736968 ], [ 554001.006909455405548, 7159847.76050250697881 ], [ 552933.196640306618065, 7159852.06337964721024 ], [ 553050.513670576969162, 7158919.692913601174951 ], [ 551982.732648444129154, 7158923.920768158510327 ], [ 551865.387519367970526, 7159856.280314669013023 ] ] ], [ [ [ 588534.184343354660086, 7056051.58627964835614 ], [ 589598.847285012598149, 7056044.13845609407872 ], [ 589478.188781324308366, 7056979.897758664563298 ], [ 590542.882794451666996, 7056972.373531837947667 ], [ 590301.73188117519021, 7058843.82948543690145 ], [ 591366.486140429507941, 7058836.241556406952441 ], [ 591728.178836399689317, 7056028.975652059540153 ], [ 590663.512108573457226, 7056036.601580565795302 ], [ 590784.177325755590573, 7055100.800294329412282 ], [ 588654.907962567638606, 7055115.810283155180514 ], [ 588534.184343354660086, 7056051.58627964835614 ] ] ], [ [ [ 597875.406193212373182, 7057853.043066512793303 ], [ 598940.145214753341861, 7057844.819471970200539 ], [ 598819.820990221924148, 7058780.634827978909016 ], [ 599884.591242374386638, 7058772.335107574239373 ], [ 600245.583895991672762, 7055964.762191958725452 ], [ 599180.901129013393074, 7055973.100581984035671 ], [ 599060.505261504207738, 7056908.974727977067232 ], [ 597995.795403588796034, 7056917.211184464395046 ], [ 597875.406193212373182, 7057853.043066512793303 ] ] ], [ [ [ 593375.566310157766566, 7059756.520839376375079 ], [ 592894.188565369346179, 7063499.116096556186676 ], [ 593959.094301346573047, 7063491.324802603572607 ], [ 594199.653185499249958, 7061620.060347624123096 ], [ 595264.502676066244021, 7061612.154774830676615 ], [ 595505.146774315158837, 7059740.747668219730258 ], [ 593375.566310157766566, 7059756.520839376375079 ] ] ], [ [ [ 601773.771893953206018, 7060627.088688351213932 ], [ 601653.642498698551208, 7061562.854596417397261 ], [ 600588.780644890968688, 7061571.293529430404305 ], [ 600949.363594368332997, 7058763.946408382616937 ], [ 599884.591242374386638, 7058772.335107574239373 ], [ 599523.92090763989836, 7061579.643566323444247 ], [ 597394.207693179138005, 7061596.076956199482083 ], [ 597153.823468433576636, 7063467.417913923040032 ], [ 599283.653103329823352, 7063451.035805100575089 ], [ 599163.572931202594191, 7064386.687946353107691 ], [ 601293.469098731409758, 7064369.976202825084329 ], [ 601413.491099626291543, 7063434.29833965562284 ], [ 603543.337636691983789, 7063417.205508636310697 ], [ 603783.3726456068689, 7061545.710037501528859 ], [ 602718.506491468288004, 7061554.326766153797507 ], [ 602838.606772545259446, 7060618.547924912534654 ], [ 601773.771893953206018, 7060627.088688351213932 ] ] ], [ [ [ 602238.463243707199581, 7065297.148547040298581 ], [ 602358.420371240004897, 7064361.487111428752542 ], [ 601293.469098731409758, 7064369.976202825084329 ], [ 601173.482898877118714, 7065305.624745685607195 ], [ 602238.463243707199581, 7065297.148547040298581 ] ] ], [ [ [ 619031.732832548674196, 7075432.258464594371617 ], [ 617966.39405702939257, 7075442.09782126173377 ], [ 617847.329428622615524, 7076377.616529803723097 ], [ 618912.697119898395613, 7076367.790419878438115 ], [ 619031.732832548674196, 7075432.258464594371617 ] ] ], [ [ [ 588832.960839778301306, 7086887.156589669175446 ], [ 589898.58898926153779, 7086879.767398598603904 ], [ 590495.913664381369017, 7082205.089377370662987 ], [ 589430.429867463069968, 7082212.540720663964748 ], [ 589789.342363928910345, 7079407.423725493252277 ], [ 590854.739424321916886, 7079399.934970711357892 ], [ 591094.136138369562104, 7077529.686971240676939 ], [ 590028.796954435296357, 7077537.200717147439718 ], [ 590268.395205909968354, 7075666.861570125445724 ], [ 588137.838375670136884, 7075681.673718868754804 ], [ 588017.96335853158962, 7076616.832859054207802 ], [ 586952.65877881727647, 7076624.093795659020543 ], [ 587072.562766170012765, 7075688.947092419490218 ], [ 584942.017045828164555, 7075703.228442747145891 ], [ 584822.055112076806836, 7076638.350355794653296 ], [ 580560.869118699221872, 7076665.802250241860747 ], [ 580320.821441701962613, 7078535.860724277794361 ], [ 581386.17326208553277, 7078529.154910613782704 ], [ 581266.232389544602484, 7079464.152984383516014 ], [ 580200.851618163171224, 7079470.846558569930494 ], [ 580080.917806479148567, 7080405.803476151078939 ], [ 579015.509789642412215, 7080412.396500010043383 ], [ 578775.692353467456996, 7082282.19926723651588 ], [ 579841.158224312704988, 7082275.630616467446089 ], [ 579721.332456647069193, 7083210.500866830348969 ], [ 581852.327110749669373, 7083197.123195827938616 ], [ 582331.614880635868758, 7079457.371060540899634 ], [ 583396.999113981262781, 7079450.500786134973168 ], [ 583037.566073449794203, 7082255.395069997757673 ], [ 585168.51339571212884, 7082241.463368149474263 ], [ 585048.832154582953081, 7083176.394894479773939 ], [ 586114.337409539846703, 7083169.308978380635381 ], [ 586353.678046870278195, 7081299.392312653362751 ], [ 587419.127321319421753, 7081292.193410282954574 ], [ 587179.844488959875889, 7083162.134819552302361 ], [ 588245.353415417834185, 7083154.872417032718658 ], [ 587886.785378505592234, 7085959.604703143239021 ], [ 586821.189828643691726, 7085966.829981723800302 ], [ 586940.705435094656423, 7085031.960502794012427 ], [ 585875.140592351788655, 7085039.109958119690418 ], [ 585755.596119852736592, 7085973.96710029989481 ], [ 583624.414135097409599, 7085987.976861253380775 ], [ 583504.847904596943408, 7086922.780553571879864 ], [ 582439.230721782427281, 7086929.640954747796059 ], [ 582319.671621529967524, 7087864.403567736037076 ], [ 581254.027334103710018, 7087871.163635348901153 ], [ 581134.475384286837652, 7088805.885230660438538 ], [ 582200.148514591623098, 7088799.137358261272311 ], [ 581961.210286281420849, 7090668.518527057953179 ], [ 585158.413174880086444, 7090647.819886744022369 ], [ 585277.777836829423904, 7089713.107006715610623 ], [ 587409.197807802818716, 7089698.843215253204107 ], [ 587647.919710546033457, 7087829.281704008579254 ], [ 588713.574817002634518, 7087821.993019541725516 ], [ 588832.960839778301306, 7086887.156589669175446 ] ], [ [ 588963.45967450842727, 7077544.626049993559718 ], [ 588604.244860221166164, 7080349.879657248035073 ], [ 587538.822650884045288, 7080357.179273799061775 ], [ 587898.124276058399118, 7077551.962970774620771 ], [ 588963.45967450842727, 7077544.626049993559718 ] ] ], [ [ [ 599132.145185836125165, 7089614.096615708433092 ], [ 600197.879849894088693, 7089605.864036155864596 ], [ 599959.992781878216192, 7091475.609953304752707 ], [ 601025.787136300350539, 7091467.31465675868094 ], [ 601263.61664118943736, 7089597.543394742533565 ], [ 602329.355582347605377, 7089589.13469035550952 ], [ 602567.270721618901007, 7087719.22208920493722 ], [ 599370.233139455900528, 7087744.260169044137001 ], [ 599132.145185836125165, 7089614.096615708433092 ] ] ], [ [ [ 615726.314914729911834, 7118417.851406237110496 ], [ 614659.651916282018647, 7118427.266192799434066 ], [ 614542.285222748527303, 7119361.476643128320575 ], [ 615608.976654369966127, 7119352.074700707569718 ], [ 615374.407169707934372, 7121220.435197682119906 ], [ 616441.157910362351686, 7121210.9717797935009 ], [ 615972.560664364136755, 7124947.400101197883487 ], [ 617039.42743336269632, 7124937.900970259681344 ], [ 616922.39566643233411, 7125871.949273834004998 ], [ 619056.193473120918497, 7125852.715681273490191 ], [ 618939.254061650601216, 7126786.761085335165262 ], [ 620006.185129440156743, 7126777.026695035398006 ], [ 619655.665751987369731, 7129579.029828850179911 ], [ 618588.649722485220991, 7129588.725563561543822 ], [ 618471.852912633446977, 7130522.656524019315839 ], [ 619538.89724199322518, 7130512.97365483827889 ], [ 619422.164375638938509, 7131446.888894364237785 ], [ 618355.091756775509566, 7131456.558907840400934 ], [ 617888.403701937757432, 7135191.882950563915074 ], [ 618955.589375317329541, 7135182.264261734671891 ], [ 619072.17965276655741, 7134248.463231126777828 ], [ 621206.502216272987425, 7134228.939970069564879 ], [ 621439.676674018381163, 7132361.200807927176356 ], [ 620372.570619264966808, 7132371.03158796671778 ], [ 620722.684353709802963, 7129569.247204814106226 ], [ 623923.75582158495672, 7129539.377983537502587 ], [ 624157.173278965405189, 7127671.300916690379381 ], [ 623090.203439622186124, 7127681.370200580917299 ], [ 623323.819946651230566, 7125813.204489229246974 ], [ 625457.648980046040379, 7125792.926868475973606 ], [ 625925.082372413366102, 7122056.146679479628801 ], [ 624858.279953935416415, 7122066.381269577890635 ], [ 625092.266907891724259, 7120197.844871681183577 ], [ 624025.523949900642037, 7120208.018485269509256 ], [ 624259.710073057329282, 7118339.393160466104746 ], [ 625326.396206969628111, 7118329.193365803919733 ], [ 625443.514232292422093, 7117394.824412920512259 ], [ 626510.174625196261331, 7117384.524255141615868 ], [ 626744.460537221399136, 7115515.673584282398224 ], [ 627811.066760118119419, 7115505.259815238416195 ], [ 628162.676991972373798, 7112701.72775319032371 ], [ 629229.200558642623946, 7112691.186981499195099 ], [ 629581.045289433561265, 7109887.354979233816266 ], [ 630647.486139392014593, 7109876.686946652829647 ], [ 630764.810282066115178, 7108942.005074182525277 ], [ 631831.225411045830697, 7108931.236220482736826 ], [ 631948.556557894218713, 7107996.512021485716105 ], [ 633014.945981654571369, 7107985.642279393970966 ], [ 632897.643356094369665, 7108920.379850463010371 ], [ 633964.06413999304641, 7108909.435962665826082 ], [ 633729.622417364735156, 7110778.850882157683372 ], [ 637995.562395690125413, 7110734.307763755321503 ], [ 638346.936163888662122, 7107929.980353383347392 ], [ 635147.733373541501351, 7107963.640156553126872 ], [ 635382.33100022515282, 7106094.024236558005214 ], [ 637515.015812199329957, 7106071.617979720234871 ], [ 637397.756330102449283, 7107006.467444214038551 ], [ 639530.509947706363164, 7106983.737848334014416 ], [ 639413.342972437152639, 7107918.58531459979713 ], [ 640479.752758157672361, 7107907.102721078321338 ], [ 640128.549990436877124, 7110711.511394592933357 ], [ 642261.549565390567295, 7110688.365135844796896 ], [ 642027.705449803965166, 7112557.879974983632565 ], [ 643094.26672355493065, 7112546.202866961248219 ], [ 642977.426245663431473, 7113480.930327536538243 ], [ 644044.019030753406696, 7113469.179428370669484 ], [ 643927.242403265787289, 7114403.891476938501 ], [ 644993.86670888250228, 7114392.066831063479185 ], [ 645110.614897261257283, 7113457.341134442016482 ], [ 646177.213868003687821, 7113445.415444165468216 ], [ 646293.968997333198786, 7112510.647009687498212 ], [ 648427.119451727368869, 7112486.505977872759104 ], [ 648310.421213465509936, 7113421.301868131384254 ], [ 650443.641249680425972, 7113396.838687300682068 ], [ 650560.282603186555207, 7112462.015229367651045 ], [ 649493.6994289184222, 7112474.304319025948644 ], [ 649960.732051461469382, 7108734.774484494701028 ], [ 647827.803031300893053, 7108759.200618430972099 ], [ 647944.706532039796002, 7107824.272902684286237 ], [ 644745.422128241509199, 7107860.296768577769399 ], [ 644862.44651928904932, 7106925.381134139373899 ], [ 643796.053110754815862, 7106937.227651728317142 ], [ 643913.141414643614553, 7106002.296577468514442 ], [ 641780.420837333891541, 7106025.754162495955825 ], [ 641897.601612694212236, 7105090.821279932744801 ], [ 640831.274413661798462, 7105102.43227656185627 ], [ 641065.799323976272717, 7103232.506366441957653 ], [ 642132.069413145072758, 7103220.8680888582021 ], [ 642014.81780512991827, 7104155.859260028228164 ], [ 644147.424214106868021, 7104132.346985084936023 ], [ 644381.848592481343076, 7102262.280708005651832 ], [ 642249.356435242109001, 7102285.847752492874861 ], [ 642484.036715684691444, 7100415.719528432004154 ], [ 640351.671036287443712, 7100438.990295824594796 ], [ 640234.256006048526615, 7101374.041681687347591 ], [ 639168.049068382242694, 7101385.531777519732714 ], [ 639050.640885833650827, 7102320.540380803868175 ], [ 637984.408328162739053, 7102331.929146217182279 ], [ 637867.007014013710432, 7103266.895028738304973 ], [ 639999.532242890214548, 7103244.056947918608785 ], [ 639764.950219460763037, 7105113.955633016303182 ], [ 634433.373524598195218, 7105170.257866417989135 ], [ 634550.789599475450814, 7104235.390707788988948 ], [ 632418.236283217207529, 7104257.325024776160717 ], [ 632535.744991638930514, 7103322.45565602183342 ], [ 633601.991652798140422, 7103311.518904533237219 ], [ 633954.645036839763634, 7100506.695963997393847 ], [ 631822.32611085625831, 7100528.562349118292332 ], [ 631940.005458595696837, 7099593.590028153732419 ], [ 633006.13488926703576, 7099582.687285903841257 ], [ 633123.821122243418358, 7098647.672400064766407 ], [ 634189.924760366324335, 7098636.668390401639044 ], [ 634307.617857919540256, 7097701.610877873376012 ], [ 632175.470689693582244, 7097723.558008503168821 ], [ 632293.25657008192502, 7096788.498281976208091 ], [ 635491.395660569658503, 7096755.405332374386489 ], [ 635138.402272033272311, 7099560.618412373587489 ], [ 636204.540269544930197, 7099549.452278133481741 ], [ 636086.975378590403125, 7100484.47850139439106 ], [ 638219.317317831097171, 7100461.909949376247823 ], [ 638454.368112706462853, 7098591.774083951488137 ], [ 639520.486264258506708, 7098580.330932858400047 ], [ 639638.036207307013683, 7097645.205593234859407 ], [ 638571.946683360729367, 7097656.662365675903857 ], [ 638807.210163620533422, 7095786.351288266479969 ], [ 640939.277614168822765, 7095763.295281354337931 ], [ 641056.905204582028091, 7094828.068563744425774 ], [ 643188.927338883746415, 7094804.633441143669188 ], [ 643071.357058176770806, 7095739.887601209804416 ], [ 642005.315825650468469, 7095751.635401217266917 ], [ 641652.731502430979162, 7098557.181130583398044 ], [ 644851.122037881286815, 7098521.797653558664024 ], [ 644733.750594210345298, 7099456.962264589965343 ], [ 645799.915518494090065, 7099445.005872163921595 ], [ 645682.608059074147604, 7100380.155011501163244 ], [ 646748.804684213246219, 7100368.124601947143674 ], [ 646866.08354818506632, 7099432.961665406823158 ], [ 647932.25470599217806, 7099420.8296427000314 ], [ 648166.861312386812642, 7097550.388292739167809 ], [ 646034.636566146742553, 7097574.619826836511493 ], [ 646269.499108818126842, 7095704.116666143760085 ], [ 647335.552652319194749, 7095692.017170774750412 ], [ 647218.132332071661949, 7096627.297234662808478 ], [ 648284.21764564642217, 7096615.123676536604762 ], [ 648636.498747500823811, 7093809.153895150870085 ], [ 645438.510011614300311, 7093845.53549562394619 ], [ 645556.093746869009919, 7092910.195145606994629 ], [ 647688.025768724619411, 7092886.001022320240736 ], [ 647805.587521028937772, 7091950.603607232682407 ], [ 648871.529551964602433, 7091938.360623565502465 ], [ 648989.097970608621836, 7091002.919920538552105 ], [ 647923.184627555892803, 7091015.176819328218699 ], [ 648040.817086786963046, 7090079.72064458578825 ], [ 646974.935585973900743, 7090091.90337273851037 ], [ 646857.274426830117591, 7091027.345650329254568 ], [ 645791.36734578886535, 7091039.426415176130831 ], [ 645909.057206425932236, 7090103.99800675176084 ], [ 644843.181925506563857, 7090116.004548247903585 ], [ 645078.72519908263348, 7088245.087287320755422 ], [ 644012.910434871912003, 7088257.033394368365407 ], [ 644130.76387774257455, 7087321.544515902176499 ], [ 640933.424051734153181, 7087356.895333694294095 ], [ 641051.399132195976563, 7086421.418444365262985 ], [ 642117.147302411380224, 7086409.709239688701928 ], [ 642235.129039419465698, 7085474.189184192568064 ], [ 644366.576927356189117, 7085450.478536394424736 ], [ 644602.531518685515039, 7083579.2948332214728 ], [ 642471.198730977950618, 7083603.060826632194221 ], [ 642353.146182779804803, 7084538.639717850834131 ], [ 640221.767905554268509, 7084562.025012347847223 ], [ 640339.878020769101568, 7083626.473692052066326 ], [ 641405.536877478356473, 7083614.811399552039802 ], [ 641878.216323783155531, 7079872.256603326648474 ], [ 640812.672708987491205, 7079883.974082170985639 ], [ 640930.959930310607888, 7078948.275527305901051 ], [ 637734.433399538509548, 7078982.938922707922757 ], [ 637616.059658524929546, 7079918.596180289983749 ], [ 636550.527831161860377, 7079929.960105345584452 ], [ 636432.160707043483853, 7080865.574218335561454 ], [ 634301.048030813224614, 7080888.009600536897779 ], [ 633709.456325912266038, 7085565.502858190797269 ], [ 634775.155254045734182, 7085554.39741303678602 ], [ 634656.972150336019695, 7086489.821600342169404 ], [ 635722.702708031632937, 7086478.641551446169615 ], [ 635486.500457111163996, 7088349.429153183475137 ], [ 637618.085245594382286, 7088326.859041268005967 ], [ 637264.220288879354484, 7091132.902344340458512 ], [ 638330.103227607440203, 7091121.526051392778754 ], [ 638094.427937458269298, 7092992.102390481159091 ], [ 635962.550177659839392, 7093014.712458923459053 ], [ 635726.901971846818924, 7094885.117337392643094 ], [ 634660.910075869876891, 7094896.263270189985633 ], [ 635014.521650440176018, 7092090.652764540165663 ], [ 633948.618682549335063, 7092101.751354577019811 ], [ 633830.683977630338632, 7093036.970549149438739 ], [ 631698.829156110761687, 7093058.8766731005162 ], [ 631580.87256160529796, 7093994.039659850299358 ], [ 628383.025183210149407, 7094026.198675817809999 ], [ 628737.259849304333329, 7091220.742941725999117 ], [ 627671.402338500716724, 7091231.326820213347673 ], [ 627789.580373450298794, 7090296.129907725378871 ], [ 625657.930929645546712, 7090317.060253256931901 ], [ 625894.508637934341095, 7088446.632249483838677 ], [ 626960.274517107172869, 7088436.184403787367046 ], [ 627315.321508755208924, 7085630.283090712502599 ], [ 625183.96507558086887, 7085651.170845394954085 ], [ 625065.522951750201173, 7086586.47378715313971 ], [ 623999.819939762703143, 7086596.772028386592865 ], [ 624236.797348567168228, 7084726.163568388670683 ], [ 623171.154557850561105, 7084736.400254653766751 ], [ 623526.974001296679489, 7081930.308124456554651 ], [ 621395.869176066480577, 7081950.596568699926138 ], [ 621514.604526538052596, 7081015.200595934875309 ], [ 620449.084829766419716, 7081025.225624706596136 ], [ 620567.88464639801532, 7080089.813652162440121 ], [ 619502.396359982667491, 7080099.763598067685962 ], [ 619978.067325299722143, 7076357.875837625004351 ], [ 618912.697119898395613, 7076367.790419878438115 ], [ 618793.697039155289531, 7077303.293055288493633 ], [ 617728.300442577456124, 7077313.105928529053926 ], [ 617847.329428622615524, 7076377.616529803723097 ], [ 614651.241214297362603, 7076406.564038697630167 ], [ 614413.045464210677892, 7078277.434485709294677 ], [ 613347.629789732862264, 7078286.880479586310685 ], [ 613228.556537388940342, 7079222.258713733404875 ], [ 612163.114367435337044, 7079231.60322074778378 ], [ 612044.047920746263117, 7080166.939160360023379 ], [ 610978.579239590326324, 7080176.182247677817941 ], [ 610740.495710977353156, 7082046.7404820099473 ], [ 609674.971637181239203, 7082055.869225887581706 ], [ 609318.02766733977478, 7084861.448956075124443 ], [ 608252.419376541511156, 7084870.450576688162982 ], [ 607776.879050821298733, 7088610.764387143775821 ], [ 608842.602582219755277, 7088601.814397964626551 ], [ 608367.749248688225634, 7092341.714904509484768 ], [ 607301.910643436363898, 7092350.613422244787216 ], [ 607658.083328005974181, 7089545.77018390968442 ], [ 606592.333298137411475, 7089554.619220321998 ], [ 606711.157806892180815, 7088619.626278482377529 ], [ 603514.007573730312288, 7088645.683377276174724 ], [ 603395.096695995307527, 7089580.637921864166856 ], [ 604460.840004758676514, 7089572.053088130429387 ], [ 604104.408417510334402, 7092376.781063266098499 ], [ 596643.646257842192426, 7092434.759552432224154 ], [ 596881.634332834510133, 7090565.147162789478898 ], [ 594750.121942604309879, 7090580.970802698284388 ], [ 594869.227349451743066, 7089646.146337216719985 ], [ 587409.197807802818716, 7089698.843215253204107 ], [ 587289.890771926031448, 7090633.580696780234575 ], [ 586224.151057849754579, 7090640.744302032515407 ], [ 586104.851165880449116, 7091575.440647836774588 ], [ 581841.795167720061727, 7091603.165932885371149 ], [ 581961.210286281420849, 7090668.518527057953179 ], [ 580895.479501410271041, 7090675.242038974538445 ], [ 580656.627650230424479, 7092544.48376268427819 ], [ 578525.055973489885218, 7092557.618265772238374 ], [ 578405.626475361641496, 7093492.171798266470432 ], [ 577339.814354156842455, 7093498.595050087198615 ], [ 577101.005895085982047, 7095367.591905429959297 ], [ 579232.746925758081488, 7095354.705714099109173 ], [ 579113.454294351278804, 7096289.185217672027647 ], [ 580179.35608779755421, 7096282.622396595776081 ], [ 580060.128234501229599, 7097217.085299115628004 ], [ 578994.197689648834057, 7097223.636042549274862 ], [ 578874.977113045984879, 7098158.058202462270856 ], [ 579940.936398924211971, 7098151.519526725634933 ], [ 579821.780582461389713, 7099085.925093151628971 ], [ 576623.821540952892974, 7099105.241655599325895 ], [ 576385.445668138680048, 7100973.894769894890487 ], [ 573187.328970436239615, 7100992.349882477894425 ], [ 573068.108991647022776, 7101926.597797974944115 ], [ 574134.175011177430861, 7101920.545687654986978 ], [ 573895.900704266852699, 7103788.979639383032918 ], [ 574962.025688127032481, 7103782.863655122928321 ], [ 574604.970824847463518, 7106585.336277068592608 ], [ 575671.183399879722856, 7106579.168384634889662 ], [ 575552.265899939346127, 7107513.280795380473137 ], [ 576618.508731417357922, 7107507.037276242859662 ], [ 576499.655926656560041, 7108441.133095307275653 ], [ 577565.929022852680646, 7108434.813994465395808 ], [ 577447.140891873277724, 7109368.893243581056595 ], [ 579579.749307412886992, 7109356.016510091722012 ], [ 579342.395585454301909, 7111224.13735210057348 ], [ 577209.67276972765103, 7111236.966294469311833 ], [ 577090.992781322798692, 7112170.960123540833592 ], [ 576024.605272601009347, 7112177.23160046339035 ], [ 576262.058483871282078, 7110309.239274806343019 ], [ 574129.402703268104233, 7110321.567527426406741 ], [ 573535.754329722723924, 7114991.216709477826953 ], [ 574602.224323640111834, 7114985.155424901284277 ], [ 574246.553933996008709, 7117786.639676548540592 ], [ 575313.111138076288626, 7117780.526545124128461 ], [ 575431.603329631849192, 7116846.715019915252924 ], [ 579697.734414169914089, 7116821.342931874096394 ], [ 579816.148542123148218, 7115887.455504210665822 ], [ 580882.656994431046769, 7115880.882438167929649 ], [ 581001.078609142801724, 7114946.954626237042248 ], [ 583134.043660391122103, 7114933.522685617208481 ], [ 583252.44419752608519, 7113999.542399441823363 ], [ 585385.359281895915046, 7113985.737135307863355 ], [ 585503.738706734147854, 7113051.704210247844458 ], [ 586570.170428741839714, 7113044.658468411304057 ], [ 586215.22568108944688, 7115846.708101009018719 ], [ 587281.744863242376596, 7115839.611425757408142 ], [ 587399.995292414212599, 7114905.611249736510217 ], [ 588466.48781886161305, 7114898.415144762024283 ], [ 588584.745664685149677, 7113964.374296747148037 ], [ 589651.211551866494119, 7113957.078695448115468 ], [ 589414.788854996906593, 7115825.156259873881936 ], [ 588348.265913602197543, 7115832.427479034289718 ], [ 588230.079950301675126, 7116766.411313226446509 ], [ 590363.184768126579002, 7116751.805981894955039 ], [ 590245.091748645761982, 7117685.785690339282155 ], [ 589178.509884546976537, 7117693.11978449486196 ], [ 589060.424300220212899, 7118627.058816032484174 ], [ 591193.646936981589533, 7118612.327805794775486 ], [ 590721.891667805262841, 7122347.896768351085484 ], [ 591788.619741525966674, 7122340.44933825917542 ], [ 591553.014481493970379, 7124208.087532311677933 ], [ 592619.801376015413553, 7124200.577448755502701 ], [ 592737.557629258721136, 7123266.760357925668359 ], [ 593804.318092433619313, 7123259.151011053472757 ], [ 593922.081817762576975, 7122325.293233385309577 ], [ 596055.551951584988274, 7122309.788795444183052 ], [ 595937.845079014194198, 7123243.671150137670338 ], [ 598071.380298480973579, 7123227.843059366568923 ], [ 597836.187793746590614, 7125095.571691462770104 ], [ 598903.015356241376139, 7125087.551799947395921 ], [ 598785.501270449487492, 7126021.385772682726383 ], [ 599852.359342671232298, 7126013.291260772384703 ], [ 599734.909476727480069, 7126947.109149920754135 ], [ 600801.798067415365949, 7126938.940062476322055 ], [ 600919.219558939570561, 7126005.109770773909986 ], [ 601986.081942163989879, 7125996.841301588341594 ], [ 602220.975616217008792, 7124129.070380384102464 ], [ 603287.783417014405131, 7124120.689984705299139 ], [ 603405.255567567306571, 7123186.749270461499691 ], [ 604472.0371851217933, 7123178.26932180672884 ], [ 604354.59343435568735, 7124112.222551807761192 ], [ 605421.405691134510562, 7124103.668080549687147 ], [ 605656.272174036712386, 7122235.707974940538406 ], [ 606723.029890712816268, 7122227.041311206296086 ], [ 606605.607167062815279, 7123161.048224564641714 ], [ 607672.395577223738655, 7123152.307073662057519 ], [ 607320.427164414199069, 7125954.194228481501341 ], [ 609454.181223799940199, 7125936.526505079120398 ], [ 609336.986659778864123, 7126870.457021493464708 ], [ 608270.0801070202142, 7126879.32175106368959 ], [ 608152.892935396172106, 7127813.211108647286892 ], [ 609219.827837211778387, 7127804.358994984999299 ], [ 608985.617422122857533, 7129672.077367911115289 ], [ 611119.607611353159882, 7129654.162913650274277 ], [ 611002.612652162322775, 7130588.004596992395818 ], [ 612069.639630876365118, 7130578.929721796885133 ], [ 611952.708700272138231, 7131512.755557583644986 ], [ 614086.826508945785463, 7131494.370652748271823 ], [ 614203.700840734760277, 7130560.519412594847381 ], [ 613136.669019419001415, 7130569.76799407415092 ], [ 613604.636583776213229, 7126834.12848599627614 ], [ 612537.720500000519678, 7126843.34106488712132 ], [ 612771.975202632136643, 7124975.375356582924724 ], [ 613838.834571901476011, 7124966.137293097563088 ], [ 613955.987112448550761, 7124032.098788984119892 ], [ 612889.156115969759412, 7124041.349609533324838 ], [ 613006.372735415701754, 7123107.295248942449689 ], [ 611939.572546501411125, 7123116.471760598942637 ], [ 612056.853265959070995, 7122182.40152161102742 ], [ 609923.316865967470221, 7122200.518736402504146 ], [ 609805.979350360925309, 7123134.563561414368451 ], [ 608739.186297360458411, 7123143.478853007778525 ], [ 608856.552213798742741, 7122209.446693120524287 ], [ 607789.789896340458654, 7122218.287550991401076 ], [ 608142.187378315487877, 7119416.05737800244242 ], [ 609208.864425573730841, 7119407.178549334406853 ], [ 609326.37331223313231, 7118473.031900988891721 ], [ 610393.024257455486804, 7118464.053185177966952 ], [ 610275.543813079362735, 7119398.212538095191121 ], [ 611342.225563691346906, 7119389.159343078732491 ], [ 611694.688728799694218, 7116586.557044681161642 ], [ 609561.498301086481661, 7116604.652621334418654 ], [ 609679.114400421618484, 7115670.419962564483285 ], [ 610745.679956580046564, 7115661.403073797002435 ], [ 610863.303306848159991, 7114727.128973325714469 ], [ 611929.842751520336606, 7114718.012017136439681 ], [ 612165.139624302508309, 7112849.352065032348037 ], [ 613231.624472728231922, 7112840.12215478066355 ], [ 613584.752035735407844, 7110036.877983736805618 ], [ 614651.153746281401254, 7110027.522089598700404 ], [ 614180.502450689557008, 7113765.174878695979714 ], [ 615247.020662274793722, 7113755.783079442568123 ], [ 615364.601457058335654, 7112821.400188101455569 ], [ 616431.093638578662649, 7112811.908129159361124 ], [ 616548.681606039288454, 7111877.483536107465625 ], [ 617615.147773515200242, 7111867.891150452196598 ], [ 617850.373667780542746, 7109998.929602149873972 ], [ 618916.785314189852215, 7109989.223833721131086 ], [ 618799.183062656898983, 7110923.732014762237668 ], [ 619865.625771237537265, 7110913.951791478320956 ], [ 619748.087674997164868, 7111848.444133905693889 ], [ 618681.616455567535013, 7111858.211350152269006 ], [ 618094.318137506605126, 7116530.175825122743845 ], [ 617027.707048092153855, 7116539.790878367610276 ], [ 616910.325887758284807, 7117474.084509713575244 ], [ 615843.688851857325062, 7117483.599396117031574 ], [ 615726.314914729911834, 7118417.851406237110496 ] ], [ [ 624963.122645993600599, 7112732.825672421604395 ], [ 625080.482630857964978, 7111798.296767121180892 ], [ 628279.951512201223522, 7111767.159269876778126 ], [ 628162.676991972373798, 7112701.72775319032371 ], [ 624963.122645993600599, 7112732.825672421604395 ] ], [ [ 624013.998382518999279, 7111808.501083025708795 ], [ 624131.422452999046072, 7110873.956433130428195 ], [ 625197.878199271042831, 7110863.738970522768795 ], [ 625080.482630857964978, 7111798.296767121180892 ], [ 624013.998382518999279, 7111808.501083025708795 ] ], [ [ 631704.682276965817437, 7101463.505562724545598 ], [ 630638.498430126113817, 7101474.293709183111787 ], [ 630756.170871988520958, 7100539.363891297020018 ], [ 631822.32611085625831, 7100528.562349118292332 ], [ 631704.682276965817437, 7101463.505562724545598 ] ], [ [ 632057.720318703213707, 7098658.588585921563208 ], [ 630991.622327045188285, 7098669.41694943420589 ], [ 631109.401337276794948, 7097734.399797635152936 ], [ 632175.470689693582244, 7097723.558008503168821 ], [ 632057.720318703213707, 7098658.588585921563208 ] ], [ [ 636322.140631165239029, 7098614.396893730387092 ], [ 637388.252909242524765, 7098603.129403734579682 ], [ 637270.681168085662648, 7099538.198343580588698 ], [ 636204.540269544930197, 7099549.452278133481741 ], [ 636322.140631165239029, 7098614.396893730387092 ] ], [ [ 645320.961654514423572, 7094780.846520846709609 ], [ 644254.942962697008625, 7094792.783956501632929 ], [ 644372.519981078337878, 7093857.486732440069318 ], [ 645438.510011614300311, 7093845.53549562394619 ], [ 645320.961654514423572, 7094780.846520846709609 ] ], [ [ 639985.653953917091712, 7086433.0394525565207 ], [ 640103.693216100102291, 7085497.546927841380239 ], [ 641169.409630982088856, 7085485.912168248556554 ], [ 641051.399132195976563, 7086421.418444365262985 ], [ 639985.653953917091712, 7086433.0394525565207 ] ], [ [ 628265.018049559905194, 7094961.29223882034421 ], [ 626133.076106025720946, 7094982.265119133517146 ], [ 626251.140616894001141, 7094047.198235625401139 ], [ 624119.266787804546766, 7094067.845981271006167 ], [ 624237.424269676906988, 7093132.776540519669652 ], [ 626369.240693800267763, 7093112.102207202464342 ], [ 626487.376335265114903, 7092176.977019937708974 ], [ 627553.259854715666734, 7092166.494535993784666 ], [ 627317.081546566914767, 7094036.742433192208409 ], [ 628383.025183210149407, 7094026.198675817809999 ], [ 628265.018049559905194, 7094961.29223882034421 ] ], [ [ 623762.984872982022353, 7088467.263582728803158 ], [ 621631.471615087706596, 7088487.542447643354535 ], [ 621868.421783901518211, 7086617.103993285447359 ], [ 623999.819939762703143, 7086596.772028386592865 ], [ 623762.984872982022353, 7088467.263582728803158 ] ], [ [ 609433.590156658785418, 7092332.728399432264268 ], [ 609314.994910923065618, 7093267.643854826688766 ], [ 610380.866883001755923, 7093258.58225994091481 ], [ 610143.841033152071759, 7095128.351954907178879 ], [ 608011.984516365919262, 7095146.335704809054732 ], [ 608130.537017783848569, 7094211.491084568202496 ], [ 605998.747134776553139, 7094229.148838112130761 ], [ 606117.392845241818577, 7093294.300880541093647 ], [ 608249.125262374058366, 7093276.61748908739537 ], [ 608367.749248688225634, 7092341.714904509484768 ], [ 609433.590156658785418, 7092332.728399432264268 ] ], [ [ 604589.516723431530409, 7122244.2875433601439 ], [ 604707.032047866494395, 7121310.277202781289816 ], [ 605773.759079850744456, 7121301.685071002691984 ], [ 605656.272174036712386, 7122235.707974940538406 ], [ 604589.516723431530409, 7122244.2875433601439 ] ], [ [ 609571.411527853342704, 7125002.567432054318488 ], [ 610638.263703510398045, 7124993.590424835681915 ], [ 610521.061767375213094, 7125927.562161348760128 ], [ 609454.181223799940199, 7125936.526505079120398 ], [ 609571.411527853342704, 7125002.567432054318488 ] ], [ [ 607075.512648446019739, 7119424.84902529232204 ], [ 607193.078425210434943, 7118490.727702358737588 ], [ 608259.724709102185443, 7118481.923406316898763 ], [ 608142.187378315487877, 7119416.05737800244242 ], [ 607075.512648446019739, 7119424.84902529232204 ] ], [ [ 609443.917937880265526, 7117538.856596232391894 ], [ 608377.297789242933504, 7117547.760788092389703 ], [ 608494.906617311527953, 7116613.569509601220489 ], [ 609561.498301086481661, 7116604.652621334418654 ], [ 609443.917937880265526, 7117538.856596232391894 ] ], [ [ 620814.561454605543986, 7111838.589500399306417 ], [ 620932.071041767601855, 7110904.084123004227877 ], [ 621998.51889704214409, 7110894.129008014686406 ], [ 621763.592352073406801, 7112763.137027032673359 ], [ 619630.585214262944646, 7112782.907634574919939 ], [ 619748.087674997164868, 7111848.444133905693889 ], [ 620814.561454605543986, 7111838.589500399306417 ] ], [ [ 595460.115836849203333, 7118581.819476151838899 ], [ 595106.587043306208216, 7121383.686030836775899 ], [ 594039.881432729773223, 7121391.406992072239518 ], [ 594275.588325981167145, 7119523.549063915386796 ], [ 593208.941642081481405, 7119531.207456612959504 ], [ 593444.849028818774968, 7117663.2600920451805 ], [ 594511.438760978751816, 7117655.577117307111621 ], [ 594393.495601463248022, 7118589.577349750325084 ], [ 595460.115836849203333, 7118581.819476151838899 ] ], [ [ 593562.856562367174774, 7116729.243633467704058 ], [ 592496.297324838815257, 7116736.851664470508695 ], [ 592614.369253677432425, 7115802.81895793415606 ], [ 593680.899987498298287, 7115795.198639133945107 ], [ 593562.856562367174774, 7116729.243633467704058 ] ], [ [ 590481.313710255199112, 7115817.797767298296094 ], [ 590599.478573633823544, 7114883.76103287935257 ], [ 592732.477083052741364, 7114868.757711831480265 ], [ 592614.369253677432425, 7115802.81895793415606 ], [ 590481.313710255199112, 7115817.797767298296094 ] ], [ [ 598183.009607089683414, 7113895.5699497256428 ], [ 598065.00848130765371, 7114829.72156572714448 ], [ 596998.498096117866226, 7114837.703409794718027 ], [ 597116.527738580596633, 7113903.564212908968329 ], [ 598183.009607089683414, 7113895.5699497256428 ] ], [ [ 581831.038199384580366, 7108408.662728508934379 ], [ 581593.726850452134386, 7110276.88862407580018 ], [ 580527.389781417092308, 7110283.533616998232901 ], [ 580764.758340948959813, 7108415.33177613094449 ], [ 581831.038199384580366, 7108408.662728508934379 ] ], [ [ 589176.573953342274763, 7109293.741871896199882 ], [ 589058.136425668606535, 7110227.925493780523539 ], [ 587991.786674145259894, 7110235.182538198307157 ], [ 588110.252787888981402, 7109301.011133869178593 ], [ 589176.573953342274763, 7109293.741871896199882 ] ], [ [ 622116.035590159706771, 7109959.581692336127162 ], [ 621049.616252592066303, 7109969.549880135804415 ], [ 621167.19708562316373, 7109034.986757978796959 ], [ 620100.808864424820058, 7109044.880526125431061 ], [ 620336.134482194436714, 7107175.69372801668942 ], [ 621402.465612481348217, 7107165.773820523172617 ], [ 621520.153303393279202, 7106231.1239775698632 ], [ 620453.850734158651903, 7106241.056969624944031 ], [ 620689.39011696074158, 7104371.696665008552372 ], [ 621755.635532886604778, 7104361.737474031746387 ], [ 621873.430068547022529, 7103427.000785760581493 ], [ 622939.649491029791534, 7103416.940810425207019 ], [ 622821.883545873919502, 7104351.690641001798213 ], [ 624954.38745400425978, 7104331.334043368697166 ], [ 624601.474645134061575, 7107135.488743170164526 ], [ 626734.160596049157903, 7107114.86088228225708 ], [ 626616.651249994873069, 7108049.547596696764231 ], [ 625550.278391183819622, 7108059.892094666138291 ], [ 625315.309349771705456, 7109929.152268801815808 ], [ 623182.457537020440213, 7109949.526028749532998 ], [ 623299.981315604643896, 7109014.936713206581771 ], [ 622233.587895090109669, 7109025.005487453192472 ], [ 622116.035590159706771, 7109959.581692336127162 ] ], [ [ 628749.40510206669569, 7108028.595987925305963 ], [ 628514.607208279892802, 7109897.935526322573423 ], [ 626381.7392612361582, 7109918.834169702604413 ], [ 626616.651249994873069, 7108049.547596696764231 ], [ 628749.40510206669569, 7108028.595987925305963 ] ], [ [ 612636.161874050274491, 7109111.686946682631969 ], [ 611569.793538930942304, 7109120.880742654204369 ], [ 611805.576012452016585, 7107251.901048475876451 ], [ 612871.887227978557348, 7107242.681559981778264 ], [ 612636.161874050274491, 7109111.686946682631969 ] ], [ [ 610739.267183829215355, 7107261.032990289852023 ], [ 610857.240565596148372, 7106326.512736152857542 ], [ 611923.520817013806663, 7106317.367961117997766 ], [ 611805.576012452016585, 7107251.901048475876451 ], [ 610739.267183829215355, 7107261.032990289852023 ] ], [ [ 582068.49356160312891, 7106540.322671968489885 ], [ 581949.747879527974874, 7107474.506977200508118 ], [ 579817.247131087468006, 7107487.781640948727727 ], [ 579936.050077602849342, 7106553.62141203507781 ], [ 582068.49356160312891, 7106540.322671968489885 ] ], [ [ 619505.331187672913074, 7105316.249760335311294 ], [ 619269.805920930230059, 7107185.526078594848514 ], [ 617137.156414409633726, 7107204.928114276379347 ], [ 617372.795963874319568, 7105335.703874804079533 ], [ 619505.331187672913074, 7105316.249760335311294 ] ], [ [ 584319.668457306455821, 7105592.436672792769969 ], [ 584200.944051759666763, 7106526.673753263428807 ], [ 583134.717919533955865, 7106533.541985400021076 ], [ 583253.470962606254034, 7105599.317022686824203 ], [ 584319.668457306455821, 7105592.436672792769969 ] ], [ [ 600312.859504680149257, 7105478.721954632550478 ], [ 600194.564424772048369, 7106413.144147928804159 ], [ 599128.308947367942892, 7106421.325680845417082 ], [ 599246.632635399699211, 7105486.916023667901754 ], [ 600312.859504680149257, 7105478.721954632550478 ] ], [ [ 575790.136962535092607, 7105645.027465710416436 ], [ 576028.152270460734144, 7103776.660048650577664 ], [ 577094.280474000843242, 7103770.368819132447243 ], [ 576856.322500768001191, 7105638.760111195966601 ], [ 575790.136962535092607, 7105645.027465710416436 ] ], [ [ 577213.313533612294123, 7102836.130341278389096 ], [ 578279.414700257824734, 7102829.739507626742125 ], [ 578160.410321481525898, 7103763.989965722896159 ], [ 577094.280474000843242, 7103770.368819132447243 ], [ 577213.313533612294123, 7102836.130341278389096 ] ], [ [ 591310.193828415474854, 7100877.333432138897479 ], [ 591072.765360581339337, 7102746.212342347949743 ], [ 590006.642669235123321, 7102753.655067419633269 ], [ 589887.953645849367604, 7103688.039148135110736 ], [ 588821.804214559029788, 7103695.381923445500433 ], [ 588703.122466624598019, 7104629.725049018859863 ], [ 586570.771960835088976, 7104644.123228390701115 ], [ 586689.511011299793608, 7103709.80457316711545 ], [ 587755.65667728765402, 7103702.63706479780376 ], [ 587993.185305781429633, 7101833.88932328671217 ], [ 590125.367614955990575, 7101819.242294833064079 ], [ 590244.128481602529064, 7100884.8008166346699 ], [ 591310.193828415474854, 7100877.333432138897479 ] ], [ [ 592138.889993379591033, 7102738.681953443214297 ], [ 592376.261120606563054, 7100869.778328027576208 ], [ 595574.474896580446512, 7100846.586687792092562 ], [ 595337.27576776209753, 7102715.564793571829796 ], [ 594271.145174242788926, 7102723.358180085197091 ], [ 594152.570765884709544, 7103657.791687427088618 ], [ 593086.413531175348908, 7103665.485008543357253 ], [ 593205.016590357990935, 7102731.063899696804583 ], [ 592138.889993379591033, 7102738.681953443214297 ] ], [ [ 595693.128263085265644, 7099912.054488223046064 ], [ 594627.083678518538363, 7099919.885213512927294 ], [ 594745.801601622020826, 7098985.336697269231081 ], [ 595811.817495763185434, 7098977.493505841121078 ], [ 596405.801601962302811, 7094304.256369340233505 ], [ 597471.675937820109539, 7094296.262778885662556 ], [ 597115.264080020482652, 7097100.329148626886308 ], [ 599247.191354766488075, 7097084.153660518117249 ], [ 599128.516516085714102, 7098018.809875387698412 ], [ 601260.509644029545598, 7098002.308256143704057 ], [ 601141.928021866595373, 7098936.96083408780396 ], [ 603273.987148536951281, 7098920.133278202265501 ], [ 603037.046035202569328, 7100789.402479068376124 ], [ 601970.958040006575175, 7100797.834837063215673 ], [ 602089.43936662201304, 7099863.227314371615648 ], [ 601023.382212486700155, 7099871.584565697237849 ], [ 600904.872217321535572, 7100806.179464771412313 ], [ 598772.706998627982102, 7100822.605533793568611 ], [ 599009.877509550889954, 7098953.437250027433038 ], [ 596877.835429999395274, 7098969.562534869648516 ], [ 596640.550197415053844, 7100838.6806949544698 ], [ 595574.474896580446512, 7100846.586687792092562 ], [ 595693.128263085265644, 7099912.054488223046064 ] ], [ [ 603392.511393906548619, 7097985.455385318025947 ], [ 604458.515558798564598, 7097976.897227745503187 ], [ 604340.019999002339318, 7098911.587819966487586 ], [ 603273.987148536951281, 7098920.133278202265501 ], [ 603392.511393906548619, 7097985.455385318025947 ] ], [ [ 605406.055071153910831, 7098902.954573342576623 ], [ 605524.521947249420919, 7097968.25125387031585 ], [ 611920.60824342793785, 7097914.531202491372824 ], [ 612038.938763567130081, 7096979.721973521634936 ], [ 613104.932671098853461, 7096970.448319736868143 ], [ 613223.270205502514727, 7096035.597174583002925 ], [ 616421.180396297597326, 7096007.210089718922973 ], [ 616066.532979210955091, 7098811.793485041707754 ], [ 615000.474441742757335, 7098821.304681212641299 ], [ 614764.163864128990099, 7100690.856010045856237 ], [ 608367.519393807742745, 7100745.924694759771228 ], [ 608485.828748544212431, 7099811.240844218060374 ], [ 607419.758207417442463, 7099820.124661957845092 ], [ 607538.131971310009249, 7098885.424710283987224 ], [ 606472.092387690092437, 7098894.233537171036005 ], [ 606353.689954221597873, 7099828.920715715736151 ], [ 604221.560220797895454, 7099846.249536000192165 ], [ 604340.019999002339318, 7098911.587819966487586 ], [ 605406.055071153910831, 7098902.954573342576623 ] ], [ [ 597588.06739178544376, 7101765.215384054929018 ], [ 597469.543074615183286, 7102699.71501564886421 ], [ 596403.408393643912859, 7102707.683739112690091 ], [ 596521.961366217350587, 7101773.196599639952183 ], [ 597588.06739178544376, 7101765.215384054929018 ] ], [ [ 623175.288184636970982, 7101547.354177169501781 ], [ 623057.451037772931159, 7102482.161993768066168 ], [ 621991.260216200957075, 7102492.235121352598071 ], [ 622109.125974385533482, 7101557.44046694971621 ], [ 623175.288184636970982, 7101547.354177169501781 ] ], [ [ 627793.34499635885004, 7098701.375120390206575 ], [ 627911.209934489801526, 7097766.398077731952071 ], [ 628977.270982368150726, 7097755.819830812513828 ], [ 628506.139066027710214, 7101495.606792446225882 ], [ 627439.963503324775957, 7101506.131732111796737 ], [ 627322.240784351481125, 7102440.992476914077997 ], [ 626256.039333204505965, 7102451.416409857571125 ], [ 626727.258025223738514, 7098711.85220894869417 ], [ 627793.34499635885004, 7098701.375120390206575 ] ], [ [ 626845.151609404711053, 7097776.888480101712048 ], [ 626963.080755106289871, 7096841.895652011036873 ], [ 628029.110423719394021, 7096831.391925858333707 ], [ 627911.209934489801526, 7097766.398077731952071 ], [ 626845.151609404711053, 7097776.888480101712048 ] ], [ [ 629095.142816837527789, 7096820.800327206030488 ], [ 630161.177957146894187, 7096810.120854631066322 ], [ 630043.334775733062997, 7097745.153737924993038 ], [ 628977.270982368150726, 7097755.819830812513828 ], [ 629095.142816837527789, 7096820.800327206030488 ] ], [ [ 579583.577012456255034, 7100954.650297328829765 ], [ 579464.529261699761264, 7101888.969962508417666 ], [ 578398.455115480581298, 7101895.460466816090047 ], [ 578517.531565761193633, 7100961.152829597704113 ], [ 579583.577012456255034, 7100954.650297328829765 ] ], [ [ 619028.642109676846303, 7100652.388677002862096 ], [ 618910.654866689583287, 7101587.172986444085836 ], [ 616778.353503557154909, 7101606.556054508313537 ], [ 616896.398005894152448, 7100671.797837940044701 ], [ 619028.642109676846303, 7100652.388677002862096 ] ], [ [ 621160.896357192657888, 7100632.628516813740134 ], [ 621278.861965938936919, 7099697.788994995877147 ], [ 622344.964316487777978, 7099687.764132707379758 ], [ 622227.027341636247002, 7100622.616808690130711 ], [ 621160.896357192657888, 7100632.628516813740134 ] ], [ [ 622462.936897475272417, 7098752.882425124756992 ], [ 623529.013211294542998, 7098742.756589023396373 ], [ 623411.069272864726372, 7099677.651488672010601 ], [ 622344.964316487777978, 7099687.764132707379758 ], [ 622462.936897475272417, 7098752.882425124756992 ] ], [ [ 623765.007869438035414, 7096872.879609508439898 ], [ 624831.029500651173294, 7096862.639492444694042 ], [ 624595.09215539181605, 7098732.542941875755787 ], [ 623529.013211294542998, 7098742.756589023396373 ], [ 623765.007869438035414, 7096872.879609508439898 ] ], [ [ 620566.958687626523897, 7096903.072764540091157 ], [ 620685.095431088702753, 7095968.130238980054855 ], [ 621751.080551758292131, 7095958.140552550554276 ], [ 621869.2242285880493, 7095023.155783727765083 ], [ 622935.183253421448171, 7095013.065001131035388 ], [ 622817.06826257344801, 7095948.06297396030277 ], [ 623883.058586212107912, 7095937.897501857951283 ], [ 623765.007869438035414, 7096872.879609508439898 ], [ 620566.958687626523897, 7096903.072764540091157 ] ], [ [ 645203.448677080916241, 7095716.128235267475247 ], [ 645085.971080824267119, 7096651.380652870982885 ], [ 644019.895097777363844, 7096663.290516185574234 ], [ 644137.401334427064285, 7095728.05187975615263 ], [ 645203.448677080916241, 7095716.128235267475247 ] ], [ [ 616657.790323977009393, 7094137.342712763696909 ], [ 616776.148778324597515, 7093202.365448634140193 ], [ 615710.262389294919558, 7093211.954833200201392 ], [ 615828.685229898197576, 7092276.961566440761089 ], [ 613696.977268701302819, 7092295.902481408789754 ], [ 613815.493258619098924, 7091360.906210610643029 ], [ 612749.671656978083774, 7091370.257669740356505 ], [ 612868.25208774022758, 7090435.24533467553556 ], [ 610736.673560871975496, 7090453.71011489443481 ], [ 610855.347221844596788, 7089518.694650364108384 ], [ 611921.106529957731254, 7089509.493327045813203 ], [ 612039.787127424613573, 7088574.435831322334707 ], [ 613105.52003489411436, 7088565.133438662625849 ], [ 612986.868214198388159, 7089500.20392894744873 ], [ 614052.632297193398699, 7089490.826454823836684 ], [ 613934.044935269863345, 7090425.880873046815395 ], [ 614999.84020237554796, 7090416.428362064994872 ], [ 614881.317278029862791, 7091351.466730061918497 ], [ 615947.143737850827165, 7091341.93922682851553 ], [ 616065.637911690864712, 7090406.88780046440661 ], [ 617131.438085850328207, 7090397.259186968207359 ], [ 617012.972660723840818, 7091332.323699632659554 ], [ 618078.804069291334599, 7091322.620147185400128 ], [ 617960.403036131639965, 7092257.668667352758348 ], [ 620092.130868592415936, 7092238.023773791268468 ], [ 619973.822928765788674, 7093173.069473452866077 ], [ 621039.719382217852399, 7093163.128203531727195 ], [ 620921.475779852014966, 7094098.157972371205688 ], [ 619855.550616060500033, 7094108.08607420604676 ], [ 619737.313931945245713, 7095043.073589952662587 ], [ 617605.413821530994028, 7095062.63972644507885 ], [ 617723.707910787314177, 7094127.678443087264895 ], [ 616657.790323977009393, 7094137.342712763696909 ] ], [ [ 613578.496966974227689, 7093230.869699327275157 ], [ 612512.61788837169297, 7093240.195183424279094 ], [ 612631.126923369825818, 7092305.240948028862476 ], [ 613696.977268701302819, 7092295.902481408789754 ], [ 613578.496966974227689, 7093230.869699327275157 ] ], [ [ 621157.998601280967705, 7092228.069325797259808 ], [ 622223.868908473057672, 7092218.026875218376517 ], [ 622105.618408415815793, 7093153.098958968184888 ], [ 621039.719382217852399, 7093163.128203531727195 ], [ 621157.998601280967705, 7092228.069325797259808 ] ], [ [ 622342.155013329931535, 7091282.925658674910665 ], [ 620210.474434072617441, 7091302.948961317539215 ], [ 620328.85362373793032, 7090367.845022120513022 ], [ 623526.292160060605966, 7090337.638343002647161 ], [ 623289.741812818218023, 7092207.896420707926154 ], [ 622223.868908473057672, 7092218.026875218376517 ], [ 622342.155013329931535, 7091282.925658674910665 ] ], [ [ 637976.643466275651008, 7093927.34664985910058 ], [ 637858.894446355407126, 7094862.561654422432184 ], [ 636792.89675445202738, 7094873.883465972729027 ], [ 636910.674447004683316, 7093938.682066762819886 ], [ 637976.643466275651008, 7093927.34664985910058 ] ], [ [ 595458.862468477804214, 7093377.440597848966718 ], [ 595339.929315844317898, 7094312.162040740251541 ], [ 594274.059056802652776, 7094319.979794145561755 ], [ 594393.020964165218174, 7093385.270849230699241 ], [ 595458.862468477804214, 7093377.440597848966718 ] ], [ [ 639042.615419161273167, 7093915.923263339325786 ], [ 639160.371208913857117, 7092980.665360644459724 ], [ 641292.266648226301186, 7092957.527302069589496 ], [ 641174.568216435611248, 7093892.812575307674706 ], [ 639042.615419161273167, 7093915.923263339325786 ] ], [ [ 641645.574448158964515, 7090151.495633682236075 ], [ 643777.309720579301938, 7090127.922998838126659 ], [ 643306.53302014619112, 7093869.349990267306566 ], [ 642240.549106153892353, 7093881.12527069542557 ], [ 642358.218861397937872, 7092945.82627022638917 ], [ 641292.266648226301186, 7092957.527302069589496 ], [ 641645.574448158964515, 7090151.495633682236075 ] ], [ [ 613224.207548368955031, 7087630.03384992107749 ], [ 612158.503428096184507, 7087639.349247144535184 ], [ 612277.255430514225736, 7086704.233560611493886 ], [ 613342.930753162479959, 7086694.905148819088936 ], [ 613224.207548368955031, 7087630.03384992107749 ] ], [ [ 611211.582489447668195, 7086713.47381383087486 ], [ 611449.251223853905685, 7084843.18108138255775 ], [ 612514.866534750210121, 7084833.914824854582548 ], [ 612277.255430514225736, 7086704.233560611493886 ], [ 611211.582489447668195, 7086713.47381383087486 ] ] ], [ [ [ 586096.982688678312115, 7116780.667666316963732 ], [ 586215.22568108944688, 7115846.708101009018719 ], [ 585148.708344314713031, 7115853.717505743727088 ], [ 585267.015827292110771, 7114919.741562587209046 ], [ 583134.043660391122103, 7114933.522685617208481 ], [ 582897.350564497639425, 7116801.397878471761942 ], [ 581830.81010329653509, 7116808.133468257263303 ], [ 581594.203971666633151, 7118675.870924290269613 ], [ 582660.801449011196382, 7118669.159322928637266 ], [ 582779.058008510852233, 7117735.292812433093786 ], [ 583845.628755806945264, 7117728.482009807601571 ], [ 583963.892800571280532, 7116794.575048834085464 ], [ 586096.982688678312115, 7116780.667666316963732 ] ] ], [ [ [ 593686.590258143492974, 7124192.980338726192713 ], [ 592619.801376015413553, 7124200.577448755502701 ], [ 592384.396579257911071, 7126068.12636448815465 ], [ 593451.242268266389146, 7126060.553698637522757 ], [ 593686.590258143492974, 7124192.980338726192713 ] ] ], [ [ [ 599148.197693810448982, 7131615.772051963955164 ], [ 600215.228001475217752, 7131607.664829919114709 ], [ 600098.021476457826793, 7132541.3245406486094 ], [ 601165.082250132225454, 7132533.142878290265799 ], [ 601047.939857920864597, 7133466.786568280309439 ], [ 603182.124552570981905, 7133450.187694407999516 ], [ 603416.331949471263215, 7131582.822288329713047 ], [ 602349.295106354635209, 7131591.189949210733175 ], [ 602583.702348644146696, 7129723.735725132748485 ], [ 599382.774892002227716, 7129748.392145341262221 ], [ 599148.197693810448982, 7131615.772051963955164 ] ] ], [ [ [ 610901.937783550471067, 7139915.907037098892033 ], [ 608767.321082341833971, 7139933.717891337350011 ], [ 608534.096652776934206, 7141800.722169311717153 ], [ 610668.826132122427225, 7141782.961489064618945 ], [ 610901.937783550471067, 7139915.907037098892033 ] ] ], [ [ [ 592306.73063891986385, 7152179.970686884596944 ], [ 593374.373212478938513, 7152172.477549281902611 ], [ 593490.939353276742622, 7151239.459405198693275 ], [ 591355.712413028697483, 7151254.383513452485204 ], [ 591239.090063187293708, 7152187.377631230279803 ], [ 590171.451462172437459, 7152194.698383316397667 ], [ 590404.788309368304908, 7150328.706047356128693 ], [ 589337.207889149081893, 7150335.964504868723452 ], [ 588987.172190237906761, 7153134.875127150677145 ], [ 586851.848449554760009, 7153149.061894902959466 ], [ 586618.558695822837763, 7155014.814745405688882 ], [ 588753.994783337460831, 7155000.675487315282226 ], [ 588870.565513305249624, 7154067.789303723722696 ], [ 591005.953135825111531, 7154053.281762214377522 ], [ 591122.503636996028945, 7153120.343709656968713 ], [ 592190.172307939967141, 7153112.948754815384746 ], [ 592306.73063891986385, 7152179.970686884596944 ] ] ], [ [ [ 608950.679955559317023, 7164170.08841859549284 ], [ 607882.638260741718113, 7164178.799526188522577 ], [ 607766.99404970696196, 7165111.607787842862308 ], [ 608835.063673514872789, 7165102.909017599187791 ], [ 608950.679955559317023, 7164170.08841859549284 ] ] ], [ [ [ 583085.740908128791489, 7166220.499706150963902 ], [ 580949.647098312270828, 7166233.669376950711012 ], [ 581065.954132333747111, 7165301.188264837488532 ], [ 579997.93784749682527, 7165307.656052600592375 ], [ 580114.308886047219858, 7164375.15877952054143 ], [ 579046.322321123094298, 7164381.552358403801918 ], [ 579279.228492422844283, 7162516.497665207833052 ], [ 578211.299642848898657, 7162522.828566566109657 ], [ 578094.800531568587758, 7163455.358227289281785 ], [ 577026.845373621676117, 7163461.591704239137471 ], [ 576793.899329385138117, 7165326.544655803591013 ], [ 577861.910469228634611, 7165320.334247227758169 ], [ 577629.164629449369386, 7167185.199287606403232 ], [ 578697.233397834002972, 7167178.926172262057662 ], [ 578464.687687058118172, 7169043.703386812470853 ], [ 580600.942158876219764, 7169030.946203889325261 ], [ 580717.141110240481794, 7168098.548333110287786 ], [ 581785.243027815711685, 7168092.029614822939038 ], [ 581901.450061223702505, 7167159.59239852335304 ], [ 582969.525812501320615, 7167152.97632847353816 ], [ 583085.740908128791489, 7166220.499706150963902 ] ] ], [ [ [ 607651.385606775875203, 7166044.388034055940807 ], [ 607766.99404970696196, 7165111.607787842862308 ], [ 605630.861803665058687, 7165128.747868284583092 ], [ 605515.197517724707723, 7166061.503542791120708 ], [ 607651.385606775875203, 7166044.388034055940807 ] ] ], [ [ [ 603263.33427603088785, 7167010.97914169728756 ], [ 602195.220282212481834, 7167019.224454551935196 ], [ 602310.932525873417035, 7166086.533382154069841 ], [ 595902.461954104946926, 7166134.276845860294998 ], [ 596018.377627248177305, 7165201.630364187061787 ], [ 592814.254624125314876, 7165224.379942553117871 ], [ 592698.255120595335029, 7166156.990528251975775 ], [ 590562.127343907370232, 7166171.704094935208559 ], [ 590446.107877514674328, 7167104.26304192468524 ], [ 589378.019012172939256, 7167111.47931756451726 ], [ 589494.066419616690837, 7166178.932214803993702 ], [ 588426.007440409157425, 7166186.074560326524079 ], [ 588077.889257546281442, 7168983.596988920122385 ], [ 589146.032035067328252, 7168976.490063555538654 ], [ 589030.092468116665259, 7169908.953733569011092 ], [ 590098.26509503624402, 7169901.772932704538107 ], [ 590330.124346333323047, 7168036.794154949486256 ], [ 591398.243106807931326, 7168029.503994276747108 ], [ 591514.198709178133868, 7167096.961018819361925 ], [ 592582.291530384332873, 7167089.573247266933322 ], [ 592466.363854855997488, 7168022.128113010898232 ], [ 596738.86718735366594, 7167991.767361933365464 ], [ 596507.342838238342665, 7169856.889150960370898 ], [ 597575.529675983358175, 7169849.108681807294488 ], [ 597344.204600072233006, 7171714.143055938184261 ], [ 603753.705518405768089, 7171665.806232599541545 ], [ 603869.182905997498892, 7170733.230438182130456 ], [ 602800.955106244771741, 7170741.512781714089215 ], [ 602916.496175893698819, 7169808.921249429695308 ], [ 601848.298490276909433, 7169817.13008438795805 ], [ 602079.5438608082477, 7167951.887586763128638 ], [ 603147.685762164415792, 7167943.654442861676216 ], [ 603263.33427603088785, 7167010.97914169728756 ] ], [ [ 600895.735682376543991, 7168892.658073626458645 ], [ 600664.506195716909133, 7170757.820524174720049 ], [ 599596.285038441885263, 7170765.845925310626626 ], [ 599827.570296440506354, 7168900.707652918063104 ], [ 600895.735682376543991, 7168892.658073626458645 ] ] ], [ [ [ 612761.066600903868675, 7167865.698061840608716 ], [ 611692.903675488312729, 7167874.702836899086833 ], [ 611808.328996557625942, 7166941.929180467501283 ], [ 609672.066196317668073, 7166959.706263377331197 ], [ 609556.585088200750761, 7167892.455163698643446 ], [ 608488.429379870183766, 7167901.202717836946249 ], [ 608372.956137446919456, 7168833.911297236569226 ], [ 607304.774900477612391, 7168842.56081476341933 ], [ 607420.276030774693936, 7167909.864534050226212 ], [ 606352.125017685932107, 7167918.440613504499197 ], [ 606236.595997650874779, 7168851.124623414129019 ], [ 604100.245101477717981, 7168867.995118705555797 ], [ 603869.182905997498892, 7170733.230438182130456 ], [ 604937.41296641016379, 7170724.862444961443543 ], [ 604821.963441494852304, 7171657.450425477698445 ], [ 611231.559716654010117, 7171605.517460562288761 ], [ 611577.514085571514443, 7168807.448479652404785 ], [ 612645.704891474568285, 7168798.456114816479385 ], [ 612761.066600903868675, 7167865.698061840608716 ] ] ], [ [ [ 657510.086870538303629, 7048838.232182224281132 ], [ 657271.982460317667574, 7050711.843744546175003 ], [ 658336.665366320870817, 7050698.621862638741732 ], [ 658574.711478449520655, 7048824.981346603482962 ], [ 657510.086870538303629, 7048838.232182224281132 ] ] ], [ [ [ 659520.327890653745271, 7049748.490972474217415 ], [ 659401.351592931780033, 7050685.310700181871653 ], [ 658336.665366320870817, 7050698.621862638741732 ], [ 658217.695160004193895, 7051635.397044666111469 ], [ 659282.410518354270607, 7051622.100371794775128 ], [ 659163.504668497014791, 7052558.860001599416137 ], [ 661293.003669845871627, 7052532.027934037148952 ], [ 661649.652114873984829, 7049721.571715136989951 ], [ 659520.327890653745271, 7049748.490972474217415 ] ] ], [ [ [ 630644.517894949764013, 7059429.116791199892759 ], [ 630167.213127560680732, 7063173.557199150323868 ], [ 634427.183056437293999, 7063129.419205090031028 ], [ 634546.339806586038321, 7062193.298710949718952 ], [ 633481.372175115160644, 7062204.480280575342476 ], [ 633600.593449074309319, 7061268.343886159360409 ], [ 632535.657679380150512, 7061279.450280875898898 ], [ 632774.264808367355727, 7059407.115977821871638 ], [ 630644.517894949764013, 7059429.116791199892759 ] ] ], [ [ [ 634659.28166004398372, 7069670.272787533700466 ], [ 635724.486978313187137, 7069659.023573179729283 ], [ 635962.223374773515388, 7067787.112587951123714 ], [ 637027.373622742248699, 7067775.747144728899002 ], [ 637146.266031068749726, 7066839.733477924019098 ], [ 638211.390187349170446, 7066828.265474989078939 ], [ 638449.223356927512214, 7064956.121605827473104 ], [ 637384.157194196828641, 7064967.617264935746789 ], [ 637503.155945954844356, 7064031.514690513722599 ], [ 636438.121691645705141, 7064042.93533415812999 ], [ 636557.184912819764577, 7063106.816921025514603 ], [ 634427.183056437293999, 7063129.419205090031028 ], [ 634188.975981855415739, 7065001.571263883262873 ], [ 635254.033529098029248, 7064990.34209244325757 ], [ 635135.012214661459439, 7065926.387434532865882 ], [ 634069.925660459091887, 7065937.602856772020459 ], [ 633831.931457040715031, 7067809.577240075916052 ], [ 632766.789742357097566, 7067820.676451984792948 ], [ 632647.816886207903735, 7068756.60557970777154 ], [ 634778.161090195528232, 7068734.345823383890092 ], [ 634659.28166004398372, 7069670.272787533700466 ] ], [ [ 636200.101616602391005, 7065915.08321256749332 ], [ 636081.144765776465647, 7066851.112706081941724 ], [ 635016.026369020808488, 7066862.403160981833935 ], [ 635135.012214661459439, 7065926.387434532865882 ], [ 636200.101616602391005, 7065915.08321256749332 ] ] ], [ [ [ 645547.765057896496728, 7076093.380535591393709 ], [ 645311.244421378010884, 7077965.036257794126868 ], [ 647442.243702294537798, 7077940.749932805076241 ], [ 647560.428633862291463, 7077004.908914865925908 ], [ 648625.904093757970259, 7076992.619058882817626 ], [ 648744.095517556881532, 7076056.73444346152246 ], [ 650874.998177337693051, 7076031.861148175783455 ], [ 650993.167206527432427, 7075095.918787097558379 ], [ 652058.594445647438988, 7075083.33525039255619 ], [ 652176.769916229997762, 7074147.349129219539464 ], [ 651111.371551952790469, 7074159.946789932437241 ], [ 651229.611212075687945, 7073223.945142559707165 ], [ 649098.881815300206654, 7073248.902929911389947 ], [ 648980.584379862411879, 7074184.876393089070916 ], [ 647915.195527025964111, 7074197.208338868804276 ], [ 647796.904547760728747, 7075133.138131998479366 ], [ 644600.670003980281763, 7075169.560613850131631 ], [ 644482.327755906269886, 7076105.418879311531782 ], [ 645547.765057896496728, 7076093.380535591393709 ] ], [ [ 650045.976380667765625, 7074172.455877331085503 ], [ 649927.743158852681518, 7075108.41377848573029 ], [ 648862.32228010322433, 7075120.820226233452559 ], [ 648980.584379862411879, 7074184.876393089070916 ], [ 650045.976380667765625, 7074172.455877331085503 ] ] ], [ [ [ 650172.589542751666158, 7090055.09089931845665 ], [ 649106.70173150068149, 7090067.449820661917329 ], [ 648989.097970608621836, 7091002.919920538552105 ], [ 650055.014478632248938, 7090990.574952319264412 ], [ 650172.589542751666158, 7090055.09089931845665 ] ] ], [ [ [ 640821.685446699266322, 7096698.492742110043764 ], [ 639755.621586737688631, 7096710.051034662872553 ], [ 639638.036207307013683, 7097645.205593234859407 ], [ 640704.12870367616415, 7097633.660959978587925 ], [ 640821.685446699266322, 7096698.492742110043764 ] ] ], [ [ [ 651247.986997726606205, 7098448.658956605009735 ], [ 650181.834918912500143, 7098461.068356085568666 ], [ 650064.606496791122481, 7099396.302142911590636 ], [ 647932.25470599217806, 7099420.8296427000314 ], [ 647697.789523183251731, 7101291.153909265995026 ], [ 650896.493505388032645, 7101254.314186034724116 ], [ 651013.622677249601111, 7100319.125067682936788 ], [ 652079.835162210627459, 7100306.655701884068549 ], [ 652196.971072564017959, 7099371.42335962690413 ], [ 651130.787175200995989, 7099383.906662536785007 ], [ 651247.986997726606205, 7098448.658956605009735 ] ] ], [ [ [ 629944.287435930920765, 7115484.170326484367251 ], [ 631010.901934509514831, 7115473.494603937491775 ], [ 631362.256005854462273, 7112669.843231718987226 ], [ 629229.200558642623946, 7112691.186981499195099 ], [ 628994.815119499340653, 7114560.263707743957639 ], [ 630061.398384803207591, 7114549.662057667970657 ], [ 629944.287435930920765, 7115484.170326484367251 ] ] ], [ [ [ 615374.407169707934372, 7121220.435197682119906 ], [ 613240.913086912827566, 7121239.100632281973958 ], [ 613123.62505954108201, 7122173.212261099368334 ], [ 615257.175948281190358, 7122154.572427667677402 ], [ 615374.407169707934372, 7121220.435197682119906 ] ] ], [ [ [ 615139.980409370968118, 7123088.680996963754296 ], [ 614073.175348743563518, 7123098.031661479733884 ], [ 613955.987112448550761, 7124032.098788984119892 ], [ 615022.820554414647631, 7124022.760919296182692 ], [ 615139.980409370968118, 7123088.680996963754296 ] ] ], [ [ [ 625224.145785775384866, 7127661.144682282581925 ], [ 625340.879589876160026, 7126727.050120646134019 ], [ 624273.935405201045796, 7126737.219389706850052 ], [ 624157.173278965405189, 7127671.300916690379381 ], [ 625224.145785775384866, 7127661.144682282581925 ] ] ], [ [ [ 622157.161856671795249, 7135152.887859095819294 ], [ 621089.968429702566937, 7135162.766717314720154 ], [ 620973.470273248152807, 7136096.564926923252642 ], [ 622040.691932656103745, 7136086.698959093540907 ], [ 622157.161856671795249, 7135152.887859095819294 ] ] ], [ [ [ 634151.521328782429919, 7141564.751097604632378 ], [ 633084.097554065287113, 7141575.578383458778262 ], [ 632968.186654134886339, 7142509.33291732147336 ], [ 634035.638568171416409, 7142498.51878840662539 ], [ 634151.521328782429919, 7141564.751097604632378 ] ] ], [ [ [ 607998.318238492123783, 7163245.96323561295867 ], [ 609066.331994035630487, 7163237.239780995063484 ], [ 608950.679955559317023, 7164170.08841859549284 ], [ 612154.81933274876792, 7164143.439994281157851 ], [ 612270.387564491247758, 7163210.554148284718394 ], [ 613338.410933232284151, 7163201.487177092581987 ], [ 613453.986946958815679, 7162268.560781709849834 ], [ 617725.993516108836047, 7162231.383910774253309 ], [ 617841.493450539303012, 7161298.379220340400934 ], [ 621045.441307790577412, 7161269.556527062319219 ], [ 621160.893056263681501, 7160336.485714953392744 ], [ 622228.852950428263284, 7160326.693547677248716 ], [ 622113.429150357842445, 7161259.777070615440607 ], [ 623181.419643301400356, 7161249.911665965802968 ], [ 622835.445799167384394, 7164049.031274691224098 ], [ 623903.522738504456356, 7164039.118162272498012 ], [ 624018.783818459720351, 7163106.093737634830177 ], [ 627222.947146716993302, 7163075.800811897963285 ], [ 627568.692666852730326, 7160276.443042805418372 ], [ 628636.668821476981975, 7160266.134998634457588 ], [ 628982.650648014270701, 7157466.484219330362976 ], [ 640729.65536992601119, 7157346.989302976056933 ], [ 640614.600076691363938, 7158280.378343749791384 ], [ 642750.513773258426227, 7158257.559472525492311 ], [ 642865.513170770951547, 7157324.143918730318546 ], [ 643933.446705636219122, 7157312.59209649823606 ], [ 644048.453574441140518, 7156379.134800265543163 ], [ 645116.362275684601627, 7156367.483553132042289 ], [ 645576.63196905690711, 7152633.31621315702796 ], [ 640237.679116548970342, 7152690.977387608960271 ], [ 640352.975086407037452, 7151757.430926045402884 ], [ 637149.724039957625791, 7151791.032601749524474 ], [ 637380.590512623079121, 7149923.933594407513738 ], [ 638448.281796732335351, 7149912.792875936254859 ], [ 638679.234072196530178, 7148045.553481489419937 ], [ 637611.598894897848368, 7148056.720646617934108 ], [ 637727.15629851189442, 7147123.07141087949276 ], [ 634524.352741416543722, 7147156.094313675537705 ], [ 634640.029865813441575, 7146222.456127391196787 ], [ 635707.600028994376771, 7146211.521712123416364 ], [ 635939.004584668437019, 7144344.133437179028988 ], [ 633803.979569876566529, 7144365.968517284840345 ], [ 633919.791314719244838, 7143432.257923737168312 ], [ 631784.834096816019155, 7143453.773397486656904 ], [ 631900.73760990833398, 7142520.060528535395861 ], [ 630833.291412452468649, 7142530.701623492874205 ], [ 630949.25859609618783, 7141596.97331971116364 ], [ 633084.097554065287113, 7141575.578383458778262 ], [ 633316.025900638429448, 7139707.983623896725476 ], [ 632248.661310476134531, 7139718.750651491805911 ], [ 632132.65121818636544, 7140652.549169227480888 ], [ 627863.108482096809894, 7140694.698978407308459 ], [ 627979.231238203588873, 7139760.952775692567229 ], [ 624777.187742298701778, 7139791.695123003795743 ], [ 625009.709072679048404, 7137924.195064643397927 ], [ 623942.423034796956927, 7137934.295211181044579 ], [ 624175.143160655512474, 7136066.70692852512002 ], [ 623107.916220795479603, 7136076.746293406933546 ], [ 622991.510138315032236, 7137010.541768150404096 ], [ 620857.007748343748972, 7137030.334612577222288 ], [ 620973.470273248152807, 7136096.564926923252642 ], [ 616704.609463169705123, 7136135.161846091970801 ], [ 616937.867342579644173, 7134267.639493233524263 ], [ 615870.714975045877509, 7134277.097502917051315 ], [ 615987.42568260175176, 7133343.306335623376071 ], [ 614920.304073313018307, 7133352.69034194201231 ], [ 615037.078734036884271, 7132418.88341103028506 ], [ 612902.89946601819247, 7132437.416528260335326 ], [ 612669.272746997768991, 7134304.951061734929681 ], [ 611602.130219253362156, 7134314.062095433473587 ], [ 611835.813487186213024, 7132446.552889342419803 ], [ 610768.729914527619258, 7132455.602453714236617 ], [ 610885.653419413371012, 7131521.817772459238768 ], [ 607684.501795323332772, 7131548.483481527306139 ], [ 607450.520772975753061, 7133415.948824744671583 ], [ 608517.625551858218387, 7133407.172200223430991 ], [ 608167.007033707806841, 7136208.194580215960741 ], [ 610301.393201996805146, 7136190.456509766168892 ], [ 610067.939249782706611, 7138057.712927456945181 ], [ 611135.192356095882133, 7138048.739060183987021 ], [ 611018.547205390641466, 7138982.337246069684625 ], [ 612085.830924486857839, 7138973.28935931250453 ], [ 611969.249709915253334, 7139906.871750358492136 ], [ 613036.564050808083266, 7139897.749888920225203 ], [ 612920.046751295449212, 7140831.316507086157799 ], [ 611852.704215293633752, 7140840.4257503869012 ], [ 611736.194442036328837, 7141773.95137302018702 ], [ 612803.565162818296812, 7141764.85473807901144 ], [ 612687.119286792702042, 7142698.364595519378781 ], [ 614821.92439652455505, 7142679.937044916674495 ], [ 614589.252412409405224, 7144546.922196737490594 ], [ 613521.792319344356656, 7144556.153939288109541 ], [ 613056.764217579038814, 7148289.73368289321661 ], [ 617327.069475444615819, 7148252.490511308424175 ], [ 617559.287217388977297, 7146385.65612961910665 ], [ 616491.763373073888943, 7146395.121784780174494 ], [ 616956.739418859244324, 7142661.163515485823154 ], [ 619091.564538102946244, 7142642.043997107073665 ], [ 618742.947853053221479, 7145442.631645113229752 ], [ 620877.952095203567296, 7145423.242857575416565 ], [ 620994.065742713515647, 7144489.716480261646211 ], [ 622061.543641574447975, 7144479.879638656973839 ], [ 621829.40822632482741, 7146346.929627211764455 ], [ 622896.945001813117415, 7146337.032024640589952 ], [ 622665.008292426005937, 7148203.994087737053633 ], [ 620529.824971445603296, 7148223.651660745032132 ], [ 620297.918418825254776, 7150090.449058402329683 ], [ 619230.274513301206753, 7150100.122844532132149 ], [ 619346.238046451588161, 7149166.751060839742422 ], [ 614008.197157698916271, 7149213.889149908907712 ], [ 613892.093210453167558, 7150147.197633368894458 ], [ 612824.464433170622215, 7150156.353771663270891 ], [ 612940.59646866004914, 7149223.057864543050528 ], [ 611872.998221986461431, 7149232.140281029976904 ], [ 612221.692935489118099, 7146432.120561949908733 ], [ 611154.181445677997544, 7146441.154301609843969 ], [ 611270.512590920785442, 7145507.770361828617752 ], [ 610203.031637807842344, 7145516.730253726243973 ], [ 610435.857413112185895, 7143649.902524998411536 ], [ 608301.015238228719682, 7143667.613109428435564 ], [ 608068.076849955599755, 7145534.390820447355509 ], [ 609135.553065172862262, 7145525.603739533573389 ], [ 609019.165648092515767, 7146458.962643940001726 ], [ 603681.666972919832915, 7146501.971922809258103 ], [ 603798.195102085708641, 7145568.675118702463806 ], [ 601663.267773126019165, 7145585.298868723213673 ], [ 601430.134741490124725, 7147451.81497910618782 ], [ 602497.653586000436917, 7147443.570910342037678 ], [ 602381.168934877845459, 7148376.798956048674881 ], [ 603448.7181220917264, 7148368.480861997231841 ], [ 603332.29740322032012, 7149301.69302418269217 ], [ 604399.876942128525116, 7149293.300949750468135 ], [ 604283.520134400459938, 7150226.497250366955996 ], [ 605351.130034014000557, 7150218.0312404576689 ], [ 605234.837116330512799, 7151151.211701467633247 ], [ 606302.477385681355372, 7151142.67180097848177 ], [ 606070.055067715118639, 7153008.972912263125181 ], [ 611408.572076287586242, 7152965.10426270775497 ], [ 611292.554859768599272, 7153898.27469789981842 ], [ 612360.293453682214022, 7153889.254926281049848 ], [ 612012.540279033011757, 7156688.634574365802109 ], [ 614148.19294257229194, 7156670.411745430901647 ], [ 614032.402674926561303, 7157603.506969580426812 ], [ 612964.547113748732954, 7157612.648895709775388 ], [ 612848.76455791736953, 7158545.703431176021695 ], [ 610713.004766774945892, 7158563.704189949668944 ], [ 610597.201955900411122, 7159496.705646323040128 ], [ 609529.297684413846582, 7159505.564574778079987 ], [ 609413.502634134842083, 7160438.525501703843474 ], [ 608345.572758132475428, 7160447.286055493168533 ], [ 607998.318238492123783, 7163245.96323561295867 ] ], [ [ 623709.845322483684868, 7139801.769389836117625 ], [ 622642.505570383858867, 7139811.757067806087434 ], [ 622875.139668129035272, 7137944.30871301330626 ], [ 623942.423034796956927, 7137934.295211181044579 ], [ 623709.845322483684868, 7139801.769389836117625 ] ], [ [ 622410.013939035707153, 7141679.091467138379812 ], [ 623477.410035206819884, 7141669.129573877900839 ], [ 623245.117184440605342, 7143536.375872611999512 ], [ 624312.572244040318765, 7143526.353247750550508 ], [ 624196.507370037259534, 7144459.946610309183598 ], [ 622061.543641574447975, 7144479.879638656973839 ], [ 622410.013939035707153, 7141679.091467138379812 ] ], [ [ 613916.648112761089578, 7158536.574021779000759 ], [ 613800.929257477982901, 7159469.61291556339711 ], [ 612733.017719266586937, 7159478.729817928746343 ], [ 612848.76455791736953, 7158545.703431176021695 ], [ 613916.648112761089578, 7158536.574021779000759 ] ], [ [ 613685.246110482490622, 7160402.623664463870227 ], [ 613569.598673175089061, 7161335.606282005086541 ], [ 612501.631199113791808, 7161344.698199403472245 ], [ 612617.306599198840559, 7160411.728069499135017 ], [ 613685.246110482490622, 7160402.623664463870227 ] ], [ [ 616168.121237072395161, 7157584.964967455714941 ], [ 616052.422656788723543, 7158518.057136807590723 ], [ 614984.534137998358347, 7158527.358590738847852 ], [ 615100.260708317044191, 7157594.278993912041187 ], [ 616168.121237072395161, 7157584.964967455714941 ] ], [ [ 619371.718027046765201, 7157556.506570735946298 ], [ 619256.103406067937613, 7158489.636625066399574 ], [ 617120.313692290568724, 7158508.669658731669188 ], [ 617235.984284344129264, 7157575.56488895509392 ], [ 619371.718027046765201, 7157556.506570735946298 ] ], [ [ 630281.322117526899092, 7155589.450144362635911 ], [ 629213.483007357805036, 7155599.908849517814815 ], [ 629328.952525235596113, 7154666.578668734058738 ], [ 630396.763637331547216, 7154656.106999080628157 ], [ 630281.322117526899092, 7155589.450144362635911 ] ], [ [ 627193.338682415080257, 7154687.263554053381085 ], [ 627308.899779124534689, 7153753.930889235809445 ], [ 629444.457600006484427, 7153733.220139224082232 ], [ 629328.952525235596113, 7154666.578668734058738 ], [ 627193.338682415080257, 7154687.263554053381085 ] ], [ [ 631464.577574060996994, 7154645.549176216125488 ], [ 631580.026633756933734, 7153712.164670327678323 ], [ 633715.607065375661477, 7153690.764471184462309 ], [ 633600.214013948221691, 7154624.175065146759152 ], [ 631464.577574060996994, 7154645.549176216125488 ] ], [ [ 633946.499709306866862, 7151823.858065783977509 ], [ 635014.238222953630611, 7151813.002487700432539 ], [ 634783.401613197755069, 7153679.935094165615737 ], [ 633715.607065375661477, 7153690.764471184462309 ], [ 633946.499709306866862, 7151823.858065783977509 ] ], [ [ 635245.21683654980734, 7149945.956128034740686 ], [ 636312.902200261130929, 7149934.988011276349425 ], [ 636081.979658800177276, 7151802.060666847042739 ], [ 635014.238222953630611, 7151813.002487700432539 ], [ 635245.21683654980734, 7149945.956128034740686 ] ], [ [ 618882.597837211797014, 7152900.068333613686264 ], [ 618766.776924361940473, 7153833.32692127302289 ], [ 617699.023384202504531, 7153842.863663522526622 ], [ 617814.872335019172169, 7152909.617752776481211 ], [ 618882.597837211797014, 7152900.068333613686264 ] ], [ [ 624336.98077220027335, 7151917.677581794559956 ], [ 624221.26441691222135, 7152851.028299918398261 ], [ 623153.525814750930294, 7152861.008702768012881 ], [ 623269.270209464128129, 7151927.670810831710696 ], [ 624336.98077220027335, 7151917.677581794559956 ] ], [ [ 625289.005708418553695, 7152840.961696338839829 ], [ 625404.69402603036724, 7151907.598124111071229 ], [ 626472.409994065645151, 7151897.432436423376203 ], [ 626588.105859304312617, 7150964.02762181032449 ], [ 628723.489943115506321, 7150943.411683650687337 ], [ 628492.24595018022228, 7152810.244667572900653 ], [ 625289.005708418553695, 7152840.961696338839829 ] ], [ [ 628814.430939864716493, 7141618.022084948606789 ], [ 628698.407465694937855, 7142551.72427036985755 ], [ 627630.969670315156691, 7142562.105825122445822 ], [ 627747.021292320336215, 7141628.41665699146688 ], [ 628814.430939864716493, 7141618.022084948606789 ] ], [ [ 620740.580856422660872, 7137964.075787950307131 ], [ 620624.189598916796967, 7138897.788466712459922 ], [ 619556.885904695256613, 7138907.529209405183792 ], [ 619673.305365378735587, 7137973.829363716766238 ], [ 620740.580856422660872, 7137964.075787950307131 ] ] ], [ [ [ 629589.419557012035511, 7161188.914250398054719 ], [ 629704.647767287329771, 7160255.740970177575946 ], [ 628636.668821476981975, 7160266.134998634457588 ], [ 628521.41267500538379, 7161199.295372646301985 ], [ 629589.419557012035511, 7161188.914250398054719 ] ] ], [ [ [ 614406.436763258767314, 7163192.334323721937835 ], [ 613338.410933232284151, 7163201.487177092581987 ], [ 613222.870633395737968, 7164134.385481663048267 ], [ 614290.924393503693864, 7164125.245114761404693 ], [ 614406.436763258767314, 7163192.334323721937835 ] ] ], [ [ [ 652857.201535414205864, 7162805.622786971740425 ], [ 651789.071650899015367, 7162817.868312239646912 ], [ 651560.035172590054572, 7164684.570689273998141 ], [ 653696.409713849658147, 7164660.047706140205264 ], [ 653810.854564820881933, 7163726.683738895691931 ], [ 654879.01897761458531, 7163714.279888205230236 ], [ 655107.958906805492006, 7161847.439498467370868 ], [ 652971.744910152861848, 7161872.215444174595177 ], [ 652857.201535414205864, 7162805.622786971740425 ] ] ] ] } }
]
}
