{
"type": "FeatureCollection",
"name": "urban-2010",
"crs": { "type": "name", "properties": { "name": "urn:ogc:def:crs:EPSG::32719" } },
"features": [
{ "type": "Feature", "properties": { "year": 2010 }, "geometry": { "type": "MultiPolygon", "coordinates": [ [ [ [ 315970.871490837307647, 6268155.272830354981124 ], [ 315575.323628546844702, 6267185.364978894591331 ], [ 314538.796909333206713, 6267165.311841553077102 ], [ 314934.306696808780544, 6268135.268426304683089 ], [ 315970.871490837307647, 6268155.272830354981124 ] ] ], [ [ [ 314293.11903522873763, 6269085.095580335706472 ], [ 313897.739174723392352, 6268115.151534015312791 ], [ 312861.168909328174777, 6268094.922151045873761 ], [ 313256.510714699456003, 6269064.914953244850039 ], [ 314293.11903522873763, 6269085.095580335706472 ] ] ], [ [ [ 321944.855861018353608, 6270192.753758038394153 ], [ 321153.655074114562012, 6268253.607611417770386 ], [ 320117.103691519238055, 6268234.165612457320094 ], [ 320908.228320597554557, 6270173.408825051039457 ], [ 321944.855861018353608, 6270192.753758038394153 ] ] ], [ [ [ 294991.641022440977395, 6269653.243395288474858 ], [ 294597.075152423698455, 6268682.429911676794291 ], [ 295633.735387367545627, 6268704.635275531560183 ], [ 295239.039890360727441, 6267733.809136629104614 ], [ 293165.792350804782473, 6267689.187301190569997 ], [ 293560.411888372618705, 6268660.112037594430149 ], [ 292523.745579956972506, 6268637.681650578975677 ], [ 292918.235521406750195, 6269608.593718394637108 ], [ 291881.52819504996296, 6269586.100151930004358 ], [ 292670.157306772191077, 6271527.837002263404429 ], [ 293706.940515402820893, 6271550.232004417106509 ], [ 294101.155557057878468, 6272520.958314901217818 ], [ 296174.788706453400664, 6272565.312671462073922 ], [ 295780.497804888524115, 6271594.684729074127972 ], [ 297854.043025918246713, 6271638.687765480950475 ], [ 297065.034423015022185, 6269697.443148832768202 ], [ 294991.641022440977395, 6269653.243395288474858 ] ] ], [ [ [ 324413.641686807619408, 6271200.491123826242983 ], [ 324018.103073068079539, 6270231.106380168348551 ], [ 321944.855861018353608, 6270192.753758038394153 ], [ 322340.318338001146913, 6271162.23537209816277 ], [ 324413.641686807619408, 6271200.491123826242983 ] ] ], [ [ [ 299285.215870511485264, 6272631.001267870888114 ], [ 298890.811148982029408, 6271660.520657273009419 ], [ 297854.043025918246713, 6271638.687765480950475 ], [ 298248.409803432819899, 6272609.217457301914692 ], [ 299285.215870511485264, 6272631.001267870888114 ] ] ], [ [ [ 329253.681844776670914, 6278021.614325529895723 ], [ 328463.648450620239601, 6276083.826690173707902 ], [ 327426.803024788969196, 6276065.221039132215083 ], [ 328216.760406800545752, 6278003.104932388290763 ], [ 329253.681844776670914, 6278021.614325529895723 ] ] ], [ [ [ 326111.77545903425198, 6298155.138502163812518 ], [ 325719.153737708227709, 6297187.012287769466639 ], [ 324681.446721605607308, 6297168.229990277439356 ], [ 325074.030724989366718, 6298136.403887636959553 ], [ 326111.77545903425198, 6298155.138502163812518 ] ] ], [ [ [ 332478.33893958455883, 6301150.444454389624298 ], [ 332085.804801013611723, 6300182.735229094512761 ], [ 331047.997519959928468, 6300164.653480911627412 ], [ 331440.493952000862919, 6301132.41013677790761 ], [ 332478.33893958455883, 6301150.444454389624298 ] ] ], [ [ [ 329757.125330683891661, 6302063.798952959477901 ], [ 329364.796354721067473, 6301096.007035994902253 ], [ 327289.088490681257099, 6301059.157966330647469 ], [ 327681.342106667987537, 6302027.044877620413899 ], [ 329757.125330683891661, 6302063.798952959477901 ] ] ], [ [ [ 324567.647780498606153, 6301971.077752452343702 ], [ 324959.69638361298712, 6302939.047553963959217 ], [ 323921.755365951918066, 6302920.216492922976613 ], [ 324313.674320116464514, 6303888.174076684750617 ], [ 325351.652975810226053, 6303906.957580191083252 ], [ 325743.517551957280375, 6304874.807875924743712 ], [ 327819.542251252918504, 6304911.945680670440197 ], [ 327427.602408155449666, 6303944.190341556444764 ], [ 328465.573216046206653, 6303962.639603953808546 ], [ 327681.342106667987537, 6302027.044877620413899 ], [ 324567.647780498606153, 6301971.077752452343702 ] ] ], [ [ [ 333810.643396830186248, 6314621.975387062877417 ], [ 333419.549153709900565, 6313654.908321782946587 ], [ 332381.204984396230429, 6313637.042930034920573 ], [ 332772.261693730368279, 6314604.157047107815742 ], [ 333810.643396830186248, 6314621.975387062877417 ] ] ], [ [ [ 333810.643396830186248, 6314621.975387062877417 ], [ 334201.645523664134089, 6315588.983353581279516 ], [ 336278.476444019586779, 6315624.192830903455615 ], [ 335104.968476668815129, 6312723.273639335297048 ], [ 334066.666894713882357, 6312705.583447572775185 ], [ 334849.022579753422178, 6314639.682640654966235 ], [ 333810.643396830186248, 6314621.975387062877417 ] ] ], [ [ [ 327580.314825137844309, 6314513.398975304327905 ], [ 327189.445717936265282, 6313546.049162148497999 ], [ 328227.80274627142353, 6313564.470164326950908 ], [ 327836.804071541759185, 6312597.108229048550129 ], [ 325760.162436753744259, 6312560.060601098462939 ], [ 326151.086070644552819, 6313527.517031192779541 ], [ 324074.358856332488358, 6313490.119373890571296 ], [ 324465.115455338906031, 6314457.610954586416483 ], [ 323426.710362941608764, 6314438.792737867683172 ], [ 323817.337462346826214, 6315406.272181070409715 ], [ 322778.892214040504768, 6315387.390163695439696 ], [ 323559.795451815298293, 6317322.265383264049888 ], [ 325636.833131504419725, 6317359.729376302100718 ], [ 325246.352598012890667, 6316392.415911323390901 ], [ 327323.304749030503444, 6316429.530157828703523 ], [ 326541.917670710245147, 6314494.914071027189493 ], [ 327580.314825137844309, 6314513.398975304327905 ] ] ], [ [ [ 333171.454667572164908, 6323252.6740403752774 ], [ 332000.832423265324906, 6320352.325686484575272 ], [ 329923.596241321531124, 6320316.253888549283147 ], [ 331093.993933032732457, 6323216.883648533374071 ], [ 333171.454667572164908, 6323252.6740403752774 ] ] ], [ [ [ 342129.451669772271998, 6322441.941287782043219 ], [ 342519.903926926432177, 6323408.244820532388985 ], [ 341481.197155603847932, 6323391.402461756952107 ], [ 343041.934251871076412, 6327256.217788584530354 ], [ 344080.790743420133367, 6327272.874140988104045 ], [ 344470.78186975652352, 6328238.885488219559193 ], [ 347587.449350666487589, 6328288.051300171762705 ], [ 346416.862462613498792, 6325390.259684461168945 ], [ 345378.087935883668251, 6325373.842660358175635 ], [ 344206.783098016865551, 6322475.386657148599625 ], [ 342129.451669772271998, 6322441.941287782043219 ] ] ], [ [ [ 341186.706987853744067, 6249357.28187157958746 ], [ 340788.09478885831777, 6248387.706889944151044 ], [ 338716.731016058125533, 6248352.759211821481586 ], [ 339115.26634450443089, 6249322.431262264028192 ], [ 341186.706987853744067, 6249357.28187157958746 ] ] ], [ [ [ 324614.912624821998179, 6249065.819762915372849 ], [ 325012.818389161606319, 6250036.112992879934609 ], [ 322941.222670006216504, 6249997.743749637156725 ], [ 323338.959787238447461, 6250968.073311754502356 ], [ 325410.632194342673756, 6251006.344696015119553 ], [ 325808.354035041702446, 6251976.514918576925993 ], [ 326844.224751176545396, 6251995.432297864928842 ], [ 326446.464571493910626, 6251025.310924706980586 ], [ 327482.294417819590308, 6251044.164180835708976 ], [ 326686.421415890217759, 6249103.834804103709757 ], [ 324614.912624821998179, 6249065.819762915372849 ] ] ], [ [ [ 327482.294417819590308, 6251044.164180835708976 ], [ 327880.092940734350123, 6252014.236733835190535 ], [ 329951.821800490550231, 6252051.506784910336137 ], [ 329155.979346408566926, 6250111.495448339730501 ], [ 328120.192879547073971, 6250092.819332630373538 ], [ 328518.121748405275866, 6251062.90446668304503 ], [ 327482.294417819590308, 6251044.164180835708976 ] ] ], [ [ [ 323736.604962668556254, 6251938.341320881620049 ], [ 323338.959787238447461, 6250968.073311754502356 ], [ 322303.119727120967582, 6250948.768151558935642 ], [ 322700.726576247368939, 6251919.085097858682275 ], [ 323736.604962668556254, 6251938.341320881620049 ] ] ], [ [ [ 340866.441697695758194, 6256091.172568740323186 ], [ 340468.589613490621559, 6255121.878689771518111 ], [ 339432.633115699281916, 6255104.461762835271657 ], [ 339830.446854245907161, 6256073.803996130824089 ], [ 340866.441697695758194, 6256091.172568740323186 ] ] ], [ [ [ 336240.004739618045278, 6259862.997315189801157 ], [ 335842.750975171918981, 6258893.656584988348186 ], [ 334806.626955415180419, 6258875.756538002751768 ], [ 335203.842445348389447, 6259845.145653296262026 ], [ 336240.004739618045278, 6259862.997315189801157 ] ] ], [ [ [ 340054.629784024611581, 6266664.08369773812592 ], [ 341091.054959614120889, 6266681.372690375894308 ], [ 340694.369535817066208, 6265712.552871566265821 ], [ 339657.982565043959767, 6265695.215804170817137 ], [ 339261.243212714674883, 6264726.287407582625747 ], [ 340297.591967488639057, 6264743.672585686668754 ], [ 339900.722259808098897, 6263774.731787109747529 ], [ 340937.030433988722507, 6263792.052536530420184 ], [ 340540.030349348264281, 6262823.09933309815824 ], [ 342612.563199528492987, 6262857.499333776533604 ], [ 341818.133550117549021, 6260919.603832067921758 ], [ 340781.944825538957957, 6260902.363833535462618 ], [ 341179.167454927286599, 6261871.390022444538772 ], [ 339106.706447134725749, 6261836.668469211086631 ], [ 338709.560352529049851, 6260867.545858472585678 ], [ 339745.753764737630263, 6260885.011176371015608 ], [ 339348.477275153854862, 6259915.876131632365286 ], [ 340384.630055160378106, 6259933.277021149173379 ], [ 339987.223148987279274, 6258964.129539525136352 ], [ 343095.552603511838242, 6259015.800719890743494 ], [ 342697.938630700460635, 6258046.737261576578021 ], [ 340625.797947590239346, 6258012.306059095077217 ], [ 339830.446854245907161, 6256073.803996130824089 ], [ 338794.449667752254754, 6256056.322621174156666 ], [ 337600.847151993075386, 6253147.968029307201505 ], [ 339672.609053736145142, 6253183.108407003805041 ], [ 338876.260007010307163, 6251244.094451474025846 ], [ 339912.060660022427328, 6251261.592210793867707 ], [ 340310.319636616157368, 6252231.081200994551182 ], [ 341346.156354261795059, 6252248.417575849220157 ], [ 340947.858978318166919, 6251278.97702612541616 ], [ 344055.240075774199795, 6251330.453829158097506 ], [ 343656.735307973925956, 6250361.097596464678645 ], [ 339513.709560906630941, 6250292.042246566154063 ], [ 339115.26634450443089, 6249322.431262264028192 ], [ 338079.542515187233221, 6249304.83645515050739 ], [ 338477.947314115008339, 6250274.495981435291469 ], [ 337442.182713158428669, 6250256.836741020902991 ], [ 337840.457004192227032, 6251226.48374605178833 ], [ 336804.651636482565664, 6251208.76009239628911 ], [ 337202.795441244379617, 6252178.394579086452723 ], [ 335131.100791335455142, 6252142.705562087707222 ], [ 334733.033746045257431, 6251172.973931797780097 ], [ 333697.221193143166602, 6251154.911420527845621 ], [ 334493.186477029928938, 6253094.410767359659076 ], [ 336564.962651758221909, 6253130.228503525257111 ], [ 337360.713062711758539, 6255069.289412289857864 ], [ 335288.783499010256492, 6255033.665718636475503 ], [ 336481.48844900005497, 6257942.090709009207785 ], [ 335445.405125034507364, 6257924.254995543509722 ], [ 335842.750975171918981, 6258893.656584988348186 ], [ 336878.872589242761023, 6258911.443906486034393 ], [ 338070.472407531400677, 6261819.138743123970926 ], [ 337034.235990530112758, 6261801.496381231583655 ], [ 337828.098836026212666, 6263739.75256008002907 ], [ 336791.783555994566996, 6263722.09407823253423 ], [ 337585.20152882754337, 6265660.204109819605947 ], [ 334476.012009320606012, 6265606.842637457884848 ], [ 335268.83244855934754, 6267544.999409940093756 ], [ 337341.78058989928104, 6267580.493498982861638 ], [ 338134.38530630338937, 6269518.215440830215812 ], [ 339170.932101489626803, 6269535.697638671845198 ], [ 338774.637642917572521, 6268566.914959214627743 ], [ 340847.647801232640631, 6268601.638158206827939 ], [ 340054.629784024611581, 6266664.08369773812592 ] ], [ [ 336945.340063884388655, 6266611.541771420277655 ], [ 337981.772351403837092, 6266629.168240377679467 ], [ 338378.251057829707861, 6267598.071841642260551 ], [ 337341.78058989928104, 6267580.493498982861638 ], [ 336945.340063884388655, 6266611.541771420277655 ] ] ], [ [ [ 325788.488715499057434, 6264490.037410696037114 ], [ 324995.726891116413753, 6262550.741332648321986 ], [ 321886.798433862742968, 6262493.228819336742163 ], [ 322283.110813874518499, 6263463.05325173586607 ], [ 321246.757950852857903, 6263443.705811549909413 ], [ 322435.028984642471187, 6266352.958091013133526 ], [ 324507.960966108017601, 6266391.248802961781621 ], [ 324111.88629542873241, 6265421.656286210753024 ], [ 325148.310262829239946, 6265440.681369109079242 ], [ 324752.105476378288586, 6264471.07635835558176 ], [ 325788.488715499057434, 6264490.037410696037114 ] ] ], [ [ [ 325788.488715499057434, 6264490.037410696037114 ], [ 326184.731657168944366, 6265459.593902006745338 ], [ 327221.150493675726466, 6265478.39388719946146 ], [ 327617.339596199220978, 6266447.840953612700105 ], [ 328653.794042626279406, 6266466.479968383908272 ], [ 327464.836253043729812, 6263558.101302228868008 ], [ 326428.496297968784347, 6263539.316904488019645 ], [ 326824.869392510852776, 6264508.88588609918952 ], [ 325788.488715499057434, 6264490.037410696037114 ] ] ], [ [ [ 357431.401422183145769, 6268863.234954750165343 ], [ 357034.327028242405504, 6267895.252482750453055 ], [ 358070.754856601706706, 6267910.694338081404567 ], [ 357673.549875276512466, 6266942.699601704254746 ], [ 356637.160312601306941, 6266927.210173238068819 ], [ 356239.901280338293873, 6265959.107980879954994 ], [ 355203.547878405777737, 6265943.458456227555871 ], [ 355600.768638476962224, 6266911.608286670409143 ], [ 354564.374837655748706, 6266895.893940111622214 ], [ 355358.46293410542421, 6268832.10911681689322 ], [ 354321.990498462284449, 6268816.377593174576759 ], [ 355115.6329279106576, 6270752.448455523699522 ], [ 356152.181812091905158, 6270768.084837805479765 ], [ 355755.368527945596725, 6269800.126886621117592 ], [ 358864.887815877445973, 6269846.504451193846762 ], [ 358467.867505155270919, 6268878.629272813908756 ], [ 357431.401422183145769, 6268863.234954750165343 ] ] ], [ [ [ 340999.86533229140332, 6271490.35571354161948 ], [ 340603.717002159974072, 6270521.741727249696851 ], [ 339567.134428370627575, 6270504.419925549998879 ], [ 339963.244618392782286, 6271473.081865359097719 ], [ 340999.86533229140332, 6271490.35571354161948 ] ] ], [ [ [ 331327.517138977942523, 6278058.29659666493535 ], [ 330932.470441791112535, 6277089.529160887002945 ], [ 329895.592062352166977, 6277071.196057785302401 ], [ 330290.600750382523984, 6278040.011546210385859 ], [ 331327.517138977942523, 6278058.29659666493535 ] ] ], [ [ [ 332117.334362273686565, 6279995.650380279868841 ], [ 331722.471780866500922, 6279027.003654668107629 ], [ 330685.517394308059011, 6279008.766621058806777 ], [ 331080.341988937114365, 6279977.461327726952732 ], [ 332117.334362273686565, 6279995.650380279868841 ] ] ], [ [ [ 362980.746330567752011, 6282408.731935311108828 ], [ 363376.435293889488094, 6283375.82226300612092 ], [ 364413.473871558322571, 6283390.50781599804759 ], [ 364809.108511036552954, 6284357.492061759345233 ], [ 365846.183154306956567, 6284372.018715666607022 ], [ 364658.887719690101221, 6281471.029607044532895 ], [ 361548.000539797008969, 6281426.690833067521453 ], [ 361943.743804689496756, 6282393.887387805618346 ], [ 362980.746330567752011, 6282408.731935311108828 ] ] ], [ [ [ 333516.181407255353406, 6301168.36728641949594 ], [ 332478.33893958455883, 6301150.444454389624298 ], [ 332870.780988584738225, 6302118.094098593108356 ], [ 331832.898305566050112, 6302100.10717607755214 ], [ 332617.430756877060048, 6304035.322583949193358 ], [ 330541.507093366817571, 6303999.203903420828283 ], [ 331325.520569711807184, 6305934.370640745386481 ], [ 334439.628187091380823, 6305988.097758684307337 ], [ 335223.499116753635462, 6307922.743263764306903 ], [ 336261.605250990192872, 6307940.335278153419495 ], [ 336653.440153107279912, 6308907.521987413987517 ], [ 337691.581441174377687, 6308924.955633372068405 ], [ 338475.050037471228279, 6310859.057458195835352 ], [ 335360.393116664141417, 6310806.705157566815615 ], [ 335751.876405923569109, 6311773.808487217873335 ], [ 336790.135434394178446, 6311791.323406431823969 ], [ 337964.145164757501334, 6314692.137904807925224 ], [ 336925.773447989602573, 6314674.763897385448217 ], [ 337316.888170002202969, 6315641.630989085882902 ], [ 336278.476444019586779, 6315624.192830903455615 ], [ 336669.461486440035515, 6316591.047867868095636 ], [ 335631.009755535691511, 6316573.545579761266708 ], [ 336412.628381820919458, 6318507.172619465738535 ], [ 335374.09915608970914, 6318489.653103936463594 ], [ 335764.732767446897924, 6319456.425118618644774 ], [ 337841.863703327253461, 6319491.259518165141344 ], [ 337060.354380476521328, 6317557.843965229578316 ], [ 338098.841145879239775, 6317575.188370844349265 ], [ 338489.679389717872255, 6318541.878749428316951 ], [ 339528.201203416683711, 6318559.065368097275496 ], [ 339918.984774597687647, 6319525.650171640329063 ], [ 338880.425464149215259, 6319508.510312106460333 ], [ 339661.641084806178696, 6321441.597166461870074 ], [ 343816.163679079269059, 6321509.117717160843313 ], [ 344206.783098016865551, 6322475.386657148599625 ], [ 345245.445243981084786, 6322491.943082449026406 ], [ 345636.009900916833431, 6323458.10702146962285 ], [ 346674.707164980471134, 6323474.506136756390333 ], [ 345893.410644449992105, 6321542.212776444852352 ], [ 344854.788342913263477, 6321525.720679776743054 ], [ 343682.264224484679289, 6318626.702249527908862 ], [ 346797.786486399301793, 6318676.264895321801305 ], [ 347188.832662617554888, 6319642.523199141025543 ], [ 348227.372938093612902, 6319658.775657650083303 ], [ 348618.3643746629823, 6320624.92897979542613 ], [ 349656.939868848072365, 6320641.024059899151325 ], [ 349265.910905207041651, 6319674.917200108990073 ], [ 350304.446579737006687, 6319690.94782848469913 ], [ 348347.729778566921595, 6314859.769043367356062 ], [ 346271.031758835481014, 6314827.13133876118809 ], [ 346662.484511027985718, 6315793.577377288602293 ], [ 345624.0944347291952, 6315777.138601379469037 ], [ 345232.679259711061604, 6314810.645895477384329 ], [ 342117.607616521650925, 6314760.523177520371974 ], [ 341726.212941175326705, 6313793.831478428095579 ], [ 346917.799333378789015, 6313877.04768006876111 ], [ 346526.12448598339688, 6312910.530954778194427 ], [ 347564.397132386337034, 6312926.887601651251316 ], [ 346780.695445324061438, 6310993.771385511383414 ], [ 345742.498048393987119, 6310977.321273357607424 ], [ 346134.357389328302816, 6311943.95550062507391 ], [ 343019.638268222217448, 6311894.078527902252972 ], [ 343411.29253462475026, 6312860.794301465153694 ], [ 341334.7260664741043, 6312827.080918417312205 ], [ 340943.146997417381499, 6311860.271453187800944 ], [ 341981.393828961648978, 6311877.230567866936326 ], [ 341589.684963162173517, 6310910.409048757515848 ], [ 342627.891790481400676, 6310927.303875371813774 ], [ 342236.053106404957362, 6309960.470299549400806 ], [ 346388.706223897985183, 6310027.125126414000988 ], [ 345604.451050174189731, 6308093.656084639951587 ], [ 349756.765647293592338, 6308158.905796163715422 ], [ 348971.840003603952937, 6306225.575786142610013 ], [ 350009.837534917402081, 6306241.703604811802506 ], [ 349617.198587661492638, 6305274.99714511167258 ], [ 351693.11142496089451, 6305307.012404170818627 ], [ 352478.447921151120681, 6307240.179473824799061 ], [ 354554.502731974178459, 6307271.562606193125248 ], [ 355339.620831054751761, 6309204.308319551870227 ], [ 353263.415188868704718, 6309173.111694849096239 ], [ 354048.013188458280638, 6311105.809421468526125 ], [ 353009.83169051312143, 6311090.137482878752053 ], [ 353793.985068168258294, 6313022.694127490743995 ], [ 354832.241880353365559, 6313038.273007417097688 ], [ 354440.173700337298214, 6312072.070459937676787 ], [ 355478.390657021082006, 6312087.584720694459975 ], [ 355870.4964933632873, 6313053.740785488858819 ], [ 356908.748922912753187, 6313069.097463596612215 ], [ 356516.605425567599013, 6312102.987852472811937 ], [ 359631.236759429099038, 6312148.530492649413645 ], [ 359238.887864503543824, 6311182.501753723248839 ], [ 361315.222714863077272, 6311212.400619836524129 ], [ 360922.706030523346271, 6310246.4063093457371 ], [ 361960.832588867051527, 6310261.235371315851808 ], [ 361175.446575195412152, 6308329.164514921605587 ], [ 362213.495581662631594, 6308343.9751509539783 ], [ 362998.957059540902264, 6310275.953259211033583 ], [ 364037.079458231222816, 6310290.559974829666317 ], [ 362858.635396577534266, 6307392.644397400319576 ], [ 361820.626224733307026, 6307377.898593615740538 ], [ 361034.610299431253225, 6305445.570251706987619 ], [ 362072.543932241853327, 6305460.408957391045988 ], [ 360499.252164597273804, 6301595.236353948712349 ], [ 359461.469740788452327, 6301580.211420446634293 ], [ 358674.345186352613382, 6299647.18022223841399 ], [ 359712.051940099219792, 6299662.298481890931726 ], [ 358924.482207835768349, 6297729.125756359659135 ], [ 359962.111130206380039, 6297744.225936381146312 ], [ 358779.950124547700398, 6294844.166100373491645 ], [ 359817.463264006539248, 6294859.295028250664473 ], [ 358239.803801600937732, 6290991.911321759223938 ], [ 359277.163093909504823, 6291007.116057485342026 ], [ 358487.70327862969134, 6289073.164055483415723 ], [ 357450.419925498310477, 6289057.865387270227075 ], [ 356660.666672669816762, 6287123.582921972498298 ], [ 358735.079290451481938, 6287154.25654674321413 ], [ 357549.528789083124138, 6284252.671241139993072 ], [ 358586.617845101165585, 6284267.981468552723527 ], [ 358191.211605302407406, 6283300.714995054528117 ], [ 361302.352024752122816, 6283346.115261858329177 ], [ 360511.034051955735777, 6281411.687195566482842 ], [ 361548.000539797008969, 6281426.690833067521453 ], [ 361152.164893744047731, 6280459.435036471113563 ], [ 360115.236507815017831, 6280444.384268580004573 ], [ 359719.346598520583939, 6279477.022019155323505 ], [ 358682.454243292682804, 6279461.812001017853618 ], [ 358286.5100931575289, 6278494.343153407797217 ], [ 357249.65375501208473, 6278478.973789405077696 ], [ 356853.655386488593649, 6277511.398198158480227 ], [ 354780.012579692236613, 6277480.22843920905143 ], [ 354383.998142832075246, 6276512.498569382354617 ], [ 353347.211640733294189, 6276496.698047744110227 ], [ 353743.187954621273093, 6277464.475336039438844 ], [ 352706.361161293869372, 6277448.610081193968654 ], [ 351914.392491564387456, 6275512.900892604142427 ], [ 349840.884807134862058, 6275480.643884029239416 ], [ 350236.839036093093455, 6276448.623390621505678 ], [ 348163.2462309243856, 6276416.012689543887973 ], [ 348559.031998307560571, 6277384.027506330981851 ], [ 346485.354008040972985, 6277351.063258126378059 ], [ 347276.496511951088905, 6279287.103707986883819 ], [ 345202.657147589488886, 6279253.881246354430914 ], [ 344807.208131311228499, 6278285.795753566548228 ], [ 345844.090894557535648, 6278302.510647773742676 ], [ 345052.840113161713816, 6276366.255203856155276 ], [ 347126.446461682440713, 6276399.539054190739989 ], [ 345146.324855458922684, 6271558.3276635594666 ], [ 344109.713443942775484, 6271541.503188326954842 ], [ 345693.842634820728563, 6275414.783262921497226 ], [ 342583.537069522542879, 6275364.209455573000014 ], [ 342187.757382997253444, 6274395.836259745061398 ], [ 341151.022315707232337, 6274378.706056965515018 ], [ 339963.244618392782286, 6271473.081865359097719 ], [ 338926.621540664462373, 6271455.695668734610081 ], [ 338134.38530630338937, 6269518.215440830215812 ], [ 336061.284536823164672, 6269482.9138164203614 ], [ 336457.372436346893664, 6270451.780246433801949 ], [ 337493.962160748254973, 6270469.439187265001237 ], [ 338285.937887197476812, 6272406.894682519137859 ], [ 337249.271920243743807, 6272389.331787776201963 ], [ 338040.802949428441934, 6274326.641874178312719 ], [ 339077.545114245440345, 6274344.108866281807423 ], [ 339473.210527588962577, 6275312.625579936429858 ], [ 338436.430280583386775, 6275295.206485396251082 ], [ 338831.965482569416054, 6276263.71086915768683 ], [ 335721.496141233015805, 6276210.923908126540482 ], [ 336116.825055789900944, 6277179.511762524023652 ], [ 334043.090605431119911, 6277143.855295863002539 ], [ 334438.251356279244646, 6278112.478748805820942 ], [ 333401.342426566465292, 6278094.530195762403309 ], [ 332611.004896909114905, 6276157.127008115872741 ], [ 331574.16954321519006, 6276138.970267102122307 ], [ 330388.086911324993707, 6273232.268089297227561 ], [ 329351.363203938002698, 6273213.854731263592839 ], [ 328560.257388429250568, 6271275.654067497700453 ], [ 329596.904945520975161, 6271294.163866777904332 ], [ 329201.175914894265588, 6270325.020787643268704 ], [ 331274.387297169712838, 6270361.799739332869649 ], [ 330878.490022277692333, 6269392.692487281747162 ], [ 329841.923695906356443, 6269374.310958014801145 ], [ 329049.929282522760332, 6267435.817756877280772 ], [ 326976.941573126008734, 6267398.524018384516239 ], [ 327372.908536899019964, 6268367.897735022008419 ], [ 324263.293463838403113, 6268311.258774313144386 ], [ 323867.440851467428729, 6267341.739735506474972 ], [ 321794.427420742693357, 6267303.321070054545999 ], [ 322190.203820193186402, 6268272.937136486172676 ], [ 323226.749945015413687, 6268292.154190009459853 ], [ 324018.103073068079539, 6270231.106380168348551 ], [ 327127.954448334174231, 6270287.792238539084792 ], [ 327523.607299301598687, 6271257.031895827502012 ], [ 326486.954662847332656, 6271238.297349510714412 ], [ 326882.47743407485541, 6272207.524571530520916 ], [ 325845.784167183563113, 6272188.725974498316646 ], [ 326241.176880220184103, 6273157.940764293074608 ], [ 328314.636973164277151, 6273195.329059252515435 ], [ 328710.01378560566809, 6274164.386656599119306 ], [ 329746.778070364496671, 6274182.864132604561746 ], [ 330142.100902286125347, 6275151.812974319793284 ], [ 328068.493717190227471, 6275114.842084780335426 ], [ 328463.648450620239601, 6276083.826690173707902 ], [ 330537.331694495165721, 6276120.701301921159029 ], [ 330932.470441791112535, 6277089.529160887002945 ], [ 331969.346315217670053, 6277107.750066794455051 ], [ 332364.431025917991064, 6278076.469479113817215 ], [ 331327.517138977942523, 6278058.29659666493535 ], [ 331722.471780866500922, 6279027.003654668107629 ], [ 332759.42367013648618, 6279045.128549456596375 ], [ 333943.849152141483501, 6281950.744162144139409 ], [ 332906.783322934759781, 6281932.763015691190958 ], [ 332512.104878020007163, 6280964.236818848177791 ], [ 330438.04167622490786, 6280927.842521645128727 ], [ 330832.644196663983166, 6281896.4645667206496 ], [ 329795.570868804818019, 6281878.147259794175625 ], [ 329006.349702004576102, 6279940.746884846128523 ], [ 330043.34710730635561, 6279959.160163323394954 ], [ 329648.56049509474542, 6278990.417446410283446 ], [ 328611.60106785595417, 6278971.956128499470651 ], [ 328216.760406800545752, 6278003.104932388290763 ], [ 327179.836421096231788, 6277984.483364539220929 ], [ 326389.955042574030813, 6276046.503154970705509 ], [ 327426.803024788969196, 6276065.221039132215083 ], [ 327031.686314251972362, 6275096.188251037150621 ], [ 325994.876350615348201, 6275077.422154962085187 ], [ 324809.088326678378507, 6272169.815027482807636 ], [ 323772.389897264656611, 6272150.791728191077709 ], [ 324562.93114966689609, 6274089.353859759867191 ], [ 323526.154039864835795, 6274070.314925963059068 ], [ 322340.318338001146913, 6271162.23537209816277 ], [ 321303.652735590003431, 6271142.938918177038431 ], [ 321698.985210516839288, 6272112.408063529059291 ], [ 320662.278922586818226, 6272093.047693504020572 ], [ 320266.984494125063065, 6271123.530075766146183 ], [ 319230.313598318141885, 6271104.00884251203388 ], [ 318043.992955753114074, 6268194.944183422252536 ], [ 315970.871490837307647, 6268155.272830354981124 ], [ 317156.963782529986929, 6271064.629193987697363 ], [ 315083.603165940148756, 6271024.799953498877585 ], [ 314688.407034073839895, 6270054.978371541947126 ], [ 313651.760669742012396, 6270034.846464347094297 ], [ 313256.510714699456003, 6269064.914953244850039 ], [ 311183.285795168369077, 6269024.216305087320507 ], [ 311578.459675105637871, 6269994.245343865826726 ], [ 310541.805014252546243, 6269973.776125656440854 ], [ 310146.669165637809783, 6269003.698279086500406 ], [ 309110.049735913285986, 6268983.067781825549901 ], [ 309505.147557345451787, 6269953.194465492852032 ], [ 308468.487289107404649, 6269932.500360880047083 ], [ 308863.45528855221346, 6270902.614485865458846 ], [ 311973.541722057852894, 6270964.213065488263965 ], [ 312368.531930690747686, 6271934.119515838101506 ], [ 314441.985007544746622, 6271974.525796763598919 ], [ 314836.959379672654904, 6272944.273709749802947 ], [ 317947.232511291047558, 6273003.894569093361497 ], [ 317552.144097012351267, 6272034.292404413223267 ], [ 318588.858381130907219, 6272053.989866314455867 ], [ 319379.019337861565873, 6273993.03618311882019 ], [ 320415.806983415794093, 6274012.524324653670192 ], [ 323178.740303727448918, 6280796.931689446792006 ], [ 324215.791114913881756, 6280815.96952089946717 ], [ 324610.165966361702885, 6281784.879811302758753 ], [ 325647.2520999253029, 6281803.75743038021028 ], [ 326041.572887687478215, 6282772.559160176664591 ], [ 327078.694356438005343, 6282791.276663363911211 ], [ 327472.961057223554235, 6283759.969978636130691 ], [ 329547.272138383239508, 6283796.97294207662344 ], [ 329941.522642381780315, 6284765.510069750249386 ], [ 327867.135738719720393, 6284728.602973614819348 ], [ 328261.218395740084816, 6285697.175693584606051 ], [ 329298.451019513886422, 6285715.637316532433033 ], [ 329692.479533600970171, 6286684.101929902099073 ], [ 328655.209023106610402, 6286665.688183788210154 ], [ 329049.107615642366, 6287634.14048944413662 ], [ 331123.72185274050571, 6287670.760412095114589 ], [ 330335.681099550449289, 6285733.986993839964271 ], [ 332410.133690154063515, 6285770.350520435720682 ], [ 333198.326011664466932, 6287706.932794513180852 ], [ 332161.02518424729351, 6287688.902544728480279 ], [ 332554.945343107450753, 6288657.151382103562355 ], [ 330480.260418622172438, 6288620.850755214691162 ], [ 330874.012779241136741, 6289589.135057460516691 ], [ 328799.242030174355023, 6289552.482567004859447 ], [ 329979.719750151969492, 6292457.261852171272039 ], [ 332054.717471734096762, 6292493.628063707612455 ], [ 331661.24131093674805, 6291525.523666651919484 ], [ 332698.698570199077949, 6291543.586792979389429 ], [ 333092.212555206438992, 6292511.643556249327958 ], [ 334129.705141139915213, 6292529.547309568151832 ], [ 334523.164855647890363, 6293497.496661056764424 ], [ 332448.101555650180671, 6293461.67258242610842 ], [ 333627.701294870814309, 6296365.447318151593208 ], [ 328439.432207819074392, 6296274.646336633712053 ], [ 328046.51321780087892, 6295306.543288270011544 ], [ 325971.263182462542318, 6295269.346098152920604 ], [ 326364.106670197448693, 6296237.544508708640933 ], [ 325326.440002900315449, 6296218.826135341078043 ], [ 325719.153737708227709, 6297187.012287769466639 ], [ 326756.858138453448191, 6297205.682971816509962 ], [ 327149.517582083761226, 6298173.761532435193658 ], [ 329224.994057442003395, 6298210.672849271446466 ], [ 329617.636906783969607, 6299178.596403363160789 ], [ 328579.862239108071662, 6299160.244094702415168 ], [ 328972.375322489766404, 6300128.155431511811912 ], [ 331047.997519959928468, 6300164.653480911627412 ], [ 330655.409014547767583, 6299196.837163701653481 ], [ 331693.178577971935738, 6299214.966377940028906 ], [ 332085.804801013611723, 6300182.735229094512761 ], [ 334161.411805675481446, 6300218.564183437265456 ], [ 335338.964160153525881, 6303121.229052485898137 ], [ 334301.048799249110743, 6303103.512342019937932 ], [ 333516.181407255353406, 6301168.36728641949594 ] ], [ [ 338681.787565729115158, 6273375.531915612518787 ], [ 339718.489251608261839, 6273392.934546751901507 ], [ 340114.284897897508927, 6274361.463593175634742 ], [ 339077.545114245440345, 6274344.108866281807423 ], [ 338681.787565729115158, 6273375.531915612518787 ] ], [ [ 340509.988397859036922, 6275329.932438412681222 ], [ 340905.599746348743793, 6276298.341127825900912 ], [ 339868.783800609526224, 6276281.082101950421929 ], [ 339473.210527588962577, 6275312.625579936429858 ], [ 340509.988397859036922, 6275329.932438412681222 ] ], [ [ 336512.061864340561442, 6278148.039372771978378 ], [ 336907.206561729370151, 6279116.506784208118916 ], [ 337944.146195104229264, 6279134.071017630398273 ], [ 338339.236789332120679, 6280102.430469506420195 ], [ 340413.184895862825215, 6280137.127036338672042 ], [ 340808.259374837623909, 6281105.330962561070919 ], [ 339771.248503300943412, 6281088.086438441649079 ], [ 340955.80499382072594, 6283992.481584765017033 ], [ 338881.548201070167124, 6283957.942443824373186 ], [ 339670.639898758847266, 6285894.096899265423417 ], [ 337596.221731826546602, 6285859.300442665815353 ], [ 334438.251356279244646, 6278112.478748805820942 ], [ 336512.061864340561442, 6278148.039372771978378 ] ], [ [ 337153.688629399519414, 6277197.171715373173356 ], [ 338190.54978909692727, 6277214.719484094530344 ], [ 338981.083423409145325, 6279151.523125233128667 ], [ 337944.146195104229264, 6279134.071017630398273 ], [ 337153.688629399519414, 6277197.171715373173356 ] ], [ [ 326684.335641555197071, 6281822.522982493042946 ], [ 327721.416606646263972, 6281841.176469925791025 ], [ 328115.813252983498387, 6282809.882131074555218 ], [ 327078.694356438005343, 6282791.276663363911211 ], [ 326684.335641555197071, 6281822.522982493042946 ] ], [ [ 331911.394356681965292, 6289607.293558195233345 ], [ 332305.092502313898876, 6290575.470141970552504 ], [ 331267.673078392981552, 6290557.359346248209476 ], [ 330874.012779241136741, 6289589.135057460516691 ], [ 331911.394356681965292, 6289607.293558195233345 ] ], [ [ 331300.460275561898015, 6298247.137856127694249 ], [ 332338.189577064826153, 6298265.20299887098372 ], [ 332730.945612629177049, 6299232.984048286452889 ], [ 331693.178577971935738, 6299214.966377940028906 ], [ 331300.460275561898015, 6298247.137856127694249 ] ], [ [ 330262.728440876118839, 6298228.96114033088088 ], [ 329869.955804062774405, 6297261.025365958921611 ], [ 330907.64989889820572, 6297279.249618826434016 ], [ 331300.460275561898015, 6298247.137856127694249 ], [ 330262.728440876118839, 6298228.96114033088088 ] ], [ [ 331945.341456139576621, 6297297.362269481644034 ], [ 332983.030491339159198, 6297315.363320127129555 ], [ 333375.916360946721397, 6298283.156570764258504 ], [ 332338.189577064826153, 6298265.20299887098372 ], [ 331945.341456139576621, 6297297.362269481644034 ] ], [ [ 341214.286748485988937, 6317626.555640478618443 ], [ 342252.763770683784969, 6317643.456088257953525 ], [ 343034.64816147350939, 6319576.404164670035243 ], [ 341996.096107480989303, 6319559.597095848992467 ], [ 341214.286748485988937, 6317626.555640478618443 ] ], [ [ 342508.910087514668703, 6315727.156059958040714 ], [ 342900.120349161676131, 6316693.730169972404838 ], [ 341861.683260285877623, 6316676.893993251025677 ], [ 341470.510546533972956, 6315710.273134805262089 ], [ 342508.910087514668703, 6315727.156059958040714 ] ], [ [ 340432.108600031933747, 6315693.27916722279042 ], [ 340040.881242242176086, 6314726.552688363008201 ], [ 341079.245634416933171, 6314743.593468700535595 ], [ 341470.510546533972956, 6315710.273134805262089 ], [ 340432.108600031933747, 6315693.27916722279042 ] ], [ [ 333878.964256083825603, 6294447.577599512413144 ], [ 334916.532465916243382, 6294465.386250331997871 ], [ 335309.807966836844571, 6295433.21612230874598 ], [ 334272.201961717451923, 6295415.454969394952059 ], [ 333878.964256083825603, 6294447.577599512413144 ] ], [ [ 323279.395604268996976, 6275989.676080977544188 ], [ 324316.251347652636468, 6276008.73067818582058 ], [ 324711.162037776201032, 6276977.847505992278457 ], [ 323674.268299949355423, 6276958.841172510758042 ], [ 323279.395604268996976, 6275989.676080977544188 ] ] ], [ [ [ 362353.386984245036729, 6311227.183331644162536 ], [ 363391.549170692393091, 6311241.854898361489177 ], [ 362998.957059540902264, 6310275.953259211033583 ], [ 361960.832588867051527, 6310261.235371315851808 ], [ 362353.386984245036729, 6311227.183331644162536 ] ] ] ] } }
]
}
