{
"type": "FeatureCollection",
"name": "urban-2060",
"crs": { "type": "name", "properties": { "name": "urn:ogc:def:crs:EPSG::32719" } },
"features": [
{ "type": "Feature", "properties": { "year": 2060 }, "geometry": { "type": "MultiPolygon", "coordinates": [ [ [ [ 322062.322205467440654, 6252870.020255874842405 ], [ 323098.241489582054783, 6252889.340501213446259 ], [ 322700.726576247368939, 6251919.085097858682275 ], [ 321664.845602880464867, 6251899.715922280214727 ], [ 322062.322205467440654, 6252870.020255874842405 ] ] ], [ [ [ 326275.050469022593461, 6260649.173722807317972 ], [ 325878.271233506675344, 6259679.409001469612122 ], [ 323805.894381107878871, 6259641.338788510300219 ], [ 324202.597180519776884, 6260611.200821420177817 ], [ 326275.050469022593461, 6260649.173722807317972 ] ] ], [ [ [ 323166.366675129800569, 6260592.045331034809351 ], [ 323562.93931318866089, 6261561.89482734259218 ], [ 324599.208018953446299, 6261581.001654144376516 ], [ 324202.597180519776884, 6260611.200821420177817 ], [ 323166.366675129800569, 6260592.045331034809351 ] ] ], [ [ [ 324752.105476378288586, 6264471.07635835558176 ], [ 325788.488715499057434, 6264490.037410696037114 ], [ 324995.726891116413753, 6262550.741332648321986 ], [ 323959.41999627626501, 6262531.683133371174335 ], [ 323562.93931318866089, 6261561.89482734259218 ], [ 322526.668017330637667, 6261542.675333574414253 ], [ 322923.110515590757132, 6262512.512296374887228 ], [ 321886.798433862742968, 6262493.228819336742163 ], [ 322283.110813874518499, 6263463.05325173586607 ], [ 321246.757950852857903, 6263443.705811549909413 ], [ 322435.028984642471187, 6266352.958091013133526 ], [ 324507.960966108017601, 6266391.248802961781621 ], [ 324111.88629542873241, 6265421.656286210753024 ], [ 325148.310262829239946, 6265440.681369109079242 ], [ 324752.105476378288586, 6264471.07635835558176 ] ] ], [ [ [ 299285.215870511485264, 6272631.001267870888114 ], [ 298890.811148982029408, 6271660.520657273009419 ], [ 299927.576300796237774, 6271682.241134995594621 ], [ 299533.041923958691768, 6270711.74791925214231 ], [ 297459.584563973359764, 6270668.09634467586875 ], [ 296670.392608464695513, 6268726.728131853044033 ], [ 295633.735387367545627, 6268704.635275531560183 ], [ 295239.039890360727441, 6267733.809136629104614 ], [ 293165.792350804782473, 6267689.187301190569997 ], [ 293560.411888372618705, 6268660.112037594430149 ], [ 292523.745579956972506, 6268637.681650578975677 ], [ 292918.235521406750195, 6269608.593718394637108 ], [ 291881.52819504996296, 6269586.100151930004358 ], [ 292670.157306772191077, 6271527.837002263404429 ], [ 291633.371035165269859, 6271505.329569935798645 ], [ 292027.510232871747576, 6272476.154366090893745 ], [ 296174.788706453400664, 6272565.312671462073922 ], [ 295780.497804888524115, 6271594.684729074127972 ], [ 297854.043025918246713, 6271638.687765480950475 ], [ 298248.409803432819899, 6272609.217457301914692 ], [ 299285.215870511485264, 6272631.001267870888114 ] ] ], [ [ [ 326111.77545903425198, 6298155.138502163812518 ], [ 325719.153737708227709, 6297187.012287769466639 ], [ 324681.446721605607308, 6297168.229990277439356 ], [ 325074.030724989366718, 6298136.403887636959553 ], [ 326111.77545903425198, 6298155.138502163812518 ] ] ], [ [ [ 327681.342106667987537, 6302027.044877620413899 ], [ 329757.125330683891661, 6302063.798952959477901 ], [ 329364.796354721067473, 6301096.007035994902253 ], [ 327289.088490681257099, 6301059.157966330647469 ], [ 327681.342106667987537, 6302027.044877620413899 ] ] ], [ [ [ 324567.647780498606153, 6301971.077752452343702 ], [ 324959.69638361298712, 6302939.047553963959217 ], [ 323921.755365951918066, 6302920.216492922976613 ], [ 324313.674320116464514, 6303888.174076684750617 ], [ 325351.652975810226053, 6303906.957580191083252 ], [ 325743.517551957280375, 6304874.807875924743712 ], [ 327819.542251252918504, 6304911.945680670440197 ], [ 327427.602408155449666, 6303944.190341556444764 ], [ 328465.573216046206653, 6303962.639603953808546 ], [ 327681.342106667987537, 6302027.044877620413899 ], [ 324567.647780498606153, 6301971.077752452343702 ] ] ], [ [ [ 329400.246414323220961, 6316466.200230123475194 ], [ 329009.523922734195367, 6315499.016120423562825 ], [ 327971.091882357839495, 6315480.689477983862162 ], [ 327189.445717936265282, 6313546.049162148497999 ], [ 329266.157171367784031, 6313582.780039976350963 ], [ 328875.120969592942856, 6312615.465308364480734 ], [ 325760.162436753744259, 6312560.060601098462939 ], [ 326151.086070644552819, 6313527.517031192779541 ], [ 324074.358856332488358, 6313490.119373890571296 ], [ 324465.115455338906031, 6314457.610954586416483 ], [ 323426.710362941608764, 6314438.792737867683172 ], [ 323817.337462346826214, 6315406.272181070409715 ], [ 322778.892214040504768, 6315387.390163695439696 ], [ 324340.330650164163671, 6319256.903188610449433 ], [ 325378.925701503059827, 6319275.596326533704996 ], [ 324598.315623794100247, 6317341.052890380844474 ], [ 330829.381257419241592, 6317451.446567350998521 ], [ 330438.713354187319055, 6316484.368706546723843 ], [ 329400.246414323220961, 6316466.200230123475194 ] ] ], [ [ [ 333554.098791602591518, 6316538.207923505455256 ], [ 333163.226297814981081, 6315571.2120301425457 ], [ 332124.804540534503758, 6315553.329647297039628 ], [ 332515.639527079765685, 6316520.372551038861275 ], [ 333554.098791602591518, 6316538.207923505455256 ] ] ], [ [ [ 336545.723560884711333, 6321389.792560243979096 ], [ 336155.274237382167485, 6320423.13825599104166 ], [ 333039.446671837824397, 6320370.195203887298703 ], [ 333429.783638873137534, 6321336.990010952576995 ], [ 336545.723560884711333, 6321389.792560243979096 ] ] ], [ [ [ 333820.028487468836829, 6322303.725923530757427 ], [ 333429.783638873137534, 6321336.990010952576995 ], [ 332391.13194713514531, 6321319.167386056855321 ], [ 332000.832423265324906, 6320352.325686484575272 ], [ 330962.215618354501203, 6320334.345248770900071 ], [ 330571.861441799963359, 6319367.397618466988206 ], [ 329533.279510013002437, 6319349.259272271767259 ], [ 331093.993933032732457, 6323216.883648533374071 ], [ 333171.454667572164908, 6323252.6740403752774 ], [ 333561.477854100579862, 6324219.339083475992084 ], [ 334600.24180928489659, 6324237.021241901442409 ], [ 334210.181212610157672, 6323270.402985796332359 ], [ 336287.62673729355447, 6323305.528386477380991 ], [ 335897.399156347557437, 6322338.944881172850728 ], [ 333820.028487468836829, 6322303.725923530757427 ] ] ], [ [ [ 339794.024063268501777, 6324323.770051877014339 ], [ 339013.436449490720406, 6322390.941906052641571 ], [ 336936.0807329461677, 6322356.388075546361506 ], [ 337716.518602761556394, 6324289.402915792539716 ], [ 339794.024063268501777, 6324323.770051877014339 ] ] ], [ [ [ 333171.968790377839468, 6330931.62002439238131 ], [ 331093.894938080222346, 6330895.913324076682329 ], [ 331482.994461129768752, 6331862.342190561816096 ], [ 330443.916368400445208, 6331844.369606049731374 ], [ 330832.886499659158289, 6332810.786497961729765 ], [ 331872.001876633497886, 6332828.712436604313552 ], [ 333038.471427992451936, 6335727.471891168504953 ], [ 334077.696028202422895, 6335745.147636965848505 ], [ 332522.069972157827578, 6331880.204193283803761 ], [ 333561.142917383927852, 6331897.955616401508451 ], [ 333171.968790377839468, 6330931.62002439238131 ] ] ], [ [ [ 341186.706987853744067, 6249357.28187157958746 ], [ 340788.09478885831777, 6248387.706889944151044 ], [ 338716.731016058125533, 6248352.759211821481586 ], [ 339115.26634450443089, 6249322.431262264028192 ], [ 341186.706987853744067, 6249357.28187157958746 ] ] ], [ [ [ 324614.912624821998179, 6249065.819762915372849 ], [ 325012.818389161606319, 6250036.112992879934609 ], [ 321905.420947540667839, 6249978.38961605168879 ], [ 322700.726576247368939, 6251919.085097858682275 ], [ 326844.224751176545396, 6251995.432297864928842 ], [ 326446.464571493910626, 6251025.310924706980586 ], [ 327482.294417819590308, 6251044.164180835708976 ], [ 326686.421415890217759, 6249103.834804103709757 ], [ 324614.912624821998179, 6249065.819762915372849 ] ] ], [ [ [ 327482.294417819590308, 6251044.164180835708976 ], [ 327880.092940734350123, 6252014.236733835190535 ], [ 329951.821800490550231, 6252051.506784910336137 ], [ 329155.979346408566926, 6250111.495448339730501 ], [ 328120.192879547073971, 6250092.819332630373538 ], [ 328518.121748405275866, 6251062.90446668304503 ], [ 327482.294417819590308, 6251044.164180835708976 ] ] ], [ [ [ 336240.004739618045278, 6259862.997315189801157 ], [ 335842.750975171918981, 6258893.656584988348186 ], [ 334806.626955415180419, 6258875.756538002751768 ], [ 335203.842445348389447, 6259845.145653296262026 ], [ 336240.004739618045278, 6259862.997315189801157 ] ] ], [ [ [ 339513.709560906630941, 6250292.042246566154063 ], [ 339115.26634450443089, 6249322.431262264028192 ], [ 338079.542515187233221, 6249304.83645515050739 ], [ 338477.947314115008339, 6250274.495981435291469 ], [ 337442.182713158428669, 6250256.836741020902991 ], [ 337840.457004192227032, 6251226.48374605178833 ], [ 336804.651636482565664, 6251208.76009239628911 ], [ 337202.795441244379617, 6252178.394579086452723 ], [ 335131.100791335455142, 6252142.705562087707222 ], [ 334733.033746045257431, 6251172.973931797780097 ], [ 333697.221193143166602, 6251154.911420527845621 ], [ 334493.186477029928938, 6253094.410767359659076 ], [ 336564.962651758221909, 6253130.228503525257111 ], [ 336962.883903859124985, 6254099.789448201656342 ], [ 334891.031023386283778, 6254064.068769421428442 ], [ 336481.48844900005497, 6257942.090709009207785 ], [ 335445.405125034507364, 6257924.254995543509722 ], [ 335842.750975171918981, 6258893.656584988348186 ], [ 336878.872589242761023, 6258911.443906486034393 ], [ 338070.472407531400677, 6261819.138743123970926 ], [ 335997.997180934995413, 6261783.741381395608187 ], [ 336394.936416139476933, 6262752.948085834272206 ], [ 337431.213466560002416, 6262770.654808674007654 ], [ 337828.098836026212666, 6263739.75256008002907 ], [ 336791.783555994566996, 6263722.09407823253423 ], [ 337188.538595291785896, 6264691.179404327645898 ], [ 336152.182702191872522, 6264673.45657492429018 ], [ 336548.807432916946709, 6265642.529478618875146 ], [ 333439.610651169670746, 6265588.830423172563314 ], [ 333836.028733569080941, 6266557.987377760931849 ], [ 334872.468270210782066, 6266575.951342268846929 ], [ 335268.83244855934754, 6267544.999409940093756 ], [ 337341.78058989928104, 6267580.493498982861638 ], [ 338134.38530630338937, 6269518.215440830215812 ], [ 341244.018589120707475, 6269570.324816224165261 ], [ 340451.184864479291718, 6267632.891133893281221 ], [ 341487.648233706247993, 6267650.132087703794241 ], [ 341091.054959614120889, 6266681.372690375894308 ], [ 342127.477795049082488, 6266698.549195112660527 ], [ 341730.754162014345638, 6265729.777421912178397 ], [ 339657.982565043959767, 6265695.215804170817137 ], [ 339261.243212714674883, 6264726.287407582625747 ], [ 340297.591967488639057, 6264743.672585686668754 ], [ 339900.722259808098897, 6263774.731787109747529 ], [ 340937.030433988722507, 6263792.052536530420184 ], [ 340540.030349348264281, 6262823.09933309815824 ], [ 343648.826148730935529, 6262874.530435706488788 ], [ 343251.619135472574271, 6261905.661057759076357 ], [ 342215.394453508604784, 6261888.581853799521923 ], [ 341818.133550117549021, 6260919.603832067921758 ], [ 340781.944825538957957, 6260902.363833535462618 ], [ 341179.167454927286599, 6261871.390022444538772 ], [ 340142.938124534848612, 6261854.08556161262095 ], [ 339348.477275153854862, 6259915.876131632365286 ], [ 340384.630055160378106, 6259933.277021149173379 ], [ 339987.223148987279274, 6258964.129539525136352 ], [ 343095.552603511838242, 6259015.800719890743494 ], [ 342697.938630700460635, 6258046.737261576578021 ], [ 340625.797947590239346, 6258012.306059095077217 ], [ 339830.446854245907161, 6256073.803996130824089 ], [ 340866.441697695758194, 6256091.172568740323186 ], [ 340468.589613490621559, 6255121.878689771518111 ], [ 338396.674270481802523, 6255086.932004381902516 ], [ 337600.847151993075386, 6253147.968029307201505 ], [ 340708.48648545629112, 6253200.509263167157769 ], [ 340310.319636616157368, 6252231.081200994551182 ], [ 341346.156354261795059, 6252248.417575849220157 ], [ 340947.858978318166919, 6251278.97702612541616 ], [ 344055.240075774199795, 6251330.453829158097506 ], [ 343656.735307973925956, 6250361.097596464678645 ], [ 339513.709560906630941, 6250292.042246566154063 ] ], [ [ 339274.480588629608974, 6252213.631911323405802 ], [ 338876.260007010307163, 6251244.094451474025846 ], [ 339912.060660022427328, 6251261.592210793867707 ], [ 340310.319636616157368, 6252231.081200994551182 ], [ 339274.480588629608974, 6252213.631911323405802 ] ] ], [ [ [ 345479.300810965767596, 6264828.910324838012457 ], [ 345082.239900986314751, 6263860.2098223939538 ], [ 344045.940988264163025, 6263843.339353558607399 ], [ 344442.963648904114962, 6264812.087856949307024 ], [ 345479.300810965767596, 6264828.910324838012457 ] ] ], [ [ [ 343163.898305573035032, 6266715.613214033655822 ], [ 344200.31650643364992, 6266732.564749208278954 ], [ 344597.02438805118436, 6267701.180204927921295 ], [ 345633.478505904320627, 6267717.971336139366031 ], [ 344442.963648904114962, 6264812.087856949307024 ], [ 342370.282445281394757, 6264778.105305382981896 ], [ 343163.898305573035032, 6266715.613214033655822 ] ] ], [ [ [ 358864.887815877445973, 6269846.504451193846762 ], [ 358467.867505155270919, 6268878.629272813908756 ], [ 357431.401422183145769, 6268863.234954750165343 ], [ 357034.327028242405504, 6267895.252482750453055 ], [ 358070.754856601706706, 6267910.694338081404567 ], [ 357276.252566252253018, 6265974.645018365234137 ], [ 355203.547878405777737, 6265943.458456227555871 ], [ 355600.768638476962224, 6266911.608286670409143 ], [ 354564.374837655748706, 6266895.893940111622214 ], [ 354961.465035648958292, 6267864.03148309327662 ], [ 352888.594493497163057, 6267832.360752137377858 ], [ 354079.08190476114396, 6270736.699725730344653 ], [ 353042.528727356693707, 6270720.83864651620388 ], [ 353439.135087475122418, 6271688.879462325945497 ], [ 355512.315689637325704, 6271720.394150277599692 ], [ 355115.6329279106576, 6270752.448455523699522 ], [ 356152.181812091905158, 6270768.084837805479765 ], [ 355755.368527945596725, 6269800.126886621117592 ], [ 358864.887815877445973, 6269846.504451193846762 ] ] ], [ [ [ 345786.594882233650424, 6270606.665144916623831 ], [ 345390.16358109068824, 6269638.230357313528657 ], [ 344353.63079282338731, 6269621.422568622976542 ], [ 344750.023920453852043, 6270589.905199937522411 ], [ 345786.594882233650424, 6270606.665144916623831 ] ] ], [ [ [ 343073.099729772482533, 6271524.566372950561345 ], [ 342280.5583121132222, 6269587.469800135120749 ], [ 341244.018589120707475, 6269570.324816224165261 ], [ 342036.483697652583942, 6271507.517215378582478 ], [ 343073.099729772482533, 6271524.566372950561345 ] ] ], [ [ [ 354232.070942801772617, 6273624.781632464379072 ], [ 353439.135087475122418, 6271688.879462325945497 ], [ 352402.541546555818059, 6271672.953635911457241 ], [ 353195.401047190534882, 6273608.950906867161393 ], [ 354232.070942801772617, 6273624.781632464379072 ] ] ], [ [ [ 363226.015494417282753, 6280489.200414123944938 ], [ 362830.011232415214181, 6279521.979575837962329 ], [ 360756.236871531233191, 6279492.119953118264675 ], [ 361152.164893744047731, 6280459.435036471113563 ], [ 363226.015494417282753, 6280489.200414123944938 ] ] ], [ [ [ 342519.903926926432177, 6323408.244820532388985 ], [ 341481.197155603847932, 6323391.402461756952107 ], [ 342261.750134190893732, 6325323.927069531753659 ], [ 340184.179590110084973, 6325290.09622317738831 ], [ 340964.214058845420368, 6327222.572982607409358 ], [ 344080.790743420133367, 6327272.874140988104045 ], [ 344470.78186975652352, 6328238.885488219559193 ], [ 347587.449350666487589, 6328288.051300171762705 ], [ 347977.460439112212043, 6329253.865379873663187 ], [ 349016.38232864625752, 6329269.986393355764449 ], [ 348236.1930465043406, 6327338.392594072967768 ], [ 347197.345988487591967, 6327322.179020261391997 ], [ 345636.009900916833431, 6323458.10702146962285 ], [ 346674.707164980471134, 6323474.506136756390333 ], [ 345502.624006533180363, 6320575.978409505449235 ], [ 344464.03920266777277, 6320559.43976943474263 ], [ 343682.264224484679289, 6318626.702249527908862 ], [ 346797.786486399301793, 6318676.264895321801305 ], [ 347188.832662617554888, 6319642.523199141025543 ], [ 348227.372938093612902, 6319658.775657650083303 ], [ 348618.3643746629823, 6320624.92897979542613 ], [ 349656.939868848072365, 6320641.024059899151325 ], [ 349265.910905207041651, 6319674.917200108990073 ], [ 350304.446579737006687, 6319690.94782848469913 ], [ 348347.729778566921595, 6314859.769043367356062 ], [ 346271.031758835481014, 6314827.13133876118809 ], [ 346662.484511027985718, 6315793.577377288602293 ], [ 345624.0944347291952, 6315777.138601379469037 ], [ 344841.17184741247911, 6313844.094478659331799 ], [ 346917.799333378789015, 6313877.04768006876111 ], [ 346526.12448598339688, 6312910.530954778194427 ], [ 347564.397132386337034, 6312926.887601651251316 ], [ 347172.59241647971794, 6311960.358862501569092 ], [ 349249.05554517096607, 6311992.832154734991491 ], [ 348857.083299781777896, 6311026.338091120123863 ], [ 345742.498048393987119, 6310977.321273357607424 ], [ 346134.357389328302816, 6311943.95550062507391 ], [ 345096.120032703969628, 6311927.440992245450616 ], [ 344704.298317405511625, 6310960.759985631331801 ], [ 343666.096236665849574, 6310944.087520314380527 ], [ 343274.219925098470412, 6309977.300817290320992 ], [ 346388.706223897985183, 6310027.125126414000988 ], [ 345604.451050174189731, 6308093.656084639951587 ], [ 349756.765647293592338, 6308158.905796163715422 ], [ 348971.840003603952937, 6306225.575786142610013 ], [ 352085.825824133178685, 6306273.625317236408591 ], [ 352478.447921151120681, 6307240.179473824799061 ], [ 353516.476432281371672, 6307255.926677061244845 ], [ 354301.519111029920168, 6309188.765615222044289 ], [ 353263.415188868704718, 6309173.111694849096239 ], [ 354048.013188458280638, 6311105.809421468526125 ], [ 353009.83169051312143, 6311090.137482878752053 ], [ 353401.954539808793925, 6312056.445068309083581 ], [ 352363.733159732073545, 6312040.7085439004004 ], [ 352755.726041093410458, 6313007.004143813624978 ], [ 354832.241880353365559, 6313038.273007417097688 ], [ 354440.173700337298214, 6312072.070459937676787 ], [ 355478.390657021082006, 6312087.584720694459975 ], [ 355870.4964933632873, 6313053.740785488858819 ], [ 356908.748922912753187, 6313069.097463596612215 ], [ 356516.605425567599013, 6312102.987852472811937 ], [ 360669.442932477919385, 6312163.489127164706588 ], [ 360277.056346848257817, 6311197.506761135533452 ], [ 361315.222714863077272, 6311212.400619836524129 ], [ 360922.706030523346271, 6310246.4063093457371 ], [ 361960.832588867051527, 6310261.235371315851808 ], [ 362353.386984245036729, 6311227.183331644162536 ], [ 363391.549170692393091, 6311241.854898361489177 ], [ 362998.957059540902264, 6310275.953259211033583 ], [ 364037.079458231222816, 6310290.559974829666317 ], [ 362858.635396577534266, 6307392.644397400319576 ], [ 361820.626224733307026, 6307377.898593615740538 ], [ 361034.610299431253225, 6305445.570251706987619 ], [ 362072.543932241853327, 6305460.408957391045988 ], [ 360105.698243291757535, 6300628.796752399764955 ], [ 359067.953649045841303, 6300613.725173521786928 ], [ 358674.345186352613382, 6299647.18022223841399 ], [ 359712.051940099219792, 6299662.298481890931726 ], [ 359318.313259963877499, 6298695.741498021408916 ], [ 360355.9800493986113, 6298710.794955440796912 ], [ 359174.096162822796032, 6295810.911553341895342 ], [ 360211.647206875903066, 6295825.993681274354458 ], [ 359423.186947076930664, 6293892.537510363385081 ], [ 360460.66006583836861, 6293907.601613845676184 ], [ 358487.70327862969134, 6289073.164055483415723 ], [ 357450.419925498310477, 6289057.865387270227075 ], [ 356660.666672669816762, 6287123.582921972498298 ], [ 358735.079290451481938, 6287154.25654674321413 ], [ 357549.528789083124138, 6284252.671241139993072 ], [ 358586.617845101165585, 6284267.981468552723527 ], [ 358191.211605302407406, 6283300.714995054528117 ], [ 361302.352024752122816, 6283346.115261858329177 ], [ 360906.739225935423747, 6282378.930845030583441 ], [ 362980.746330567752011, 6282408.731935311108828 ], [ 363376.435293889488094, 6283375.82226300612092 ], [ 364413.473871558322571, 6283390.50781599804759 ], [ 364809.108511036552954, 6284357.492061759345233 ], [ 365846.183154306956567, 6284372.018715666607022 ], [ 364658.887719690101221, 6281471.029607044532895 ], [ 361548.000539797008969, 6281426.690833067521453 ], [ 361152.164893744047731, 6280459.435036471113563 ], [ 360115.236507815017831, 6280444.384268580004573 ], [ 359719.346598520583939, 6279477.022019155323505 ], [ 358682.454243292682804, 6279461.812001017853618 ], [ 357890.473598926968407, 6277526.814857721328735 ], [ 355816.835051862581167, 6277495.869392616674304 ], [ 355420.782487450051121, 6276528.186912192031741 ], [ 353347.211640733294189, 6276496.698047744110227 ], [ 352951.143037020985503, 6275528.861078284680843 ], [ 355024.637611099053174, 6275560.444822110235691 ], [ 354628.400427862186916, 6274592.643077251501381 ], [ 352554.982148552255239, 6274560.964382506906986 ], [ 352158.728980396641418, 6273593.007915232330561 ], [ 351122.054727102513425, 6273576.952655621804297 ], [ 351518.269743637472857, 6274544.956677757203579 ], [ 348408.119283940992318, 6274496.260110644623637 ], [ 348804.127637490746565, 6275464.347057217732072 ], [ 347767.368229113519192, 6275447.938012760132551 ], [ 347371.39799797302112, 6274479.803430755622685 ], [ 346334.674453427316621, 6274463.234502122737467 ], [ 344750.023920453852043, 6270589.905199937522411 ], [ 343713.450666842341889, 6270573.032887734472752 ], [ 345693.842634820728563, 6275414.783262921497226 ], [ 342583.537069522542879, 6275364.209455573000014 ], [ 342187.757382997253444, 6274395.836259745061398 ], [ 341151.022315707232337, 6274378.706056965515018 ], [ 339963.244618392782286, 6271473.081865359097719 ], [ 340999.86533229140332, 6271490.35571354161948 ], [ 340603.717002159974072, 6270521.741727249696851 ], [ 338530.549486327334307, 6270486.985746260732412 ], [ 338134.38530630338937, 6269518.215440830215812 ], [ 336061.284536823164672, 6269482.9138164203614 ], [ 336457.372436346893664, 6270451.780246433801949 ], [ 337493.962160748254973, 6270469.439187265001237 ], [ 338285.937887197476812, 6272406.894682519137859 ], [ 337249.271920243743807, 6272389.331787776201963 ], [ 338040.802949428441934, 6274326.641874178312719 ], [ 339077.545114245440345, 6274344.108866281807423 ], [ 339473.210527588962577, 6275312.625579936429858 ], [ 335326.075125835195649, 6275242.275764201767743 ], [ 336116.825055789900944, 6277179.511762524023652 ], [ 334043.090605431119911, 6277143.855295863002539 ], [ 334438.251356279244646, 6278112.478748805820942 ], [ 333401.342426566465292, 6278094.530195762403309 ], [ 332611.004896909114905, 6276157.127008115872741 ], [ 331574.16954321519006, 6276138.970267102122307 ], [ 329992.541946071549319, 6272263.246285465545952 ], [ 328955.856308220187202, 6272244.784724753350019 ], [ 328560.257388429250568, 6271275.654067497700453 ], [ 329596.904945520975161, 6271294.163866777904332 ], [ 329201.175914894265588, 6270325.020787643268704 ], [ 331274.387297169712838, 6270361.799739332869649 ], [ 330878.490022277692333, 6269392.692487281747162 ], [ 329841.923695906356443, 6269374.310958014801145 ], [ 326671.737720967910718, 6261618.87731609493494 ], [ 324599.208018953446299, 6261581.001654144376516 ], [ 324995.726891116413753, 6262550.741332648321986 ], [ 326032.031215312657878, 6262569.686896516010165 ], [ 326824.869392510852776, 6264508.88588609918952 ], [ 325788.488715499057434, 6264490.037410696037114 ], [ 327372.908536899019964, 6268367.897735022008419 ], [ 324263.293463838403113, 6268311.258774313144386 ], [ 323867.440851467428729, 6267341.739735506474972 ], [ 321794.427420742693357, 6267303.321070054545999 ], [ 322190.203820193186402, 6268272.937136486172676 ], [ 323226.749945015413687, 6268292.154190009459853 ], [ 323622.472490716376342, 6269261.660750806331635 ], [ 322585.888272842625156, 6269242.492189753800631 ], [ 322981.480773415940348, 6270211.986275632865727 ], [ 321944.855861018353608, 6270192.753758038394153 ], [ 321153.655074114562012, 6268253.607611417770386 ], [ 320117.103691519238055, 6268234.165612457320094 ], [ 320512.711970814503729, 6269203.817738403566182 ], [ 318439.525078625127207, 6269164.69349907245487 ], [ 318043.992955753114074, 6268194.944183422252536 ], [ 317007.433572067064233, 6268175.164748590439558 ], [ 316611.847630775999278, 6267205.305601140484214 ], [ 314538.796909333206713, 6267165.311841553077102 ], [ 314934.306696808780544, 6268135.268426304683089 ], [ 315970.871490837307647, 6268155.272830354981124 ], [ 317156.963782529986929, 6271064.629193987697363 ], [ 315083.603165940148756, 6271024.799953498877585 ], [ 314688.407034073839895, 6270054.978371541947126 ], [ 313651.760669742012396, 6270034.846464347094297 ], [ 313256.510714699456003, 6269064.914953244850039 ], [ 314293.11903522873763, 6269085.095580335706472 ], [ 313897.739174723392352, 6268115.151534015312791 ], [ 311824.595885365677532, 6268074.580274942331016 ], [ 312219.89963976747822, 6269044.621862314641476 ], [ 308073.427490727626719, 6268962.324810799211264 ], [ 308468.487289107404649, 6269932.500360880047083 ], [ 304321.817797421128489, 6269848.599447531625628 ], [ 305111.358026253234129, 6271789.157404316589236 ], [ 306148.105671651777811, 6271810.203452485613525 ], [ 305753.343452774337493, 6270840.004147376865149 ], [ 311973.541722057852894, 6270964.213065488263965 ], [ 312368.531930690747686, 6271934.119515838101506 ], [ 314441.985007544746622, 6271974.525796763598919 ], [ 314836.959379672654904, 6272944.273709749802947 ], [ 316910.477512928307988, 6272984.133291968144476 ], [ 317305.436014753533527, 6273953.722974224947393 ], [ 318342.229020079830661, 6273973.435733767226338 ], [ 317552.144097012351267, 6272034.292404413223267 ], [ 318588.858381130907219, 6272053.989866314455867 ], [ 319379.019337861565873, 6273993.03618311882019 ], [ 320415.806983415794093, 6274012.524324653670192 ], [ 320810.787585488753393, 6274981.907659440301359 ], [ 319773.961935785715468, 6274962.467941075563431 ], [ 320168.812606386491098, 6275931.838826294988394 ], [ 321205.676248972304165, 6275951.230157366022468 ], [ 322389.790555333951488, 6278858.833085959777236 ], [ 320315.832796990056522, 6278820.228155767545104 ], [ 320710.277762118086684, 6279789.404279172420502 ], [ 322784.311411940027028, 6279827.912692259997129 ], [ 323178.740303727448918, 6280796.931689446792006 ], [ 324215.791114913881756, 6280815.96952089946717 ], [ 325004.44883132353425, 6282753.729619236662984 ], [ 326041.572887687478215, 6282772.559160176664591 ], [ 326435.801672549627256, 6283741.300488625653088 ], [ 329547.272138383239508, 6283796.97294207662344 ], [ 329941.522642381780315, 6284765.510069750249386 ], [ 327867.135738719720393, 6284728.602973614819348 ], [ 328261.218395740084816, 6285697.175693584606051 ], [ 329298.451019513886422, 6285715.637316532433033 ], [ 329692.479533600970171, 6286684.101929902099073 ], [ 328655.209023106610402, 6286665.688183788210154 ], [ 329049.107615642366, 6287634.14048944413662 ], [ 330086.416001691366546, 6287652.506394406780601 ], [ 330874.012779241136741, 6289589.135057460516691 ], [ 328799.242030174355023, 6289552.482567004859447 ], [ 329586.319224576232955, 6291489.062100043520331 ], [ 328548.854366485844366, 6291470.663655325770378 ], [ 328942.217081032518763, 6292438.91112875379622 ], [ 332054.717471734096762, 6292493.628063707612455 ], [ 333627.701294870814309, 6296365.447318151593208 ], [ 329477.091109229717404, 6296293.02979570813477 ], [ 329084.134361506090499, 6295324.974384667351842 ], [ 323896.002713001566008, 6295231.702229827642441 ], [ 324288.770715889928397, 6296199.996119337156415 ], [ 325326.440002900315449, 6296218.826135341078043 ], [ 325719.153737708227709, 6297187.012287769466639 ], [ 326756.858138453448191, 6297205.682971816509962 ], [ 327149.517582083761226, 6298173.761532435193658 ], [ 329224.994057442003395, 6298210.672849271446466 ], [ 329617.636906783969607, 6299178.596403363160789 ], [ 328579.862239108071662, 6299160.244094702415168 ], [ 329364.796354721067473, 6301096.007035994902253 ], [ 332478.33893958455883, 6301150.444454389624298 ], [ 332870.780988584738225, 6302118.094098593108356 ], [ 331832.898305566050112, 6302100.10717607755214 ], [ 332617.430756877060048, 6304035.322583949193358 ], [ 330541.507093366817571, 6303999.203903420828283 ], [ 331325.520569711807184, 6305934.370640745386481 ], [ 334439.628187091380823, 6305988.097758684307337 ], [ 335223.499116753635462, 6307922.743263764306903 ], [ 336261.605250990192872, 6307940.335278153419495 ], [ 337045.182914021541364, 6309874.64950792118907 ], [ 334968.817698186961934, 6309839.542657423764467 ], [ 335360.393116664141417, 6310806.705157566815615 ], [ 334322.169182036130223, 6310789.032000770792365 ], [ 334713.614890965458471, 6311756.182400739751756 ], [ 336790.135434394178446, 6311791.323406431823969 ], [ 337572.900741641642526, 6313725.258755473420024 ], [ 335496.22993410367053, 6313690.305760974995792 ], [ 335104.968476668815129, 6312723.273639335297048 ], [ 334066.666894713882357, 6312705.583447572775185 ], [ 334849.022579753422178, 6314639.682640654966235 ], [ 333810.643396830186248, 6314621.975387062877417 ], [ 333419.549153709900565, 6313654.908321782946587 ], [ 332381.204984396230429, 6313637.042930034920573 ], [ 333163.226297814981081, 6315571.2120301425457 ], [ 334201.645523664134089, 6315588.983353581279516 ], [ 334592.555529172066599, 6316555.932265689596534 ], [ 333554.098791602591518, 6316538.207923505455256 ], [ 333944.879170057945885, 6317505.144771529361606 ], [ 334983.373408324085176, 6317522.82216771133244 ], [ 336155.274237382167485, 6320423.13825599104166 ], [ 337193.878418459324166, 6320440.564113842323422 ], [ 337584.365203139139339, 6321407.171642044559121 ], [ 338623.004372514493298, 6321424.439843413420022 ], [ 339013.436449490720406, 6322390.941906052641571 ], [ 341090.782355874078348, 6322425.052339625544846 ], [ 340700.275355811172631, 6321458.64361328445375 ], [ 341738.907201326801442, 6321475.579185964539647 ], [ 342519.903926926432177, 6323408.244820532388985 ] ], [ [ 348559.031998307560571, 6277384.027506330981851 ], [ 345448.511606972140726, 6277334.412886860780418 ], [ 345052.840113161713816, 6276366.255203856155276 ], [ 347126.446461682440713, 6276399.539054190739989 ], [ 346730.60656666837167, 6275431.416748662479222 ], [ 347767.368229113519192, 6275447.938012760132551 ], [ 348559.031998307560571, 6277384.027506330981851 ] ], [ [ 338681.787565729115158, 6273375.531915612518787 ], [ 339718.489251608261839, 6273392.934546751901507 ], [ 340114.284897897508927, 6274361.463593175634742 ], [ 339077.545114245440345, 6274344.108866281807423 ], [ 338681.787565729115158, 6273375.531915612518787 ] ], [ [ 340509.988397859036922, 6275329.932438412681222 ], [ 340905.599746348743793, 6276298.341127825900912 ], [ 339868.783800609526224, 6276281.082101950421929 ], [ 339473.210527588962577, 6275312.625579936429858 ], [ 340509.988397859036922, 6275329.932438412681222 ] ], [ [ 336512.061864340561442, 6278148.039372771978378 ], [ 336907.206561729370151, 6279116.506784208118916 ], [ 337944.146195104229264, 6279134.071017630398273 ], [ 338734.235250955738593, 6281070.729848904535174 ], [ 339771.248503300943412, 6281088.086438441649079 ], [ 340561.044987718691118, 6283024.409785558469594 ], [ 338486.864136675314512, 6282989.775347484275699 ], [ 339276.140123469638638, 6284926.049612712115049 ], [ 337201.79783596645575, 6284891.157885180786252 ], [ 335228.296586303389631, 6280049.54488886334002 ], [ 336265.279080250824336, 6280067.285515970550478 ], [ 335870.264507915184367, 6279098.830422833561897 ], [ 334833.320018292521127, 6279081.041931359097362 ], [ 334438.251356279244646, 6278112.478748805820942 ], [ 336512.061864340561442, 6278148.039372771978378 ] ], [ [ 337548.963473409530707, 6278165.651448016986251 ], [ 338585.862672984832898, 6278183.151368290185928 ], [ 338981.083423409145325, 6279151.523125233128667 ], [ 337944.146195104229264, 6279134.071017630398273 ], [ 337548.963473409530707, 6278165.651448016986251 ] ], [ [ 339376.212035225296859, 6280119.834800200536847 ], [ 340413.184895862825215, 6280137.127036338672042 ], [ 340808.259374837623909, 6281105.330962561070919 ], [ 339771.248503300943412, 6281088.086438441649079 ], [ 339376.212035225296859, 6280119.834800200536847 ] ], [ [ 322340.318338001146913, 6271162.23537209816277 ], [ 321303.652735590003431, 6271142.938918177038431 ], [ 321698.985210516839288, 6272112.408063529059291 ], [ 320662.278922586818226, 6272093.047693504020572 ], [ 320266.984494125063065, 6271123.530075766146183 ], [ 319230.313598318141885, 6271104.00884251203388 ], [ 318834.965294577938039, 6270134.381703501567245 ], [ 321944.855861018353608, 6270192.753758038394153 ], [ 322340.318338001146913, 6271162.23537209816277 ] ], [ [ 331911.394356681965292, 6289607.293558195233345 ], [ 332305.092502313898876, 6290575.470141970552504 ], [ 331267.673078392981552, 6290557.359346248209476 ], [ 330874.012779241136741, 6289589.135057460516691 ], [ 331911.394356681965292, 6289607.293558195233345 ] ], [ [ 331661.24131093674805, 6291525.523666651919484 ], [ 332698.698570199077949, 6291543.586792979389429 ], [ 333092.212555206438992, 6292511.643556249327958 ], [ 332054.717471734096762, 6292493.628063707612455 ], [ 331661.24131093674805, 6291525.523666651919484 ] ], [ [ 332085.804801013611723, 6300182.735229094512761 ], [ 333123.609557724907063, 6300200.705462539568543 ], [ 333516.181407255353406, 6301168.36728641949594 ], [ 332478.33893958455883, 6301150.444454389624298 ], [ 332085.804801013611723, 6300182.735229094512761 ] ], [ [ 331047.997519959928468, 6300164.653480911627412 ], [ 330655.409014547767583, 6299196.837163701653481 ], [ 331693.178577971935738, 6299214.966377940028906 ], [ 332085.804801013611723, 6300182.735229094512761 ], [ 331047.997519959928468, 6300164.653480911627412 ] ], [ [ 331300.460275561898015, 6298247.137856127694249 ], [ 332338.189577064826153, 6298265.20299887098372 ], [ 332730.945612629177049, 6299232.984048286452889 ], [ 331693.178577971935738, 6299214.966377940028906 ], [ 331300.460275561898015, 6298247.137856127694249 ] ], [ [ 337451.155121108167805, 6318524.581167254596949 ], [ 338489.679389717872255, 6318541.878749428316951 ], [ 339661.641084806178696, 6321441.597166461870074 ], [ 338623.004372514493298, 6321424.439843413420022 ], [ 337451.155121108167805, 6318524.581167254596949 ] ], [ [ 341981.393828961648978, 6311877.230567866936326 ], [ 343019.638268222217448, 6311894.078527902252972 ], [ 343411.29253462475026, 6312860.794301465153694 ], [ 342373.010494414367713, 6312843.993172720074654 ], [ 341981.393828961648978, 6311877.230567866936326 ] ], [ [ 330335.681099550449289, 6285733.986993839964271 ], [ 331372.908651286154054, 6285752.224727734923363 ], [ 332554.945343107450753, 6288657.151382103562355 ], [ 331517.604138442315161, 6288639.056996600702405 ], [ 330335.681099550449289, 6285733.986993839964271 ] ], [ [ 326684.335641555197071, 6281822.522982493042946 ], [ 327721.416606646263972, 6281841.176469925791025 ], [ 328115.813252983498387, 6282809.882131074555218 ], [ 327078.694356438005343, 6282791.276663363911211 ], [ 326684.335641555197071, 6281822.522982493042946 ] ], [ [ 329006.349702004576102, 6279940.746884846128523 ], [ 332117.334362273686565, 6279995.650380279868841 ], [ 332512.104878020007163, 6280964.236818848177791 ], [ 330438.04167622490786, 6280927.842521645128727 ], [ 330832.644196663983166, 6281896.4645667206496 ], [ 329795.570868804818019, 6281878.147259794175625 ], [ 329006.349702004576102, 6279940.746884846128523 ] ], [ [ 331722.471780866500922, 6279027.003654668107629 ], [ 332759.42367013648618, 6279045.128549456596375 ], [ 333154.324242693546694, 6280013.727323193103075 ], [ 332117.334362273686565, 6279995.650380279868841 ], [ 331722.471780866500922, 6279027.003654668107629 ] ], [ [ 328611.60106785595417, 6278971.956128499470651 ], [ 328216.760406800545752, 6278003.104932388290763 ], [ 329253.681844776670914, 6278021.614325529895723 ], [ 328463.648450620239601, 6276083.826690173707902 ], [ 330537.331694495165721, 6276120.701301921159029 ], [ 330932.470441791112535, 6277089.529160887002945 ], [ 329895.592062352166977, 6277071.196057785302401 ], [ 330685.517394308059011, 6279008.766621058806777 ], [ 328611.60106785595417, 6278971.956128499470651 ] ], [ [ 327426.803024788969196, 6276065.221039132215083 ], [ 327031.686314251972362, 6275096.188251037150621 ], [ 325994.876350615348201, 6275077.422154962085187 ], [ 325204.442987431131769, 6273139.078136806376278 ], [ 328314.636973164277151, 6273195.329059252515435 ], [ 328710.01378560566809, 6274164.386656599119306 ], [ 329746.778070364496671, 6274182.864132604561746 ], [ 330142.100902286125347, 6275151.812974319793284 ], [ 328068.493717190227471, 6275114.842084780335426 ], [ 328463.648450620239601, 6276083.826690173707902 ], [ 327426.803024788969196, 6276065.221039132215083 ] ], [ [ 324562.93114966689609, 6274089.353859759867191 ], [ 323526.154039864835795, 6274070.314925963059068 ], [ 322735.688863644027151, 6272131.656074313446879 ], [ 323772.389897264656611, 6272150.791728191077709 ], [ 324562.93114966689609, 6274089.353859759867191 ] ], [ [ 323376.981316643708851, 6271181.419439872726798 ], [ 325450.299463779781945, 6271219.450426272116601 ], [ 325054.722775253059808, 6270250.114073963835835 ], [ 327127.954448334174231, 6270287.792238539084792 ], [ 327523.607299301598687, 6271257.031895827502012 ], [ 326486.954662847332656, 6271238.297349510714412 ], [ 326882.47743407485541, 6272207.524571530520916 ], [ 323772.389897264656611, 6272150.791728191077709 ], [ 323376.981316643708851, 6271181.419439872726798 ] ] ] ] } }
]
}
