{
"type": "FeatureCollection",
"name": "urban-1975",
"crs": { "type": "name", "properties": { "name": "urn:ogc:def:crs:EPSG::32719" } },
"features": [
{ "type": "Feature", "properties": { "year": 1975 }, "geometry": { "type": "MultiPolygon", "coordinates": [ [ [ [ 296422.851405777968466, 6270646.10188957490027 ], [ 296028.339227651595138, 6269675.399511134251952 ], [ 294991.641022440977395, 6269653.243395288474858 ], [ 294597.075152423698455, 6268682.429911676794291 ], [ 295633.735387367545627, 6268704.635275531560183 ], [ 295239.039890360727441, 6267733.809136629104614 ], [ 293165.792350804782473, 6267689.187301190569997 ], [ 293954.939792115008458, 6269630.974798608571291 ], [ 292918.235521406750195, 6269608.593718394637108 ], [ 293312.633835038577672, 6270579.443820955231786 ], [ 292275.888561817933805, 6270556.999554655514657 ], [ 292670.157306772191077, 6271527.837002263404429 ], [ 297854.043025918246713, 6271638.687765480950475 ], [ 297459.584563973359764, 6270668.09634467586875 ], [ 296422.851405777968466, 6270646.10188957490027 ] ] ], [ [ [ 314046.918769129784778, 6271004.716730233281851 ], [ 313651.760669742012396, 6270034.846464347094297 ], [ 309505.147557345451787, 6269953.194465492852032 ], [ 309900.153568485286087, 6270923.259760048240423 ], [ 314046.918769129784778, 6271004.716730233281851 ] ] ], [ [ [ 314046.918769129784778, 6271004.716730233281851 ], [ 314441.985007544746622, 6271974.525796763598919 ], [ 317552.144097012351267, 6272034.292404413223267 ], [ 317156.963782529986929, 6271064.629193987697363 ], [ 314046.918769129784778, 6271004.716730233281851 ] ] ], [ [ [ 319625.569984556990676, 6272073.574961885809898 ], [ 319230.313598318141885, 6271104.00884251203388 ], [ 318193.64003288152162, 6271084.375216046348214 ], [ 318983.984817884338554, 6273023.543506762012839 ], [ 320020.734448013827205, 6273043.080107362009585 ], [ 320810.787585488753393, 6274981.907659440301359 ], [ 322884.430942237260751, 6275020.450269913300872 ], [ 321698.985210516839288, 6272112.408063529059291 ], [ 319625.569984556990676, 6272073.574961885809898 ] ] ], [ [ [ 327721.416606646263972, 6281841.176469925791025 ], [ 329795.570868804818019, 6281878.147259794175625 ], [ 328611.60106785595417, 6278971.956128499470651 ], [ 327574.639097225968726, 6278953.382665080949664 ], [ 326784.941734474792611, 6277015.523542992770672 ], [ 325748.053177501540631, 6276996.741628721356392 ], [ 326537.674567834939808, 6278934.697053899057209 ], [ 322389.790555333951488, 6278858.833085959777236 ], [ 323178.740303727448918, 6280796.931689446792006 ], [ 324215.791114913881756, 6280815.96952089946717 ], [ 324610.165966361702885, 6281784.879811302758753 ], [ 326684.335641555197071, 6281822.522982493042946 ], [ 326289.884917770046741, 6280853.708890680223703 ], [ 327326.92794021096779, 6280872.410433593206108 ], [ 327721.416606646263972, 6281841.176469925791025 ] ] ], [ [ [ 330335.681099550449289, 6285733.986993839964271 ], [ 331372.908651286154054, 6285752.224727734923363 ], [ 330978.712287491653115, 6284783.795657807961106 ], [ 329941.522642381780315, 6284765.510069750249386 ], [ 330335.681099550449289, 6285733.986993839964271 ] ] ], [ [ [ 347197.345988487591967, 6327322.179020261391997 ], [ 346807.150357494596392, 6326356.248496310785413 ], [ 345768.338392362929881, 6326339.877869071438909 ], [ 344597.31028376496397, 6323441.597098350524902 ], [ 342519.903926926432177, 6323408.244820532388985 ], [ 344080.790743420133367, 6327272.874140988104045 ], [ 345119.644852802623063, 6327289.419795722700655 ], [ 345509.673386465467047, 6328255.384758129715919 ], [ 346548.562541479361244, 6328271.773361447267234 ], [ 346158.496595872216858, 6327305.854754811152816 ], [ 347197.345988487591967, 6327322.179020261391997 ] ] ], [ [ [ 340228.168466613802593, 6257043.085412925109267 ], [ 339192.132950072875246, 6257025.652385376393795 ], [ 338794.449667752254754, 6256056.322621174156666 ], [ 337758.450123079470359, 6256038.728441756218672 ], [ 338553.6479274398298, 6257977.423880537040532 ], [ 335445.405125034507364, 6257924.254995543509722 ], [ 335842.750975171918981, 6258893.656584988348186 ], [ 342059.445105084683746, 6258998.689706567674875 ], [ 341661.869448696495965, 6258029.578031297773123 ], [ 340625.797947590239346, 6258012.306059095077217 ], [ 340228.168466613802593, 6257043.085412925109267 ] ] ], [ [ [ 340142.938124534848612, 6261854.08556161262095 ], [ 339106.706447134725749, 6261836.668469211086631 ], [ 338709.560352529049851, 6260867.545858472585678 ], [ 337673.36457372555742, 6260849.967877723276615 ], [ 338070.472407531400677, 6261819.138743123970926 ], [ 337034.235990530112758, 6261801.496381231583655 ], [ 337431.213466560002416, 6262770.654808674007654 ], [ 338467.488128765020519, 6262788.2489227456972 ], [ 338864.411732225911692, 6263757.298462331295013 ], [ 339900.722259808098897, 6263774.731787109747529 ], [ 339503.760417960234918, 6262805.73043018206954 ], [ 340540.030349348264281, 6262823.09933309815824 ], [ 340142.938124534848612, 6261854.08556161262095 ] ] ], [ [ [ 340694.369535817066208, 6265712.552871566265821 ], [ 339657.982565043959767, 6265695.215804170817137 ], [ 338864.411732225911692, 6263757.298462331295013 ], [ 337828.098836026212666, 6263739.75256008002907 ], [ 338224.892093724338338, 6264708.789681170135736 ], [ 337188.538595291785896, 6264691.179404327645898 ], [ 337585.20152882754337, 6265660.204109819605947 ], [ 334476.012009320606012, 6265606.842637457884848 ], [ 335268.83244855934754, 6267544.999409940093756 ], [ 336305.307725226855837, 6267562.80268912948668 ], [ 335908.905375235248357, 6266593.802806101739407 ], [ 337981.772351403837092, 6266629.168240377679467 ], [ 338774.637642917572521, 6268566.914959214627743 ], [ 340847.647801232640631, 6268601.638158206827939 ], [ 340054.629784024611581, 6266664.08369773812592 ], [ 341091.054959614120889, 6266681.372690375894308 ], [ 340694.369535817066208, 6265712.552871566265821 ] ] ], [ [ [ 338774.637642917572521, 6268566.914959214627743 ], [ 337738.129005766415503, 6268549.384706921875477 ], [ 338134.38530630338937, 6269518.215440830215812 ], [ 339170.932101489626803, 6269535.697638671845198 ], [ 338774.637642917572521, 6268566.914959214627743 ] ] ], [ [ [ 337493.962160748254973, 6270469.439187265001237 ], [ 338530.549486327334307, 6270486.985746260732412 ], [ 338134.38530630338937, 6269518.215440830215812 ], [ 337097.836123173474334, 6269500.620834124274552 ], [ 337493.962160748254973, 6270469.439187265001237 ] ] ], [ [ [ 339121.538273483864032, 6309909.311473492532969 ], [ 339904.897757889237255, 6311843.20118179358542 ], [ 340943.146997417381499, 6311860.271453187800944 ], [ 340551.475739015149884, 6310893.403038408607244 ], [ 341589.684963162173517, 6310910.409048757515848 ], [ 341197.883902026573196, 6309943.528571050614119 ], [ 342236.053106404957362, 6309960.470299549400806 ], [ 341452.099139279103838, 6308026.626200539059937 ], [ 342490.190669992472976, 6308043.550569836050272 ], [ 342882.251401206245646, 6309010.455181924626231 ], [ 343920.37820685718907, 6309027.221369985491037 ], [ 344312.384373790759128, 6309994.020126323215663 ], [ 345350.546468162094243, 6310010.62822868861258 ], [ 344566.36660977662541, 6308077.065509843640029 ], [ 345604.451050174189731, 6308093.656084639951587 ], [ 345212.185107860655989, 6307126.833213266916573 ], [ 347288.271645957429428, 6307159.774278407916427 ], [ 347680.612950299400836, 6308126.503453936427832 ], [ 349756.765647293592338, 6308158.905796163715422 ], [ 348971.840003603952937, 6306225.575786142610013 ], [ 350009.837534917402081, 6306241.703604811802506 ], [ 349617.198587661492638, 6305274.99714511167258 ], [ 351693.11142496089451, 6305307.012404170818627 ], [ 352478.447921151120681, 6307240.179473824799061 ], [ 355592.526835885189939, 6307287.087263125926256 ], [ 356377.72036461927928, 6309219.739809731021523 ], [ 355339.620831054751761, 6309204.308319551870227 ], [ 355732.04137470968999, 6310170.593324603512883 ], [ 354693.901960919552948, 6310155.097179731354117 ], [ 355870.4964933632873, 6313053.740785488858819 ], [ 356908.748922912753187, 6313069.097463596612215 ], [ 356516.605425567599013, 6312102.987852472811937 ], [ 357554.818021679937374, 6312118.27985714841634 ], [ 357162.544494038447738, 6311152.158285433426499 ], [ 358200.717252131260466, 6311167.385595770552754 ], [ 358593.028461064677685, 6312133.460736589506269 ], [ 359631.236759429099038, 6312148.530492649413645 ], [ 358846.446588079095818, 6310216.414655935019255 ], [ 360922.706030523346271, 6310246.4063093457371 ], [ 360530.09694780386053, 6309280.353666390292346 ], [ 361568.185784217494074, 6309295.229113780893385 ], [ 361175.446575195412152, 6308329.164514921605587 ], [ 363251.542506677680649, 6308358.674556740559638 ], [ 362858.635396577534266, 6307392.644397400319576 ], [ 361820.626224733307026, 6307377.898593615740538 ], [ 361034.610299431253225, 6305445.570251706987619 ], [ 359996.674571007315535, 6305430.620228801853955 ], [ 359603.565793630783446, 6304464.321822887286544 ], [ 360641.463740888051689, 6304479.318378718569875 ], [ 359461.469740788452327, 6301580.211420446634293 ], [ 358423.685202570282854, 6301565.075053716078401 ], [ 357636.636308835004456, 6299631.950471333228052 ], [ 359712.051940099219792, 6299662.298481890931726 ], [ 358530.558788672555238, 6296762.451212446205318 ], [ 359568.149833029950969, 6296777.598150508478284 ], [ 357991.380963664327282, 6292910.498448822647333 ], [ 359028.818261050386354, 6292925.721083048731089 ], [ 358634.357210898306221, 6291958.845701722428203 ], [ 356559.556361136958003, 6291928.194900682196021 ], [ 356165.078844131785445, 6290961.166607771068811 ], [ 359277.163093909504823, 6291007.116057485342026 ], [ 358487.70327862969134, 6289073.164055483415723 ], [ 357450.419925498310477, 6289057.865387270227075 ], [ 356265.651542483479716, 6286156.352878376841545 ], [ 358339.988139503169805, 6286187.120655634440482 ], [ 357944.804637379362248, 6285219.925568704493344 ], [ 356907.675425990077201, 6285204.55052784178406 ], [ 356117.107468655332923, 6283269.888285681605339 ], [ 357154.160599623341113, 6283285.357628092169762 ], [ 356758.700074016465805, 6282317.984684681519866 ], [ 357795.713018343085423, 6282333.389226843602955 ], [ 357400.122089239303023, 6281366.004119025543332 ], [ 358437.0948420726927, 6281381.343840387649834 ], [ 358832.723848167806864, 6282348.681766387075186 ], [ 359869.732578896568157, 6282363.862305167131126 ], [ 359474.065491179411765, 6281396.57153195142746 ], [ 360511.034051955735777, 6281411.687195566482842 ], [ 359719.346598520583939, 6279477.022019155323505 ], [ 355571.764530546264723, 6279415.509423015639186 ], [ 355175.93471061217133, 6278447.89870873093605 ], [ 354139.071973623824306, 6278432.192988286726177 ], [ 353743.187954621273093, 6277464.475336039438844 ], [ 349595.867618215852417, 6277400.341387275606394 ], [ 349200.043750612996519, 6276432.374134358949959 ], [ 348163.2462309243856, 6276416.012689543887973 ], [ 348559.031998307560571, 6277384.027506330981851 ], [ 346485.354008040972985, 6277351.063258126378059 ], [ 347671.929425175767392, 6280255.034216366708279 ], [ 348708.883757501491345, 6280271.429770501330495 ], [ 349104.262484956183471, 6281239.253048922866583 ], [ 344956.279360710061155, 6281173.188446534797549 ], [ 343770.323066105134785, 6278268.96871897764504 ], [ 342733.435683576215524, 6278252.029541959986091 ], [ 341546.763906726031564, 6275347.127062929794192 ], [ 340509.988397859036922, 6275329.932438412681222 ], [ 341696.545968360849656, 6278234.978220460936427 ], [ 339622.75947842746973, 6278200.539135714992881 ], [ 340808.259374837623909, 6281105.330962561070919 ], [ 339771.248503300943412, 6281088.086438441649079 ], [ 340955.80499382072594, 6283992.481584765017033 ], [ 339918.677788870991208, 6283975.268004352226853 ], [ 341496.644338748010341, 6287847.147270433604717 ], [ 340459.362987558357418, 6287830.012005663476884 ], [ 340853.586290861014277, 6288797.87991557829082 ], [ 339816.264650624769274, 6288780.680299057625234 ], [ 339422.079255944350734, 6287812.764875201508403 ], [ 337347.504589606192894, 6287777.935008799657226 ], [ 336559.009025722334627, 6285841.734323158860207 ], [ 337596.221731826546602, 6285859.300442665815353 ], [ 336807.281815235794056, 6283922.955373995006084 ], [ 335770.14498636231292, 6283905.29386043921113 ], [ 334586.158125665620901, 6281000.182794185355306 ], [ 333549.13273841724731, 6280982.265845654532313 ], [ 334733.005712961254176, 6283887.520358268171549 ], [ 332658.719770897529088, 6283851.637379419058561 ], [ 331869.715009575011209, 6281914.669817950576544 ], [ 329795.570868804818019, 6281878.147259794175625 ], [ 330978.712287491653115, 6284783.795657807961106 ], [ 332015.899415355292149, 6284801.969275495037436 ], [ 333198.326011664466932, 6287706.932794513180852 ], [ 332161.02518424729351, 6287688.902544728480279 ], [ 332948.773423363803886, 6289625.340232218615711 ], [ 331911.394356681965292, 6289607.293558195233345 ], [ 333092.212555206438992, 6292511.643556249327958 ], [ 334129.705141139915213, 6292529.547309568151832 ], [ 334523.164855647890363, 6293497.496661056764424 ], [ 335560.692781482473947, 6293515.241137444972992 ], [ 335954.098202578839846, 6294483.08322240319103 ], [ 334916.532465916243382, 6294465.386250331997871 ], [ 335309.807966836844571, 6295433.21612230874598 ], [ 334272.201961717451923, 6295415.454969394952059 ], [ 334665.347564000345301, 6296383.272631321102381 ], [ 332590.052530374261551, 6296347.510380197316408 ], [ 333768.710134092427325, 6299250.890176933258772 ], [ 332730.945612629177049, 6299232.984048286452889 ], [ 333123.609557724907063, 6300200.705462539568543 ], [ 335199.211560447351076, 6300236.311393961310387 ], [ 335984.414007181418128, 6302171.386136220768094 ], [ 334946.538823790382594, 6302153.73357649333775 ], [ 335338.964160153525881, 6303121.229052485898137 ], [ 334301.048799249110743, 6303103.512342019937932 ], [ 333908.661156126123387, 6302135.969564671628177 ], [ 332870.780988584738225, 6302118.094098593108356 ], [ 333263.130942921387032, 6303085.684206436388195 ], [ 332225.210575555916876, 6303067.744643563404679 ], [ 333009.558844439568929, 6305002.84104192443192 ], [ 335085.547747934469953, 6305038.419572719372809 ], [ 336653.440153107279912, 6308907.521987413987517 ], [ 339767.856674231414218, 6308959.489182743243873 ], [ 340159.712296279671136, 6309926.475629724562168 ], [ 339121.538273483864032, 6309909.311473492532969 ] ], [ [ 356363.147217283258215, 6281350.552365999668837 ], [ 355967.502034449949861, 6280383.060627102851868 ], [ 357004.438823010423221, 6280398.559626668691635 ], [ 357400.122089239303023, 6281366.004119025543332 ], [ 356363.147217283258215, 6281350.552365999668837 ] ], [ [ 334693.344331544358283, 6304070.995663150213659 ], [ 335731.297374617424794, 6304088.665107696317136 ], [ 336123.538462111435365, 6305056.041786764748394 ], [ 335085.547747934469953, 6305038.419572719372809 ], [ 334693.344331544358283, 6304070.995663150213659 ] ], [ [ 356630.548759670055006, 6307302.500649755820632 ], [ 356237.775747013511136, 6306336.133096620440483 ], [ 357275.757765768561512, 6306351.481793127954006 ], [ 357668.568518988206051, 6307317.802767957560718 ], [ 356630.548759670055006, 6307302.500649755820632 ] ], [ [ 338199.512493484013248, 6305090.952122895047069 ], [ 337807.196050351602025, 6304123.669817445799708 ], [ 338845.141714259574655, 6304141.005086915567517 ], [ 339237.495841945928987, 6305108.240249233320355 ], [ 338199.512493484013248, 6305090.952122895047069 ] ], [ [ 349745.835843012202531, 6280287.713248485699296 ], [ 349350.326809433870949, 6279319.877740658819675 ], [ 350387.238596531155054, 6279336.09660111926496 ], [ 350782.785697090672329, 6280303.884652302600443 ], [ 349745.835843012202531, 6280287.713248485699296 ] ] ] ] } }
]
}
