{
"type": "FeatureCollection",
"name": "urban-2040",
"crs": { "type": "name", "properties": { "name": "urn:ogc:def:crs:EPSG::32636" } },
"features": [
{ "type": "Feature", "properties": { "year": 2040 }, "geometry": { "type": "MultiPolygon", "coordinates": [ [ [ [ 745283.439057727460749, 3509913.414186316076666 ], [ 744237.892339533660561, 3509888.635257803369313 ], [ 744926.319307554978877, 3513722.034212055150419 ], [ 745971.723282136023045, 3513746.912866057828069 ], [ 745283.439057727460749, 3509913.414186316076666 ] ] ], [ [ [ 742307.216168132144958, 3516523.296340225730091 ], [ 744397.78938546415884, 3516572.672293927986175 ], [ 744915.038710157619789, 3519448.457240153569728 ], [ 747005.413617882644758, 3519498.408331299200654 ], [ 746143.899683393072337, 3514705.39140383945778 ], [ 744053.167251070262864, 3514655.690353981219232 ], [ 744225.457241491880268, 3515614.160535295959562 ], [ 742134.812539770151488, 3515564.834443233907223 ], [ 742307.216168132144958, 3516523.296340225730091 ] ] ], [ [ [ 754310.554689003620297, 3525404.717826273757964 ], [ 753965.747466860455461, 3523486.582469616550952 ], [ 751875.609276094008237, 3523435.153156915679574 ], [ 751530.826935849268921, 3521517.286335486918688 ], [ 748395.436056671314873, 3521441.092069020494819 ], [ 748912.995051892474294, 3524317.72824815614149 ], [ 749958.013728380668908, 3524343.095439017284662 ], [ 750130.581733844126575, 3525302.082963030319661 ], [ 754310.554689003620297, 3525404.717826273757964 ] ], [ [ 752048.063535145483911, 3524394.149314398411661 ], [ 751003.036550365854055, 3524368.569126703776419 ], [ 750830.546458299970254, 3523409.598213844466954 ], [ 751875.609276094008237, 3523435.153156915679574 ], [ 752048.063535145483911, 3524394.149314398411661 ] ] ], [ [ [ 747859.654990374692716, 3530021.412766852881759 ], [ 750994.05285359651316, 3530097.648715308401734 ], [ 750821.274493626784533, 3529138.451744623482227 ], [ 751866.117965403012931, 3529164.051750447135419 ], [ 751520.759220016654581, 3527245.733005965594202 ], [ 752565.678633323521353, 3527271.389023021794856 ], [ 752393.098216654965654, 3526312.267226679250598 ], [ 750303.191815989674069, 3526261.112334829289466 ], [ 750130.581733844126575, 3525302.082963030319661 ], [ 749085.598904070211574, 3525276.690569133963436 ], [ 749430.932871790137142, 3527194.740727458614856 ], [ 748386.025902327965014, 3527169.40445964038372 ], [ 748558.791895846137777, 3528128.467116466723382 ], [ 747513.924924364546314, 3528103.212232080288231 ], [ 747859.654990374692716, 3530021.412766852881759 ] ] ], [ [ [ 747859.654990374692716, 3530021.412766852881759 ], [ 746814.863922906690277, 3529996.214107889216393 ], [ 746987.828026683535427, 3530955.352008334826678 ], [ 745943.076963084284216, 3530930.234822430182248 ], [ 746289.203371888492256, 3532848.585955226793885 ], [ 745244.528256153455004, 3532823.525094019714743 ], [ 745590.8950519785285, 3534741.993542932905257 ], [ 748724.716827899683267, 3534817.64778576977551 ], [ 748378.56582063366659, 3532899.027900107204914 ], [ 749423.25318808038719, 3532924.408990073949099 ], [ 749077.342417821986601, 3531005.90643955161795 ], [ 748032.583172518061474, 3530980.575879658572376 ], [ 747859.654990374692716, 3530021.412766852881759 ] ] ], [ [ [ 759689.521140306955203, 3537955.780244619585574 ], [ 758644.975959685631096, 3537929.310396644286811 ], [ 758817.916695189662278, 3538889.038845704402775 ], [ 759862.425865090917796, 3538915.534321528859437 ], [ 759689.521140306955203, 3537955.780244619585574 ] ] ], [ [ [ 742977.29980261286255, 3537545.091134963091463 ], [ 741932.820717221591622, 3537520.331603239290416 ], [ 742279.896897634374909, 3539439.018215406220406 ], [ 743324.303924131556414, 3539463.828098365105689 ], [ 743497.869199469685555, 3540423.259594108909369 ], [ 744542.244183124857955, 3540448.201633955352008 ], [ 744368.71495451615192, 3539488.744909856002778 ], [ 745413.130005941493437, 3539513.768652982544154 ], [ 744892.903176705585793, 3536635.574915774166584 ], [ 742803.860962207429111, 3536585.785625604446977 ], [ 742977.29980261286255, 3537545.091134963091463 ] ] ], [ [ [ 755332.681679942994379, 3542623.053212741855532 ], [ 755159.428864644491114, 3541663.258175866212696 ], [ 756203.81298193091061, 3541689.402514660730958 ], [ 755857.505451249540783, 3539769.888017208315432 ], [ 753768.597233284381218, 3539717.808514082804322 ], [ 754288.33781967125833, 3542596.990346922073513 ], [ 755332.681679942994379, 3542623.053212741855532 ] ] ], [ [ [ 743321.924461953574792, 3550929.665697216056287 ], [ 743496.067602998809889, 3551889.552263741381466 ], [ 744540.001068538753316, 3551914.583692519925535 ], [ 744714.150132232811302, 3552874.537894650828093 ], [ 745758.051390398060903, 3552899.702030797954649 ], [ 745409.867777587031014, 3550979.785098598338664 ], [ 746453.845447829109617, 3551005.005708096083254 ], [ 746279.852980855852365, 3550045.085248798131943 ], [ 744191.8292934600031, 3549994.8020841460675 ], [ 744365.894121309393086, 3550954.671762680169195 ], [ 743321.924461953574792, 3550929.665697216056287 ] ] ], [ [ [ 760197.979766850708984, 3558038.804965700488538 ], [ 759154.20613701781258, 3558012.116122745908797 ], [ 759502.108367107692175, 3559933.242920576129109 ], [ 760545.809447973035276, 3559959.983537761960179 ], [ 760197.979766850708984, 3558038.804965700488538 ] ] ], [ [ [ 759851.988267115899362, 3567592.617262766230851 ], [ 761938.804829745553434, 3567646.406182217877358 ], [ 762113.117826987290755, 3568607.401552743744105 ], [ 764199.87859821296297, 3568661.673861130606383 ], [ 764025.638380232034251, 3567700.626322573516518 ], [ 762982.219473066856153, 3567673.462348102591932 ], [ 762807.984751979471184, 3566712.483760375063866 ], [ 759677.644410946173593, 3566631.716748768463731 ], [ 759851.988267115899362, 3567592.617262766230851 ] ] ], [ [ [ 743508.029510184191167, 3569098.931351443286985 ], [ 743683.081873885123059, 3570059.547548328991979 ], [ 742639.854284155997448, 3570034.462506451178342 ], [ 742990.158229913678952, 3571955.771587893366814 ], [ 744033.312926624901593, 3571980.907787948846817 ], [ 744383.712393483729102, 3573902.438629905227572 ], [ 743340.630638593691401, 3573877.251206835266203 ], [ 743691.271486593876034, 3575798.901532820425928 ], [ 742648.266655854415148, 3575773.770824758801609 ], [ 743174.653279842692427, 3578656.489793475717306 ], [ 742131.761948197497986, 3578631.390204284340143 ], [ 742307.344926562160254, 3579592.356372716836631 ], [ 744393.05840595276095, 3579642.714984962716699 ], [ 744042.080750272958539, 3577720.722735567484051 ], [ 745085.016474994365126, 3577746.012799378950149 ], [ 744909.627318541170098, 3576785.055143255274743 ], [ 745952.603520215372555, 3576810.427557353395969 ], [ 745251.613789584953338, 3572966.921596182044595 ], [ 746294.739934151992202, 3572992.299242149572819 ], [ 745944.570501441601664, 3571070.751168681308627 ], [ 748030.980575910187326, 3571121.727457541506737 ], [ 747506.260602371534333, 3568239.571324795484543 ], [ 748549.580924536567181, 3568265.144183611962944 ], [ 748374.794795687310398, 3567304.485095937736332 ], [ 750461.520339107722975, 3567355.902772380970418 ], [ 750112.219777893042192, 3565434.609711992088705 ], [ 749068.782223942573182, 3565408.898390040267259 ], [ 748894.158638356951997, 3564448.341469348873943 ], [ 749937.632554035168141, 3564474.027115943375975 ], [ 749763.087371957488358, 3563513.487114450428635 ], [ 747676.070882843690924, 3563462.274790431372821 ], [ 747501.495070037664846, 3562501.828619624488056 ], [ 748545.037632058258168, 3562527.355341993272305 ], [ 748196.084865265060216, 3560606.53935915697366 ], [ 747152.469663549098186, 3560581.06381682632491 ], [ 746280.642562818946317, 3555779.894801939837635 ], [ 745236.849992908304557, 3555754.6543447826989 ], [ 746283.386464154580608, 3561516.031434573698789 ], [ 745239.815604899777099, 3561490.745487251784652 ], [ 745065.251309261890128, 3560530.435412845574319 ], [ 742978.048907496035099, 3560480.237228814978153 ], [ 743851.654758928809315, 3565281.957342304289341 ], [ 742808.241208548541181, 3565256.89222308062017 ], [ 743158.051122849923559, 3567177.826697712764144 ], [ 744201.391903733601794, 3567202.942870795726776 ], [ 744026.502276823623106, 3566242.42883664323017 ], [ 745069.883407693821937, 3566267.627196075860411 ], [ 744720.303227368975058, 3564346.675647016614676 ], [ 745763.761076182126999, 3564371.930594323202968 ], [ 746637.845299679669552, 3569174.756652639713138 ], [ 745594.569397037150338, 3569149.373742452356964 ], [ 745419.631975337397307, 3568188.74896909436211 ], [ 742289.718824885087088, 3568113.32379313884303 ], [ 742464.765492238337174, 3569073.871864358894527 ], [ 743508.029510184191167, 3569098.931351443286985 ] ], [ [ 745589.070491298451088, 3563411.49305688822642 ], [ 746632.568683335790411, 3563436.830101433210075 ], [ 746807.222916342434473, 3564397.293211710173637 ], [ 745763.761076182126999, 3564371.930594323202968 ], [ 745589.070491298451088, 3563411.49305688822642 ] ] ], [ [ [ 761942.119315494201146, 3573385.916844097431749 ], [ 762985.311184576712549, 3573413.021692697890103 ], [ 762810.788740251446143, 3572451.811822119634598 ], [ 763854.02131134213414, 3572478.998498189263046 ], [ 763679.577189355157316, 3571517.805435713846236 ], [ 761593.043418805580586, 3571463.592273070476949 ], [ 761942.119315494201146, 3573385.916844097431749 ] ] ], [ [ [ 761597.732093695318326, 3577203.98012016993016 ], [ 760554.694610842270777, 3577176.986798480618745 ], [ 760379.895158570958301, 3576215.683418508153409 ], [ 756207.641073371865787, 3576108.895161561202258 ], [ 756032.737562989466824, 3575147.738924340810627 ], [ 752903.48099455924239, 3575068.859997765626758 ], [ 753428.64594986604061, 3577952.223866344429553 ], [ 755514.593844214919955, 3578004.857460561674088 ], [ 755689.659746988676488, 3578966.116486388258636 ], [ 756732.603335292544216, 3578992.621443074196577 ], [ 756907.674656173214316, 3579953.94946459447965 ], [ 755864.767610138747841, 3579927.418474006932229 ], [ 756039.917430657194927, 3580888.763444747310132 ], [ 758125.662552149966359, 3580941.985711752437055 ], [ 758300.781194097129628, 3581903.425848714541644 ], [ 760386.469806251698174, 3581957.133147901855409 ], [ 760211.424294600263238, 3580995.640733878128231 ], [ 761254.311440560384654, 3581022.63053641654551 ], [ 760904.419227618491277, 3579099.722581130918115 ], [ 761947.383669321425259, 3579126.768210078123957 ], [ 761597.732093695318326, 3577203.98012016993016 ] ] ], [ [ [ 747697.100474062608555, 3580680.201403260231018 ], [ 749782.780451842118055, 3580731.692911581601948 ], [ 749607.411289484822191, 3579770.503636777866632 ], [ 750650.293860597535968, 3579796.385756099130958 ], [ 750475.003275646478869, 3578835.213505760300905 ], [ 747346.257965220720507, 3578757.969042979646474 ], [ 747697.100474062608555, 3580680.201403260231018 ] ] ], [ [ [ 745435.921042267000303, 3579668.056466604582965 ], [ 744393.05840595276095, 3579642.714984962716699 ], [ 744568.610373381990939, 3580603.775305290706456 ], [ 745611.436447149841115, 3580629.142520237248391 ], [ 745435.921042267000303, 3579668.056466604582965 ] ] ], [ [ [ 742658.637229897780344, 3581514.417045813985169 ], [ 742834.346548944711685, 3582475.511593014001846 ], [ 744919.840572581044398, 3582526.02444357983768 ], [ 744744.204429914942011, 3581564.878451068885624 ], [ 743701.418869161978364, 3581539.59366218931973 ], [ 743525.788237066823058, 3580578.516237190924585 ], [ 741440.155709771905094, 3580528.322529017459601 ], [ 741615.859495374839753, 3581489.348598821554333 ], [ 742658.637229897780344, 3581514.417045813985169 ] ] ], [ [ [ 760386.469806251698174, 3581957.133147901855409 ], [ 760561.557220147224143, 3582918.668652921915054 ], [ 761604.371225458802655, 3582945.710835318081081 ], [ 761429.320388029562309, 3581984.14913222193718 ], [ 760386.469806251698174, 3581957.133147901855409 ] ] ], [ [ [ 769079.024608498904854, 3584099.826622182969004 ], [ 766993.414477608399466, 3584044.281997880432755 ], [ 766643.636723508941941, 3582120.852535451762378 ], [ 764557.897437043255195, 3582065.846464316360652 ], [ 764732.838548803701997, 3583027.486934679094702 ], [ 761604.371225458802655, 3582945.710835318081081 ], [ 761779.463949815952219, 3583907.315667105838656 ], [ 762822.245573745341972, 3583934.492349168751389 ], [ 762997.343581570312381, 3584896.166590585373342 ], [ 764040.092829783214256, 3584923.477849678136408 ], [ 764215.196094051934779, 3585885.221583624370396 ], [ 763172.48345795320347, 3585857.884019840508699 ], [ 763347.665199848474003, 3586819.644658375997096 ], [ 767518.394769012928009, 3586929.750482695642859 ], [ 767343.359521253034472, 3585967.884386990685016 ], [ 768386.089225623989478, 3585995.655370166059583 ], [ 768211.132403907831758, 3585033.80612895032391 ], [ 769253.903026306070387, 3585061.659026584587991 ], [ 769079.024608498904854, 3584099.826622182969004 ] ] ], [ [ [ 752219.194612850085832, 3582706.228026524186134 ], [ 751176.417715351912193, 3582680.16000294778496 ], [ 751351.876356928725727, 3583641.50398825481534 ], [ 750309.140094378148206, 3583615.518262073863298 ], [ 750133.64485727972351, 3582654.200202906504273 ], [ 749090.876021899050102, 3582628.348623183555901 ], [ 749441.981719783390872, 3584550.9759013466537 ], [ 750484.677350405720063, 3584576.879292025230825 ], [ 750660.256622366257943, 3585538.283314111176878 ], [ 749617.597612512297928, 3585512.353993510361761 ], [ 749793.255530440132134, 3586473.775082863401622 ], [ 748750.637162508675829, 3586447.928148379083723 ], [ 748926.373748664278537, 3587409.366322556510568 ], [ 751011.541202087653801, 3587461.220420142170042 ], [ 750835.877907261019573, 3586499.730349693447351 ], [ 751878.504309668438509, 3586525.79395208414644 ], [ 751702.919657088117674, 3585564.320941460318863 ], [ 752745.586733383475803, 3585590.466878781560808 ], [ 752219.194612850085832, 3582706.228026524186134 ] ] ], [ [ [ 764565.528179162414744, 3587808.838749784976244 ], [ 763522.888804211514071, 3587781.448527639731765 ], [ 763347.665199848474003, 3586819.644658375997096 ], [ 761262.325837562209927, 3586765.242010980378836 ], [ 761437.622717200312763, 3587726.99329209048301 ], [ 758309.754993657581508, 3587646.123410132713616 ], [ 757958.983323149615899, 3585722.821328836493194 ], [ 752745.586733383475803, 3585590.466878781560808 ], [ 752921.134754359722137, 3586551.96589326299727 ], [ 756049.050509093212895, 3586631.131782022304833 ], [ 756224.53058796399273, 3587592.752097446937114 ], [ 754139.322621210012585, 3587539.814307440537959 ], [ 754314.91795448504854, 3588501.425543626304716 ], [ 752229.799604805419222, 3588448.869148262310773 ], [ 752405.510241345735267, 3589410.471376605797559 ], [ 756575.616579247871414, 3589516.122163320891559 ], [ 756400.052612357074395, 3588554.415550739038736 ], [ 761612.961480874102563, 3588688.787792722228914 ], [ 761963.764648154843599, 3590612.50653838692233 ], [ 759878.735314714023843, 3590558.327277637086809 ], [ 760054.273088448215276, 3591520.198962099850178 ], [ 759011.801361643359996, 3591493.245790586341172 ], [ 759187.417733220150694, 3592455.134472897741944 ], [ 763357.182879217201844, 3592563.703480643220246 ], [ 763181.713309372076765, 3591601.709525845013559 ], [ 764224.201785336481407, 3591629.096741375979036 ], [ 764048.810761611326598, 3590667.119734473526478 ], [ 765091.340152483666316, 3590694.589066713117063 ], [ 764565.528179162414744, 3587808.838749784976244 ] ], [ [ 763698.154267993988469, 3588743.295649096369743 ], [ 763873.461588145117275, 3589705.186044211499393 ], [ 762830.899751315242611, 3589677.851560092996806 ], [ 762655.555769209051505, 3588715.98750615445897 ], [ 763698.154267993988469, 3588743.295649096369743 ] ] ], [ [ [ 745636.133659988525324, 3592114.276836621575058 ], [ 744593.755168687086552, 3592088.816533043514937 ], [ 743713.524699271074496, 3587281.627287138719112 ], [ 744756.086623428971507, 3587306.958397372625768 ], [ 744580.203445720020682, 3586345.623670051340014 ], [ 743537.604871766059659, 3586320.318349531386048 ], [ 742834.346548944711685, 3582475.511593014001846 ], [ 741791.605403803987429, 3582450.417466547340155 ], [ 743199.088737049722113, 3590140.511688929051161 ], [ 742156.644642770057544, 3590115.319965586066246 ], [ 743214.245647526811808, 3595884.540578001644462 ], [ 744256.469355518231168, 3595909.887330832425505 ], [ 744080.134039618074894, 3594948.217053272761405 ], [ 745122.398408347624354, 3594973.646496374625713 ], [ 744946.141922271810472, 3594011.993424022104591 ], [ 745988.446954553131945, 3594037.505519290920347 ], [ 745636.133659988525324, 3592114.276836621575058 ] ] ], [ [ [ 741980.525170439039357, 3589153.93372870516032 ], [ 740938.048265729914419, 3589128.876179908402264 ], [ 741114.204426974989474, 3590090.236664515919983 ], [ 742156.644642770057544, 3590115.319965586066246 ], [ 741980.525170439039357, 3589153.93372870516032 ] ] ], [ [ [ 759890.302246588049456, 3596303.122195413801819 ], [ 757805.738482820801437, 3596249.278713677078485 ], [ 757629.881003345130011, 3595287.269385198131204 ], [ 754502.955923713976517, 3595207.39763068780303 ], [ 754151.146323232445866, 3593283.666083439718932 ], [ 755193.524066588492133, 3593310.129052613861859 ], [ 754841.955744692590088, 3591386.518097655382007 ], [ 753799.504579783417284, 3591360.107406184542924 ], [ 753623.746662007994018, 3590398.392840156331658 ], [ 752581.262866518460214, 3590372.116720331367105 ], [ 752405.510241345735267, 3589410.471376605797559 ], [ 751362.993809524225071, 3589384.329751182813197 ], [ 751187.246503844042309, 3588422.753546841442585 ], [ 750144.697429899475537, 3588396.74633861053735 ], [ 750320.481405428727157, 3589358.296547766774893 ], [ 748235.468613737029955, 3589306.555394077673554 ], [ 748411.367968877428211, 3590268.096749362535775 ], [ 747368.904232249595225, 3590242.36286760494113 ], [ 747544.882318713585846, 3591203.921352931298316 ], [ 750672.175393064040691, 3591281.526235638651997 ], [ 750848.085399152478203, 3592243.205757181625813 ], [ 751890.487720007076859, 3592269.31704416917637 ], [ 752242.360291392775252, 3594192.857687081675977 ], [ 751200.031420812360011, 3594166.694262632634491 ], [ 751552.145435007754713, 3596090.355527570936829 ], [ 749467.646724188234657, 3596038.250131187029183 ], [ 749643.840259409160353, 3597000.093436562921852 ], [ 748601.63365679862909, 3596974.177621548995376 ], [ 748777.905988297658041, 3597936.038092520087957 ], [ 756073.178977434523404, 3598119.913408591877669 ], [ 755897.164109564968385, 3597157.869940731674433 ], [ 757981.63788050878793, 3597211.331373253371567 ], [ 758157.579193361336365, 3598173.42738544754684 ], [ 759199.785468360874802, 3598200.347419034689665 ], [ 759023.880932060768828, 3597238.22509140567854 ], [ 760066.12811645551119, 3597265.227481917478144 ], [ 759890.302246588049456, 3596303.122195413801819 ] ], [ [ 754854.933356991503388, 3597131.302219748497009 ], [ 754678.923662768560462, 3596169.328284244518727 ], [ 755721.191181506728753, 3596195.869792708661407 ], [ 755897.164109564968385, 3597157.869940731674433 ], [ 754854.933356991503388, 3597131.302219748497009 ] ] ], [ [ [ 766484.550915464060381, 3592646.269946293439716 ], [ 764399.634656263166107, 3592591.117086421232671 ], [ 764750.625927473651245, 3594515.287877018097788 ], [ 762665.873457072186284, 3594460.46360886702314 ], [ 762841.505323645775206, 3595422.561247591394931 ], [ 759714.518270280677825, 3595341.060272784437984 ], [ 759890.302246588049456, 3596303.122195413801819 ], [ 761974.88260560866911, 3596357.400264567229897 ], [ 762150.634950129315257, 3597319.558293391484767 ], [ 765277.426611698465422, 3597401.869637246243656 ], [ 765101.784550727228634, 3596439.632278522010893 ], [ 764059.479692678665742, 3596412.112947999034077 ], [ 763883.842715325183235, 3595449.945490874350071 ], [ 767010.880244543310255, 3595532.750023205764592 ], [ 766484.550915464060381, 3592646.269946293439716 ] ] ], [ [ [ 762778.168106807395816, 3491263.688823278062046 ], [ 762948.62409697426483, 3492221.673286704346538 ], [ 765041.251592678017914, 3492274.829140963964164 ], [ 764530.22190561844036, 3489400.84873270150274 ], [ 765576.648538094945252, 3489427.509322211612016 ], [ 765236.242536802077666, 3487511.678921768907458 ], [ 763143.252267620759085, 3487458.563976814970374 ], [ 763824.515040058875456, 3491290.188764018937945 ], [ 762778.168106807395816, 3491263.688823278062046 ] ] ], [ [ [ 764677.037397416774184, 3496080.651525178458542 ], [ 765018.339921773411334, 3497997.127042758278549 ], [ 763972.241114945616573, 3497970.450401152018458 ], [ 764313.782366910018027, 3499887.041488138958812 ], [ 765359.810172337805852, 3499913.768757425714284 ], [ 765189.054082723800093, 3498955.427115165162832 ], [ 768327.270822827355005, 3499036.167666259687394 ], [ 768156.663141609169543, 3498077.791503401938826 ], [ 767110.55091755639296, 3498050.797590519767255 ], [ 766769.390295455232263, 3496134.220771078951657 ], [ 764677.037397416774184, 3496080.651525178458542 ] ] ], [ [ [ 762926.146745424019173, 3497943.87950992770493 ], [ 761880.056795660057105, 3497917.414365756791085 ], [ 762050.877442893804982, 3498875.638606561813504 ], [ 763096.931896486785263, 3498902.128999176435173 ], [ 762926.146745424019173, 3497943.87950992770493 ] ] ], [ [ [ 763780.49199898680672, 3502735.542545336764306 ], [ 762734.579650300554931, 3502708.95100127812475 ], [ 762563.591161443968304, 3501750.56054670130834 ], [ 763609.53905439702794, 3501777.126779236830771 ], [ 763438.628053858294152, 3500818.752613243181258 ], [ 762392.644628667505458, 3500792.211676452308893 ], [ 762050.877442893804982, 3498875.638606561813504 ], [ 761004.827392260660417, 3498849.253986432217062 ], [ 762201.995588961057365, 3505557.810477511025965 ], [ 763247.796824470860884, 3505584.37207708414644 ], [ 762905.610092350863852, 3503667.383060786873102 ], [ 763951.486884738085791, 3503693.999932154081762 ], [ 763780.49199898680672, 3502735.542545336764306 ] ] ], [ [ [ 756613.153721194714308, 3509234.436409252695739 ], [ 759750.064729260397144, 3509312.834463700652122 ], [ 759407.257469168165699, 3507395.71468629129231 ], [ 757315.836644983151928, 3507343.444270768668503 ], [ 757487.290524273295887, 3508301.932830419857055 ], [ 756441.622199997538701, 3508275.93143656058237 ], [ 756613.153721194714308, 3509234.436409252695739 ] ] ], [ [ [ 772622.177640119683929, 3517280.856669498607516 ], [ 772793.586885669268668, 3518240.094841380603611 ], [ 774884.338261551689357, 3518295.687636097893119 ], [ 774541.704500312916934, 3516377.150227381382138 ], [ 773496.255082383519039, 3516349.352216926403344 ], [ 773324.965198058169335, 3515390.172342553734779 ], [ 772279.484626807738096, 3515362.506384340114892 ], [ 772450.810219517210498, 3516321.660524088423699 ], [ 771405.369894339237362, 3516294.075145403854549 ], [ 771234.008592607569881, 3515334.946711483411491 ], [ 769143.070065825246274, 3515280.146208054851741 ], [ 768971.679211216047406, 3514321.111036648973823 ], [ 767926.180984959122725, 3514293.89580280194059 ], [ 768269.075971190817654, 3516211.956859828904271 ], [ 769314.502787552308291, 3516239.223316704388708 ], [ 770343.978162934537977, 3521994.567814920097589 ], [ 772434.416241490049288, 3522049.728262694086879 ], [ 772091.233471754123457, 3520131.00898694852367 ], [ 771045.940626574330963, 3520103.427051958627999 ], [ 770702.853665609844029, 3518184.927533690817654 ], [ 771748.218014839105308, 3518212.458003388252109 ], [ 771576.773036064347252, 3517253.245569104328752 ], [ 772622.177640119683929, 3517280.856669498607516 ] ] ], [ [ [ 765805.831420323462225, 3525695.753748322371393 ], [ 765633.801022311556153, 3524736.384727441240102 ], [ 764588.718347095185891, 3524709.419743971899152 ], [ 764416.694024072494358, 3523750.118407527916133 ], [ 763371.579912549233995, 3523723.285556486342102 ], [ 763715.742128996993415, 3525641.879083666484803 ], [ 765805.831420323462225, 3525695.753748322371393 ] ] ], [ [ [ 759880.232603391399607, 3527453.965828660409898 ], [ 760052.603919301414862, 3528413.307509693782777 ], [ 761097.521400883793831, 3528439.841871783137321 ], [ 760925.185960201313719, 3527480.474652304779738 ], [ 759880.232603391399607, 3527453.965828660409898 ] ] ], [ [ [ 762314.78470496844966, 3529425.917750406544656 ], [ 762142.443203834351152, 3528466.482878235168755 ], [ 761097.521400883793831, 3528439.841871783137321 ], [ 761269.898788636550307, 3529399.251160780899227 ], [ 762314.78470496844966, 3529425.917750406544656 ] ] ], [ [ [ 764221.831776524661109, 3534250.625689318869263 ], [ 762132.414830791181885, 3534196.929378991946578 ], [ 762305.043839334743097, 3535156.591523516457528 ], [ 764394.388867042260244, 3535210.33922064024955 ], [ 764221.831776524661109, 3534250.625689318869263 ] ] ], [ [ [ 759516.658369599492289, 3536996.068398266565055 ], [ 759689.521140306955203, 3537955.780244619585574 ], [ 760734.07059782044962, 3537982.357014854438603 ], [ 760561.243824982782826, 3537022.619527874514461 ], [ 759516.658369599492289, 3536996.068398266565055 ] ] ], [ [ [ 770634.167408384149894, 3564049.298537360038608 ], [ 770460.390869703609496, 3563088.282199894078076 ], [ 769416.759901394718327, 3563060.494728489313275 ], [ 769242.988854470313527, 3562099.547469798009843 ], [ 768199.32595308276359, 3562071.893860927317291 ], [ 768025.560424836119637, 3561111.015598563943058 ], [ 765938.175088146002963, 3561056.083575068041682 ], [ 766459.81504079233855, 3563938.690063524059951 ], [ 767503.396597013343126, 3563966.180613190867007 ], [ 767329.511085103498772, 3563005.242847058922052 ], [ 768373.133312168647535, 3563032.814945358317345 ], [ 768720.8735107826069, 3564954.78566538868472 ], [ 769764.427438947372139, 3564982.517845595721155 ], [ 769938.323923525866121, 3565943.593746527563781 ], [ 772025.372241443721578, 3565999.433880446013063 ], [ 771851.548452944611199, 3565038.305447331164032 ], [ 772895.115572586422786, 3565066.360875791404396 ], [ 772547.666011263849214, 3563144.180221356451511 ], [ 771504.026234018965624, 3563116.177363027818501 ], [ 771677.766449457732961, 3564077.219948617275804 ], [ 770634.167408384149894, 3564049.298537360038608 ] ] ], [ [ [ 766635.116913609206676, 3570638.705964710563421 ], [ 766112.489053608849645, 3567755.277710771653801 ], [ 767155.920853578019887, 3567782.765131289605051 ], [ 766981.83163701207377, 3566821.682041684165597 ], [ 763851.440036212559789, 3566739.621652620378882 ], [ 764025.638380232034251, 3567700.626322573516518 ], [ 765069.061568120028824, 3567727.898108999244869 ], [ 765591.7986290815752, 3570611.247846011072397 ], [ 766635.116913609206676, 3570638.705964710563421 ] ] ], [ [ [ 768547.588140671257861, 3569732.707769916858524 ], [ 768199.356984905316494, 3567810.360373969189823 ], [ 767155.920853578019887, 3567782.765131289605051 ], [ 767504.224795316113159, 3569705.060083488002419 ], [ 768547.588140671257861, 3569732.707769916858524 ] ] ], [ [ [ 766294.026283372542821, 3580197.595828203018755 ], [ 766468.810587670654058, 3581159.202598141971976 ], [ 767511.723217792576179, 3581186.841643999330699 ], [ 767336.975461731664836, 3580225.208535516634583 ], [ 768379.928945488994941, 3580252.929433116223663 ], [ 768554.640153890824877, 3581214.588908992707729 ], [ 770640.487011006101966, 3581270.408110162243247 ], [ 770465.848896226729266, 3580308.695812929887325 ], [ 772551.786269627511501, 3580364.894995305687189 ], [ 772202.781508275540546, 3578441.494237001053989 ], [ 773245.8298232445959, 3578469.703163357451558 ], [ 773420.274801719700918, 3579431.408410463482141 ], [ 774463.291001807199791, 3579459.751998165156692 ], [ 774114.515826650313102, 3577536.331721458118409 ], [ 775157.609475072706118, 3577564.730437538120896 ], [ 774983.320998594164848, 3576603.058623653836548 ], [ 777069.594613647670485, 3576660.127358864061534 ], [ 776895.420836350647733, 3575698.445689276792109 ], [ 775852.245320447953418, 3575669.883814286440611 ], [ 775678.07678873417899, 3574708.27189214527607 ], [ 774634.869257020298392, 3574679.844595075584948 ], [ 773938.466705208644271, 3570833.934335429221392 ], [ 771851.773417709977366, 3570777.615205724257976 ], [ 772025.884273811243474, 3571738.975314877461642 ], [ 765766.128025404410437, 3571572.450293972622603 ], [ 765940.499271355802193, 3572533.695711916778237 ], [ 766983.744693940971047, 3572561.206256363540888 ], [ 767158.121337119024247, 3573522.520902841817588 ], [ 765071.707691959920339, 3573467.555327846668661 ], [ 764897.258149433415383, 3572506.293126992881298 ], [ 763854.02131134213414, 3572478.998498189263046 ], [ 764028.507304457365535, 3573440.234519488178194 ], [ 762985.311184576712549, 3573413.021692697890103 ], [ 763509.129787682322785, 3576296.909173137042671 ], [ 769767.71432152192574, 3576462.278521138709038 ], [ 769942.185276423580945, 3577423.818102344870567 ], [ 770985.261341024423018, 3577451.784327334724367 ], [ 771159.737581410212442, 3578413.39346052473411 ], [ 769073.662824901519343, 3578357.516343280673027 ], [ 768899.113565820036456, 3577395.959991421550512 ], [ 765769.92439016525168, 3577313.034308549016714 ], [ 766119.283813660265878, 3579236.032204220537096 ], [ 765076.302387412637472, 3579208.553977169562131 ], [ 765251.081393656902947, 3580170.09130774717778 ], [ 766294.026283372542821, 3580197.595828203018755 ] ], [ [ 769248.253887779545039, 3579319.115847147069871 ], [ 768205.259547077817842, 3579291.313135781791061 ], [ 768030.631961709237657, 3578329.739995580166578 ], [ 769073.662824901519343, 3578357.516343280673027 ], [ 769248.253887779545039, 3579319.115847147069871 ] ] ], [ [ [ 775335.959321961505339, 3584269.060025974642485 ], [ 773250.296896938001737, 3584212.215608369093388 ], [ 773425.028932639863342, 3585174.154031935147941 ], [ 776553.419417776283808, 3585259.662969283293933 ], [ 776204.216620064224117, 3583335.66986569808796 ], [ 777247.095483083161525, 3583364.33625432709232 ], [ 777072.593222564319149, 3582402.378117966 ], [ 774986.766800893004984, 3582345.206878499127924 ], [ 775335.959321961505339, 3584269.060025974642485 ] ] ], [ [ [ 782461.556997515494004, 3583509.292894166428596 ], [ 780375.75888497964479, 3583450.985284556169063 ], [ 780550.193109474028461, 3584413.066909418907017 ], [ 782635.918065465521067, 3584471.428073541261256 ], [ 782461.556997515494004, 3583509.292894166428596 ] ] ], [ [ [ 773075.606609710259363, 3583250.320514400489628 ], [ 769947.036116173840128, 3583165.945811063516885 ], [ 770121.836152199888602, 3584127.761396333575249 ], [ 773250.296896938001737, 3584212.215608369093388 ], [ 773075.606609710259363, 3583250.320514400489628 ] ] ], [ [ [ 778813.626009618514217, 3586279.325764300301671 ], [ 782984.765110426931642, 3586395.828883612528443 ], [ 782810.32077080628369, 3585433.606729505117983 ], [ 780724.66899606725201, 3585375.191978196147829 ], [ 780550.193109474028461, 3584413.066909418907017 ], [ 778464.486186617054045, 3584355.139137212187052 ], [ 778813.626009618514217, 3586279.325764300301671 ] ] ], [ [ [ 774817.337426039157435, 3587126.608779242727906 ], [ 775860.061024435563013, 3587155.165017869323492 ], [ 776209.670737297507003, 3589079.452110627666116 ], [ 777252.325489078415558, 3589108.170149859506637 ], [ 777077.536419503972866, 3588145.978179207071662 ], [ 779162.932555004023015, 3588203.68620863603428 ], [ 778988.258443564642221, 3587241.484248540829867 ], [ 777945.521516512031667, 3587212.602748959325254 ], [ 777770.852465638890862, 3586250.470989883411676 ], [ 774642.558521503466181, 3586164.557022355031222 ], [ 774817.337426039157435, 3587126.608779242727906 ] ] ], [ [ [ 778294.984684701310471, 3589136.996667177882046 ], [ 777252.325489078415558, 3589108.170149859506637 ], [ 777427.156254654517397, 3590070.405606769025326 ], [ 778469.778795812744647, 3590099.258869437035173 ], [ 778294.984684701310471, 3589136.996667177882046 ] ] ], [ [ [ 779512.405797944054939, 3590128.220642651431262 ], [ 778469.778795812744647, 3590099.258869437035173 ], [ 778644.614587460877374, 3591061.56459589349106 ], [ 779687.204923226265237, 3591090.553159721195698 ], [ 779512.405797944054939, 3590128.220642651431262 ] ] ], [ [ [ 778644.614587460877374, 3591061.56459589349106 ], [ 776559.447283584158868, 3591003.913082977756858 ], [ 776909.390638494864106, 3592928.548107458744198 ], [ 777951.89869635424111, 3592957.37311078235507 ], [ 777776.942861398565583, 3591995.007065645419061 ], [ 778819.492056537186727, 3592023.913868132513016 ], [ 778644.614587460877374, 3591061.56459589349106 ] ] ], [ [ [ 776384.538157811854035, 3590041.660851073917001 ], [ 775341.924488626653329, 3590013.024598791263998 ], [ 775167.02041269117035, 3589050.842545922379941 ], [ 772039.095835227286443, 3588965.664663604460657 ], [ 772564.263231699820608, 3591852.101453394629061 ], [ 771521.740458474378102, 3591823.845986208878458 ], [ 771696.916452877223492, 3592786.051871094852686 ], [ 770654.434720068704337, 3592757.878355174325407 ], [ 771004.985406109597534, 3594682.367335643619299 ], [ 769962.581430722610094, 3594654.249212684575468 ], [ 770313.372650015051477, 3596578.858955812640488 ], [ 769271.046466962550767, 3596550.796272268984467 ], [ 769095.593225239310414, 3595588.496247684583068 ], [ 767010.880244543310255, 3595532.750023205764592 ], [ 767186.406978843268007, 3596494.996934207621962 ], [ 766144.093640583218075, 3596467.260272785555571 ], [ 766319.698941526468843, 3597429.524132530670613 ], [ 774658.031936202431098, 3597654.673441905528307 ], [ 773781.892972913105041, 3592842.724623743910342 ], [ 775866.887009722762741, 3592899.83169421274215 ], [ 775516.87028217560146, 3590975.250126750208437 ], [ 776559.447283584158868, 3591003.913082977756858 ], [ 776384.538157811854035, 3590041.660851073917001 ] ], [ [ 772914.58357692649588, 3593776.60995617415756 ], [ 773265.0708913608687, 3595701.292507953010499 ], [ 772222.694970227312297, 3595672.930457773152739 ], [ 771872.134205030277371, 3593748.301230266690254 ], [ 772914.58357692649588, 3593776.60995617415756 ] ] ], [ [ [ 787684.049235873040743, 3595147.032941475044936 ], [ 786641.573981516761705, 3595117.17636459087953 ], [ 786991.189673987682909, 3597042.644906382542104 ], [ 785948.792463110759854, 3597012.842901532538235 ], [ 786123.699419387383386, 3597975.615768432617188 ], [ 788208.424920572666451, 3598035.382703167852014 ], [ 788033.591465126723051, 3597072.555649590212852 ], [ 789075.997853115666658, 3597102.575134855695069 ], [ 788901.242694613756612, 3596139.764767897780985 ], [ 787858.79956917616073, 3596109.772402927745134 ], [ 787684.049235873040743, 3595147.032941475044936 ] ] ], [ [ [ 783118.877774274908006, 3506109.181362714618444 ], [ 782072.989795169443823, 3506080.605676912236959 ], [ 782243.505519037833437, 3507039.623823216650635 ], [ 783289.357917331857607, 3507068.225401949137449 ], [ 783118.877774274908006, 3506109.181362714618444 ] ] ], [ [ [ 780322.443510565673932, 3507941.747243997640908 ], [ 782414.062967234058306, 3507998.683941799681634 ], [ 782243.505519037833437, 3507039.623823216650635 ], [ 780151.814874846953899, 3506982.738856504205614 ], [ 780322.443510565673932, 3507941.747243997640908 ] ] ], [ [ [ 776803.841613231925294, 3517392.36453533731401 ], [ 776975.107932105893269, 3518351.705945649184287 ], [ 778020.499671272351407, 3518379.874677238054574 ], [ 778191.772021405864507, 3519339.284095966257155 ], [ 779237.13264460733626, 3519367.585143137723207 ], [ 779065.896036171121523, 3518408.149798061698675 ], [ 780111.297044157516211, 3518436.53131165727973 ], [ 780282.497911470010877, 3519395.992611900437623 ], [ 781327.867839337093756, 3519424.506505805533379 ], [ 781156.702712583355606, 3518465.019221573136747 ], [ 783247.528100172057748, 3518522.31424463680014 ], [ 783076.476153641007841, 3517562.81711227633059 ], [ 784121.93163428932894, 3517591.598178029991686 ], [ 783609.133136634598486, 3514713.281741871498525 ], [ 784654.700452532619238, 3514742.091034695506096 ], [ 784825.555898657534271, 3515701.513715875800699 ], [ 785871.092270345310681, 3515730.455372160300612 ], [ 785700.272513531846926, 3514771.006626462098211 ], [ 786745.84933701925911, 3514800.028520790394396 ], [ 786575.106933161383495, 3513840.59586815815419 ], [ 785529.494433017913252, 3513811.6000512894243 ], [ 785358.75803178967908, 3512852.235625783447176 ], [ 783267.475969361374155, 3512794.614846288226545 ], [ 783096.709944011527114, 3511835.34455451881513 ], [ 782051.040357422782108, 3511806.719482326414436 ], [ 782221.842036786838435, 3512765.963814872782677 ], [ 781176.212813428253867, 3512737.419017558917403 ], [ 780663.826015738071874, 3509859.889923859853297 ], [ 782755.30302475776989, 3509916.930178898852319 ], [ 782584.662136795464903, 3508957.786053432151675 ], [ 780493.113891848479398, 3508900.797592859715223 ], [ 780322.443510565673932, 3507941.747243997640908 ], [ 779276.640824372181669, 3507913.438026562333107 ], [ 779447.346812379430048, 3508872.462537257932127 ], [ 778401.58440498705022, 3508844.233593377284706 ], [ 778572.367767108371481, 3509803.274245162494481 ], [ 779618.09455509216059, 3509831.529014245606959 ], [ 779788.884049552259967, 3510790.637478304561228 ], [ 778743.192893076105975, 3510762.356868167873472 ], [ 779084.968424726743251, 3512680.648110957816243 ], [ 780130.588281877106056, 3512708.980450773611665 ], [ 780301.503013818524778, 3513668.215000786818564 ], [ 782392.685434787417762, 3513725.250228616409004 ], [ 782734.497374798404053, 3515643.949383015278727 ], [ 780643.457694424432702, 3515586.810332447290421 ], [ 780814.497637150576338, 3516546.171155757736415 ], [ 779769.020523996092379, 3516517.735166102647781 ], [ 779255.918824493419379, 3513639.856772331055254 ], [ 778210.339292741380632, 3513611.604796109721065 ], [ 778552.436718492535874, 3515530.096535573713481 ], [ 777506.933201238396578, 3515501.899098393041641 ], [ 777849.269082555547357, 3517420.50738529721275 ], [ 776803.841613231925294, 3517392.36453533731401 ] ], [ [ 779940.137914007762447, 3517477.112170011270791 ], [ 778894.701177026610821, 3517448.756595677230507 ], [ 778723.548070144373924, 3516489.405515130143613 ], [ 779769.020523996092379, 3516517.735166102647781 ], [ 779940.137914007762447, 3517477.112170011270791 ] ] ], [ [ [ 785990.028510823845863, 3533880.022653413005173 ], [ 786161.788962339283898, 3534840.240141617599875 ], [ 787206.599500499432907, 3534869.492629101965576 ], [ 787034.87498264410533, 3533909.248814973048866 ], [ 785990.028510823845863, 3533880.022653413005173 ] ] ], [ [ [ 789639.664949191734195, 3536849.039269848261029 ], [ 789811.442431116010994, 3537809.463718581479043 ], [ 790856.159366024192423, 3537839.116253766231239 ], [ 790684.417852998478338, 3536878.66534443711862 ], [ 789639.664949191734195, 3536849.039269848261029 ] ] ], [ [ [ 755501.045527977519669, 3555051.556076734792441 ], [ 754457.179949273704551, 3555025.374463698361069 ], [ 754805.120444099535234, 3556946.039542730432004 ], [ 752717.546696772915311, 3556893.895834755152464 ], [ 752891.652454332099296, 3557854.240738354623318 ], [ 753935.400998662807979, 3557880.28454818110913 ], [ 754109.512497305637226, 3558840.697669311892241 ], [ 753065.800225618062541, 3558814.628153239842504 ], [ 753414.221797541133128, 3560735.530601291451603 ], [ 754457.861487377551384, 3560761.651578266173601 ], [ 754632.098972879350185, 3561722.192408344242722 ], [ 756719.318175250198692, 3561774.808712475933135 ], [ 756545.153306012973189, 3560814.216286659706384 ], [ 757588.805468707345426, 3560840.660024615935981 ], [ 757762.934030875214376, 3561801.278291501570493 ], [ 758806.554078709566966, 3561827.855492884293199 ], [ 758980.688275372376665, 3562788.542306199669838 ], [ 760024.276214455021545, 3562815.253048090729862 ], [ 759502.108367107692175, 3559933.242920576129109 ], [ 758458.411510966019705, 3559906.609874746762216 ], [ 758110.436730536981486, 3557985.5347935333848 ], [ 759154.20613701781258, 3558012.116122745908797 ], [ 758980.317931358935311, 3557051.616646524518728 ], [ 761067.941943030338734, 3557105.050094874110073 ], [ 760894.16816821298562, 3556144.54148324392736 ], [ 765069.61237348546274, 3556252.594515334349126 ], [ 764722.480379906948656, 3554331.497677830513567 ], [ 766810.37324362504296, 3554386.064998219721019 ], [ 766983.845871692406945, 3555346.644099859520793 ], [ 768027.762615683022887, 3555374.114941448904574 ], [ 768201.240869093337096, 3556334.762777961790562 ], [ 770289.015045607113279, 3556390.079046233091503 ], [ 770462.462659968761727, 3557350.821834853850305 ], [ 769418.609613339882344, 3557323.08382081380114 ], [ 769592.135286710923538, 3558283.843222793657333 ], [ 768548.322882944485173, 3558256.186605181545019 ], [ 768721.926637366879731, 3559216.962638257071376 ], [ 769765.702778515173122, 3559244.645394300576299 ], [ 770460.390869703609496, 3563088.282199894078076 ], [ 771504.026234018965624, 3563116.177363027818501 ], [ 771330.327809656970203, 3562155.177669297438115 ], [ 772374.003897321177647, 3562183.154266841709614 ], [ 771679.77329042321071, 3558339.47910409187898 ], [ 772723.598924307967536, 3558367.458374695852399 ], [ 772897.05763177992776, 3559328.339134514797479 ], [ 773940.851449341513216, 3559356.452216844540089 ], [ 773767.429002169752494, 3558395.545203241053969 ], [ 774811.26354097854346, 3558423.739593219477683 ], [ 774637.919110791757703, 3557462.849147285800427 ], [ 773594.048324483446777, 3557434.681023781653494 ], [ 773247.412289676023647, 3555513.081082412041724 ], [ 777423.212193543789908, 3555626.188522912096232 ], [ 777250.101682305335999, 3554665.347673367708921 ], [ 778294.099142493563704, 3554693.866913685575128 ], [ 778813.447199434274808, 3557576.597037480678409 ], [ 779857.340542329708114, 3557605.30287676397711 ], [ 779511.139240942429751, 3555683.387162930797786 ], [ 780555.109597989358008, 3555712.147725305054337 ], [ 780382.107711016549729, 3554751.227788915392011 ], [ 779338.101146396715194, 3554722.493617679923773 ], [ 778819.237123863189481, 3551840.069973863661289 ], [ 776731.020556591101922, 3551783.081923058256507 ], [ 776558.07699412247166, 3550822.412201745901257 ], [ 777602.219166353461333, 3550850.826269673649222 ], [ 777429.353496079100296, 3549890.173024656716734 ], [ 778473.536356801399961, 3549918.668159214314073 ], [ 778300.748556758509949, 3548958.031372696626931 ], [ 777256.529561368050054, 3548929.562503679189831 ], [ 777083.747365243616514, 3547968.99468558235094 ], [ 778128.002483078511432, 3547997.437305162195116 ], [ 777955.2981387891341, 3547036.8859354541637 ], [ 778999.593923354754224, 3547065.409558127634227 ], [ 779172.262157956603914, 3548025.987190024927258 ], [ 781260.79524711240083, 3548083.408769836649299 ], [ 781433.432956625707448, 3549044.081758778076619 ], [ 782477.670284676598385, 3549072.979825722519308 ], [ 782650.313551265280694, 3550033.721962906885892 ], [ 785782.944963640067726, 3550121.139344904571772 ], [ 786128.139616994187236, 3552042.910831345245242 ], [ 784039.858625399880111, 3551984.419325419235975 ], [ 784558.17991672293283, 3554867.239217989612371 ], [ 786646.24382594123017, 3554925.88982958951965 ], [ 786473.500796519801952, 3553964.853899369481951 ], [ 787517.575954200467095, 3553994.313865112140775 ], [ 788035.821293703280389, 3556877.630334162153304 ], [ 786991.854748769314028, 3556848.090588764753193 ], [ 787337.632136437809095, 3558770.463354806881398 ], [ 785249.858013866236433, 3558711.600150062236935 ], [ 785595.946882435353473, 3560634.038602762389928 ], [ 787683.575964345131069, 3560693.008298130240291 ], [ 787510.583246900932863, 3559731.714293650351465 ], [ 788554.441068586776964, 3559761.333964185323566 ], [ 788727.39752037380822, 3560722.654642736539245 ], [ 789771.223775712307543, 3560752.408656869549304 ], [ 790117.188883660361171, 3562675.232799280900508 ], [ 789073.435195682919584, 3562645.425330648198724 ], [ 789246.516413026489317, 3563606.875382710248232 ], [ 791333.95590218284633, 3563666.651582992170006 ], [ 791160.947288705501705, 3562705.147998926695436 ], [ 792204.710427741287276, 3562735.170933303423226 ], [ 791858.890452089253813, 3560812.239708532113582 ], [ 790815.054747303249314, 3560782.270344230346382 ], [ 790123.768493362003937, 3556937.032490608748049 ], [ 792211.734619276598096, 3556996.864892585203052 ], [ 793075.583842704072595, 3561803.787585170939565 ], [ 794119.392788759199902, 3561833.999149285722524 ], [ 794292.250975486589596, 3562795.540021196939051 ], [ 796379.810662282630801, 3562856.340092988684773 ], [ 796034.280942039098591, 3560933.194009906146675 ], [ 797078.140566936112009, 3560963.701815096661448 ], [ 796732.849381332867779, 3559040.674803842790425 ], [ 797776.786353152943775, 3559071.236456422135234 ], [ 797431.733627875335515, 3557148.328417698387057 ], [ 801607.820040389429778, 3557271.43579350085929 ], [ 801263.22293579520192, 3555348.484939742833376 ], [ 802307.329202558845282, 3555379.47676980914548 ], [ 802651.853896887274459, 3557302.481635328382254 ], [ 803695.892688684281893, 3557333.6350840148516 ], [ 803523.645835092524067, 3556372.083996886853129 ], [ 805611.810713592451066, 3556434.65955779934302 ], [ 805783.985146078746766, 3557396.264817484188825 ], [ 806828.038845623377711, 3557427.741110062692314 ], [ 807861.73709962470457, 3563198.44568726606667 ], [ 808905.578283903421834, 3563230.192894194740802 ], [ 809250.402705005602911, 3565154.162920302711427 ], [ 810294.176306382985786, 3565186.072545567061752 ], [ 810639.093452570028603, 3567110.271242991089821 ], [ 811682.799439349444583, 3567142.343471343629062 ], [ 811855.283657744061202, 3568104.535538728348911 ], [ 812898.958355666603893, 3568136.743114804849029 ], [ 812726.510482442565262, 3567174.523623472079635 ], [ 813770.226598727051169, 3567206.811703376471996 ], [ 813597.856359379482456, 3566244.608364222105592 ], [ 814641.613898134673946, 3566276.976910308003426 ], [ 814469.321270885178819, 3565314.789705338422209 ], [ 813425.527412117226049, 3565282.448608600534499 ], [ 813253.239760125870816, 3564320.332414974924177 ], [ 812209.414683229639195, 3564288.126596239861101 ], [ 812037.132034248206764, 3563326.081330976448953 ], [ 813080.993406587280333, 3563358.259761820081621 ], [ 812908.788354681688361, 3562396.230627611745149 ], [ 810820.998116048867814, 3562332.036292229313403 ], [ 810648.761827347567305, 3561370.10533736133948 ], [ 813780.563622592366301, 3561466.476452657487243 ], [ 813436.43255941499956, 3559542.580865411553532 ], [ 811348.414610125357285, 3559478.335082096047699 ], [ 811176.338562893914059, 3558516.507115503773093 ], [ 813264.428979187272489, 3558580.698256333358586 ], [ 813092.466704095480964, 3557618.859074985608459 ], [ 815180.649982803501189, 3557683.426190696191043 ], [ 814836.99416948040016, 3555759.7686708252877 ], [ 813792.827564936131239, 3555727.485994075424969 ], [ 813964.671024134848267, 3556689.265700386837125 ], [ 812920.545737308450043, 3556657.063299915287644 ], [ 812748.666081990930252, 3555695.310909669380635 ], [ 811704.509703655610792, 3555663.243413598742336 ], [ 811876.42555530439131, 3556624.968516727909446 ], [ 807699.99553588591516, 3556497.665477127302438 ], [ 807527.934896597522311, 3555536.049233037978411 ], [ 806483.803786449600011, 3555504.519619034137577 ], [ 806311.748338295146823, 3554542.973783650435507 ], [ 807355.915633647469804, 3554574.476271415594965 ], [ 807183.937750175595284, 3553612.946570866275579 ], [ 809272.359761022496969, 3553676.219862138852477 ], [ 809100.495580477640033, 3552714.679126692935824 ], [ 805967.761620539007708, 3552620.011826205067337 ], [ 806139.734281945973635, 3553581.471193164587021 ], [ 804051.342334823333658, 3553518.842954034917057 ], [ 803879.297351464396343, 3552557.437688094563782 ], [ 801790.852953569847159, 3552495.29343002429232 ], [ 801962.970260070171207, 3553456.644710631109774 ], [ 799874.617921585217118, 3553394.876431971788406 ], [ 800046.849021305097267, 3554356.216969458851963 ], [ 797958.588633326813579, 3554294.82483843062073 ], [ 797786.285183264059015, 3553333.538087293505669 ], [ 796742.126121629611589, 3553303.030130641069263 ], [ 796569.828001582995057, 3552341.813307407777756 ], [ 795525.637625186354853, 3552311.439627571497113 ], [ 795353.34486247622408, 3551350.292649735230953 ], [ 797441.80276648409199, 3551411.093846432399005 ], [ 797614.02322661515791, 3552372.294430397916585 ], [ 798658.223317306605168, 3552402.883000338915735 ], [ 798313.896185870282352, 3550480.471207339782268 ], [ 797269.62380596937146, 3550449.936314090155065 ], [ 797097.486348169855773, 3549488.821812081616372 ], [ 798141.794854243518785, 3549519.329891190864146 ], [ 797969.735016143415123, 3548558.231600224040449 ], [ 800058.438916954444721, 3548619.516171678900719 ], [ 800230.426528335781768, 3549580.668145372532308 ], [ 801274.749730457086116, 3549611.498328085057437 ], [ 801102.798231923952699, 3548650.319469672162086 ], [ 802147.162479347549379, 3548681.230114284902811 ], [ 801975.288540808483958, 3547720.067410648800433 ], [ 798842.102277156314813, 3547627.738118619658053 ], [ 798670.161524369032122, 3546666.699019521009177 ], [ 797625.739832909079269, 3546636.164008728694171 ], [ 797797.716674667899497, 3547597.176313159056008 ], [ 796753.335953093599528, 3547566.721813946962357 ], [ 796409.351605986361392, 3545644.793681900948286 ], [ 795364.90358110924717, 3545614.499942789785564 ], [ 795536.911074561299756, 3546575.415815408807248 ], [ 793448.101701779523864, 3546515.096701223868877 ], [ 793103.983957739314064, 3544593.41454145591706 ], [ 792059.514353243284859, 3544563.469131750054657 ], [ 791887.481762605486438, 3543602.718946170527488 ], [ 790842.980897894827649, 3543572.907310266513377 ], [ 791015.049543067347258, 3544533.630922806449234 ], [ 789970.589510108693503, 3544503.89991090586409 ], [ 789626.421707663219422, 3542582.548559228889644 ], [ 788581.894336257944815, 3542552.977755164261907 ], [ 788237.820887711597607, 3540631.850409328471869 ], [ 786148.636252137715928, 3540573.135920458007604 ], [ 785976.589940832694992, 3539612.68913185223937 ], [ 784931.968684133607894, 3539583.518853940535337 ], [ 784587.929025528253987, 3537662.805893251672387 ], [ 785632.622261341079138, 3537691.923490458633751 ], [ 784945.186759723583236, 3533850.903360355179757 ], [ 785990.028510823845863, 3533880.022653413005173 ], [ 785818.309711979469284, 3532919.847707051318139 ], [ 787908.079235988203436, 3532978.354253644589335 ], [ 788594.916819085599855, 3536819.520161333493888 ], [ 789639.664949191734195, 3536849.039269848261029 ], [ 789467.929074213141575, 3535888.657474270556122 ], [ 790512.717934700660408, 3535918.257104303687811 ], [ 790169.442894469713792, 3533997.5685472083278 ], [ 789124.582157264347188, 3533968.021758201997727 ], [ 788609.873909915913828, 3531087.38755563320592 ], [ 787564.910220116609707, 3531058.026700953021646 ], [ 787393.388166702119634, 3530097.926701205782592 ], [ 788438.387740417965688, 3530127.261236275546253 ], [ 788266.943199110217392, 3529167.177422599401325 ], [ 790357.028417202061974, 3529226.114094775170088 ], [ 790185.697224763454869, 3528266.020103925373405 ], [ 791230.782890045084059, 3528295.622177811339498 ], [ 790888.317017474910244, 3526375.508961434010416 ], [ 791933.479182820650749, 3526405.164994545746595 ], [ 792104.6554854598362, 3527365.226728555280715 ], [ 793149.786655607516877, 3527395.015825017355382 ], [ 792636.489987323526293, 3524514.878906559199095 ], [ 793681.733473485102877, 3524544.695460436865687 ], [ 793852.754973513539881, 3525504.725009326357394 ], [ 794897.967523416620679, 3525534.674602061510086 ], [ 794726.981830978766084, 3524574.618627426680177 ], [ 795772.23507709952537, 3524604.648411267437041 ], [ 795430.459956134320237, 3522684.611053828615695 ], [ 793339.815196150448173, 3522624.763767946977168 ], [ 793168.918424906441942, 3521664.861582352779806 ], [ 791078.221603328827769, 3521605.493187216110528 ], [ 791249.189917979761958, 3522565.342703632544726 ], [ 792294.500130494823679, 3522594.999959955457598 ], [ 792465.474264686112292, 3523554.918214020319283 ], [ 790374.930244157789275, 3523495.657605974003673 ], [ 790203.884541293606162, 3522535.791995268780738 ], [ 788113.288226153235883, 3522477.010207654442638 ], [ 787942.212592899100855, 3521517.239478607196361 ], [ 786896.885845981538296, 3521488.034596771001816 ], [ 786725.816094218520448, 3520528.332389310002327 ], [ 785680.458351194858551, 3520499.260171877685934 ], [ 785851.563865136820823, 3521458.936219353694469 ], [ 784806.246633042581379, 3521429.944342716131359 ], [ 785319.920528785325587, 3524309.147885181941092 ], [ 784274.7153906772146, 3524280.184103154577315 ], [ 784446.059179707895964, 3525239.977118864189833 ], [ 783400.894569631200284, 3525211.093779654242098 ], [ 783572.31586297985632, 3526170.902994955889881 ], [ 781482.072372878203169, 3526113.403908912558109 ], [ 781139.128201209125109, 3524193.932222972624004 ], [ 778003.582985773566179, 3524108.639466311316937 ], [ 778175.141657050931826, 3525068.276091092266142 ], [ 776084.872900259215385, 3525011.895152593962848 ], [ 775913.242597073549405, 3524052.310427519027144 ], [ 776958.410494130803272, 3524080.421669372357428 ], [ 776615.34682676976081, 3522161.326988094486296 ], [ 775570.107333631021902, 3522133.267569319345057 ], [ 775227.139213884365745, 3520214.393361155409366 ], [ 773136.53083980770316, 3520158.697347834240645 ], [ 773308.065542491269298, 3521118.061724069993943 ], [ 774353.331681820796803, 3521145.882328424602747 ], [ 774524.872416584054008, 3522105.314644488506019 ], [ 772434.416241490049288, 3522049.728262694086879 ], [ 772606.070361282210797, 3523009.151062248274684 ], [ 770515.703872208716348, 3522953.93906660284847 ], [ 771031.13204971048981, 3525832.305527601391077 ], [ 769986.063008857541718, 3525804.782001835294068 ], [ 769814.175945635885, 3524845.310154836159199 ], [ 768769.075546848704107, 3524817.918967168778181 ], [ 768597.194512837566435, 3523858.514983503613621 ], [ 769642.330732211703435, 3523885.880437382496893 ], [ 769470.527371535426937, 3522926.492828609421849 ], [ 767380.187771362252533, 3522871.919855132699013 ], [ 767208.354673007037491, 3521912.625709271989763 ], [ 766163.155741189955734, 3521885.524611322209239 ], [ 765991.328740104683675, 3520926.29812905471772 ], [ 767036.563457510899752, 3520953.373598563484848 ], [ 766864.814127813093364, 3519994.163502186536789 ], [ 765819.54363691736944, 3519967.11364521458745 ], [ 765476.099135956028476, 3518048.870589610189199 ], [ 766521.441137545509264, 3518075.869269204325974 ], [ 766349.817482838989235, 3517116.785091007594019 ], [ 767395.19965576636605, 3517143.864528178237379 ], [ 766709.266866656253114, 3513307.844703522045165 ], [ 767754.796313578728586, 3513334.928135582711548 ], [ 767583.453527257312089, 3512376.002348221372813 ], [ 766537.888404911151156, 3512348.944459231104702 ], [ 766024.004431678447872, 3509472.494703088887036 ], [ 764978.336801449186169, 3509445.619443800766021 ], [ 765149.625194191932678, 3510404.368753687012941 ], [ 764103.997633108636364, 3510377.574148623738438 ], [ 763932.67359973967541, 3509418.850276723504066 ], [ 761841.360412111040205, 3509365.630205811467022 ], [ 762012.755728902528062, 3510324.303288045339286 ], [ 760967.141350915771909, 3510297.827025861013681 ], [ 761138.614276698324829, 3511256.516479067504406 ], [ 762184.192999818362296, 3511283.018108769319952 ], [ 762698.756508299615234, 3514159.413208802230656 ], [ 761653.284822125919163, 3514132.83538149157539 ], [ 761996.60829678340815, 3516050.590309152845293 ], [ 760951.212392822024412, 3516024.067884404677898 ], [ 761122.972782722325064, 3516982.982674341648817 ], [ 760077.616954023018479, 3516956.541121416259557 ], [ 760249.455042630434036, 3517915.472342143766582 ], [ 762340.099566473159939, 3517968.512624414637685 ], [ 762855.651035713497549, 3520845.710312196984887 ], [ 760765.221099325688556, 3520792.517227131407708 ], [ 760937.22703881142661, 3521751.615998933557421 ], [ 764072.771120863733813, 3521831.641800977289677 ], [ 763900.872546536847949, 3520872.466489236801863 ], [ 764946.098442223621532, 3520899.329093737527728 ], [ 765289.865924005629495, 3522817.772862288635224 ], [ 766335.024637238821015, 3522844.793112827930599 ], [ 766850.882665794459172, 3525722.850941092241555 ], [ 765805.831420323462225, 3525695.753748322371393 ], [ 765977.903713654959574, 3526655.164855866227299 ], [ 762842.883886446710676, 3526574.435847503598779 ], [ 763015.105653039878234, 3527533.812149662524462 ], [ 761970.143637660890818, 3527507.090091530233622 ], [ 762142.443203834351152, 3528466.482878235168755 ], [ 764232.299842881970108, 3528520.084837545640767 ], [ 764404.569572888780385, 3529479.570962422527373 ], [ 765449.468558973865584, 3529506.557591510936618 ], [ 765621.744300119695254, 3530466.111540132202208 ], [ 766666.611781315412372, 3530493.230570051353425 ], [ 767011.217110470635816, 3532412.516489992383868 ], [ 765966.421457614167593, 3532385.345983585808426 ], [ 766483.751337577356026, 3535264.514328052289784 ], [ 764394.388867042260244, 3535210.33922064024955 ], [ 764566.987859791144729, 3536170.094999706372619 ], [ 762477.714774382999167, 3536116.295883798506111 ], [ 762650.427632987499237, 3537076.042480765841901 ], [ 764739.628751814831048, 3537129.893047458957881 ], [ 764912.311540157767013, 3538089.733384862542152 ], [ 763867.744803397916257, 3538062.728892317041755 ], [ 764040.505492345429957, 3539022.585768518969417 ], [ 761951.457054871367291, 3538968.846129630226642 ], [ 761778.624349396210164, 3538009.040710660163313 ], [ 760734.07059782044962, 3537982.357014854438603 ], [ 760906.939312598202378, 3538942.136748397257179 ], [ 759862.425865090917796, 3538915.534321528859437 ], [ 760035.372541005956009, 3539875.330649940297008 ], [ 761079.849966366076842, 3539901.958749459590763 ], [ 761252.802556176437065, 3540861.823039 ], [ 760208.361165108392015, 3540835.169250809587538 ], [ 761073.933405142277479, 3545634.9970762450248 ], [ 763162.459779382683337, 3545688.669176364317536 ], [ 763508.837757404893637, 3547609.000177870970219 ], [ 761420.455835085944273, 3547555.22484827786684 ], [ 761593.779938340187073, 3548515.402384506072849 ], [ 759505.487416816409677, 3548462.00434797629714 ], [ 758985.424160976195708, 3545581.753586534410715 ], [ 756896.931910136947408, 3545528.938680698629469 ], [ 756723.589202081551775, 3544568.991190371569246 ], [ 755679.3133077978855, 3544542.770073087420315 ], [ 755505.976495306473225, 3543582.890504827257246 ], [ 754461.668710112920962, 3543556.802074959967285 ], [ 754808.456515867495909, 3545476.552332418039441 ], [ 753764.225097208633088, 3545450.519859193824232 ], [ 754284.830197158735245, 3548330.385765179526061 ], [ 753240.711316831293516, 3548304.38370954291895 ], [ 753414.366516968701035, 3549264.398078782949597 ], [ 754458.449247836950235, 3549290.425737222190946 ], [ 755501.045527977519669, 3555051.556076734792441 ] ], [ [ 796925.390396180329844, 3548527.750319125130773 ], [ 795881.050640429952182, 3548497.376369375735521 ], [ 795708.960095363319851, 3547536.374617189634591 ], [ 796753.335953093599528, 3547566.721813946962357 ], [ 796925.390396180329844, 3548527.750319125130773 ] ], [ [ 796053.18270667642355, 3549458.421093219891191 ], [ 795008.883912710240111, 3549428.127730818931013 ], [ 794836.71573183266446, 3548467.109747192356735 ], [ 795881.050640429952182, 3548497.376369375735521 ], [ 796053.18270667642355, 3549458.421093219891191 ] ], [ [ 787221.907753668725491, 3529137.86919114831835 ], [ 787050.468984036589973, 3528177.854149760212749 ], [ 788095.54028901795391, 3528207.136093577370048 ], [ 788266.943199110217392, 3529167.177422599401325 ], [ 787221.907753668725491, 3529137.86919114831835 ] ], [ [ 790546.017559824278578, 3524455.56562324706465 ], [ 789500.78858389693778, 3524426.06888639787212 ], [ 789329.665471021551639, 3523466.187163475900888 ], [ 790374.930244157789275, 3523495.657605974003673 ], [ 790546.017559824278578, 3524455.56562324706465 ] ], [ [ 780265.428863678593189, 3525125.083379338029772 ], [ 780436.957633772864938, 3526084.814308083616197 ], [ 778346.742081055650488, 3526027.95497294748202 ], [ 778175.141657050931826, 3525068.276091092266142 ], [ 780265.428863678593189, 3525125.083379338029772 ] ], [ [ 762168.332958704675548, 3517009.53053296264261 ], [ 763213.697499338537455, 3517036.184700599405915 ], [ 763385.428367777960375, 3517995.192270571831614 ], [ 762340.099566473159939, 3517968.512624414637685 ], [ 762168.332958704675548, 3517009.53053296264261 ] ], [ [ 755852.692114478093572, 3545502.691938500385731 ], [ 756026.112912404467352, 3546462.656122053042054 ], [ 754981.913425306091085, 3546436.490903788711876 ], [ 754808.456515867495909, 3545476.552332418039441 ], [ 755852.692114478093572, 3545502.691938500385731 ] ], [ [ 756718.792058185557835, 3556038.207855799701065 ], [ 757240.674215512932278, 3558919.551387389190495 ], [ 756196.949475286528468, 3558893.159283124376088 ], [ 755674.958543120534159, 3556011.893081035930663 ], [ 756718.792058185557835, 3556038.207855799701065 ] ], [ [ 772376.806857567746192, 3556445.825287804938853 ], [ 772550.18199856299907, 3557406.620432866271585 ], [ 771506.320116050424986, 3557378.667371049989015 ], [ 771332.908738662488759, 3556417.898418627679348 ], [ 772376.806857567746192, 3556445.825287804938853 ] ], [ [ 757241.234005140722729, 3553183.592080016154796 ], [ 757414.990626833052374, 3554143.895565509796143 ], [ 756371.080469588050619, 3554117.524871179834008 ], [ 756197.287639069720171, 3553157.247126508504152 ], [ 757241.234005140722729, 3553183.592080016154796 ] ], [ [ 759502.823569024214521, 3554196.959143167827278 ], [ 759329.139362856512889, 3553236.604089635424316 ], [ 758285.184574062586762, 3553210.044399960897863 ], [ 758111.506115927244537, 3552249.757647370453924 ], [ 761243.491793608991429, 3552329.68140547350049 ], [ 761590.673461552825756, 3554250.452328188344836 ], [ 759502.823569024214521, 3554196.959143167827278 ] ], [ [ 765246.149327450548299, 3551477.324104825500399 ], [ 765419.532560190651566, 3552437.749344350770116 ], [ 764375.515903567429632, 3552410.571321574505419 ], [ 764548.977200587280095, 3553371.013200111687183 ], [ 763505.00105714192614, 3553343.916611940134317 ], [ 763678.54044050059747, 3554304.375147199258208 ], [ 762634.604806719580665, 3554277.360031771939248 ], [ 762114.003765615168959, 3551396.189846694469452 ], [ 760025.928185837808996, 3551342.636973958928138 ], [ 759852.405988525948487, 3550382.383634157013148 ], [ 764028.718968369648792, 3550489.815277587156743 ], [ 764202.096491832984611, 3551450.172021101694554 ], [ 765246.149327450548299, 3551477.324104825500399 ] ], [ [ 775859.940545755438507, 3552715.435175199527293 ], [ 776033.003773334086873, 3553676.164145931135863 ], [ 772900.943369115004316, 3553591.652223084587604 ], [ 772727.771584227215499, 3552631.001896214671433 ], [ 775859.940545755438507, 3552715.435175199527293 ] ], [ [ 772248.062804937362671, 3526819.501260338816792 ], [ 772763.885377773432992, 3529698.45140869775787 ], [ 770674.02970060496591, 3529643.091102947480977 ], [ 770501.97526775568258, 3528683.450528909917921 ], [ 769457.018272553570569, 3528655.95624667359516 ], [ 769284.969808583380654, 3527696.383683312218636 ], [ 770329.962672874797136, 3527723.852167982142419 ], [ 770157.991918922169134, 3526764.295999256893992 ], [ 772248.062804937362671, 3526819.501260338816792 ] ], [ [ 787752.85937456577085, 3526287.180805444251746 ], [ 787924.179013162851334, 3527247.137228193692863 ], [ 786879.071860825060867, 3527217.881556033156812 ], [ 786193.899892475455999, 3523378.415237912442535 ], [ 787239.150312485755421, 3523407.565983108244836 ], [ 787410.345021213404834, 3524367.395203880034387 ], [ 788455.564410124905407, 3524396.678747832775116 ], [ 788798.007130623562261, 3526316.516870569437742 ], [ 787752.85937456577085, 3526287.180805444251746 ] ], [ [ 774868.079277302720584, 3524024.305737236049026 ], [ 775211.453306501498446, 3525943.465583371929824 ], [ 774166.366193730151281, 3525915.515669593121856 ], [ 773822.920517516904511, 3523996.407595026772469 ], [ 774868.079277302720584, 3524024.305737236049026 ] ] ], [ [ [ 803707.293790810625069, 3551596.075591993518174 ], [ 803879.297351464396343, 3552557.437688094563782 ], [ 805967.761620539007708, 3552620.011826205067337 ], [ 805795.830357206985354, 3551658.595661402214319 ], [ 803707.293790810625069, 3551596.075591993518174 ] ] ], [ [ [ 802651.853896887274459, 3557302.481635328382254 ], [ 801607.820040389429778, 3557271.43579350085929 ], [ 801780.180760293267667, 3558232.976051923353225 ], [ 802824.178393176523969, 3558264.048923905007541 ], [ 802651.853896887274459, 3557302.481635328382254 ] ] ], [ [ [ 793243.167419477365911, 3568505.001959856599569 ], [ 795330.271988315274939, 3568565.693766882643104 ], [ 794811.074666493805125, 3565680.422083921730518 ], [ 793767.4109474029392, 3565650.103018763940781 ], [ 793594.391873152460903, 3564688.459301540628076 ], [ 794638.091917466837913, 3564718.751467108726501 ], [ 794292.250975486589596, 3562795.540021196939051 ], [ 793248.478317694505677, 3562765.301606144756079 ], [ 793421.414328880375251, 3563726.858837801031768 ], [ 792377.682739880983718, 3563696.701326713897288 ], [ 792723.751997266546823, 3565619.891782529186457 ], [ 791680.097799189621583, 3565589.788371465168893 ], [ 792199.62227325164713, 3568474.817926057148725 ], [ 791156.08186333021149, 3568444.741800394374877 ], [ 790982.829128991463222, 3567483.048865637276322 ], [ 788895.68972277676221, 3567423.273960245773196 ], [ 789242.382226241985336, 3569346.595814832020551 ], [ 788198.892300857347436, 3569316.81660009175539 ], [ 788545.823899175040424, 3571240.257941331714392 ], [ 789589.241033923346549, 3571270.090787066146731 ], [ 789762.7327940762043, 3572231.903245898894966 ], [ 790806.118202300742269, 3572261.870944085065275 ], [ 790979.615103423129767, 3573223.753631727769971 ], [ 792022.968790391460061, 3573253.856260165106505 ], [ 791849.508314647246152, 3572291.946658560540527 ], [ 792892.90314794681035, 3572322.130393058992922 ], [ 792546.179638707544655, 3570398.387460319325328 ], [ 793589.652022041962482, 3570428.625323832966387 ], [ 793243.167419477365911, 3568505.001959856599569 ] ] ], [ [ [ 802462.43689524452202, 3567819.524751115124673 ], [ 800375.191999187227339, 3567757.376211242284626 ], [ 800721.084397090831771, 3569681.291107526049018 ], [ 802808.183827959233895, 3569743.548225074540824 ], [ 802462.43689524452202, 3567819.524751115124673 ] ] ], [ [ [ 795676.611067257705145, 3570489.424963753204793 ], [ 793589.652022041962482, 3570428.625323832966387 ], [ 793936.302719029015861, 3572352.42215132759884 ], [ 796023.116141862468794, 3572413.329754240810871 ], [ 795676.611067257705145, 3570489.424963753204793 ] ] ], [ [ [ 825585.207538949791342, 3575237.041270800866187 ], [ 823498.259422335773706, 3575169.969514492899179 ], [ 823670.709597644512542, 3576132.787785955239087 ], [ 825757.584827996557578, 3576199.915259550325572 ], [ 825930.003252706024796, 3577162.83321113884449 ], [ 826973.41229323646985, 3577196.587214818224311 ], [ 826628.689478008775041, 3575270.739453841000795 ], [ 827672.176693297689781, 3575304.545845713932067 ], [ 827499.913404261809774, 3574341.659997454378754 ], [ 825412.871388816623949, 3574274.211223180871457 ], [ 825585.207538949791342, 3575237.041270800866187 ] ] ], [ [ [ 804192.827928188256919, 3577441.383474619593471 ], [ 804366.094730061129667, 3578403.809138797689229 ], [ 805409.323889404535294, 3578435.34515482513234 ], [ 805236.093571040895768, 3577472.892148043960333 ], [ 804192.827928188256919, 3577441.383474619593471 ] ] ], [ [ [ 817058.043591974535957, 3579752.18558142054826 ], [ 816885.173340364126489, 3578789.386013707146049 ], [ 821058.361595115973614, 3578921.376367918215692 ], [ 820885.678505729418248, 3577958.509746321476996 ], [ 819842.337239273241721, 3577925.377495373599231 ], [ 819669.658872902393341, 3576962.582559170201421 ], [ 818626.286296890350059, 3576929.586306852288544 ], [ 818453.612681544502266, 3575966.862972675822675 ], [ 819497.021713660564274, 3575999.831509486306459 ], [ 819324.425764778978191, 3575037.124324635602534 ], [ 817237.539955056039616, 3574971.350825099274516 ], [ 817582.918862973921932, 3576896.698288235813379 ], [ 816539.556554372189566, 3576863.918499237857759 ], [ 816712.344326755730435, 3577826.630326874554157 ], [ 815669.023595626465976, 3577793.931118536740541 ], [ 815323.416369858314283, 3575868.606574225705117 ], [ 813236.644314702600241, 3575803.643277948256582 ], [ 813409.500212632701732, 3576766.228469324763864 ], [ 811322.821303696371615, 3576701.642856558784842 ], [ 811668.802844414953142, 3578626.83441998809576 ], [ 809582.289938304224052, 3578562.571654025930911 ], [ 810101.791035500587896, 3581450.522339878603816 ], [ 812188.084898723172955, 3581514.950313149485737 ], [ 812361.261502187000588, 3582477.743310370016843 ], [ 813404.379431964596733, 3582510.147431099787354 ], [ 812885.083054335904308, 3579621.81722729280591 ], [ 813928.315583969466388, 3579654.246861267369241 ], [ 813755.335850476287305, 3578691.530239320825785 ], [ 815841.889090610202402, 3578756.659144142176956 ], [ 816014.795836034812964, 3579719.431034286972135 ], [ 817058.043591974535957, 3579752.18558142054826 ] ] ], [ [ [ 818274.17143711890094, 3580747.919634255580604 ], [ 816187.74382867955137, 3580682.246810660231858 ], [ 816360.733065319946036, 3581645.106494969688356 ], [ 815317.563426809967496, 3581612.404910037759691 ], [ 815663.738694199011661, 3583538.200677643064409 ], [ 816706.835257677477784, 3583570.957674256060272 ], [ 816533.763542728498578, 3582608.010108926333487 ], [ 817576.901742548681796, 3582640.847786902450025 ], [ 817403.907796296407469, 3581677.91644630394876 ], [ 818447.087636476382613, 3581710.834768109489232 ], [ 818274.17143711890094, 3580747.919634255580604 ] ] ], [ [ [ 802279.651117454050109, 3578341.061809827573597 ], [ 802453.032298963051289, 3579303.476527845486999 ], [ 801409.85430884314701, 3579272.237935028038919 ], [ 801583.313408117857762, 3580234.669038435444236 ], [ 800540.176784934592433, 3580203.511439084075391 ], [ 800193.227001154096797, 3578278.747392371296883 ], [ 798106.822246998315677, 3578216.865855496376753 ], [ 798453.91804512613453, 3580141.521070593036711 ], [ 796367.678535713814199, 3580079.963783435057849 ], [ 796541.361664540600032, 3581042.302476270124316 ], [ 795498.285602590069175, 3581011.659097505267709 ], [ 795845.849370873882435, 3582936.413050572387874 ], [ 793759.857672449434176, 3582875.342703752685338 ], [ 793933.77490413445048, 3583837.730864806100726 ], [ 791847.875228243879974, 3583777.039712623693049 ], [ 792021.907112236949615, 3584739.41731797484681 ], [ 790979.000894746975973, 3584709.207231156993657 ], [ 790804.932436288218014, 3583746.856677674222738 ], [ 789761.994319369434379, 3583716.781998491380364 ], [ 789413.908917786087841, 3581792.265624098945409 ], [ 794629.011975420056842, 3581943.452052419539541 ], [ 794455.214298304519616, 3580981.124006563331932 ], [ 792369.08589574508369, 3580920.378673009574413 ], [ 792195.256671962793916, 3579958.148331149481237 ], [ 790109.074049550807104, 3579897.890105575788766 ], [ 789935.213330311467871, 3578935.75726517662406 ], [ 787848.976375807775185, 3578875.985853723715991 ], [ 788196.885445795953274, 3580800.187294023577124 ], [ 787153.846976278116927, 3580770.410112542565912 ], [ 786979.835125755053014, 3579808.314558756537735 ], [ 785936.764753414434381, 3579778.672506065107882 ], [ 785762.757979915477335, 3578816.647257404401898 ], [ 784719.655699531547725, 3578787.140255708713084 ], [ 785241.910408315365203, 3581673.265799939166754 ], [ 783155.938764211954549, 3581614.415579302236438 ], [ 783330.17999514262192, 3582576.490658044815063 ], [ 782287.237570067867637, 3582547.201169843319803 ], [ 782461.556997515494004, 3583509.292894166428596 ], [ 785590.288267673458904, 3583597.566765056457371 ], [ 785416.078534721396863, 3582635.394541244953871 ], [ 786459.034682684810832, 3582665.008943547960371 ], [ 786633.207851639483124, 3583627.208058324642479 ], [ 788719.060860768542625, 3583686.815671347547323 ], [ 789067.385640918975696, 3585611.452319001313299 ], [ 788024.529987439513206, 3585581.540393590927124 ], [ 788198.791319494950585, 3586543.897103169932961 ], [ 790284.434068522416055, 3586603.883384702261537 ], [ 790632.934962516184896, 3588528.835777237545699 ], [ 791675.690081455744803, 3588559.045734739862382 ], [ 791153.110891637275927, 3585671.601391992997378 ], [ 793238.854845369933173, 3585732.184119424317032 ], [ 793064.818021831568331, 3584769.735793223138899 ], [ 796193.579070331295952, 3584861.341587205883116 ], [ 796367.506136355223134, 3585823.871378405485302 ], [ 798453.297432080144063, 3585885.538373815827072 ], [ 798105.631091927643865, 3583960.413603933528066 ], [ 799148.60707722348161, 3583991.355234787799418 ], [ 799322.382949256687425, 3584953.923013183753937 ], [ 800365.327171400887892, 3584985.000313440803438 ], [ 800539.107898364542052, 3585947.639129736926407 ], [ 801582.020362207782455, 3585978.85217750351876 ], [ 801929.63287860318087, 3587904.315866889897734 ], [ 802972.476980307605118, 3587935.692130640149117 ], [ 802624.93766877730377, 3586010.173676962964237 ], [ 803667.859834770439193, 3586041.603631997015327 ], [ 803320.559273258317262, 3584116.205657592974603 ], [ 804363.559469548985362, 3584147.689257491845638 ], [ 804537.152484625577927, 3585110.39374197088182 ], [ 806623.094429882708937, 3585173.741047192364931 ], [ 805755.908646915340796, 3580360.382293553557247 ], [ 804712.752491805003956, 3580328.791543331928551 ], [ 804366.094730061129667, 3578403.809138797689229 ], [ 802279.651117454050109, 3578341.061809827573597 ] ], [ [ 796019.693480784539133, 3583898.8554851366207 ], [ 797062.659898686339147, 3583929.580355323385447 ], [ 797236.508915428072214, 3584892.093653898220509 ], [ 796193.579070331295952, 3584861.341587205883116 ], [ 796019.693480784539133, 3583898.8554851366207 ] ], [ [ 804190.007834841846488, 3583185.028571385890245 ], [ 805233.049481689929962, 3583216.593165043741465 ], [ 805406.564558178652078, 3584179.281262857373804 ], [ 804363.559469548985362, 3584147.689257491845638 ], [ 804190.007834841846488, 3583185.028571385890245 ] ] ], [ [ [ 821398.296323320479132, 3586592.510398183949292 ], [ 821225.247238534037024, 3585629.319505631458014 ], [ 820182.203327805735171, 3585596.07307786308229 ], [ 820009.15885274624452, 3584632.954130260273814 ], [ 817923.01330707105808, 3584566.84239307558164 ], [ 818269.289746027672663, 3586493.013044224586338 ], [ 821398.296323320479132, 3586592.510398183949292 ] ] ], [ [ [ 812881.039023671997711, 3585366.385704329703003 ], [ 813227.763765039737336, 3587292.367019449360669 ], [ 815313.638976891175844, 3587357.560387407429516 ], [ 814967.06058629672043, 3585431.468276691157371 ], [ 812881.039023671997711, 3585366.385704329703003 ] ] ], [ [ [ 821398.296323320479132, 3586592.510398183949292 ], [ 821571.386582799023017, 3587555.745394718367606 ], [ 822614.362479580566287, 3587589.156153981108218 ], [ 822441.308813201496378, 3586625.893232880625874 ], [ 821398.296323320479132, 3586592.510398183949292 ] ] ], [ [ [ 801929.63287860318087, 3587904.315866889897734 ], [ 800886.79362014029175, 3587873.048112735152245 ], [ 801060.698608588194475, 3588835.818322796840221 ], [ 802103.501245724502951, 3588867.113454721402377 ], [ 801929.63287860318087, 3587904.315866889897734 ] ] ], [ [ [ 800714.081472099991515, 3592656.041636712383479 ], [ 798628.793489805073477, 3592593.775259686633945 ], [ 798803.015569027978927, 3593556.682687806431204 ], [ 800888.230183032341301, 3593619.003839644603431 ], [ 800714.081472099991515, 3592656.041636712383479 ] ] ], [ [ [ 795326.60665166110266, 3591538.408823053818196 ], [ 795500.897309439955279, 3592501.190476348623633 ], [ 794458.274727613897994, 3592470.546141855418682 ], [ 794807.053851159987971, 3594396.186428614892066 ], [ 798977.279083736706525, 3594519.634016613475978 ], [ 798803.015569027978927, 3593556.682687806431204 ], [ 797760.415437678107992, 3593525.685115589294583 ], [ 797586.156673903460614, 3592562.805031449068338 ], [ 796543.524619326228276, 3592531.943438276648521 ], [ 796369.270634250133298, 3591569.134515301790088 ], [ 795326.60665166110266, 3591538.408823053818196 ] ] ], [ [ [ 798109.057305807480589, 3595451.576958412304521 ], [ 798283.440403788583353, 3596414.588760582730174 ], [ 799325.930406854953617, 3596445.668463280424476 ], [ 799500.318208875367418, 3597408.751624658703804 ], [ 802627.706757199135609, 3597502.725679290946573 ], [ 802279.192944555077702, 3595576.438566146418452 ], [ 801236.651833515614271, 3595545.060067855287343 ], [ 801062.420304569415748, 3594582.009976104833186 ], [ 798977.279083736706525, 3594519.634016613475978 ], [ 799151.58403074357193, 3595482.629267852753401 ], [ 798109.057305807480589, 3595451.576958412304521 ] ] ], [ [ [ 805755.138766863150522, 3597597.678891661111265 ], [ 805580.971365601755679, 3596634.430663937702775 ], [ 806623.495170301990584, 3596666.271731139160693 ], [ 806449.405840418068692, 3595703.039972035214305 ], [ 803321.738884165417403, 3595607.925801804289222 ], [ 803670.179242607206106, 3597534.267949576023966 ], [ 805755.138766863150522, 3597597.678891661111265 ] ] ] ] } }
]
}
