{
"type": "FeatureCollection",
"name": "urban-2095",
"crs": { "type": "name", "properties": { "name": "urn:ogc:def:crs:EPSG::32636" } },
"features": [
{ "type": "Feature", "properties": { "year": 2095 }, "geometry": { "type": "MultiPolygon", "coordinates": [ [ [ [ 742708.38058837200515, 3495543.695067755877972 ], [ 743754.464970563771203, 3495568.207904123701155 ], [ 743583.167288068681955, 3494610.53213179204613 ], [ 741490.931656552944332, 3494561.661427518818527 ], [ 742863.062198105966672, 3502223.826572221238166 ], [ 743908.893827500054613, 3502248.406808212399483 ], [ 743394.135081466753036, 3499374.711402819957584 ], [ 744440.077442900277674, 3499399.3231329950504 ], [ 744268.611069095903076, 3498441.482463948428631 ], [ 743222.633184526581317, 3498416.895480820909142 ], [ 742708.38058837200515, 3495543.695067755877972 ] ] ], [ [ [ 757487.290524273295887, 3508301.932830419857055 ], [ 756441.622199997538701, 3508275.93143656058237 ], [ 756613.153721194714308, 3509234.436409252695739 ], [ 755567.525319722597487, 3509208.515860330313444 ], [ 755739.134504802292213, 3510167.03726381668821 ], [ 758875.92565600713715, 3510245.192821131553501 ], [ 758704.423408519942313, 3509286.595707672182471 ], [ 759750.064729260397144, 3509312.834463700652122 ], [ 759407.257469168165699, 3507395.71468629129231 ], [ 757315.836644983151928, 3507343.444270768668503 ], [ 757487.290524273295887, 3508301.932830419857055 ] ] ], [ [ [ 746672.976358244544826, 3511855.015349712688476 ], [ 745627.49688810762018, 3511830.080473127309233 ], [ 744939.549813762539998, 3507996.91384089877829 ], [ 743893.931795806740411, 3507972.184680247679353 ], [ 745098.531424754648469, 3514680.487778892274946 ], [ 744053.167251070262864, 3514655.690353981219232 ], [ 744225.457241491880268, 3515614.160535295959562 ], [ 742134.812539770151488, 3515564.834443233907223 ], [ 742307.216168132144958, 3516523.296340225730091 ], [ 744397.78938546415884, 3516572.672293927986175 ], [ 745260.082308701472357, 3521365.855469489004463 ], [ 746305.196127880830318, 3521390.827933808788657 ], [ 745960.224119364283979, 3519473.379613887052983 ], [ 747005.413617882644758, 3519498.408331299200654 ], [ 745799.589016090845689, 3512788.475896026007831 ], [ 746845.032795196631923, 3512813.435740617103875 ], [ 746672.976358244544826, 3511855.015349712688476 ] ] ], [ [ [ 765805.831420323462225, 3525695.753748322371393 ], [ 765633.801022311556153, 3524736.384727441240102 ], [ 764588.718347095185891, 3524709.419743971899152 ], [ 764416.694024072494358, 3523750.118407527916133 ], [ 763371.579912549233995, 3523723.285556486342102 ], [ 763715.742128996993415, 3525641.879083666484803 ], [ 765805.831420323462225, 3525695.753748322371393 ] ] ], [ [ [ 748040.62020332342945, 3525251.404697639402002 ], [ 747867.980503600323573, 3524292.467550951521844 ], [ 746822.970066204783507, 3524267.313344247173518 ], [ 746650.336633849190548, 3523308.443122417200357 ], [ 745605.294452872592956, 3523283.420503976289183 ], [ 745950.675119741936214, 3525201.152509234379977 ], [ 748040.62020332342945, 3525251.404697639402002 ] ] ], [ [ [ 755527.989223569398746, 3526389.798777869902551 ], [ 755355.558423258247785, 3525430.642880023922771 ], [ 754310.554689003620297, 3525404.717826273757964 ], [ 754483.02134410245344, 3526363.848361393902451 ], [ 755527.989223569398746, 3526389.798777869902551 ] ] ], [ [ [ 748395.436056671314873, 3521441.092069020494819 ], [ 748567.91362531343475, 3522399.9290188299492 ], [ 747522.827418111264706, 3522374.718622493557632 ], [ 747867.980503600323573, 3524292.467550951521844 ], [ 748912.995051892474294, 3524317.72824815614149 ], [ 749085.598904070211574, 3525276.690569133963436 ], [ 748040.62020332342945, 3525251.404697639402002 ], [ 748213.302003859193064, 3526210.383660285267979 ], [ 749258.244844997534528, 3526235.694721981883049 ], [ 749430.932871790137142, 3527194.740727458614856 ], [ 748386.025902327965014, 3527169.40445964038372 ], [ 748558.791895846137777, 3528128.467116466723382 ], [ 747513.924924364546314, 3528103.212232080288231 ], [ 747859.654990374692716, 3530021.412766852881759 ], [ 750994.05285359651316, 3530097.648715308401734 ], [ 750821.274493626784533, 3529138.451744623482227 ], [ 751866.117965403012931, 3529164.051750447135419 ], [ 751693.417564744595438, 3528204.871415184345096 ], [ 752738.301096738665365, 3528230.552740544546396 ], [ 752565.678633323521353, 3527271.389023021794856 ], [ 753610.60222912253812, 3527297.151629545725882 ], [ 753438.057680890895426, 3526338.004512073472142 ], [ 752393.098216654965654, 3526312.267226679250598 ], [ 752220.559849630575627, 3525353.187330729328096 ], [ 754310.554689003620297, 3525404.717826273757964 ], [ 753965.747466860455461, 3523486.582469616550952 ], [ 752920.676273178192787, 3523460.814574436750263 ], [ 752748.29989259026479, 3522501.834997577592731 ], [ 753793.406905614538118, 3522527.577606531791389 ], [ 753621.108381447033025, 3521568.614592595491558 ], [ 748395.436056671314873, 3521441.092069020494819 ] ], [ [ 751175.568709934013896, 3525327.581882500089705 ], [ 751348.142934115137905, 3526286.636501999106258 ], [ 750303.191815989674069, 3526261.112334829289466 ], [ 750130.581733844126575, 3525302.082963030319661 ], [ 751175.568709934013896, 3525327.581882500089705 ] ] ], [ [ [ 760225.017194389714859, 3529372.69124429859221 ], [ 762314.78470496844966, 3529425.917750406544656 ], [ 762142.443203834351152, 3528466.482878235168755 ], [ 761097.521400883793831, 3528439.841871783137321 ], [ 760925.185960201313719, 3527480.474652304779738 ], [ 759880.232603391399607, 3527453.965828660409898 ], [ 760225.017194389714859, 3529372.69124429859221 ] ] ], [ [ [ 744026.70103126578033, 3531839.424791069235653 ], [ 745071.408045856747776, 3531864.35375760262832 ], [ 744898.32996448141057, 3530905.224318809341639 ], [ 743853.587013639276847, 3530880.320494352374226 ], [ 743680.515139887807891, 3529921.258058527484536 ], [ 742635.740294522955082, 3529896.486007519531995 ], [ 743155.190155870630406, 3532773.723578434903175 ], [ 744199.857189887086861, 3532798.570969459600747 ], [ 744026.70103126578033, 3531839.424791069235653 ] ] ], [ [ [ 747859.654990374692716, 3530021.412766852881759 ], [ 746814.863922906690277, 3529996.214107889216393 ], [ 746987.828026683535427, 3530955.352008334826678 ], [ 745943.076963084284216, 3530930.234822430182248 ], [ 746116.119109064107761, 3531889.389432040974498 ], [ 745071.408045856747776, 3531864.35375760262832 ], [ 745590.8950519785285, 3534741.993542932905257 ], [ 748724.716827899683267, 3534817.64778576977551 ], [ 748378.56582063366659, 3532899.027900107204914 ], [ 749423.25318808038719, 3532924.408990073949099 ], [ 749077.342417821986601, 3531005.90643955161795 ], [ 748032.583172518061474, 3530980.575879658572376 ], [ 747859.654990374692716, 3530021.412766852881759 ] ] ], [ [ [ 761087.712854957906529, 3534170.24145110975951 ], [ 760043.015187540790066, 3534143.660336968488991 ], [ 760388.458997029345483, 3536062.924266520887613 ], [ 761433.084730791859329, 3536089.556639500427991 ], [ 761087.712854957906529, 3534170.24145110975951 ] ] ], [ [ [ 734447.850781602086499, 3536390.901911890599877 ], [ 731314.411189652746543, 3536319.583099139388651 ], [ 731488.246204145718366, 3537278.613520679064095 ], [ 732532.686212463770062, 3537302.304509590845555 ], [ 732880.411003437475301, 3539220.540546698495746 ], [ 733924.782766955555417, 3539244.388210467528552 ], [ 733750.935282238060609, 3538285.224349071737379 ], [ 735839.762459340505302, 3538333.190446887165308 ], [ 735666.029288632329553, 3537374.01853281725198 ], [ 734621.577737531857565, 3537350.007012685760856 ], [ 734447.850781602086499, 3536390.901911890599877 ] ] ], [ [ [ 759689.521140306955203, 3537955.780244619585574 ], [ 758644.975959685631096, 3537929.310396644286811 ], [ 758817.916695189662278, 3538889.038845704402775 ], [ 759862.425865090917796, 3538915.534321528859437 ], [ 759689.521140306955203, 3537955.780244619585574 ] ] ], [ [ [ 744719.578482920420356, 3535676.261002656072378 ], [ 744546.295918597490527, 3534716.989054444711655 ], [ 742457.109736525686458, 3534667.300447421148419 ], [ 742630.464272551122122, 3535626.522070033010095 ], [ 741585.913176611997187, 3535601.812825609464198 ], [ 742106.33772889431566, 3538479.65391958784312 ], [ 741061.898652769974433, 3538454.976116937119514 ], [ 741235.493857870809734, 3539414.315257883165032 ], [ 742279.896897634374909, 3539439.018215406220406 ], [ 742453.498220558278263, 3540398.424511538818479 ], [ 743497.869199469685555, 3540423.259594108909369 ], [ 743671.476614006096497, 3541382.733127030078322 ], [ 744715.815538831753656, 3541407.700411238241941 ], [ 744368.71495451615192, 3539488.744909856002778 ], [ 745413.130005941493437, 3539513.768652982544154 ], [ 744892.903176705585793, 3536635.574915774166584 ], [ 743848.38006021513138, 3536610.626847991254181 ], [ 743675.019368923734874, 3535651.338128018192947 ], [ 744719.578482920420356, 3535676.261002656072378 ] ] ], [ [ [ 731836.043072244850919, 3539196.79978113155812 ], [ 732010.004920152830891, 3540155.955661601852626 ], [ 733054.33679468894843, 3540179.72133946698159 ], [ 732880.411003437475301, 3539220.540546698495746 ], [ 731836.043072244850919, 3539196.79978113155812 ] ] ], [ [ [ 743671.476614006096497, 3541382.733127030078322 ], [ 742627.141694777179509, 3541357.872828846797347 ], [ 742800.82731740293093, 3542317.363188193179667 ], [ 743845.126164848101325, 3542342.248718000948429 ], [ 743671.476614006096497, 3541382.733127030078322 ] ] ], [ [ [ 753590.774091053521261, 3544490.649157259613276 ], [ 753243.998137096874416, 3542571.034527621697634 ], [ 751155.331236549653113, 3542519.444015656597912 ], [ 751328.770356790395454, 3543479.179224212188274 ], [ 752373.065657968632877, 3543504.946437883190811 ], [ 752546.510734381503426, 3544464.749352222308517 ], [ 753590.774091053521261, 3544490.649157259613276 ] ] ], [ [ [ 744017.806587902014144, 3549034.974635940976441 ], [ 743843.826007548370399, 3548075.189397104550153 ], [ 742799.747839530929923, 3548050.259325171355158 ], [ 743147.823452421464026, 3549969.821365921758115 ], [ 742103.821590418112464, 3549944.947886283043772 ], [ 742452.138118174509145, 3551864.628131061792374 ], [ 744540.001068538753316, 3551914.583692519925535 ], [ 744714.150132232811302, 3552874.537894650828093 ], [ 745758.051390398060903, 3552899.702030797954649 ], [ 745583.938531830441207, 3551939.722420512232929 ], [ 746627.880009906366467, 3551964.968450846616179 ], [ 746279.852980855852365, 3550045.085248798131943 ], [ 745235.839130587060936, 3550019.890044063795358 ], [ 745061.852593745919876, 3549060.037235926371068 ], [ 744017.806587902014144, 3549034.974635940976441 ] ] ], [ [ [ 742452.138118174509145, 3551864.628131061792374 ], [ 741408.212597031262703, 3551839.811291377991438 ], [ 741931.112096205120906, 3554719.572498145513237 ], [ 742974.928958040080033, 3554744.465351712889969 ], [ 742800.623208868782967, 3553784.477336385287344 ], [ 743844.480267978389747, 3553809.45218641590327 ], [ 743670.252872645272873, 3552849.481086479499936 ], [ 742626.359594609239139, 3552824.531603165902197 ], [ 742452.138118174509145, 3551864.628131061792374 ] ] ], [ [ [ 767678.154872921528295, 3559189.387455145362765 ], [ 767330.916680521564558, 3557267.930345416534692 ], [ 765243.241181760211475, 3557213.206917411647737 ], [ 765416.911860363092273, 3558173.862003244459629 ], [ 766460.711186741129495, 3558201.195998826995492 ], [ 766634.387468219036236, 3559161.91984153399244 ], [ 767678.154872921528295, 3559189.387455145362765 ] ] ], [ [ [ 766981.83163701207377, 3566821.682041684165597 ], [ 763851.440036212559789, 3566739.621652620378882 ], [ 763677.283569166669622, 3565778.65983001422137 ], [ 762633.791920107090846, 3565751.548003793694079 ], [ 762807.984751979471184, 3566712.483760375063866 ], [ 759677.644410946173593, 3566631.716748768463731 ], [ 759851.988267115899362, 3567592.617262766230851 ], [ 760895.394433388370089, 3567619.457821555435658 ], [ 761069.74382122606039, 3568580.427151300944388 ], [ 762113.117826987290755, 3568607.401552743744105 ], [ 762461.869504782487638, 3570529.520887426566333 ], [ 763505.174941518111154, 3570556.655310758855194 ], [ 763156.496080358978361, 3568634.483788231853396 ], [ 764199.87859821296297, 3568661.673861130606383 ], [ 764548.48464400076773, 3570583.897629159037024 ], [ 766635.116913609206676, 3570638.705964710563421 ], [ 766460.8657825156115, 3569677.520276898518205 ], [ 768547.588140671257861, 3569732.707769916858524 ], [ 768199.356984905316494, 3567810.360373969189823 ], [ 767155.920853578019887, 3567782.765131289605051 ], [ 766981.83163701207377, 3566821.682041684165597 ] ], [ [ 764025.638380232034251, 3567700.626322573516518 ], [ 765069.061568120028824, 3567727.898108999244869 ], [ 765243.265397417359054, 3568688.971774816978723 ], [ 764199.87859821296297, 3568661.673861130606383 ], [ 764025.638380232034251, 3567700.626322573516518 ] ] ], [ [ [ 750817.330396887147799, 3575016.814065968617797 ], [ 751860.403662133496255, 3575042.783032102975994 ], [ 751685.396183632547036, 3574081.773325288668275 ], [ 752728.509999189758673, 3574107.824424762278795 ], [ 752553.581003667088225, 3573146.831674566026777 ], [ 750467.284496473846957, 3573094.889117449522018 ], [ 750817.330396887147799, 3575016.814065968617797 ] ] ], [ [ [ 774288.88254309038166, 3578498.020243091508746 ], [ 775331.939684586599469, 3578526.445479717105627 ], [ 775680.725290428148583, 3580450.005334716290236 ], [ 776723.713820563396439, 3580478.591879472602159 ], [ 776200.707561405608431, 3577593.237285166513175 ], [ 778286.917114923708141, 3577650.575389227364212 ], [ 778112.738119242014363, 3576688.823889336548746 ], [ 777069.594613647670485, 3576660.127358864061534 ], [ 776547.19842850510031, 3573775.211982682347298 ], [ 778633.708736820844933, 3573832.553720405790955 ], [ 778459.732999636558816, 3572870.948560131248087 ], [ 776373.149804098997265, 3572813.659902852959931 ], [ 776199.142903461586684, 3571852.150976800359786 ], [ 774112.504719093441963, 3571795.347229115199298 ], [ 773764.470445797313005, 3569872.564520285464823 ], [ 772721.085184798575938, 3569844.377382891718298 ], [ 772895.117852763971314, 3570805.720807579346001 ], [ 771851.773417709977366, 3570777.615205724257976 ], [ 771677.704340644646436, 3569816.29814263805747 ], [ 770634.327896476723254, 3569788.326796038076282 ], [ 770808.43338319810573, 3570749.617526376619935 ], [ 768721.766448409529403, 3570693.945921304635704 ], [ 768895.98657200706657, 3571655.227070055902004 ], [ 767852.69606168102473, 3571627.526874981820583 ], [ 767678.439514435594901, 3570666.271988667547703 ], [ 766635.116913609206676, 3570638.705964710563421 ], [ 766809.409885093104094, 3571599.934617427643389 ], [ 765766.128025404410437, 3571572.450293972622603 ], [ 765940.499271355802193, 3572533.695711916778237 ], [ 763854.02131134213414, 3572478.998498189263046 ], [ 763679.577189355157316, 3571517.805435713846236 ], [ 761593.043418805580586, 3571463.592273070476949 ], [ 761942.119315494201146, 3573385.916844097431749 ], [ 762985.311184576712549, 3573413.021692697890103 ], [ 763509.129787682322785, 3576296.909173137042671 ], [ 764552.216480338014662, 3576324.200549573637545 ], [ 764726.869927717372775, 3577285.608619460836053 ], [ 765769.92439016525168, 3577313.034308549016714 ], [ 766119.283813660265878, 3579236.032204220537096 ], [ 765076.302387412637472, 3579208.553977169562131 ], [ 765251.081393656902947, 3580170.09130774717778 ], [ 766294.026283372542821, 3580197.595828203018755 ], [ 766468.810587670654058, 3581159.202598141971976 ], [ 771683.416965513606556, 3581298.480053259059787 ], [ 771508.815396716352552, 3580336.741302059963346 ], [ 772551.786269627511501, 3580364.894995305687189 ], [ 772377.263007036061026, 3579403.17300500581041 ], [ 774463.291001807199791, 3579459.751998165156692 ], [ 774288.88254309038166, 3578498.020243091508746 ] ] ], [ [ [ 743340.630638593691401, 3573877.251206835266203 ], [ 742297.552815596340224, 3573852.171729110646993 ], [ 742823.686751658562571, 3576734.63441640837118 ], [ 741780.722352866781875, 3576709.586097405757755 ], [ 742307.344926562160254, 3579592.356372716836631 ], [ 741264.494049955508672, 3579567.339235870167613 ], [ 741615.859495374839753, 3581489.348598821554333 ], [ 742658.637229897780344, 3581514.417045813985169 ], [ 742834.346548944711685, 3582475.511593014001846 ], [ 741791.605403803987429, 3582450.417466547340155 ], [ 743023.005952841136605, 3589179.099670981056988 ], [ 740938.048265729914419, 3589128.876179908402264 ], [ 741114.204426974989474, 3590090.236664515919983 ], [ 740071.768073001177981, 3590065.261782613582909 ], [ 740248.003056808724068, 3591026.639484562445432 ], [ 741290.402708815759979, 3591051.640106271021068 ], [ 741995.616982575971633, 3594897.683872123714536 ], [ 743037.873569899355061, 3594922.896179566625506 ], [ 743214.245647526811808, 3595884.540578001644462 ], [ 745298.696963283931836, 3595935.342681864276528 ], [ 745122.398408347624354, 3594973.646496374625713 ], [ 746164.666692702099681, 3594999.184512019623071 ], [ 745988.446954553131945, 3594037.505519290920347 ], [ 747030.755918327951804, 3594063.126161451917142 ], [ 746678.516081278095953, 3592139.845629477407783 ], [ 745636.133659988525324, 3592114.276836621575058 ], [ 745107.97921740822494, 3589229.756748447660357 ], [ 744065.490629607345909, 3589204.374009853228927 ], [ 743713.524699271074496, 3587281.627287138719112 ], [ 744756.086623428971507, 3587306.958397372625768 ], [ 744580.203445720020682, 3586345.623670051340014 ], [ 743537.604871766059659, 3586320.318349531386048 ], [ 743010.097975624259561, 3583436.648975686170161 ], [ 744052.806425484130159, 3583461.877024861052632 ], [ 743877.09159962402191, 3582500.713917649816722 ], [ 744919.840572581044398, 3582526.02444357983768 ], [ 744744.204429914942011, 3581564.878451068885624 ], [ 743701.418869161978364, 3581539.59366218931973 ], [ 743525.788237066823058, 3580578.516237190924585 ], [ 745611.436447149841115, 3580629.142520237248391 ], [ 745260.447717225528322, 3578707.01323340786621 ], [ 744217.54853059432935, 3578681.697468807455152 ], [ 744042.080750272958539, 3577720.722735567484051 ], [ 745085.016474994365126, 3577746.012799378950149 ], [ 744909.627318541170098, 3576785.055143255274743 ], [ 745952.603520215372555, 3576810.427557353395969 ], [ 745251.613789584953338, 3572966.921596182044595 ], [ 746294.739934151992202, 3572992.299242149572819 ], [ 746119.634178237407468, 3572031.503863914869726 ], [ 747162.800766816711985, 3572056.963746103458107 ], [ 746987.77354024653323, 3571096.185377331916243 ], [ 748030.980575910187326, 3571121.727457541506737 ], [ 747681.125197620131075, 3569200.247376813553274 ], [ 748724.409107726765797, 3569225.845918139442801 ], [ 748374.794795687310398, 3567304.485095937736332 ], [ 750461.520339107722975, 3567355.902772380970418 ], [ 749763.087371957488358, 3563513.487114450428635 ], [ 748719.57710674428381, 3563487.827127045020461 ], [ 747847.300361558212899, 3558685.893351963255554 ], [ 746803.612568848766387, 3558660.468925111461431 ], [ 746106.40340881748125, 3554819.788200494367629 ], [ 745062.574597339029424, 3554794.573199770413339 ], [ 745236.849992908304557, 3555754.6543447826989 ], [ 744193.06142403697595, 3555729.52130189538002 ], [ 744541.811047814902849, 3557649.75977830355987 ], [ 742454.390892606927082, 3557599.714288125280291 ], [ 743676.849352988880128, 3564321.528366655111313 ], [ 742633.39943612983916, 3564296.488750112242997 ], [ 743333.019258858519606, 3568138.357741619925946 ], [ 742289.718824885087088, 3568113.32379313884303 ], [ 743340.630638593691401, 3573877.251206835266203 ] ], [ [ 745585.527095458004624, 3557674.94372484786436 ], [ 745934.37259369448293, 3559595.402698606718332 ], [ 744890.729115914087743, 3559570.167783934623003 ], [ 745065.251309261890128, 3560530.435412845574319 ], [ 744021.648122789338231, 3560505.282544902060181 ], [ 743672.573245498700999, 3558584.840654339175671 ], [ 744716.249027788639069, 3558609.942579441703856 ], [ 744541.811047814902849, 3557649.75977830355987 ], [ 745585.527095458004624, 3557674.94372484786436 ] ] ], [ [ [ 749782.780451842118055, 3580731.692911581601948 ], [ 749607.411289484822191, 3579770.503636777866632 ], [ 750650.293860597535968, 3579796.385756099130958 ], [ 750475.003275646478869, 3578835.213505760300905 ], [ 747346.257965220720507, 3578757.969042979646474 ], [ 747697.100474062608555, 3580680.201403260231018 ], [ 749782.780451842118055, 3580731.692911581601948 ] ] ], [ [ [ 772551.786269627511501, 3580364.894995305687189 ], [ 772726.351292982697487, 3581326.660229335073382 ], [ 773769.290010157739744, 3581354.948641883675009 ], [ 773594.7615317144664, 3580393.156896158121526 ], [ 772551.786269627511501, 3580364.894995305687189 ] ] ], [ [ [ 778115.513110789353959, 3582431.12615511752665 ], [ 774986.766800893004984, 3582345.206878499127924 ], [ 775335.959321961505339, 3584269.060025974642485 ], [ 774293.125905452761799, 3584240.58365387422964 ], [ 774118.472200103686191, 3583278.661999268457294 ], [ 772032.74541007517837, 3583222.087323741521686 ], [ 771858.06030432251282, 3582260.26205333461985 ], [ 770815.166908109560609, 3582232.163639966864139 ], [ 770989.888584472239017, 3583193.962423791643232 ], [ 769947.036116173840128, 3583165.945811063516885 ], [ 770121.836152199888602, 3584127.761396333575249 ], [ 772207.472279701847583, 3584183.955885943491012 ], [ 772382.24091012950521, 3585145.867761417292058 ], [ 776553.419417776283808, 3585259.662969283293933 ], [ 776378.797163182403892, 3584297.64472819911316 ], [ 777421.639445829438046, 3584326.337764093652368 ], [ 777247.095483083161525, 3583364.33625432709232 ], [ 778289.978803758742288, 3583393.110951299779117 ], [ 778115.513110789353959, 3582431.12615511752665 ] ] ], [ [ [ 760911.857742553809658, 3584841.869021531194448 ], [ 759869.121118326089345, 3584814.882704839576036 ], [ 760044.370834742439911, 3585776.521393083967268 ], [ 761087.070845000678673, 3585803.533927937969565 ], [ 760911.857742553809658, 3584841.869021531194448 ] ] ], [ [ [ 763858.551551280776039, 3578219.715930699836463 ], [ 762815.542125381296501, 3578192.48022889951244 ], [ 762640.773796267923899, 3577231.081528653856367 ], [ 761597.732093695318326, 3577203.98012016993016 ], [ 761248.248089329455979, 3575281.364097147248685 ], [ 757075.831332210334949, 3575174.247920603957027 ], [ 756901.006262272130698, 3574213.108594756573439 ], [ 752728.509999189758673, 3574107.824424762278795 ], [ 752903.48099455924239, 3575068.859997765626758 ], [ 751860.403662133496255, 3575042.783032102975994 ], [ 752560.853637230698951, 3578887.250350479502231 ], [ 754646.720279058325104, 3578939.719654241576791 ], [ 754821.86468516162131, 3579900.995636776089668 ], [ 755864.767610138747841, 3579927.418474006932229 ], [ 756215.109205537941307, 3581850.151419957634062 ], [ 757257.943130238796584, 3581876.73452718835324 ], [ 757783.660376871936023, 3584761.23499041236937 ], [ 755698.216200001887046, 3584708.020479119382799 ], [ 755873.612378765596077, 3585669.554583047982305 ], [ 752745.586733383475803, 3585590.466878781560808 ], [ 752043.81456348253414, 3581744.90106828790158 ], [ 751001.001083442009985, 3581718.858983373269439 ], [ 751176.417715351912193, 3582680.16000294778496 ], [ 749090.876021899050102, 3582628.348623183555901 ], [ 749617.597612512297928, 3585512.353993510361761 ], [ 748574.942610818427056, 3585486.532976443413645 ], [ 748926.373748664278537, 3587409.366322556510568 ], [ 752054.130959909758531, 3587487.310013887938112 ], [ 751878.504309668438509, 3586525.79395208414644 ], [ 752921.134754359722137, 3586551.96589326299727 ], [ 753272.356749460101128, 3588475.093146107625216 ], [ 752229.799604805419222, 3588448.869148262310773 ], [ 752405.510241345735267, 3589410.471376605797559 ], [ 751362.993809524225071, 3589384.329751182813197 ], [ 751187.246503844042309, 3588422.753546841442585 ], [ 750144.697429899475537, 3588396.74633861053735 ], [ 750320.481405428727157, 3589358.296547766774893 ], [ 747192.968192803440616, 3589280.847437397576869 ], [ 747544.882318713585846, 3591203.921352931298316 ], [ 748587.309358761645854, 3591229.681176099926233 ], [ 748763.292780388263054, 3592191.30869569722563 ], [ 750848.085399152478203, 3592243.205757181625813 ], [ 751200.031420812360011, 3594166.694262632634491 ], [ 749115.385706846835092, 3594114.693099147640169 ], [ 749291.495205663144588, 3595076.45002586953342 ], [ 750333.779318660730496, 3595102.422363415360451 ], [ 750509.894079897785559, 3596064.24852073052898 ], [ 749467.646724188234657, 3596038.250131187029183 ], [ 749643.840259409160353, 3597000.093436562921852 ], [ 748601.63365679862909, 3596974.177621548995376 ], [ 748777.905988297658041, 3597936.038092520087957 ], [ 759199.785468360874802, 3598200.347419034689665 ], [ 759023.880932060768828, 3597238.22509140567854 ], [ 774658.031936202431098, 3597654.673441905528307 ], [ 774307.451176569447853, 3595729.763220713473856 ], [ 775349.83584245853126, 3595758.342599577736109 ], [ 775174.644777266541496, 3594795.926129451952875 ], [ 774132.223380809416994, 3594767.373478689230978 ], [ 773957.037311890395358, 3593805.027286898344755 ], [ 774999.495426547597162, 3593833.553225956391543 ], [ 774824.387793405912817, 3592871.223867488093674 ], [ 775866.887009722762741, 3592899.83169421274215 ], [ 775691.857790240785107, 3591937.519151365384459 ], [ 776734.398111512768082, 3591966.208827911876142 ], [ 776909.390638494864106, 3592928.548107458744198 ], [ 777951.89869635424111, 3592957.37311078235507 ], [ 777776.942861398565583, 3591995.007065645419061 ], [ 778819.492056537186727, 3592023.913868132513016 ], [ 778644.614587460877374, 3591061.56459589349106 ], [ 777602.028713129926473, 3591032.684571504127234 ], [ 777427.156254654517397, 3590070.405606769025326 ], [ 778469.778795812744647, 3590099.258869437035173 ], [ 778120.232257233001292, 3588174.777967538218945 ], [ 779162.932555004023015, 3588203.68620863603428 ], [ 778813.626009618514217, 3586279.325764300301671 ], [ 774642.558521503466181, 3586164.557022355031222 ], [ 775167.02041269117035, 3589050.842545922379941 ], [ 772039.095835227286443, 3588965.664663604460657 ], [ 772389.165680271340534, 3590889.912416436709464 ], [ 771346.606224909075536, 3590861.683554047252983 ], [ 771696.916452877223492, 3592786.051871094852686 ], [ 770654.434720068704337, 3592757.878355174325407 ], [ 771004.985406109597534, 3594682.367335643619299 ], [ 769962.581430722610094, 3594654.249212684575468 ], [ 769787.248483955976553, 3593692.009578899014741 ], [ 768744.812101529561915, 3593664.026646469719708 ], [ 768569.484225707710721, 3592701.857026702724397 ], [ 767527.015430887928233, 3592674.009207215625793 ], [ 767351.692653232603334, 3591711.909518284723163 ], [ 765266.694490205380134, 3591656.592476353980601 ], [ 764740.756993903312832, 3588770.712224925402552 ], [ 765783.363963609677739, 3588798.237237042747438 ], [ 765608.171797320246696, 3587836.337379364296794 ], [ 766650.819675366394222, 3587863.944419784005731 ], [ 766475.705979418475181, 3586902.061451924964786 ], [ 768561.08785129385069, 3586957.547902300022542 ], [ 768211.132403907831758, 3585033.80612895032391 ], [ 769253.903026306070387, 3585061.659026584587991 ], [ 769079.024608498904854, 3584099.826622182969004 ], [ 768036.217389208264649, 3584072.000157181173563 ], [ 767861.344184584682807, 3583110.237433397676796 ], [ 766818.504687838838436, 3583082.545661554206163 ], [ 766643.636723508941941, 3582120.852535451762378 ], [ 765600.764943737653084, 3582093.295379313174635 ], [ 765425.902246779063717, 3581131.671767992898822 ], [ 764382.998178370529786, 3581104.249150139745325 ], [ 764557.897437043255195, 3582065.846464316360652 ], [ 762472.175175927812234, 3582011.273344154004008 ], [ 762297.202792008989491, 3581049.728537731803954 ], [ 761254.311440560384654, 3581022.63053641654551 ], [ 761079.3443860814441, 3580061.155026513617486 ], [ 762122.272288797073998, 3580088.226833501365036 ], [ 761947.383669321425259, 3579126.768210078123957 ], [ 764033.325232452480122, 3579181.183904723264277 ], [ 763858.551551280776039, 3578219.715930699836463 ] ], [ [ 770137.956153771025129, 3595616.53233112860471 ], [ 769095.593225239310414, 3595588.496247684583068 ], [ 768920.181769066955894, 3594626.239712943322957 ], [ 769962.581430722610094, 3594654.249212684575468 ], [ 770137.956153771025129, 3595616.53233112860471 ] ], [ [ 767877.786404529470019, 3594598.338832951150835 ], [ 766835.395320496056229, 3594570.546569257043302 ], [ 766484.550915464060381, 3592646.269946293439716 ], [ 767527.015430887928233, 3592674.009207215625793 ], [ 767877.786404529470019, 3594598.338832951150835 ] ], [ [ 765442.090662800474092, 3592618.639240502845496 ], [ 763357.182879217201844, 3592563.703480643220246 ], [ 763181.713309372076765, 3591601.709525845013559 ], [ 765266.694490205380134, 3591656.592476353980601 ], [ 765442.090662800474092, 3592618.639240502845496 ] ], [ [ 763532.694305530749261, 3593525.740778732579201 ], [ 762490.283453179523349, 3593498.409340102691203 ], [ 762314.735315025784075, 3592536.398419775534421 ], [ 763357.182879217201844, 3592563.703480643220246 ], [ 763532.694305530749261, 3593525.740778732579201 ] ], [ [ 762665.873457072186284, 3594460.46360886702314 ], [ 760581.137776355375536, 3594406.073737664148211 ], [ 760756.843117731856182, 3595368.118641913868487 ], [ 758672.197571020806208, 3595314.110521656926721 ], [ 758848.01829859719146, 3596276.14613278908655 ], [ 757805.738482820801437, 3596249.278713677078485 ], [ 757629.881003345130011, 3595287.269385198131204 ], [ 756587.568550641764887, 3595260.536860086489469 ], [ 756411.716252199374139, 3594298.597078622318804 ], [ 754327.030142857693136, 3594245.510237579699606 ], [ 754151.146323232445866, 3593283.666083439718932 ], [ 756235.905890369322151, 3593336.700568863656372 ], [ 756060.137468186905608, 3592374.847309329081327 ], [ 755017.718928148504347, 3592348.301968939602375 ], [ 754666.234519247547723, 3590424.777417302597314 ], [ 755708.72645489545539, 3590451.270455034915358 ], [ 755533.083869844325818, 3589489.546817360911518 ], [ 757618.153399713803083, 3589542.805947609245777 ], [ 757793.722628044430166, 3590504.581925393547863 ], [ 759878.735314714023843, 3590558.327277637086809 ], [ 760054.273088448215276, 3591520.198962099850178 ], [ 759011.801361643359996, 3591493.245790586341172 ], [ 759363.076010547811165, 3593417.066433034837246 ], [ 762490.283453179523349, 3593498.409340102691203 ], [ 762665.873457072186284, 3594460.46360886702314 ] ], [ [ 762647.189437518129125, 3582972.861274163704365 ], [ 761604.371225458802655, 3582945.710835318081081 ], [ 761429.320388029562309, 3581984.14913222193718 ], [ 762472.175175927812234, 3582011.273344154004008 ], [ 762647.189437518129125, 3582972.861274163704365 ] ], [ [ 766144.093640583218075, 3596467.260272785555571 ], [ 765101.784550727228634, 3596439.632278522010893 ], [ 764926.184321629116312, 3595477.438365634065121 ], [ 765968.53015916631557, 3595505.039875272195786 ], [ 766144.093640583218075, 3596467.260272785555571 ] ], [ [ 761788.342125541064888, 3589650.625534330494702 ], [ 759703.239440504345112, 3589596.498844400048256 ], [ 759527.785468860762194, 3588634.713640918489546 ], [ 761612.961480874102563, 3588688.787792722228914 ], [ 761788.342125541064888, 3589650.625534330494702 ] ], [ [ 758826.388668669969775, 3584788.004695578012615 ], [ 759869.121118326089345, 3584814.882704839576036 ], [ 759693.913307353504933, 3583853.287155489902943 ], [ 758651.144255379447713, 3583826.435319241601974 ], [ 758475.941762846894562, 3582864.909044083673507 ], [ 760561.557220147224143, 3582918.668652921915054 ], [ 760736.686533258645795, 3583880.247270330321044 ], [ 762822.245573745341972, 3583934.492349168751389 ], [ 763347.665199848474003, 3586819.644658375997096 ], [ 762304.993414091295563, 3586792.389148770365864 ], [ 762129.775047170463949, 3585830.654802403878421 ], [ 761087.070845000678673, 3585803.533927937969565 ], [ 761437.622717200312763, 3587726.99329209048301 ], [ 760394.995971773052588, 3587699.928271941374987 ], [ 760219.662453569821082, 3586738.203241642098874 ], [ 758134.348196420702152, 3586684.450794938020408 ], [ 757958.983323149615899, 3585722.821328836493194 ], [ 759001.674999693525024, 3585749.617194494698197 ], [ 758826.388668669969775, 3584788.004695578012615 ] ], [ [ 764390.34121152816806, 3586847.008543175645173 ], [ 764565.528179162414744, 3587808.838749784976244 ], [ 763522.888804211514071, 3587781.448527639731765 ], [ 763347.665199848474003, 3586819.644658375997096 ], [ 764390.34121152816806, 3586847.008543175645173 ] ] ], [ [ [ 765236.242536802077666, 3487511.678921768907458 ], [ 762096.763811841374263, 3487432.164662178605795 ], [ 762267.051929998327978, 3488389.983689533080906 ], [ 761220.603266643127427, 3488363.664704796858132 ], [ 761390.968732500448823, 3489321.499940515495837 ], [ 763483.799738948582672, 3489374.293641469907016 ], [ 763654.136412214487791, 3490332.22051026346162 ], [ 762607.754080345155671, 3490305.74574960116297 ], [ 762948.62409697426483, 3492221.673286704346538 ], [ 763994.935619611293077, 3492248.19842323847115 ], [ 764165.398147998843342, 3493206.249508437234908 ], [ 765211.678699196549132, 3493232.905466427560896 ], [ 764700.523193013621494, 3490358.800794617272913 ], [ 766793.310171889839694, 3490412.277947756461799 ], [ 766452.891057588392869, 3488496.314290510024875 ], [ 765406.42456928268075, 3488469.57343430025503 ], [ 765236.242536802077666, 3487511.678921768907458 ] ] ], [ [ [ 763119.122047976357862, 3493179.699160392396152 ], [ 763289.661956943571568, 3494137.766464854124933 ], [ 764335.902622348163277, 3494164.342040135525167 ], [ 764165.398147998843342, 3493206.249508437234908 ], [ 763119.122047976357862, 3493179.699160392396152 ] ] ], [ [ [ 768327.270822827355005, 3499036.167666259687394 ], [ 767986.097355862846598, 3497119.456937092822045 ], [ 766939.949651308474131, 3497092.488400698173791 ], [ 766769.390295455232263, 3496134.220771078951657 ], [ 764677.037397416774184, 3496080.651525178458542 ], [ 765018.339921773411334, 3497997.127042758278549 ], [ 763972.241114945616573, 3497970.450401152018458 ], [ 764313.782366910018027, 3499887.041488138958812 ], [ 765359.810172337805852, 3499913.768757425714284 ], [ 765189.054082723800093, 3498955.427115165162832 ], [ 766235.121850450988859, 3498982.23484522011131 ], [ 766405.84243407798931, 3499940.601837964728475 ], [ 767451.879169661784545, 3499967.540733120404184 ], [ 767281.194091305602342, 3499009.148361126892269 ], [ 768327.270822827355005, 3499036.167666259687394 ] ] ], [ [ [ 763438.628053858294152, 3500818.752613243181258 ], [ 762392.644628667505458, 3500792.211676452308893 ], [ 762221.740054856752977, 3499833.904369935393333 ], [ 763267.759000259917229, 3499860.420026754029095 ], [ 762926.146745424019173, 3497943.87950992770493 ], [ 761880.056795660057105, 3497917.414365756791085 ], [ 762050.877442893804982, 3498875.638606561813504 ], [ 761004.827392260660417, 3498849.253986432217062 ], [ 761175.725513166049495, 3499807.49451435636729 ], [ 759083.709570791805163, 3499754.992193690966815 ], [ 759254.720709773246199, 3500713.223832817282528 ], [ 760300.690974148456007, 3500739.44728954648599 ], [ 760471.708573649288155, 3501697.745654575061053 ], [ 761517.647673699539155, 3501724.100172919221222 ], [ 762201.995588961057365, 3505557.810477511025965 ], [ 764293.602468147408217, 3505611.03965045325458 ], [ 763780.49199898680672, 3502735.542545336764306 ], [ 762734.579650300554931, 3502708.95100127812475 ], [ 762563.591161443968304, 3501750.56054670130834 ], [ 763609.53905439702794, 3501777.126779236830771 ], [ 763438.628053858294152, 3500818.752613243181258 ] ] ], [ [ [ 784529.448977700667456, 3502330.68699280358851 ], [ 783483.409302912652493, 3502302.002868323586881 ], [ 783653.687035568291321, 3503260.905021138489246 ], [ 784699.691179040120915, 3503289.615032889414579 ], [ 784529.448977700667456, 3502330.68699280358851 ] ] ], [ [ [ 782948.439346408704296, 3505150.179290829226375 ], [ 785040.300678419764154, 3505207.596944000106305 ], [ 784869.975080268224701, 3504248.585009703878313 ], [ 783824.006480204407126, 3504219.849094866309315 ], [ 783653.687035568291321, 3503260.905021138489246 ], [ 782607.68764809507411, 3503232.300966071430594 ], [ 782948.439346408704296, 3505150.179290829226375 ] ] ], [ [ [ 785381.076953629031777, 3507125.746768082492054 ], [ 785210.667970529990271, 3506166.650856535416096 ], [ 783118.877774274908006, 3506109.181362714618444 ], [ 782948.439346408704296, 3505150.179290829226375 ], [ 781902.515798589913175, 3505121.629482125397772 ], [ 782243.505519037833437, 3507039.623823216650635 ], [ 785381.076953629031777, 3507125.746768082492054 ] ] ], [ [ [ 769161.034067889675498, 3509553.757067936472595 ], [ 769332.179905147873797, 3510512.608417519368231 ], [ 770377.829786697402596, 3510539.933661309536546 ], [ 770206.719586602062918, 3509581.056729851290584 ], [ 769161.034067889675498, 3509553.757067936472595 ] ] ], [ [ [ 769332.179905147873797, 3510512.608417519368231 ], [ 768286.534522552508861, 3510485.389308262150735 ], [ 768457.757879398530349, 3511444.256938264705241 ], [ 769503.367612084373832, 3511471.501616456080228 ], [ 769332.179905147873797, 3510512.608417519368231 ] ] ], [ [ [ 777678.080258223228157, 3516461.182199296075851 ], [ 777849.269082555547357, 3517420.50738529721275 ], [ 776803.841613231925294, 3517392.36453533731401 ], [ 777146.41602451982908, 3519311.089466844685376 ], [ 782373.242445554118603, 3519453.126828419975936 ], [ 782202.113058803835884, 3518493.613531374838203 ], [ 784292.947854039259255, 3518551.121364949271083 ], [ 783950.957106148125604, 3516632.117192462086678 ], [ 784996.453030229313299, 3516660.978572556283325 ], [ 784825.555898657534271, 3515701.513715875800699 ], [ 785871.092270345310681, 3515730.455372160300612 ], [ 785700.272513531846926, 3514771.006626462098211 ], [ 786745.84933701925911, 3514800.028520790394396 ], [ 786404.406196457566693, 3512881.205381076317281 ], [ 783267.475969361374155, 3512794.614846288226545 ], [ 782243.505519037833437, 3507039.623823216650635 ], [ 779105.976594023173675, 3506954.455461399164051 ], [ 779276.640824372181669, 3507913.438026562333107 ], [ 778230.842809667112306, 3507885.234892041888088 ], [ 778743.192893076105975, 3510762.356868167873472 ], [ 776651.824530144454911, 3510706.114141773898154 ], [ 776480.928139377734624, 3509747.083114450331777 ], [ 775435.215264758677222, 3509719.146745786070824 ], [ 775264.325040808878839, 3508760.183396776206791 ], [ 774218.581147260963917, 3508732.378864561673254 ], [ 774560.474651057273149, 3510650.296050432138145 ], [ 775606.147288834443316, 3510678.152018474414945 ], [ 775777.121110091218725, 3511637.199235599022359 ], [ 777868.40892347227782, 3511693.281210738699883 ], [ 778039.353224566555582, 3512652.421994564589113 ], [ 779084.968424726743251, 3512680.648110957816243 ], [ 779255.918824493419379, 3513639.856772331055254 ], [ 778210.339292741380632, 3513611.604796109721065 ], [ 778381.367125036893412, 3514570.829636174719781 ], [ 777335.827914565103129, 3514542.658061764203012 ], [ 777506.933201238396578, 3515501.899098393041641 ], [ 776461.43430795124732, 3515473.807964009232819 ], [ 776632.617070859763771, 3516433.065215069334954 ], [ 777678.080258223228157, 3516461.182199296075851 ] ], [ [ 782392.685434787417762, 3513725.250228616409004 ], [ 782563.57054844929371, 3514684.578744384460151 ], [ 781518.01267058623489, 3514655.982038643676788 ], [ 781688.975187865435146, 3515615.326699237339199 ], [ 779597.944877093657851, 3515558.400279077235609 ], [ 779255.918824493419379, 3513639.856772331055254 ], [ 782392.685434787417762, 3513725.250228616409004 ] ], [ [ 779940.137914007762447, 3517477.112170011270791 ], [ 778894.701177026610821, 3517448.756595677230507 ], [ 778723.548070144373924, 3516489.405515130143613 ], [ 779769.020523996092379, 3516517.735166102647781 ], [ 779940.137914007762447, 3517477.112170011270791 ] ], [ [ 781880.280399664770812, 3510847.517210156656802 ], [ 780834.579879273544066, 3510819.024257780984044 ], [ 780663.826015738071874, 3509859.889923859853297 ], [ 781709.562166481511667, 3509888.356977556366473 ], [ 781880.280399664770812, 3510847.517210156656802 ] ] ], [ [ [ 785338.37233775947243, 3518580.034895916003734 ], [ 784292.947854039259255, 3518551.121364949271083 ], [ 784464.005762409884483, 3519510.686774102970958 ], [ 785509.394507736666128, 3519539.626404370646924 ], [ 785338.37233775947243, 3518580.034895916003734 ] ] ], [ [ [ 783418.621747463708743, 3519481.853583320509642 ], [ 782373.242445554118603, 3519453.126828419975936 ], [ 782715.626345806987956, 3521372.280077299568802 ], [ 783760.934132374590263, 3521401.058963235467672 ], [ 783418.621747463708743, 3519481.853583320509642 ] ] ], [ [ [ 780967.718692780006677, 3523234.259816449601203 ], [ 781139.128201209125109, 3524193.932222972624004 ], [ 782184.31924418581184, 3524222.576275650411844 ], [ 782012.945537026273087, 3523262.877805507741868 ], [ 780967.718692780006677, 3523234.259816449601203 ] ] ], [ [ [ 788719.352073141606525, 3572202.043560278601944 ], [ 789066.533155152690597, 3574125.744802090339363 ], [ 786979.931439504958689, 3574066.24216997763142 ], [ 787153.657244173809886, 3575028.104145077522844 ], [ 790283.457462442805991, 3575117.600770797580481 ], [ 790804.556147195864469, 3578003.688969501759857 ], [ 791847.722815660876222, 3578033.81822228198871 ], [ 791500.355101934284903, 3576109.662069587036967 ], [ 792543.599438680685125, 3576139.845537598244846 ], [ 792370.014355532824993, 3575177.80567818460986 ], [ 791326.733556360937655, 3575147.649172984994948 ], [ 791153.153555816272274, 3574185.679700863081962 ], [ 792196.470805061166175, 3574215.809259539935738 ], [ 791849.508314647246152, 3572291.946658560540527 ], [ 796023.116141862468794, 3572413.329754240810871 ], [ 796543.184940794017166, 3575299.512804169673473 ], [ 797586.489518259186298, 3575330.209880848415196 ], [ 796893.293153337668628, 3571481.944458998739719 ], [ 795849.84285666840151, 3571451.355649052653462 ], [ 795676.611067257705145, 3570489.424963753204793 ], [ 796720.097762834746391, 3570519.986747711431235 ], [ 796546.943858897662722, 3569558.072451087180525 ], [ 794459.902481882367283, 3569497.11085096327588 ], [ 794286.717318876297213, 3568535.29390554362908 ], [ 795330.271988315274939, 3568565.693766882643104 ], [ 794465.150686093373224, 3563757.124120003078133 ], [ 796552.637772817048244, 3563817.97801281278953 ], [ 796207.025050983764231, 3561894.745432485360652 ], [ 797250.84840101795271, 3561925.28015912650153 ], [ 796905.474226003279909, 3560002.166703796945512 ], [ 797949.3749479430262, 3560032.755274336319417 ], [ 797604.239245426142588, 3558109.760844667907804 ], [ 798648.217305577360094, 3558140.403212058823556 ], [ 798475.747912935097702, 3557178.943870596587658 ], [ 800563.79110221483279, 3557240.497554667294025 ], [ 800908.626443096902221, 3559163.567302387207747 ], [ 801952.582921099849045, 3559194.559559881687164 ], [ 801780.180760293267667, 3558232.976051923353225 ], [ 802824.178393176523969, 3558264.048923905007541 ], [ 802651.853896887274459, 3557302.481635328382254 ], [ 804739.936432756949216, 3557364.896143436897546 ], [ 804567.725789860007353, 3556403.31798449344933 ], [ 805611.810713592451066, 3556434.65955779934302 ], [ 805783.985146078746766, 3557396.264817484188825 ], [ 806828.038845623377711, 3557427.741110062692314 ], [ 807000.218450359767303, 3558389.416808516718447 ], [ 805956.200973285944201, 3558357.913370075169951 ], [ 806645.47816644096747, 3562204.940937890205532 ], [ 807689.350630199885927, 3562236.553121826145798 ], [ 808034.164932524086908, 3564160.381690478418022 ], [ 809077.969820481725037, 3564192.156169498339295 ], [ 809250.402705005602911, 3565154.162920302711427 ], [ 810294.176306382985786, 3565186.072545567061752 ], [ 810984.17590298387222, 3569034.644165615551174 ], [ 812027.809186630533077, 3569066.771200218237936 ], [ 811855.283657744061202, 3568104.535538728348911 ], [ 812898.958355666603893, 3568136.743114804849029 ], [ 813071.447526991134509, 3569099.006216512992978 ], [ 814115.090940924594179, 3569131.349218505434692 ], [ 813942.638126972364262, 3568169.058647617697716 ], [ 814986.322988528758287, 3568201.482141183223575 ], [ 814124.859868229366839, 3563390.546008613426238 ], [ 813080.993406587280333, 3563358.259761820081621 ], [ 812736.624607586651109, 3561434.244990851730108 ], [ 813780.563622592366301, 3561466.476452657487243 ], [ 813264.428979187272489, 3558580.698256333358586 ], [ 814308.481836709426716, 3558612.955337526742369 ], [ 814136.555782448500395, 3557651.088807717431337 ], [ 815180.649982803501189, 3557683.426190696191043 ], [ 815008.8014327629935, 3556721.575722151901573 ], [ 816052.93698017206043, 3556753.993369232863188 ], [ 815881.165912611410022, 3555792.158943937160075 ], [ 810660.358412938308902, 3555631.283501872327179 ], [ 810832.310461141052656, 3556592.981346831191331 ], [ 807699.99553588591516, 3556497.665477127302438 ], [ 807527.934896597522311, 3555536.049233037978411 ], [ 806483.803786449600011, 3555504.519619034137577 ], [ 806311.748338295146823, 3554542.973783650435507 ], [ 810488.447704061400145, 3554669.628987930715084 ], [ 810316.578337662154809, 3553708.017783590592444 ], [ 809272.359761022496969, 3553676.219862138852477 ], [ 808928.67276103887707, 3551753.181641892530024 ], [ 807884.38692982448265, 3551721.545526322443038 ], [ 808056.245896961307153, 3552683.015875527635217 ], [ 807012.001249321503565, 3552651.460110007319599 ], [ 806840.106134223053232, 3551690.016867467667907 ], [ 802663.032967368839309, 3551564.976720865350217 ], [ 802835.072677130112424, 3552526.311825993470848 ], [ 800746.638163760537282, 3552464.382496322970837 ], [ 800918.791632300126366, 3553425.706827635411173 ], [ 799874.617921585217118, 3553394.876431971788406 ], [ 799702.428290680167265, 3552433.579021039418876 ], [ 798658.223317306605168, 3552402.883000338915735 ], [ 798141.794854243518785, 3549519.329891190864146 ], [ 799186.108241947949864, 3549549.945334350224584 ], [ 799014.084517380804755, 3548588.820216473191977 ], [ 800058.438916954444721, 3548619.516171678900719 ], [ 800230.426528335781768, 3549580.668145372532308 ], [ 801274.749730457086116, 3549611.498328085057437 ], [ 801102.798231923952699, 3548650.319469672162086 ], [ 802147.162479347549379, 3548681.230114284902811 ], [ 801975.288540808483958, 3547720.067410648800433 ], [ 799886.492777629988268, 3547658.407234138343483 ], [ 799714.588113461388275, 3546697.34131146967411 ], [ 796581.323021999443881, 3546605.736275289207697 ], [ 796409.351605986361392, 3545644.793681900948286 ], [ 795364.90358110924717, 3545614.499942789785564 ], [ 795192.937618087395094, 3544653.626978100743145 ], [ 793103.983957739314064, 3544593.41454145591706 ], [ 792588.119034514063969, 3541711.21265774872154 ], [ 791543.541304411948659, 3541681.347005549818277 ], [ 791715.490745307179168, 3542642.011577832512558 ], [ 789626.421707663219422, 3542582.548559228889644 ], [ 789282.42030874104239, 3540661.368263187352568 ], [ 788237.820887711597607, 3540631.850409328471869 ], [ 788065.846590733621269, 3539671.350805296562612 ], [ 789110.482018232461996, 3539700.842208146583289 ], [ 788938.58533775631804, 3538740.358853573445231 ], [ 786849.247234553331509, 3538681.535934225656092 ], [ 786677.320202638860792, 3537721.148067943286151 ], [ 785632.622261341079138, 3537691.923490458633751 ], [ 785460.70089922263287, 3536731.60459547303617 ], [ 786505.434811277547851, 3536760.802827809005976 ], [ 786333.591063500847667, 3535800.500192726496607 ], [ 787378.365655797533691, 3535829.779022156260908 ], [ 787550.17344550602138, 3536790.1080152108334 ], [ 789639.664949191734195, 3536849.039269848261029 ], [ 789467.929074213141575, 3535888.657474270556122 ], [ 790512.717934700660408, 3535918.257104303687811 ], [ 790169.442894469713792, 3533997.5685472083278 ], [ 789124.582157264347188, 3533968.021758201997727 ], [ 788952.971121370443143, 3533007.767795543652028 ], [ 789997.86777862184681, 3533037.288188067730516 ], [ 789654.842370649217628, 3531116.855203221552074 ], [ 788609.873909915913828, 3531087.38755563320592 ], [ 788438.387740417965688, 3530127.261236275546253 ], [ 789483.3920845950488, 3530156.702535399235785 ], [ 789311.98341453820467, 3529196.592389249708503 ], [ 790357.028417202061974, 3529226.114094775170088 ], [ 790185.697224763454869, 3528266.020103925373405 ], [ 791230.782890045084059, 3528295.622177811339498 ], [ 791059.529153408948332, 3527335.544324344024062 ], [ 792104.6554854598362, 3527365.226728555280715 ], [ 792275.873376608593389, 3528325.330969101283699 ], [ 793320.968701714184135, 3528355.146481503732502 ], [ 792636.489987323526293, 3524514.878906559199095 ], [ 793681.733473485102877, 3524544.695460436865687 ], [ 794023.818043737206608, 3526464.797054657246917 ], [ 795068.994773856480606, 3526494.773089108522981 ], [ 795240.063579256646335, 3527454.914109594188631 ], [ 797330.360062483465299, 3527515.239208011887968 ], [ 797159.362919795559719, 3526555.04518553102389 ], [ 796114.176393451634794, 3526524.855798147153109 ], [ 795601.326740673277527, 3523644.608489376027137 ], [ 796646.620687265647575, 3523674.718426306731999 ], [ 796475.789685086579993, 3522714.694539201911539 ], [ 794385.135132259689271, 3522654.634131325408816 ], [ 794043.454701976617798, 3520734.819432786200196 ], [ 791952.676639549201354, 3520675.290683317463845 ], [ 792123.5675877740141, 3521635.124123379122466 ], [ 791078.221603328827769, 3521605.493187216110528 ], [ 791249.189917979761958, 3522565.342703632544726 ], [ 789158.583983122836798, 3522506.347831170074642 ], [ 788987.544123214436695, 3521546.550868514925241 ], [ 786896.885845981538296, 3521488.034596771001816 ], [ 786725.816094218520448, 3520528.332389310002327 ], [ 785680.458351194858551, 3520499.260171877685934 ], [ 785851.563865136820823, 3521458.936219353694469 ], [ 784806.246633042581379, 3521429.944342716131359 ], [ 784977.429589316016063, 3522389.636544003151357 ], [ 783932.152864012401551, 3522360.725046280305833 ], [ 784103.413284445181489, 3523320.43341927556321 ], [ 785148.654222230659798, 3523349.371051177382469 ], [ 785319.920528785325587, 3524309.147885181941092 ], [ 784274.7153906772146, 3524280.184103154577315 ], [ 784446.059179707895964, 3525239.977118864189833 ], [ 783400.894569631200284, 3525211.093779654242098 ], [ 783572.31586297985632, 3526170.902994955889881 ], [ 781482.072372878203169, 3526113.403908912558109 ], [ 781139.128201209125109, 3524193.932222972624004 ], [ 779048.760089301038533, 3524136.963821861892939 ], [ 778877.27897667628713, 3523177.343456097878516 ], [ 777832.066070203669369, 3523149.045077689457685 ], [ 778003.582985773566179, 3524108.639466311316937 ], [ 776958.410494130803272, 3524080.421669372357428 ], [ 776615.34682676976081, 3522161.326988094486296 ], [ 777660.590913319261745, 3522189.492904322221875 ], [ 777489.157518095336854, 3521229.982925313059241 ], [ 778534.441994040389545, 3521258.229397234041244 ], [ 778363.086129985516891, 3520298.735662341117859 ], [ 776272.450254583382048, 3520242.401020554825664 ], [ 775758.418751690420322, 3517364.328042278066278 ], [ 776803.841613231925294, 3517392.36453533731401 ], [ 776632.617070859763771, 3516433.065215069334954 ], [ 773496.255082383519039, 3516349.352216926403344 ], [ 773324.965198058169335, 3515390.172342553734779 ], [ 772279.484626807738096, 3515362.506384340114892 ], [ 772108.20086493564304, 3514403.394229460507631 ], [ 771062.689133809879422, 3514375.860246553085744 ], [ 770720.175756768789142, 3512457.813140557147563 ], [ 769674.597185774357058, 3512430.436685477383435 ], [ 770188.537078075576574, 3515307.493320533074439 ], [ 769143.070065825246274, 3515280.146208054851741 ], [ 768629.023115074145608, 3512403.166422503069043 ], [ 767583.453527257312089, 3512376.002348221372813 ], [ 767240.893621482420713, 3510458.27633013157174 ], [ 768286.534522552508861, 3510485.389308262150735 ], [ 768115.353047457989305, 3509526.563511772546917 ], [ 763932.67359973967541, 3509418.850276723504066 ], [ 763761.391499288962223, 3508460.168154296465218 ], [ 762715.697079364676028, 3508433.530469465535134 ], [ 762887.014809106942266, 3509392.187198507133871 ], [ 760795.710391310043633, 3509339.179295313544571 ], [ 761310.129165760939941, 3512215.247675611171871 ], [ 760264.590470548835583, 3512188.826827726792544 ], [ 759921.531332428567111, 3510271.456871323753148 ], [ 758875.92565600713715, 3510245.192821131553501 ], [ 759047.46989376633428, 3511203.831625588703901 ], [ 758001.904199107084423, 3511177.648395216558129 ], [ 758173.526093423832208, 3512136.303614266682416 ], [ 759219.056118907639757, 3512162.5121417096816 ], [ 759390.684328538831323, 3513121.234390176832676 ], [ 760436.182999711716548, 3513147.574417866766453 ], [ 760779.49396375042852, 3515065.194925494492054 ], [ 761824.92558362078853, 3515091.691932239569724 ], [ 761996.60829678340815, 3516050.590309152845293 ], [ 760951.212392822024412, 3516024.067884404677898 ], [ 761122.972782722325064, 3516982.982674341648817 ], [ 760077.616954023018479, 3516956.541121416259557 ], [ 760249.455042630434036, 3517915.472342143766582 ], [ 762340.099566473159939, 3517968.512624414637685 ], [ 762855.651035713497549, 3520845.710312196984887 ], [ 760765.221099325688556, 3520792.517227131407708 ], [ 760937.22703881142661, 3521751.615998933557421 ], [ 761982.404042801470496, 3521778.18481561075896 ], [ 762154.416136529296637, 3522737.351027554366738 ], [ 763199.56169096485246, 3522764.051823008339852 ], [ 763027.585397710907273, 3521804.860081846360117 ], [ 765117.961229583015665, 3521858.529976348858327 ], [ 765289.865924005629495, 3522817.772862288635224 ], [ 766335.024637238821015, 3522844.793112827930599 ], [ 766850.882665794459172, 3525722.850941092241555 ], [ 765805.831420323462225, 3525695.753748322371393 ], [ 765977.903713654959574, 3526655.164855866227299 ], [ 763887.886117998044938, 3526601.238919030874968 ], [ 763715.742128996993415, 3525641.879083666484803 ], [ 762670.704048569779843, 3525615.101605049800128 ], [ 763015.105653039878234, 3527533.812149662524462 ], [ 761970.143637660890818, 3527507.090091530233622 ], [ 762142.443203834351152, 3528466.482878235168755 ], [ 763187.36934541456867, 3528493.230532376095653 ], [ 763359.674960636300966, 3529452.691016507335007 ], [ 765449.468558973865584, 3529506.557591510936618 ], [ 765794.061933983000927, 3531425.707663853652775 ], [ 766838.893507075146772, 3531452.852424030192196 ], [ 767011.217110470635816, 3532412.516489992383868 ], [ 765966.421457614167593, 3532385.345983585808426 ], [ 766311.266162366839126, 3534304.749294750858098 ], [ 765266.546780830598436, 3534277.63407846307382 ], [ 765439.067913360195234, 3535237.373346375767142 ], [ 764394.388867042260244, 3535210.33922064024955 ], [ 764049.316591189010069, 3533290.954384807497263 ], [ 760915.089827938121744, 3533210.647135643754154 ], [ 761087.712854957906529, 3534170.24145110975951 ], [ 762132.414830791181885, 3534196.929378991946578 ], [ 762305.043839334743097, 3535156.591523516457528 ], [ 763349.71418143203482, 3535183.41194747434929 ], [ 763522.349144987296313, 3536143.142002750188112 ], [ 761433.084730791859329, 3536089.556639500427991 ], [ 761605.833573720534332, 3537049.277554264757782 ], [ 759516.658369599492289, 3536996.068398266565055 ], [ 759689.521140306955203, 3537955.780244619585574 ], [ 760734.07059782044962, 3537982.357014854438603 ], [ 760906.939312598202378, 3538942.136748397257179 ], [ 759862.425865090917796, 3538915.534321528859437 ], [ 760035.372541005956009, 3539875.330649940297008 ], [ 761079.849966366076842, 3539901.958749459590763 ], [ 761252.802556176437065, 3540861.823039 ], [ 759163.924053065478802, 3540808.622471243608743 ], [ 759510.099240472540259, 3542728.375206390861422 ], [ 760554.464246077346615, 3542754.973353803157806 ], [ 760727.578697039512917, 3543714.938897892832756 ], [ 759683.24976288061589, 3543688.315042499452829 ], [ 760029.676650346606039, 3545608.321756752207875 ], [ 758985.424160976195708, 3545581.753586534410715 ], [ 758812.153647990431637, 3544621.754760017152876 ], [ 757767.869309777626768, 3544595.319418253842741 ], [ 757594.604669507360086, 3543635.388603473547846 ], [ 756550.288476066547446, 3543609.086013243533671 ], [ 755857.505451249540783, 3539769.888017208315432 ], [ 753768.597233284381218, 3539717.808514082804322 ], [ 754115.048941431334242, 3541637.220858061220497 ], [ 753070.673195158364251, 3541611.290557999629527 ], [ 753243.998137096874416, 3542571.034527621697634 ], [ 754288.33781967125833, 3542596.990346922073513 ], [ 754808.456515867495909, 3545476.552332418039441 ], [ 753764.225097208633088, 3545450.519859193824232 ], [ 753937.718118904158473, 3546410.432847166899592 ], [ 752893.5269761136733, 3546384.481948939617723 ], [ 753761.80296209640801, 3551184.553900192026049 ], [ 754805.813357573817484, 3551210.632812466006726 ], [ 755501.045527977519669, 3555051.556076734792441 ], [ 754457.179949273704551, 3555025.374463698361069 ], [ 754805.120444099535234, 3556946.039542730432004 ], [ 752717.546696772915311, 3556893.895834755152464 ], [ 753414.221797541133128, 3560735.530601291451603 ], [ 754457.861487377551384, 3560761.651578266173601 ], [ 754632.098972879350185, 3561722.192408344242722 ], [ 756719.318175250198692, 3561774.808712475933135 ], [ 756545.153306012973189, 3560814.216286659706384 ], [ 757588.805468707345426, 3560840.660024615935981 ], [ 757937.104546119808219, 3562761.93921878002584 ], [ 760024.276214455021545, 3562815.253048090729862 ], [ 759850.178335690521635, 3561854.540319927968085 ], [ 760893.806818753480911, 3561881.332775948103517 ], [ 760719.78717364964541, 3560920.636813004966825 ], [ 761763.456204069778323, 3560947.510945023503155 ], [ 761415.615247167297639, 3559026.195196914486587 ], [ 760371.873644712031819, 3558999.372929046861827 ], [ 760197.979766850708984, 3558038.804965700488538 ], [ 761241.757637009141035, 3558065.601325714960694 ], [ 761067.941943030338734, 3557105.050094874110073 ], [ 765243.241181760211475, 3557213.206917411647737 ], [ 764896.025438536889851, 3555292.024775858968496 ], [ 765939.933484977344051, 3555319.28071246528998 ], [ 765766.424641945282929, 3554358.727627040818334 ], [ 766810.37324362504296, 3554386.064998219721019 ], [ 766983.845871692406945, 3555346.644099859520793 ], [ 768027.762615683022887, 3555374.114941448904574 ], [ 769069.259626145358197, 3561138.643049348145723 ], [ 770112.963205354521051, 3561166.378130732104182 ], [ 770286.656134351505898, 3562127.30873810313642 ], [ 768199.32595308276359, 3562071.893860927317291 ], [ 768025.560424836119637, 3561111.015598563943058 ], [ 765938.175088146002963, 3561056.083575068041682 ], [ 766459.81504079233855, 3563938.690063524059951 ], [ 767503.396597013343126, 3563966.180613190867007 ], [ 767329.511085103498772, 3563005.242847058922052 ], [ 768373.133312168647535, 3563032.814945358317345 ], [ 768894.80634426814504, 3565915.835343493614346 ], [ 770981.845883619505912, 3565971.459924357477576 ], [ 771155.747814110014588, 3566932.605016447603703 ], [ 772199.237811919068918, 3566960.605269254650921 ], [ 772025.372241443721578, 3565999.433880446013063 ], [ 773068.90301389421802, 3566027.515618268400431 ], [ 772547.666011263849214, 3563144.180221356451511 ], [ 771504.026234018965624, 3563116.177363027818501 ], [ 771330.327809656970203, 3562155.177669297438115 ], [ 772374.003897321177647, 3562183.154266841709614 ], [ 771853.26825876138173, 3559300.333638966549188 ], [ 773940.851449341513216, 3559356.452216844540089 ], [ 773767.429002169752494, 3558395.545203241053969 ], [ 774811.26354097854346, 3558423.739593219477683 ], [ 774464.616440877318382, 3556502.001530422829092 ], [ 775508.527939254883677, 3556530.250910851638764 ], [ 775335.303255107952282, 3555569.419838823843747 ], [ 778467.173445124994032, 3555654.734096655622125 ], [ 778813.447199434274808, 3557576.597037480678409 ], [ 779857.340542329708114, 3557605.30287676397711 ], [ 779684.219040601281449, 3556644.323575544636697 ], [ 780728.153177822940052, 3556673.110545203555375 ], [ 780382.107711016549729, 3554751.227788915392011 ], [ 779338.101146396715194, 3554722.493617679923773 ], [ 778819.237123863189481, 3551840.069973863661289 ], [ 776731.020556591101922, 3551783.081923058256507 ], [ 776558.07699412247166, 3550822.412201745901257 ], [ 778646.365880180732347, 3550879.347685878630728 ], [ 778473.536356801399961, 3549918.668159214314073 ], [ 779517.723775631515309, 3549947.270616749301553 ], [ 779344.972109725815244, 3548986.607535844668746 ], [ 780389.20023732772097, 3549015.290996681433171 ], [ 780561.915769618470222, 3549975.98040082398802 ], [ 782650.313551265280694, 3550033.721962906885892 ], [ 782822.998492250917479, 3550994.506904682610184 ], [ 783867.168169658631086, 3551023.565115807112306 ], [ 784039.858625399880111, 3551984.419325419235975 ], [ 782995.72510458691977, 3551955.334672251250595 ], [ 783168.493385226349346, 3552916.205286824610084 ], [ 784212.590737194521353, 3552945.316398164723068 ], [ 784385.364501988282427, 3553906.256355275399983 ], [ 782297.246788495336659, 3553848.088636740110815 ], [ 782470.13459041970782, 3554809.018547425512224 ], [ 785602.20953996758908, 3554896.510779339820147 ], [ 785775.0303964355262, 3555857.563104373868555 ], [ 786819.028477714862674, 3555886.968718963675201 ], [ 786991.854748769314028, 3556848.090588764753193 ], [ 785947.892884455970488, 3556818.65839367872104 ], [ 786293.742742884089239, 3558740.97795023303479 ], [ 785249.858013866236433, 3558711.600150062236935 ], [ 785422.881632375763729, 3559672.797859775368124 ], [ 783335.198609952814877, 3559614.31194442184642 ], [ 783681.515831942902878, 3561536.730160653125495 ], [ 784725.282480464549735, 3561565.972438625991344 ], [ 784552.139322666684166, 3560604.715244666673243 ], [ 785595.946882435353473, 3560634.038602762389928 ], [ 785769.053760971408337, 3561595.322400334756821 ], [ 786812.829690401442349, 3561624.780049429275095 ], [ 786639.759090680046938, 3560663.46961936308071 ], [ 788727.39752037380822, 3560722.654642736539245 ], [ 788900.395563769037835, 3561684.018424441106617 ], [ 789944.185541576473042, 3561713.799157725181431 ], [ 790117.188883660361171, 3562675.232799280900508 ], [ 789073.435195682919584, 3562645.425330648198724 ], [ 789246.516413026489317, 3563606.875382710248232 ], [ 791333.95590218284633, 3563666.651582992170006 ], [ 791160.947288705501705, 3562705.147998926695436 ], [ 792204.710427741287276, 3562735.170933303423226 ], [ 792550.696597424452193, 3564658.274935991503298 ], [ 791507.006073378142901, 3564628.198366708122194 ], [ 791853.231076510855928, 3566551.421618664637208 ], [ 790809.617952270666137, 3566521.39919992024079 ], [ 790982.829128991463222, 3567483.048865637276322 ], [ 788895.68972277676221, 3567423.273960245773196 ], [ 789069.015184930292889, 3568384.913258548825979 ], [ 788025.488882714649662, 3568355.160834930837154 ], [ 788545.823899175040424, 3571240.257941331714392 ], [ 789589.241033923346549, 3571270.090787066146731 ], [ 789762.7327940762043, 3572231.903245898894966 ], [ 788719.352073141606525, 3572202.043560278601944 ] ], [ [ 794633.129159276024438, 3570458.971157055348158 ], [ 793589.652022041962482, 3570428.625323832966387 ], [ 793416.388957395451143, 3569466.791969636455178 ], [ 794459.902481882367283, 3569497.11085096327588 ], [ 794633.129159276024438, 3570458.971157055348158 ] ], [ [ 772450.810219517210498, 3516321.660524088423699 ], [ 771405.369894339237362, 3516294.075145403854549 ], [ 771234.008592607569881, 3515334.946711483411491 ], [ 772279.484626807738096, 3515362.506384340114892 ], [ 772450.810219517210498, 3516321.660524088423699 ] ], [ [ 792031.779664110159501, 3561773.683734366670251 ], [ 793075.583842704072595, 3561803.787585170939565 ], [ 793248.478317694505677, 3562765.301606144756079 ], [ 792204.710427741287276, 3562735.170933303423226 ], [ 792031.779664110159501, 3561773.683734366670251 ] ], [ [ 792026.405902234837413, 3567513.098129720892757 ], [ 792199.62227325164713, 3568474.817926057148725 ], [ 791156.08186333021149, 3568444.741800394374877 ], [ 790982.829128991463222, 3567483.048865637276322 ], [ 792026.405902234837413, 3567513.098129720892757 ] ], [ [ 757240.674215512932278, 3558919.551387389190495 ], [ 756196.949475286528468, 3558893.159283124376088 ], [ 755674.958543120534159, 3556011.893081035930663 ], [ 756718.792058185557835, 3556038.207855799701065 ], [ 757240.674215512932278, 3558919.551387389190495 ] ], [ [ 805095.535815833252855, 3553550.103322189766914 ], [ 804051.342334823333658, 3553518.842954034917057 ], [ 803879.297351464396343, 3552557.437688094563782 ], [ 804923.526993593899533, 3552588.671020200941712 ], [ 805095.535815833252855, 3553550.103322189766914 ] ], [ [ 762995.979109067935497, 3538995.662468555849046 ], [ 761951.457054871367291, 3538968.846129630226642 ], [ 761778.624349396210164, 3538009.040710660163313 ], [ 762823.182412199908867, 3538035.831335368100554 ], [ 762995.979109067935497, 3538995.662468555849046 ] ], [ [ 764912.311540157767013, 3538089.733384862542152 ], [ 763867.744803397916257, 3538062.728892317041755 ], [ 763695.026019959943369, 3537102.914310712832958 ], [ 764739.628751814831048, 3537129.893047458957881 ], [ 764912.311540157767013, 3538089.733384862542152 ] ], [ [ 780436.957633772864938, 3526084.814308083616197 ], [ 779391.847542258212343, 3526056.331330614630133 ], [ 779220.282945489743724, 3525096.626439727842808 ], [ 780265.428863678593189, 3525125.083379338029772 ], [ 780436.957633772864938, 3526084.814308083616197 ] ], [ [ 786193.899892475455999, 3523378.415237912442535 ], [ 787239.150312485755421, 3523407.565983108244836 ], [ 787410.345021213404834, 3524367.395203880034387 ], [ 788455.564410124905407, 3524396.678747832775116 ], [ 788626.764954815851524, 3525356.576600893400609 ], [ 786536.402565726079047, 3525298.063627574592829 ], [ 786193.899892475455999, 3523378.415237912442535 ] ], [ [ 769470.527371535426937, 3522926.492828609421849 ], [ 769127.04622022411786, 3521007.843853699974716 ], [ 770172.294300191453658, 3521035.238646137528121 ], [ 770515.703872208716348, 3522953.93906660284847 ], [ 769470.527371535426937, 3522926.492828609421849 ] ], [ [ 768081.802611774764955, 3520980.555505644530058 ], [ 768253.558042355813086, 3521939.833273584488779 ], [ 767208.354673007037491, 3521912.625709271989763 ], [ 766693.106686847284436, 3519034.995399334467947 ], [ 765647.800434558652341, 3519007.971138997003436 ], [ 765476.099135956028476, 3518048.870589610189199 ], [ 766521.441137545509264, 3518075.869269204325974 ], [ 766349.817482838989235, 3517116.785091007594019 ], [ 767395.19965576636605, 3517143.864528178237379 ], [ 767223.653623017948121, 3516184.796703382395208 ], [ 769314.502787552308291, 3516239.223316704388708 ], [ 770000.652286929311231, 3520075.951539415866137 ], [ 768955.368435479700565, 3520048.58244588598609 ], [ 769127.04622022411786, 3521007.843853699974716 ], [ 768081.802611774764955, 3520980.555505644530058 ] ], [ [ 774524.872416584054008, 3522105.314644488506019 ], [ 772434.416241490049288, 3522049.728262694086879 ], [ 772262.803943995037116, 3521090.347577878274024 ], [ 774353.331681820796803, 3521145.882328424602747 ], [ 774524.872416584054008, 3522105.314644488506019 ] ], [ [ 772091.233471754123457, 3520131.00898694852367 ], [ 771045.940626574330963, 3520103.427051958627999 ], [ 770702.853665609844029, 3518184.927533690817654 ], [ 771748.218014839105308, 3518212.458003388252109 ], [ 772091.233471754123457, 3520131.00898694852367 ] ] ], [ [ [ 782470.13459041970782, 3554809.018547425512224 ], [ 781426.118853355990723, 3554780.069430966395885 ], [ 781599.084533259272575, 3555741.015787354204804 ], [ 782643.064063746365719, 3555769.991352674085647 ], [ 782470.13459041970782, 3554809.018547425512224 ] ] ], [ [ [ 777419.012264068354852, 3561363.537648566998541 ], [ 780550.24350893299561, 3561449.649392850231379 ], [ 780723.573475236305967, 3562410.843456067610532 ], [ 781767.290036001242697, 3562439.789208905771375 ], [ 781247.534043993218802, 3559556.256518491543829 ], [ 778116.071504195220768, 3559469.980484133120626 ], [ 778289.390633074566722, 3560431.035721418913454 ], [ 777245.61513814330101, 3560402.465871499385685 ], [ 777419.012264068354852, 3561363.537648566998541 ] ] ], [ [ [ 783681.515831942902878, 3561536.730160653125495 ], [ 782637.753798471880145, 3561507.595562778413296 ], [ 782811.01117842248641, 3562468.842663482297212 ], [ 783854.736919429851696, 3562498.003823407925665 ], [ 783681.515831942902878, 3561536.730160653125495 ] ] ], [ [ [ 777939.453971302136779, 3564247.010743414983153 ], [ 777419.012264068354852, 3561363.537648566998541 ], [ 774287.821640014997683, 3561278.394831432495266 ], [ 774634.9588722307235, 3563200.509037537034601 ], [ 776722.269587978953496, 3563257.268676445353776 ], [ 776895.828195552690886, 3564218.442935390397906 ], [ 777939.453971302136779, 3564247.010743414983153 ] ] ], [ [ [ 781767.290036001242697, 3562439.789208905771375 ], [ 781940.625380353769287, 3563401.052808891516179 ], [ 782984.310217558173463, 3563430.13281283993274 ], [ 782811.01117842248641, 3562468.842663482297212 ], [ 781767.290036001242697, 3562439.789208905771375 ] ] ], [ [ [ 773242.732224912848324, 3566988.713332645595074 ], [ 772199.237811919068918, 3566960.605269254650921 ], [ 772373.145161331631243, 3567921.819635055959225 ], [ 773416.603202600730583, 3567949.95404022699222 ], [ 773242.732224912848324, 3566988.713332645595074 ] ] ], [ [ [ 779504.212802501628175, 3578641.228065859526396 ], [ 779678.438670010888018, 3579603.092793853487819 ], [ 782807.581208558985963, 3579690.395685262978077 ], [ 782633.46489004639443, 3578728.450826945248991 ], [ 780547.292303818045184, 3578670.1941401027143 ], [ 780373.144621447077952, 3577708.346062091644853 ], [ 778286.917114923708141, 3577650.575389227364212 ], [ 778461.137806691229343, 3578612.370166271924973 ], [ 779504.212802501628175, 3578641.228065859526396 ] ] ], [ [ [ 789241.610372645780444, 3586573.83602640312165 ], [ 790284.434068522416055, 3586603.883384702261537 ], [ 790632.934962516184896, 3588528.835777237545699 ], [ 791675.690081455744803, 3588559.045734739862382 ], [ 791327.262423817068338, 3586634.039181791245937 ], [ 792370.095455218921416, 3586664.303421407938004 ], [ 792195.980522277648561, 3585701.83854703232646 ], [ 794281.733877615537494, 3585762.638112931977957 ], [ 794107.733640240854584, 3584800.162660661619157 ], [ 795150.653984171920456, 3584830.697924059815705 ], [ 795324.617635711096227, 3585793.20053132949397 ], [ 798453.297432080144063, 3585885.538373815827072 ], [ 798279.44353616819717, 3584922.954127948731184 ], [ 799322.382949256687425, 3584953.923013183753937 ], [ 799670.059007941745222, 3586879.189806274138391 ], [ 800712.9300490047317, 3586910.321722275577486 ], [ 800886.79362014029175, 3587873.048112735152245 ], [ 799843.959188243956305, 3587841.888864299282432 ], [ 800017.900798280024901, 3588804.631725543178618 ], [ 802103.501245724502951, 3588867.113454721402377 ], [ 801929.63287860318087, 3587904.315866889897734 ], [ 802972.476980307605118, 3587935.692130640149117 ], [ 802624.93766877730377, 3586010.173676962964237 ], [ 803667.859834770439193, 3586041.603631997015327 ], [ 803494.188859213376418, 3585078.882742954418063 ], [ 806623.094429882708937, 3585173.741047192364931 ], [ 805755.908646915340796, 3580360.382293553557247 ], [ 804712.752491805003956, 3580328.791543331928551 ], [ 804366.094730061129667, 3578403.809138797689229 ], [ 806452.557973132585175, 3578466.989410428330302 ], [ 806625.793170476797968, 3579429.513506272807717 ], [ 808712.20318748569116, 3579493.181614561472088 ], [ 808539.040980814257637, 3578530.602656081318855 ], [ 807495.796998012345284, 3578498.741909533273429 ], [ 807322.639645952731371, 3577536.234130690805614 ], [ 805236.093571040895768, 3577472.892148043960333 ], [ 804716.650895673315972, 3574585.795118677429855 ], [ 802629.905764268594794, 3574523.049751521553844 ], [ 802976.305309699848294, 3576447.628304306883365 ], [ 804019.602516550803557, 3576479.001473683863878 ], [ 804192.827928188256919, 3577441.383474619593471 ], [ 802106.311347800074145, 3577378.690744012128562 ], [ 802279.651117454050109, 3578341.061809827573597 ], [ 801236.436630650307052, 3578309.850489097647369 ], [ 801409.85430884314701, 3579272.237935028038919 ], [ 800366.681176306679845, 3579241.10759515222162 ], [ 800193.227001154096797, 3578278.747392371296883 ], [ 798106.822246998315677, 3578216.865855496376753 ], [ 798280.349416934885085, 3579179.171658794861287 ], [ 797237.190756577881984, 3579148.366054627113044 ], [ 797410.795894997660071, 3580110.688293761573732 ], [ 795324.565950522432104, 3580049.347535801585764 ], [ 795498.285602590069175, 3581011.659097505267709 ], [ 792369.08589574508369, 3580920.378673009574413 ], [ 792021.468977555865422, 3578995.961521425284445 ], [ 787848.976375807775185, 3578875.985853723715991 ], [ 788022.910121386637911, 3579838.064840442501009 ], [ 786979.835125755053014, 3579808.314558756537735 ], [ 786631.936201386270113, 3577884.253781302366406 ], [ 785588.792813068488613, 3577854.665421459358186 ], [ 785762.757979915477335, 3578816.647257404401898 ], [ 784719.655699531547725, 3578787.140255708713084 ], [ 785241.910408315365203, 3581673.265799939166754 ], [ 782112.959786229534075, 3581585.15287903835997 ], [ 782287.237570067867637, 3582547.201169843319803 ], [ 781244.299685826757923, 3582518.01997906062752 ], [ 781418.655678972252645, 3583480.084928014315665 ], [ 780375.75888497964479, 3583450.985284556169063 ], [ 780550.193109474028461, 3584413.066909418907017 ], [ 782635.918065465521067, 3584471.428073541261256 ], [ 782461.556997515494004, 3583509.292894166428596 ], [ 783504.462857331614941, 3583538.609186632558703 ], [ 783678.787347668316215, 3584500.771186603698879 ], [ 785764.539604052901268, 3584559.782492922618985 ], [ 786113.167074607452378, 3586484.344547076150775 ], [ 787155.976892379345372, 3586514.066611294168979 ], [ 786981.678959612967446, 3585551.736870623193681 ], [ 788024.529987439513206, 3585581.540393590927124 ], [ 788373.094220850383863, 3587506.297414239030331 ], [ 789415.876661290065385, 3587536.263351653702557 ], [ 789241.610372645780444, 3586573.83602640312165 ] ], [ [ 785416.078534721396863, 3582635.394541244953871 ], [ 786459.034682684810832, 3582665.008943547960371 ], [ 786633.207851639483124, 3583627.208058324642479 ], [ 788719.060860768542625, 3583686.815671347547323 ], [ 788893.202469247858971, 3584649.112207846716046 ], [ 785764.539604052901268, 3584559.782492922618985 ], [ 785416.078534721396863, 3582635.394541244953871 ] ], [ [ 797236.508915428072214, 3584892.093653898220509 ], [ 796193.579070331295952, 3584861.341587205883116 ], [ 796019.693480784539133, 3583898.8554851366207 ], [ 797062.659898686339147, 3583929.580355323385447 ], [ 797236.508915428072214, 3584892.093653898220509 ] ], [ [ 791847.875228243879974, 3583777.039712623693049 ], [ 789761.994319369434379, 3583716.781998491380364 ], [ 789413.908917786087841, 3581792.265624098945409 ], [ 790456.920147227821872, 3581822.286306408699602 ], [ 790630.905519402585924, 3582784.549709952436388 ], [ 791673.884873442701064, 3582814.705709380097687 ], [ 791847.875228243879974, 3583777.039712623693049 ] ], [ [ 791499.93605097499676, 3581852.415286651812494 ], [ 795672.046743757207878, 3581974.01426189718768 ], [ 795845.849370873882435, 3582936.413050572387874 ], [ 793759.857672449434176, 3582875.342703752685338 ], [ 793933.77490413445048, 3583837.730864806100726 ], [ 792890.822711952729151, 3583807.331107081845403 ], [ 792716.868918881984428, 3582844.970039395615458 ], [ 791673.884873442701064, 3582814.705709380097687 ], [ 791499.93605097499676, 3581852.415286651812494 ] ] ], [ [ [ 778984.05002766661346, 3581498.014374956488609 ], [ 777941.089110801462084, 3581469.184727160260081 ], [ 778115.513110789353959, 3582431.12615511752665 ], [ 779158.437472920515575, 3582459.982475296128541 ], [ 778984.05002766661346, 3581498.014374956488609 ] ] ], [ [ [ 782984.765110426931642, 3586395.828883612528443 ], [ 782810.32077080628369, 3585433.606729505117983 ], [ 780724.66899606725201, 3585375.191978196147829 ], [ 780550.193109474028461, 3584413.066909418907017 ], [ 778464.486186617054045, 3584355.139137212187052 ], [ 778813.626009618514217, 3586279.325764300301671 ], [ 782984.765110426931642, 3586395.828883612528443 ] ] ], [ [ [ 792718.44987720111385, 3588589.364192618522793 ], [ 792892.689359935699031, 3589551.960132732521743 ], [ 794978.149776667356491, 3589612.976918837055564 ], [ 794803.983565791277215, 3588650.326624542940408 ], [ 792718.44987720111385, 3588589.364192618522793 ] ] ], [ [ [ 780380.316474142600782, 3589194.975150364916772 ], [ 779337.648340833256952, 3589165.931666151154786 ], [ 779512.405797944054939, 3590128.220642651431262 ], [ 780555.037277707480825, 3590157.290930001065135 ], [ 780380.316474142600782, 3589194.975150364916772 ] ] ], [ [ [ 778644.614587460877374, 3591061.56459589349106 ], [ 779687.204923226265237, 3591090.553159721195698 ], [ 779512.405797944054939, 3590128.220642651431262 ], [ 778469.778795812744647, 3590099.258869437035173 ], [ 778644.614587460877374, 3591061.56459589349106 ] ] ], [ [ [ 789938.924837310565636, 3590423.80725070182234 ], [ 788896.252309335512109, 3590393.76017250539735 ], [ 789245.232157250167802, 3592318.953748558647931 ], [ 790287.831348265754059, 3592349.055002533830702 ], [ 790636.9040113594383, 3594274.477745170239359 ], [ 788551.857031468069181, 3594214.275417180266231 ], [ 788726.529086345573887, 3595176.998202572576702 ], [ 792896.49478152836673, 3595297.946163455024362 ], [ 792373.043681614566594, 3592409.583340006414801 ], [ 791330.435184174915776, 3592379.264865102246404 ], [ 791155.99783243064303, 3591416.592001160141081 ], [ 790113.357322193915024, 3591386.409263601992279 ], [ 789938.924837310565636, 3590423.80725070182234 ] ] ], [ [ [ 788208.424920572666451, 3598035.382703167852014 ], [ 788033.591465126723051, 3597072.555649590212852 ], [ 789075.997853115666658, 3597102.575134855695069 ], [ 788726.529086345573887, 3595176.998202572576702 ], [ 785599.103306668926962, 3595087.428468221332878 ], [ 786123.699419387383386, 3597975.615768432617188 ], [ 788208.424920572666451, 3598035.382703167852014 ] ] ], [ [ [ 784359.248479210305959, 3501371.800868706777692 ], [ 784529.448977700667456, 3502330.68699280358851 ], [ 785575.493425436434336, 3502359.477048747241497 ], [ 785405.328445619437844, 3501400.565024372190237 ], [ 784359.248479210305959, 3501371.800868706777692 ] ] ], [ [ [ 787108.853971599135548, 3510991.574690797366202 ], [ 786063.129736463306472, 3510962.550820163451135 ], [ 786404.406196457566693, 3512881.205381076317281 ], [ 787450.059139970224351, 3512910.281384895090014 ], [ 787108.853971599135548, 3510991.574690797366202 ] ] ], [ [ [ 802577.297187975374982, 3521937.292857537977397 ], [ 802747.872034814208746, 3522897.433483301196247 ], [ 806929.360562104731798, 3523021.391184938140213 ], [ 806758.928782993694767, 3522061.143834878690541 ], [ 807804.349376342259347, 3522092.373009708710015 ], [ 807633.994774865685031, 3521132.141542144585401 ], [ 800315.906729223323055, 3520915.961835052352399 ], [ 800486.511615050490946, 3521876.006747894454747 ], [ 802577.297187975374982, 3521937.292857537977397 ] ] ], [ [ [ 792259.178754689637572, 3534056.982778447680175 ], [ 791916.213782949605957, 3532136.358917913399637 ], [ 790871.271623386535794, 3532106.651251263916492 ], [ 791042.769224954303354, 3533066.915434902533889 ], [ 789997.86777862184681, 3533037.288188067730516 ], [ 790169.442894469713792, 3533997.5685472083278 ], [ 792259.178754689637572, 3534056.982778447680175 ] ] ], [ [ [ 790684.417852998478338, 3536878.66534443711862 ], [ 789639.664949191734195, 3536849.039269848261029 ], [ 789811.442431116010994, 3537809.463718581479043 ], [ 790856.159366024192423, 3537839.116253766231239 ], [ 790684.417852998478338, 3536878.66534443711862 ] ] ], [ [ [ 792244.416916697751731, 3539789.958725389093161 ], [ 792588.119034514063969, 3541711.21265774872154 ], [ 793632.701574795297347, 3541741.185427802149206 ], [ 793289.071478666272014, 3539819.878346384502947 ], [ 792244.416916697751731, 3539789.958725389093161 ] ] ], [ [ [ 805280.284986946149729, 3548774.606166440993547 ], [ 805108.519347190274857, 3547813.362596825230867 ], [ 804064.104100757278502, 3547782.156873425003141 ], [ 804235.905839800834656, 3548743.373458798509091 ], [ 803191.531676286831498, 3548712.248109372332692 ], [ 803535.331655982416123, 3550634.756644392386079 ], [ 804579.633583415532485, 3550665.935952870175242 ], [ 804407.749001727090217, 3549704.633144841063768 ], [ 805452.092037283582613, 3549735.892852858174592 ], [ 805623.940495078335516, 3550697.22267740033567 ], [ 806668.252408012514934, 3550728.616821883711964 ], [ 806324.669134783558547, 3548805.946236192714423 ], [ 805280.284986946149729, 3548774.606166440993547 ] ] ], [ [ [ 802491.034695740207098, 3550603.684748084750026 ], [ 801446.742685649776831, 3550572.720260075293481 ], [ 801618.777094391989522, 3551533.985286950133741 ], [ 802663.032967368839309, 3551564.976720865350217 ], [ 802491.034695740207098, 3550603.684748084750026 ] ] ], [ [ [ 817626.251290998887271, 3553933.61408675275743 ], [ 816581.996866087429225, 3553901.06342400284484 ], [ 816753.649204509332776, 3554862.838417372200638 ], [ 820930.553425879683346, 3554993.796159911900759 ], [ 820759.045769021613523, 3554031.911394757218659 ], [ 818670.510905120288953, 3553966.272300080861896 ], [ 818498.972154652001336, 3553004.485896371304989 ], [ 817454.676382422447205, 3552971.855095322709531 ], [ 817626.251290998887271, 3553933.61408675275743 ] ] ], [ [ [ 816753.649204509332776, 3554862.838417372200638 ], [ 815709.436122623854317, 3554830.367930601350963 ], [ 815881.165912611410022, 3555792.158943937160075 ], [ 816925.342811319045722, 3555824.656817441806197 ], [ 816753.649204509332776, 3554862.838417372200638 ] ] ], [ [ [ 815180.649982803501189, 3557683.426190696191043 ], [ 815352.539816430071369, 3558645.32009792001918 ], [ 816396.602935309521854, 3558677.792541543487459 ], [ 816224.749322129762731, 3557715.871227944269776 ], [ 815180.649982803501189, 3557683.426190696191043 ] ] ], [ [ [ 801952.582921099849045, 3559194.559559881687164 ], [ 802125.026519680395722, 3560156.186338781379163 ], [ 804212.881753211142495, 3560218.547994162421674 ], [ 804040.510650879354216, 3559256.867061247117817 ], [ 801952.582921099849045, 3559194.559559881687164 ] ] ], [ [ [ 800037.190963119268417, 3560094.255442444235086 ], [ 797949.3749479430262, 3560032.755274336319417 ], [ 798294.676586240297183, 3561955.922614187467843 ], [ 800382.347529977560043, 3562017.530724821146578 ], [ 800037.190963119268417, 3560094.255442444235086 ] ] ], [ [ [ 800375.191999187227339, 3567757.376211242284626 ], [ 800894.092758038081229, 3570643.313732267357409 ], [ 802981.119419224793091, 3570705.625187446828932 ], [ 802462.43689524452202, 3567819.524751115124673 ], [ 800375.191999187227339, 3567757.376211242284626 ] ] ], [ [ [ 809940.547659190371633, 3569002.625108714681119 ], [ 810285.868141491897404, 3570927.117615488357842 ], [ 811329.423632182530127, 3570959.191485817544162 ], [ 810984.17590298387222, 3569034.644165615551174 ], [ 809940.547659190371633, 3569002.625108714681119 ] ] ], [ [ [ 809587.876262503676116, 3572819.763967892620713 ], [ 807500.935938354232349, 3572756.046901947818696 ], [ 807846.805560292559676, 3574680.724107577465475 ], [ 806803.415720676304772, 3574648.972980963531882 ], [ 807149.523646920803003, 3576573.770064057782292 ], [ 809236.162493219599128, 3576637.490065422374755 ], [ 808717.281319050351158, 3573750.195552734658122 ], [ 810804.158799890195951, 3573814.183626441750675 ], [ 810285.868141491897404, 3570927.117615488357842 ], [ 809242.317674220190383, 3570895.151776790618896 ], [ 809587.876262503676116, 3572819.763967892620713 ] ] ], [ [ [ 825412.871388816623949, 3574274.211223180871457 ], [ 825585.207538949791342, 3575237.041270800866187 ], [ 824541.730859324801713, 3575203.451292409095913 ], [ 824369.358278549974784, 3574240.649101600982249 ], [ 823325.850410843850113, 3574207.195151498541236 ], [ 823498.259422335773706, 3575169.969514492899179 ], [ 822454.793211184674874, 3575136.595932895783335 ], [ 822627.279829741688445, 3576099.386389213148504 ], [ 823670.709597644512542, 3576132.787785955239087 ], [ 823843.200933529529721, 3577095.649987580254674 ], [ 826973.41229323646985, 3577196.587214818224311 ], [ 826628.689478008775041, 3575270.739453841000795 ], [ 827672.176693297689781, 3575304.545845713932067 ], [ 827499.913404261809774, 3574341.659997454378754 ], [ 825412.871388816623949, 3574274.211223180871457 ] ] ], [ [ [ 821583.855270970147103, 3576066.093213642016053 ], [ 821238.850335887400433, 3574140.611749113537371 ], [ 820195.358095020288602, 3574107.482288562227041 ], [ 820713.036607791902497, 3576995.687049285043031 ], [ 822799.807621325482614, 3577062.2207593601197 ], [ 822627.279829741688445, 3576099.386389213148504 ], [ 821583.855270970147103, 3576066.093213642016053 ] ] ], [ [ [ 814798.609932901919819, 3578724.040554030798376 ], [ 815841.889090610202402, 3578756.659144142176956 ], [ 816014.795836034812964, 3579719.431034286972135 ], [ 817058.043591974535957, 3579752.18558142054826 ], [ 816885.173340364126489, 3578789.386013707146049 ], [ 821058.361595115973614, 3578921.376367918215692 ], [ 820713.036607791902497, 3576995.687049285043031 ], [ 819669.658872902393341, 3576962.582559170201421 ], [ 819324.425764778978191, 3575037.124324635602534 ], [ 817237.539955056039616, 3574971.350825099274516 ], [ 817582.918862973921932, 3576896.698288235813379 ], [ 816539.556554372189566, 3576863.918499237857759 ], [ 816712.344326755730435, 3577826.630326874554157 ], [ 815669.023595626465976, 3577793.931118536740541 ], [ 815323.416369858314283, 3575868.606574225705117 ], [ 813236.644314702600241, 3575803.643277948256582 ], [ 813409.500212632701732, 3576766.228469324763864 ], [ 811322.821303696371615, 3576701.642856558784842 ], [ 811495.791422370471992, 3577664.216749512590468 ], [ 809409.205551659222692, 3577600.0089872921817 ], [ 810101.791035500587896, 3581450.522339878603816 ], [ 811144.935462719295174, 3581482.682153387460858 ], [ 811318.14859810215421, 3582445.447568869683892 ], [ 813404.379431964596733, 3582510.147431099787354 ], [ 813058.140566632850096, 3580584.550095791462809 ], [ 814101.336589560145512, 3580617.00733674550429 ], [ 813928.315583969466388, 3579654.246861267369241 ], [ 814971.553172284038737, 3579686.784795586019754 ], [ 814798.609932901919819, 3578724.040554030798376 ] ] ], [ [ [ 818274.17143711890094, 3580747.919634255580604 ], [ 816187.74382867955137, 3580682.246810660231858 ], [ 816360.733065319946036, 3581645.106494969688356 ], [ 815317.563426809967496, 3581612.404910037759691 ], [ 815663.738694199011661, 3583538.200677643064409 ], [ 816706.835257677477784, 3583570.957674256060272 ], [ 816533.763542728498578, 3582608.010108926333487 ], [ 817576.901742548681796, 3582640.847786902450025 ], [ 817403.907796296407469, 3581677.91644630394876 ], [ 818447.087636476382613, 3581710.834768109489232 ], [ 818274.17143711890094, 3580747.919634255580604 ] ] ], [ [ [ 815836.888199651846662, 3584501.164485682733357 ], [ 816010.078948637470603, 3585464.172272199299186 ], [ 817053.10238726134412, 3585496.984745995607227 ], [ 816879.948206932749599, 3584533.949212697334588 ], [ 815836.888199651846662, 3584501.164485682733357 ] ] ], [ [ [ 821398.296323320479132, 3586592.510398183949292 ], [ 821052.239331694552675, 3584666.172695263754576 ], [ 817923.01330707105808, 3584566.84239307558164 ], [ 818096.13091886555776, 3585529.905702146701515 ], [ 817053.10238726134412, 3585496.984745995607227 ], [ 817226.297795423888601, 3586460.064295909367502 ], [ 821398.296323320479132, 3586592.510398183949292 ] ] ], [ [ [ 811838.035789989633486, 3585334.007119406014681 ], [ 812011.414105147123337, 3586296.948143330402672 ], [ 813054.380757133476436, 3586329.354375483468175 ], [ 813401.188044163631275, 3588255.423657984472811 ], [ 814444.086522042867728, 3588287.993786883540452 ], [ 814617.515450231963769, 3589251.122167152352631 ], [ 815660.382352649001405, 3589283.828607589472085 ], [ 814967.06058629672043, 3585431.468276691157371 ], [ 813924.047283541411161, 3585398.872755414806306 ], [ 813750.783396833809093, 3584435.920375503133982 ], [ 812707.738567879423499, 3584403.460984244942665 ], [ 812881.039023671997711, 3585366.385704329703003 ], [ 811838.035789989633486, 3585334.007119406014681 ] ] ], [ [ [ 822441.308813201496378, 3586625.893232880625874 ], [ 821398.296323320479132, 3586592.510398183949292 ], [ 821571.386582799023017, 3587555.745394718367606 ], [ 822614.362479580566287, 3587589.156153981108218 ], [ 822441.308813201496378, 3586625.893232880625874 ] ] ], [ [ [ 804884.462643120088615, 3587035.934192773886025 ], [ 805058.179780149483122, 3587998.770202490966767 ], [ 807143.902153064729646, 3588062.282359556760639 ], [ 807317.587417152244598, 3589025.21727059641853 ], [ 808360.419365245965309, 3589057.16369245108217 ], [ 808013.163407241692767, 3587131.282701638527215 ], [ 805927.357982540270314, 3587067.608531483449042 ], [ 805753.718811799655668, 3586104.788924386259168 ], [ 803667.859834770439193, 3586041.603631997015327 ], [ 803841.572196740657091, 3587004.368346404284239 ], [ 804884.462643120088615, 3587035.934192773886025 ] ] ], [ [ [ 812358.294592935824767, 3588222.962082196492702 ], [ 812531.796759117860347, 3589186.035040644928813 ], [ 811488.94493709912058, 3589153.654346507508308 ], [ 812009.809018522268161, 3592043.054338413756341 ], [ 810967.072122935205698, 3592010.699204504024237 ], [ 811140.812716962886043, 3592973.892943259794265 ], [ 810098.117468117037788, 3592941.618791211396456 ], [ 810271.936033270321786, 3593904.828914423938841 ], [ 812357.258144827792421, 3593969.54131661914289 ], [ 812183.512943295296282, 3593006.275781287811697 ], [ 813226.2181637379108, 3593038.767309306655079 ], [ 812705.340202521532774, 3590149.152020796202123 ], [ 813748.160403142683208, 3590181.669005827512592 ], [ 813401.188044163631275, 3588255.423657984472811 ], [ 812358.294592935824767, 3588222.962082196492702 ] ] ], [ [ [ 804362.957569193793461, 3589892.92565882531926 ], [ 803320.181861667660996, 3589861.385993838310242 ], [ 803668.052287300350145, 3591787.255440287292004 ], [ 802625.354744502925314, 3591755.769451257307082 ], [ 802973.464042913401499, 3593681.75969376694411 ], [ 805058.717281627235934, 3593744.950281259138137 ], [ 804884.715304291225038, 3592781.878181215841323 ], [ 805927.385915090795606, 3592813.608963060658425 ], [ 805579.579383971868083, 3590887.5416294853203 ], [ 804536.835444867843762, 3590855.865891754627228 ], [ 804362.957569193793461, 3589892.92565882531926 ] ] ], [ [ [ 796020.887067402945831, 3589643.648120927158743 ], [ 794978.149776667356491, 3589612.976918837055564 ], [ 795500.897309439955279, 3592501.190476348623633 ], [ 794458.274727613897994, 3592470.546141855418682 ], [ 794807.053851159987971, 3594396.186428614892066 ], [ 797934.715649374178611, 3594488.60908399708569 ], [ 798283.440403788583353, 3596414.588760582730174 ], [ 799325.930406854953617, 3596445.668463280424476 ], [ 799500.318208875367418, 3597408.751624658703804 ], [ 805755.138766863150522, 3597597.678891661111265 ], [ 805580.971365601755679, 3596634.430663937702775 ], [ 806623.495170301990584, 3596666.271731139160693 ], [ 806449.405840418068692, 3595703.039972035214305 ], [ 801236.651833515614271, 3595545.060067855287343 ], [ 800539.974174967966974, 3591693.123345565982163 ], [ 799497.291114953928627, 3591661.963221144396812 ], [ 799323.188575673848391, 3590699.116189105901867 ], [ 800365.90829482791014, 3590730.248944469727576 ], [ 800191.883834869600832, 3589767.418411700520664 ], [ 797063.629101930884644, 3589674.427867439109832 ], [ 797237.763502850895748, 3590637.176429082173854 ], [ 796195.058115884428844, 3590606.369416751898825 ], [ 796020.887067402945831, 3589643.648120927158743 ] ], [ [ 799671.435083660646342, 3592624.854126824997365 ], [ 798628.793489805073477, 3592593.775259686633945 ], [ 798454.612849256256595, 3591630.91171052120626 ], [ 799497.291114953928627, 3591661.963221144396812 ], [ 799671.435083660646342, 3592624.854126824997365 ] ], [ [ 800019.847296599065885, 3594550.767646030988544 ], [ 798977.279083736706525, 3594519.634016613475978 ], [ 798803.015569027978927, 3593556.682687806431204 ], [ 799845.620478605967946, 3593587.788927873596549 ], [ 800019.847296599065885, 3594550.767646030988544 ] ] ], [ [ [ 801930.844698928296566, 3593650.327426983043551 ], [ 802104.998124262783676, 3594613.3610107046552 ], [ 803147.58077228651382, 3594644.820753710810095 ], [ 802973.464042913401499, 3593681.75969376694411 ], [ 801930.844698928296566, 3593650.327426983043551 ] ] ] ] } }
]
}
