{
"type": "FeatureCollection",
"name": "urban-2020",
"crs": { "type": "name", "properties": { "name": "urn:ogc:def:crs:EPSG::32637" } },
"features": [
{ "type": "Feature", "properties": { "year": 2020 }, "geometry": { "type": "MultiPolygon", "coordinates": [ [ [ [ 429851.372814348898828, 951752.324842138215899 ], [ 428745.754634143493604, 951754.181099906913005 ], [ 428918.296540867653675, 954448.16171038185712 ], [ 426707.108159031835385, 954451.96306049474515 ], [ 426764.748006206587888, 955349.972316088504158 ], [ 430081.500194503925741, 955344.313161789206788 ], [ 429966.328788290673401, 953548.303841487853788 ], [ 431071.926800364512019, 953546.476170044858009 ], [ 430899.600755064224359, 950852.519697796902619 ], [ 429793.975615634873975, 950854.34669354732614 ], [ 429851.372814348898828, 951752.324842138215899 ] ] ], [ [ [ 435724.675659207452554, 957131.50225903315004 ], [ 436830.227553682867438, 957129.819724354194477 ], [ 436772.561691610782873, 956231.796885487274267 ], [ 435667.00072109058965, 956233.479352751513943 ], [ 435609.379596935701557, 955335.464071101741865 ], [ 434503.807655015203636, 955337.175607196055353 ], [ 434619.121864482702222, 957133.213988849427551 ], [ 433513.566136817389634, 957134.954914062749594 ], [ 433629.113819452351891, 958931.024039514595643 ], [ 434734.651362105738372, 958929.282882960047573 ], [ 434792.496842812455725, 959827.328791523934342 ], [ 435898.023352689808235, 959825.616803050041199 ], [ 435840.186975472432096, 958927.570976443123072 ], [ 438051.252545090566855, 958924.234912490006536 ], [ 437993.488164864189457, 958026.196824210113846 ], [ 435782.404410823364742, 958029.53279768419452 ], [ 435724.675659207452554, 957131.50225903315004 ] ] ], [ [ [ 455970.548615734267514, 962494.000660144374706 ], [ 454865.078475590562448, 962495.184441124321893 ], [ 454922.97503687988501, 963393.264013991691172 ], [ 456028.436072012176737, 963392.080659926636145 ], [ 455970.548615734267514, 962494.000660144374706 ] ] ], [ [ [ 424553.892905774700921, 972419.536619925638661 ], [ 424612.638065385399386, 973317.699789555743337 ], [ 427928.859717206039932, 973311.760095751727931 ], [ 427811.478762120765168, 971515.44306647637859 ], [ 426706.055232311889995, 971517.392798414104618 ], [ 426647.436336725775618, 970619.245625655050389 ], [ 425542.001410897821188, 970621.224720308324322 ], [ 425659.311556081054732, 972417.52732310956344 ], [ 424553.892905774700921, 972419.536619925638661 ] ] ], [ [ [ 422284.339138895622455, 971525.48807682748884 ], [ 422343.048887912998907, 972423.644201934337616 ], [ 423448.472027269890532, 972421.57557943102438 ], [ 423389.77152368647512, 971523.419804016477428 ], [ 422284.339138895622455, 971525.48807682748884 ] ] ], [ [ [ 430198.416238911624532, 974206.118481109617278 ], [ 429093.024668960017152, 974208.009488715673797 ], [ 429269.633957867335994, 976902.56575271661859 ], [ 430374.997722554835491, 976900.674239788902923 ], [ 430433.965926627861336, 977798.875036234967411 ], [ 434855.363632290449459, 977791.606594123877585 ], [ 434796.432551635894924, 976893.40616348630283 ], [ 432585.719117751577869, 976896.980607112520374 ], [ 432526.823316466237884, 975998.787833846989088 ], [ 431421.454357114620507, 976000.619641957804561 ], [ 431362.603128962451592, 975102.434532767627388 ], [ 430257.222878223226871, 975104.295969975180924 ], [ 430198.416238911624532, 974206.118481109617278 ] ] ], [ [ [ 435842.918371929728892, 975993.471028068102896 ], [ 434737.55529123271117, 975995.213527172687463 ], [ 434796.432551635894924, 976893.40616348630283 ], [ 435901.786364683532156, 976891.663636888028122 ], [ 435842.918371929728892, 975993.471028068102896 ] ] ], [ [ [ 433927.161216422333382, 980488.027228759718128 ], [ 436137.796448009263258, 980484.512136592529714 ], [ 435960.708169143705163, 977789.864044376765378 ], [ 434855.363632290449459, 977791.606594123877585 ], [ 434973.387252454704139, 979588.03086944622919 ], [ 433868.059374166768976, 979589.803331123199314 ], [ 433927.161216422333382, 980488.027228759718128 ] ] ], [ [ [ 456033.205560870002955, 980458.259109565289691 ], [ 456092.175337278109509, 981356.495358412968926 ], [ 457197.452483830275014, 981355.321447903173976 ], [ 457138.491982762992848, 980457.08468566602096 ], [ 456033.205560870002955, 980458.259109565289691 ] ] ], [ [ [ 456151.198769437032752, 982254.739523401483893 ], [ 456092.175337278109509, 981356.495358412968926 ], [ 454986.896894861129113, 981357.699198015267029 ], [ 455045.929612703388557, 982255.942872570478357 ], [ 456151.198769437032752, 982254.739523401483893 ] ] ], [ [ [ 427324.286093724134844, 997569.034712685504928 ], [ 428429.44035929889651, 997567.04935255041346 ], [ 428189.038346700021066, 993973.60042922582943 ], [ 425978.651932515203953, 993977.600253649288788 ], [ 426158.929416798520833, 996672.676057763397694 ], [ 427264.09530627343338, 996670.660442649153993 ], [ 427324.286093724134844, 997569.034712685504928 ] ] ], [ [ [ 424993.605493462644517, 995776.355352347367443 ], [ 422783.243743774713948, 995780.538095399504527 ], [ 422843.41855577158276, 996678.905306628555991 ], [ 425053.761350282991771, 996674.722073257784359 ], [ 424993.605493462644517, 995776.355352347367443 ] ] ], [ [ [ 448261.876909681537654, 996638.139449737616815 ], [ 447156.746192463149782, 996639.577510312083177 ], [ 447216.766640276182443, 997537.953348950017244 ], [ 448321.887912075966597, 997536.515635084477253 ], [ 448261.876909681537654, 996638.139449737616815 ] ] ], [ [ [ 455072.654420534905512, 999325.310050077503547 ], [ 455132.769780349684879, 1000223.713059862493537 ], [ 456237.852723855583463, 1000222.489939613151364 ], [ 456177.746822007058654, 999324.086378525011241 ], [ 455072.654420534905512, 999325.310050077503547 ] ] ], [ [ [ 447276.840811881760601, 998436.337205429445021 ], [ 447216.766640276182443, 997537.953348950017244 ], [ 443901.393358348344918, 997542.449027621536516 ], [ 444081.862238717498258, 1000237.621973448432982 ], [ 442976.762957272294443, 1000239.180640543461777 ], [ 442856.377673078037333, 998442.391158737940714 ], [ 441751.257758626656141, 998443.980773819494061 ], [ 441811.432994113478344, 999342.371287867659703 ], [ 440706.320836364349816, 999343.991162468562834 ], [ 440646.136127116857097, 998445.6008400763385 ], [ 439541.012745965563226, 998447.251357753993943 ], [ 439661.454898357915226, 1000244.039676278713159 ], [ 436346.130833485978656, 1000249.173268880578689 ], [ 436285.854402053693775, 999350.775450823130086 ], [ 435180.733179756149184, 999352.54772168234922 ], [ 435120.501073346182238, 998454.157947732834145 ], [ 430699.958799993735738, 998461.551781239570118 ], [ 430760.228858308924828, 999359.94160823954735 ], [ 431865.357918668072671, 999358.047415577224456 ], [ 431986.040580507251434, 1001154.850882704369724 ], [ 438616.659942847909406, 1001144.126391944941133 ], [ 438677.024977260618471, 1002042.540430336724967 ], [ 440887.197606494708452, 1002039.210202096030116 ], [ 440947.597409042471554, 1002937.632598891854286 ], [ 442052.671586316428147, 1002936.013535435660742 ], [ 442173.613465739181265, 1004732.882883754209615 ], [ 443278.666897679853719, 1004731.29489507433027 ], [ 443218.178599560633302, 1003832.855949943652377 ], [ 445428.299522776796948, 1003829.771325508831069 ], [ 445307.522220544924494, 1002032.916472224052995 ], [ 446412.599263131793123, 1002031.419439738616347 ], [ 446171.727439871057868, 998437.805018166312948 ], [ 447276.840811881760601, 998436.337205429445021 ] ] ], [ [ [ 448562.469069370359648, 1001130.100677833077498 ], [ 447457.385664584697224, 1001131.536960423225537 ], [ 447517.674726488243323, 1002029.952966786222532 ], [ 446412.599263131793123, 1002031.419439738616347 ], [ 446533.357556055008899, 1003828.274935015127994 ], [ 445428.299522776796948, 1003829.771325508831069 ], [ 445488.768780311918817, 1004728.210844063782133 ], [ 446593.817296129011083, 1004726.714781267219223 ], [ 446654.330764623300638, 1005625.162703739246354 ], [ 447759.368182743724901, 1005623.697641937644221 ], [ 447819.925846517493483, 1006522.154012460261583 ], [ 448924.952194734010845, 1006520.720010555698536 ], [ 448743.468928777147084, 1003825.373996345326304 ], [ 449848.522333349683322, 1003823.96944772975985 ], [ 449727.821045787655748, 1002027.111698599183001 ], [ 448622.748643183731474, 1002028.517053145449609 ], [ 448562.469069370359648, 1001130.100677833077498 ] ] ], [ [ [ 434186.811011552345008, 1017325.663907420355827 ], [ 436396.676185240969062, 1017322.030366576160304 ], [ 436335.367835857730825, 1016423.479414579458535 ], [ 435230.426545264373999, 1016425.280789068085141 ], [ 435169.162355724023655, 1015526.73808328807354 ], [ 434064.209508753265254, 1015528.57054282433819 ], [ 434186.811011552345008, 1017325.663907420355827 ] ] ], [ [ [ 453585.033855523972306, 1026284.747280123527162 ], [ 451375.412017109047156, 1026287.439301793579943 ], [ 451499.012949447729625, 1028084.738789356313646 ], [ 453708.595881398068741, 1028082.04903165763244 ], [ 453585.033855523972306, 1026284.747280123527162 ] ] ], [ [ [ 430507.653749792836607, 1028116.546328260330483 ], [ 431612.47857556224335, 1028114.590059034177102 ], [ 431550.475761373876594, 1027215.94148239842616 ], [ 430445.641166975023225, 1027217.897787081776187 ], [ 430507.653749792836607, 1028116.546328260330483 ] ] ], [ [ [ 432717.301389728905633, 1028112.665145596838556 ], [ 431612.47857556224335, 1028114.590059034177102 ], [ 431674.535233557398897, 1029013.246848172275349 ], [ 430569.720184982405044, 1029015.203077362384647 ], [ 430756.242599770659581, 1031711.222650639945641 ], [ 431861.028265376458876, 1031709.266569070401601 ], [ 431798.81007896468509, 1030810.585095340386033 ], [ 432903.603541741380468, 1030808.660397735075094 ], [ 432717.301389728905633, 1028112.665145596838556 ] ] ], [ [ [ 430756.242599770659581, 1031711.222650639945641 ], [ 429651.454897918389179, 1031713.210197589942254 ], [ 429713.746551005577203, 1032611.899825759232044 ], [ 430818.524439436325338, 1032609.912309876759537 ], [ 430756.242599770659581, 1031711.222650639945641 ] ] ], [ [ [ 424065.197859668871388, 1030824.938252757652663 ], [ 422960.387441261787899, 1030827.114460989017971 ], [ 423272.409863500273786, 1035320.605652769561857 ], [ 424377.171112615382299, 1035318.428803166956641 ], [ 424252.220108578330837, 1033521.007908667321317 ], [ 425356.9988238948863, 1033518.862823709845543 ], [ 425294.614004678151105, 1032620.164822409511544 ], [ 424189.825457488303073, 1032622.309806412667967 ], [ 424065.197859668871388, 1030824.938252757652663 ] ] ], [ [ [ 429838.4914319741074, 1034409.303817611187696 ], [ 428733.731133261695504, 1034411.32280521071516 ], [ 428858.711134702432901, 1036208.759790354873985 ], [ 429963.451742653851397, 1036206.740842472179793 ], [ 429838.4914319741074, 1034409.303817611187696 ] ] ], [ [ [ 427753.968435398652218, 1036210.810340843629092 ], [ 427816.549094069050625, 1037109.541234047384933 ], [ 428921.281933159101754, 1037107.490683013573289 ], [ 428858.711134702432901, 1036208.759790354873985 ], [ 427753.968435398652218, 1036210.810340843629092 ] ] ], [ [ [ 427941.872030073078349, 1038907.027846020529978 ], [ 427816.549094069050625, 1037109.541234047384933 ], [ 426711.814133129606489, 1037111.62341532157734 ], [ 426837.156819242867641, 1038909.110069170012139 ], [ 427941.872030073078349, 1038907.027846020529978 ] ] ], [ [ [ 425732.439458058273885, 1038911.223977523506619 ], [ 425858.017455028020777, 1040708.743843962671235 ], [ 426962.715027834230568, 1040706.629857596126385 ], [ 426837.156819242867641, 1038909.110069170012139 ], [ 425732.439458058273885, 1038911.223977523506619 ] ] ], [ [ [ 426962.715027834230568, 1040706.629857596126385 ], [ 427088.488754860474728, 1042504.182843394111842 ], [ 429297.837860427331179, 1042500.050134912366048 ], [ 429234.943882630846929, 1041601.269461271935143 ], [ 428130.26047316979384, 1041603.319945653784089 ], [ 428067.410454265889712, 1040704.547611081856303 ], [ 426962.715027834230568, 1040706.629857596126385 ] ] ], [ [ [ 459189.932027330331039, 943631.620998091180809 ], [ 458084.277806155267172, 943632.697637066245079 ], [ 458141.011594784096815, 944530.617581120110117 ], [ 459246.656896757893264, 944529.541389301535673 ], [ 459189.932027330331039, 943631.620998091180809 ] ] ], [ [ [ 460295.585040924255736, 943630.573139856569469 ], [ 460352.300992901728023, 944528.494005544693209 ], [ 461457.943915930925868, 944527.475429690559395 ], [ 461401.236879653122742, 943629.554062204319052 ], [ 460295.585040924255736, 943630.573139856569469 ] ] ], [ [ [ 493464.776200400316156, 943612.519806890981272 ], [ 493577.728033780527767, 945408.423162798047997 ], [ 495788.956014772469644, 945408.145864823716693 ], [ 495676.039651990693528, 943612.237159983953461 ], [ 493464.776200400316156, 943612.519806890981272 ] ] ], [ [ [ 488106.254585430026054, 946307.578043554211035 ], [ 489211.861042100121267, 946307.282008778303862 ], [ 489098.731420819123741, 944511.373227056232281 ], [ 490204.355325730866753, 944511.10361528606154 ], [ 490147.87949091946939, 943613.1596111911349 ], [ 487936.613614857837092, 943613.730037061264738 ], [ 488106.254585430026054, 946307.578043554211035 ] ] ], [ [ [ 456328.481067054148298, 950818.503659571055323 ], [ 455222.894660887366626, 950819.66360239230562 ], [ 455337.328075733792502, 952615.630830442300066 ], [ 456442.896488273399882, 952614.471689660102129 ], [ 456500.18467988143675, 953512.467212066636421 ], [ 457605.74279652943369, 953511.337560424930416 ], [ 457491.238074261753354, 951715.353324640658684 ], [ 458596.812940855568741, 951714.251834807451814 ], [ 458482.540771313069854, 949918.29737857170403 ], [ 456271.353838372277096, 949920.531136277946644 ], [ 456328.481067054148298, 950818.503659571055323 ] ] ], [ [ [ 455970.548615734267514, 962494.000660144374706 ], [ 457076.017454709333833, 962492.846234319731593 ], [ 457133.895807768101804, 963390.926688337698579 ], [ 458239.354276815021876, 963389.802099050721154 ], [ 458123.66941374191083, 961593.647992334677838 ], [ 457018.192750346905086, 961594.773540455498733 ], [ 456960.421695151657332, 960696.708598919562064 ], [ 455854.934675277676433, 960697.863920377450995 ], [ 455970.548615734267514, 962494.000660144374706 ] ] ], [ [ [ 473541.511131317412946, 977748.361040985560976 ], [ 473600.172157619323116, 978646.584872274193913 ], [ 474705.460720849689096, 978645.886967574828304 ], [ 474646.808915558853187, 977747.662198803503998 ], [ 473541.511131317412946, 977748.361040985560976 ] ] ], [ [ [ 481337.177562465018127, 978642.326275044120848 ], [ 481395.827540604281239, 979540.565235279966146 ], [ 482501.102345333085395, 979540.077374742017128 ], [ 482442.461584288394079, 978641.837281395331956 ], [ 481337.177562465018127, 978642.326275044120848 ] ] ], [ [ [ 488584.792444396240171, 1004692.568104563048109 ], [ 488644.945300082617905, 1005591.048896842868999 ], [ 490854.948635949753225, 1005590.480024101329036 ], [ 490915.135972485295497, 1006488.971902622724883 ], [ 493125.119314147275873, 1006488.52862552809529 ], [ 493245.616263986274134, 1008285.543113820138387 ], [ 494350.588678163068835, 1008285.370548310806043 ], [ 494290.322990977030713, 1007386.85763942648191 ], [ 496500.286292367673013, 1007386.601621582754888 ], [ 496440.092889049905352, 1006488.093891161028296 ], [ 497545.083827536029276, 1006488.010361286345869 ], [ 497484.953219110378996, 1005589.509330872097053 ], [ 496379.952830394264311, 1005589.594454386271536 ], [ 496199.85272738430649, 1002894.145825483952649 ], [ 493989.794981759216171, 1002894.417325019021519 ], [ 494109.846098110079765, 1004691.368636933038943 ], [ 493004.835844681365415, 1004691.547258020029403 ], [ 492944.774166334187612, 1003793.06897447432857 ], [ 490734.734126033319626, 1003793.521048640017398 ], [ 490614.733170305436943, 1001996.595061796484515 ], [ 489509.693894431227818, 1001996.86984025593847 ], [ 489389.887668288429268, 1000199.979588025831617 ], [ 490494.945772737730294, 1000199.701999410870485 ], [ 490435.132159501721617, 999301.267794847837649 ], [ 489330.064653487352189, 999301.546781856566668 ], [ 489210.578822901647072, 997504.705769358668476 ], [ 490315.665106603992172, 997504.423998910468072 ], [ 490256.011667927843519, 996606.014391514821909 ], [ 489150.916008102183696, 996606.297547016642056 ], [ 489091.306594292400405, 995707.897503273095936 ], [ 490196.411621759645641, 995707.612967155640945 ], [ 490136.864968591369689, 994809.219717826810665 ], [ 489031.750581961649004, 994809.505630125524476 ], [ 488972.247971603879705, 993911.121919573284686 ], [ 490077.371708914695773, 993910.834635523147881 ], [ 490017.931843222235329, 993012.457712242961861 ], [ 488912.798763709841296, 993012.746363617712632 ], [ 488853.402958771097474, 992114.378954261890613 ], [ 489958.545372006308753, 992114.088939983979799 ], [ 489839.932614963676315, 990317.375816534622572 ], [ 488734.771559722954407, 990317.668543369160034 ], [ 488675.535966593422927, 989419.325525847962126 ], [ 486465.194204881612677, 989420.004194054752588 ], [ 486524.448419886641204, 990318.344594233902171 ], [ 485419.286270101612899, 990318.7279183663195 ], [ 485478.603228575084358, 991217.075160255655646 ], [ 479952.832014242943842, 991219.438819816801697 ], [ 479893.468418670119718, 990321.097528482903726 ], [ 477683.137355143029708, 990322.256768968189135 ], [ 477623.808581519115251, 989423.925745102344081 ], [ 478728.983752164698672, 989423.329948634607717 ], [ 478669.717785904940683, 988525.00592335278634 ], [ 476459.348147656070068, 988526.229805367882363 ], [ 476281.81533253507223, 985831.312397129600868 ], [ 477387.028389710583724, 985830.682275957311504 ], [ 477327.967069862119388, 984932.39152552979067 ], [ 478433.188743493461516, 984931.790413059061393 ], [ 478551.346299201366492, 986728.382065935409628 ], [ 479656.54876435053302, 986727.813157035736367 ], [ 479774.90164494025521, 988524.439199893036857 ], [ 480880.08490738493856, 988523.902621349785477 ], [ 480761.750629341288004, 986727.274338400922716 ], [ 481866.951926777488552, 986726.765609949827194 ], [ 481748.850076838221867, 984930.167289511067793 ], [ 482854.069400802836753, 984929.686319343629293 ], [ 482736.199911405914463, 983133.117878215271048 ], [ 483841.437253468728159, 983132.664574494236149 ], [ 483723.800057070853654, 981336.125929407775402 ], [ 481513.287879873765633, 981337.06716579082422 ], [ 481395.827540604281239, 979540.565235279966146 ], [ 480290.552186747954693, 979541.082967320689932 ], [ 480231.892989748856053, 978642.845112871029414 ], [ 481337.177562465018127, 978642.326275044120848 ], [ 481278.58104596787598, 977744.095307562616654 ], [ 483489.166986803524196, 977743.144879532745108 ], [ 483430.642330915492494, 976844.919620731263421 ], [ 484535.943750523554627, 976844.487952760187909 ], [ 484594.459209806635045, 977742.714390615350567 ], [ 485699.750978037365712, 977742.313718342455104 ], [ 485582.791877842566464, 975945.866424135281704 ], [ 486688.101601640577428, 975945.493105382658541 ], [ 486629.71137117233593, 975047.280216705286875 ], [ 488840.348019379540347, 975046.620332769001834 ], [ 488782.029540142393671, 974148.412903462420218 ], [ 489887.356516108848155, 974148.126260541146621 ], [ 489829.100595506315585, 973249.925516329705715 ], [ 492039.771986954845488, 973249.438673079828732 ], [ 491923.456890833971556, 971453.055784800671972 ], [ 493028.8104897129233, 971452.854135116562247 ], [ 492912.72715461498592, 969656.500406543840654 ], [ 494018.098782344255596, 969656.325596902519464 ], [ 494076.104650403081905, 970554.499867079895921 ], [ 496286.829187363211531, 970554.241821341100149 ], [ 496228.841540395224001, 969656.064688548911363 ], [ 498439.583852897689212, 969655.922061310731806 ], [ 498613.65214185800869, 972350.486354806926101 ], [ 499718.995873668056447, 972350.463990399846807 ], [ 499777.116166237276047, 973248.669630380813032 ], [ 500882.450761549232993, 973248.678485463722609 ], [ 500824.33959718036931, 972350.471278228331357 ], [ 501929.683345035009552, 972350.508218294125982 ], [ 501987.785382917150855, 973248.717020111740567 ], [ 503093.120062984176911, 973248.785234330454841 ], [ 503151.266271198925097, 974147.003689828212373 ], [ 504256.591911082039587, 974147.103237201226875 ], [ 504140.371044345782138, 972350.671055162325501 ], [ 503035.027149876579642, 972350.574810601887293 ], [ 502976.987532358325552, 971452.372410629410297 ], [ 504082.340541435522027, 971452.467010278836824 ], [ 503966.439398944377899, 969656.082972703385167 ], [ 502861.06818602012936, 969655.991649905918166 ], [ 502803.188458163407631, 968757.813273136969656 ], [ 503908.568760326947086, 968757.902963985223323 ], [ 503792.987350755603984, 966961.566926636034623 ], [ 501582.190519599884283, 966961.423535151057877 ], [ 501524.461620161193423, 966063.270701224100776 ], [ 502629.869061613921076, 966063.326061129686423 ], [ 502572.202526703360491, 965165.17960321821738 ], [ 501466.786028133879881, 965165.125830708071589 ], [ 501409.163743999321014, 964266.988915607449599 ], [ 500303.738238407473546, 964266.966132486704737 ], [ 500246.160220739955548, 963368.838716288446449 ], [ 503562.464015709061641, 963368.990548101370223 ], [ 503390.131078094185796, 960674.641746274195611 ], [ 502284.669353257631883, 960674.566549401031807 ], [ 502399.522720503853634, 962470.787955760955811 ], [ 499083.191945012484211, 962470.728902415372431 ], [ 499198.312741789035499, 964266.972755652037449 ], [ 496987.461644826689735, 964267.074220847338438 ], [ 497045.120140625571366, 965165.205076823942363 ], [ 495939.703532138548326, 965165.298472406808287 ], [ 495882.035979156557005, 964267.169062893488444 ], [ 493671.184250124439131, 964267.446965953684412 ], [ 493613.551945240353234, 963369.328284768038429 ], [ 492508.116762695077341, 963369.512706017121673 ], [ 492739.002452162501868, 966962.029500372475013 ], [ 491633.60332134377677, 966962.237943451618776 ], [ 491691.467270944907796, 967860.385614519938827 ], [ 490586.076984139566775, 967860.622223265701905 ], [ 490644.003416012332309, 968758.776507932925597 ], [ 489538.621952487737872, 968759.041332724969834 ], [ 489596.610884826106485, 969657.202257658238523 ], [ 487385.865222973981872, 969657.818010590970516 ], [ 487618.428002701257356, 973250.531078599742614 ], [ 486513.09117419004906, 973250.878379479050636 ], [ 486571.374561861157417, 974149.075310722808354 ], [ 484360.717997527739499, 974149.856546882307157 ], [ 484419.073143903340679, 975048.059038843261078 ], [ 478892.468953973264433, 975050.526452093268745 ], [ 479067.992894501658157, 977745.165003007161431 ], [ 477962.697908210800961, 977745.744576209806837 ], [ 478021.322061133105308, 978643.972321375738829 ], [ 474705.460720849689096, 978645.886967574828304 ], [ 474822.924868694855832, 980442.360412897076458 ], [ 473717.654772970767226, 980443.056429559946992 ], [ 473658.886704997858033, 979544.816665827063844 ], [ 472553.606593775562942, 979545.543500834028237 ], [ 472789.036994534486439, 983138.546754330862314 ], [ 471683.793090463383123, 983139.299869197304361 ], [ 471742.793785328511149, 984037.569747456116602 ], [ 469532.321994330501184, 984039.164186221780255 ], [ 469591.394797887478489, 984937.440320659428835 ], [ 466275.708161013259087, 984940.05463603802491 ], [ 466334.862415559822693, 985838.336345159797929 ], [ 465229.640893363044597, 985839.267103492282331 ], [ 465111.367363228462636, 984042.713175583863631 ], [ 464006.126213308656588, 984043.675446998910047 ], [ 464065.245482198894024, 984941.947697492665611 ], [ 462960.012568688485771, 984942.939284003456123 ], [ 462841.809037139464635, 983146.404138638870791 ], [ 461736.556438639468979, 983147.427093147998676 ], [ 461677.525794889836106, 982249.172120302100666 ], [ 459466.998605872970074, 982251.309213680098765 ], [ 459526.047821636428125, 983149.562951013445854 ], [ 457315.534427181060892, 983151.8187417590525 ], [ 457374.655868504603859, 984050.079289098270237 ], [ 456269.406599086825736, 984051.251633223379031 ], [ 456210.275856866675895, 983152.991612386191264 ], [ 455105.015994336747099, 983154.19446675106883 ], [ 455045.929612703388557, 982255.942872570478357 ], [ 452835.387286634708289, 982258.439440887188539 ], [ 452894.492262161744293, 983156.690127425827086 ], [ 453999.754806974146049, 983155.427305035176687 ], [ 454058.904156470496673, 984053.686354836565442 ], [ 452953.650918043102138, 984054.948732692748308 ], [ 453012.863253797520883, 984953.215264534461312 ], [ 455223.349747052008752, 984950.721445399220102 ], [ 455282.597117172554135, 985848.996845577843487 ], [ 457493.059688039997127, 985846.624223910737783 ], [ 457552.342065289209131, 986744.90862711565569 ], [ 459762.780972261389252, 986742.657428837381303 ], [ 459822.098329398664646, 987640.950969783822075 ], [ 460927.306656481523532, 987639.871135506080464 ], [ 461105.552447363908868, 990334.80160038464237 ], [ 460000.372159835649654, 990335.879530239268206 ], [ 460179.128618633258156, 993030.880162648973055 ], [ 461284.280789965938311, 993029.804176888661459 ], [ 461463.491671170282643, 995724.879078071564436 ], [ 460358.367692676663864, 995725.953079956583679 ], [ 460418.22129625082016, 996624.326819196110591 ], [ 458207.988635235757101, 996626.56466203450691 ], [ 458267.914712630328722, 997524.945197295746766 ], [ 457162.805978995747864, 997526.109116121428087 ], [ 457102.87047290627379, 996627.729173476924188 ], [ 455997.7510459193727, 996628.924078501644544 ], [ 456177.746822007058654, 999324.086378525011241 ], [ 457282.837931797723286, 999322.893182705622166 ], [ 457342.934377534664236, 1000221.297322420636192 ], [ 456237.852723855583463, 1000222.489939613151364 ], [ 456298.012279797170777, 1001120.901577718206681 ], [ 455192.938802782620769, 1001122.124142211512662 ], [ 455132.769780349684879, 1000223.713059862493537 ], [ 454027.685514444776345, 1000224.966683353297412 ], [ 453907.489546801079996, 998428.169771976186894 ], [ 452802.385011081118137, 998429.454887762782164 ], [ 452922.59989356668666, 1000226.250810275436379 ], [ 451817.512885142932646, 1000227.565440822858363 ], [ 452058.624741739826277, 1003821.252190876402892 ], [ 453163.673810686101206, 1003819.939482227549888 ], [ 453103.324813611863647, 1002921.505191179807298 ], [ 454208.381998271564953, 1002920.22258095885627 ], [ 454268.721499550389126, 1003818.657386498060077 ], [ 456478.812867289467249, 1003816.185033025103621 ], [ 456539.187034706585109, 1004714.629058097722009 ], [ 458749.2542772818706, 1004712.280383222037926 ], [ 458688.899105462012812, 1003813.835128962644376 ], [ 459793.94038236833876, 1003812.706095013185404 ], [ 459854.286059178237338, 1004711.152004851726815 ], [ 460959.316658225958236, 1004710.054265631479211 ], [ 461019.706459432723932, 1005608.508992743096314 ], [ 462124.726408370479476, 1005607.442607207223773 ], [ 462064.34610698511824, 1004708.987165394471958 ], [ 463169.374438016908243, 1004707.950703979702666 ], [ 463109.057235118758399, 1003809.502663457999006 ], [ 464214.093968587112613, 1003808.496075832168572 ], [ 464274.401683880365454, 1004706.944881230592728 ], [ 466484.45305034017656, 1004705.025151125271805 ], [ 466363.929134571983013, 1002908.132465679664165 ], [ 470784.096078602597117, 1002904.653578248573467 ], [ 470904.544193848094437, 1004701.553348520305008 ], [ 472009.564755192084704, 1004700.761992431478575 ], [ 471949.323401588655543, 1003802.307067802525125 ], [ 475264.408680922409985, 1003800.113792144926265 ], [ 475204.249247984378599, 1002901.664019671967253 ], [ 476309.285632265557069, 1002900.993086787988432 ], [ 476489.896050541021395, 1005596.370162230334245 ], [ 478699.909969120111782, 1005595.126682517700829 ], [ 478639.671944182715379, 1004696.657241186825559 ], [ 477534.655842639564071, 1004697.264773436356336 ], [ 477354.234292477252893, 1002001.909000164596364 ], [ 478459.27875992731424, 1002001.298121001687832 ], [ 478519.356339091202244, 1002899.742968405364081 ], [ 479624.390726762707345, 1002899.1637827178929 ], [ 479564.322592591808643, 1002000.717796817771159 ], [ 482879.450607521925122, 1001999.160153284668922 ], [ 482939.49041755660437, 1002897.609718633932061 ], [ 481834.457733432180248, 1002898.097157913027331 ], [ 481954.716602963220794, 1004695.018465843051672 ], [ 483059.730382466397714, 1004694.53348092129454 ], [ 483119.930536350293551, 1005593.00769384461455 ], [ 484224.934353494842071, 1005592.554606775636785 ], [ 484285.178482604504097, 1006491.038317241705954 ], [ 486495.16581713425694, 1006490.226748100016266 ], [ 486374.768856511160266, 1004693.262345707742497 ], [ 488584.792444396240171, 1004692.568104563048109 ] ], [ [ 460631.302711010503117, 983148.480030553182587 ], [ 460690.396260584180709, 984046.742321333498694 ], [ 459585.150666638743132, 984047.824633323820308 ], [ 459526.047821636428125, 983149.562951013445854 ], [ 460631.302711010503117, 983148.480030553182587 ] ], [ [ 462568.614513496984728, 995723.835441768285818 ], [ 462628.449289616604801, 996622.210548633942381 ], [ 461523.3358600983629, 996623.253487462294288 ], [ 461463.491671170282643, 995724.879078071564436 ], [ 462568.614513496984728, 995723.835441768285818 ] ], [ [ 458448.014773958653677, 1000220.135208104504272 ], [ 458508.155402485863306, 1001118.54803969245404 ], [ 457403.084468842251226, 1001119.709543605218641 ], [ 457342.934377534664236, 1000221.297322420636192 ], [ 458448.014773958653677, 1000220.135208104504272 ] ], [ [ 459613.225113300140947, 1001117.417065804125741 ], [ 459733.648332125041634, 1002914.268307162565179 ], [ 458628.597568728378974, 1002915.397992221754976 ], [ 458508.155402485863306, 1001118.54803969245404 ], [ 459613.225113300140947, 1001117.417065804125741 ] ], [ [ 456418.492352004919667, 1002917.749116532853805 ], [ 457523.545586210559122, 1002916.558261953643523 ], [ 457583.85661129001528, 1003814.994774907943793 ], [ 456478.812867289467249, 1003816.185033025103621 ], [ 456418.492352004919667, 1002917.749116532853805 ] ], [ [ 482999.583676036447287, 1003796.067491849185899 ], [ 484104.606411174579989, 1003795.611886823317036 ], [ 484164.743662853143178, 1004694.079132636426948 ], [ 483059.730382466397714, 1004694.53348092129454 ], [ 482999.583676036447287, 1003796.067491849185899 ] ], [ [ 461703.19010563188931, 999318.425153220654465 ], [ 461823.360996717587113, 1001115.246707421028987 ], [ 460718.293633854889777, 1001116.316621769103222 ], [ 460598.103836823021993, 999319.496447865269147 ], [ 461703.19010563188931, 999318.425153220654465 ] ], [ [ 486643.117113573825918, 992115.049743976793252 ], [ 486761.999488898436539, 993911.787412795936689 ], [ 485656.874678333289921, 993912.165622069616802 ], [ 485537.973616431059781, 992115.430519514717162 ], [ 486643.117113573825918, 992115.049743976793252 ] ], [ [ 480466.850593683542684, 982235.844540465739556 ], [ 480584.650206754973624, 984032.392343497020192 ], [ 479479.420501616084948, 984032.934489334234968 ], [ 479361.602370891952887, 982236.388882529106922 ], [ 480466.850593683542684, 982235.844540465739556 ] ], [ [ 501639.972725973639172, 967859.584340485627763 ], [ 501871.634611200308427, 971452.307435903931037 ], [ 500766.281745318497997, 971452.272086092154495 ], [ 500534.583472570346203, 967859.555308484705165 ], [ 501639.972725973639172, 967859.584340485627763 ] ] ], [ [ [ 482044.505630072788335, 989421.723592858063057 ], [ 481985.267605838947929, 988523.396187641308643 ], [ 480880.08490738493856, 988523.902621349785477 ], [ 480939.332243843236938, 989422.228872595936991 ], [ 482044.505630072788335, 989421.723592858063057 ] ] ], [ [ [ 469799.522775250254199, 1004702.3753423076123 ], [ 468694.500466838420834, 1004703.227973917382769 ], [ 468754.823808100714814, 1005601.688277753652073 ], [ 469859.836629603349138, 1005600.836552118649706 ], [ 469799.522775250254199, 1004702.3753423076123 ] ] ], [ [ [ 474340.208801367843989, 1006496.209602820686996 ], [ 474219.603436350589618, 1004699.27119287464302 ], [ 472009.564755192084704, 1004700.761992431478575 ], [ 472069.859641229908448, 1005599.225096167414449 ], [ 473174.869896466378123, 1005598.465365608222783 ], [ 473235.20882452809019, 1006496.937648835708387 ], [ 474340.208801367843989, 1006496.209602820686996 ] ] ], [ [ [ 486495.16581713425694, 1006490.226748100016266 ], [ 486555.4444291840191, 1007388.721325233113021 ], [ 487660.428008594666608, 1007388.36292950459756 ], [ 487600.15887135633966, 1006489.867000209982507 ], [ 486495.16581713425694, 1006490.226748100016266 ] ] ], [ [ [ 474642.658707874768879, 1010988.699336845660582 ], [ 473537.706299020093866, 1010989.422216767910868 ], [ 473416.546744370949455, 1009192.403727376251481 ], [ 474521.51820593123557, 1009191.678767536883242 ], [ 474461.028224132838659, 1008293.180828701937571 ], [ 471146.082911658508237, 1008295.451048279530369 ], [ 471025.206472851743456, 1006498.485817326116376 ], [ 468815.200706823787186, 1006500.156755218282342 ], [ 468754.823808100714814, 1005601.688277753652073 ], [ 467649.810066062724218, 1005602.570668665808626 ], [ 467831.129949940019287, 1008297.997990889125504 ], [ 468936.115174677805044, 1008297.118262809468433 ], [ 469057.243866436765529, 1010094.112560267793015 ], [ 470162.209125762281474, 1010093.265431757783517 ], [ 470222.84426640404854, 1010991.775829467223957 ], [ 471327.799110825697426, 1010990.960462962393649 ], [ 471631.730185522523243, 1015483.640866858884692 ], [ 472736.636386545666028, 1015482.861334734712727 ], [ 472919.608673586510122, 1018178.571812773006968 ], [ 475129.361153875011951, 1018177.112005799775943 ], [ 474885.581851215159986, 1014582.839465306256898 ], [ 475990.495313185965642, 1014582.151737228268757 ], [ 475808.251351835147943, 1011886.531006017001346 ], [ 474703.309227025543805, 1011887.221983265830204 ], [ 474642.658707874768879, 1010988.699336845660582 ] ] ], [ [ [ 496733.265041326347273, 1027155.963243647478521 ], [ 495628.493637803883757, 1027156.071512694354169 ], [ 495751.425996289181057, 1028953.474764316575602 ], [ 496856.178076738025993, 1028953.369795305887237 ], [ 496733.265041326347273, 1027155.963243647478521 ] ] ], [ [ [ 471446.791070265404414, 1028963.721803746069781 ], [ 472551.553405309736263, 1028962.926592873875052 ], [ 472675.10650476522278, 1030760.306730004260316 ], [ 473779.848598089243751, 1030759.545065185637213 ], [ 473471.415828685683664, 1026266.152234992594458 ], [ 472366.625213104940485, 1026266.919291792670265 ], [ 472428.21441556798527, 1027165.580015535815619 ], [ 471323.432676395284943, 1027166.377323956694454 ], [ 471446.791070265404414, 1028963.721803746069781 ] ] ], [ [ [ 501275.185798828664701, 1028953.263659837422892 ], [ 501336.683648653910495, 1029851.986568781314418 ], [ 502441.425926503143273, 1029852.040263596340083 ], [ 502379.937741882051341, 1028953.315561093622819 ], [ 501275.185798828664701, 1028953.263659837422892 ] ] ], [ [ [ 501398.234804564039223, 1030750.717995015671477 ], [ 501336.683648653910495, 1029851.986568781314418 ], [ 500231.941410114173777, 1029851.964275349513628 ], [ 500293.502241512236651, 1030750.693930767127313 ], [ 501398.234804564039223, 1030750.717995015671477 ] ] ], [ [ [ 498145.670627628685907, 1031649.474795805872418 ], [ 499250.393518314696848, 1031649.437723374576308 ], [ 499065.681992741243448, 1028953.2539794719778 ], [ 496856.178076738025993, 1028953.369795305887237 ], [ 496979.304474196222145, 1030750.810310306493193 ], [ 498084.037108814984094, 1030750.740088409162126 ], [ 498145.670627628685907, 1031649.474795805872418 ] ] ], [ [ [ 502502.967408732627518, 1030750.773487980244681 ], [ 501398.234804564039223, 1030750.717995015671477 ], [ 501459.839266046823468, 1031649.457946649752557 ], [ 502564.562188059149776, 1031649.515242359368131 ], [ 502502.967408732627518, 1030750.773487980244681 ] ] ], [ [ [ 502687.911635946831666, 1033447.024373565218411 ], [ 506002.022836843272671, 1033447.396182983764447 ], [ 505940.350551346142311, 1032548.631744419690222 ], [ 504835.636990866682027, 1032548.4781911453465 ], [ 504774.008290801313706, 1031649.72420196630992 ], [ 502564.562188059149776, 1031649.515242359368131 ], [ 502687.911635946831666, 1033447.024373565218411 ] ] ], [ [ [ 497164.394115267554298, 1033447.034905692911707 ], [ 498269.097656225261744, 1033446.969777839025483 ], [ 498145.670627628685907, 1031649.474795805872418 ], [ 497040.947682415193412, 1031649.543324289144948 ], [ 497164.394115267554298, 1033447.034905692911707 ] ] ], [ [ [ 501892.563009288278408, 1037940.877000858192332 ], [ 502997.217918868700508, 1037940.947044798755087 ], [ 502873.335523155983537, 1036143.352248282171786 ], [ 501768.661139067960903, 1036143.285869772895239 ], [ 501706.790157429582905, 1035244.503169434843585 ], [ 500602.106098976451904, 1035244.470182091929018 ], [ 500416.783845942700282, 1032548.178812122554518 ], [ 499312.070671552501153, 1032548.182675829506479 ], [ 499373.801146292244084, 1033446.936160701909102 ], [ 498269.097656225261744, 1033446.969777839025483 ], [ 498392.738002698111814, 1035244.498903539730236 ], [ 499497.422058224037755, 1035244.468760127085261 ], [ 499559.312494386802427, 1036143.247890898725018 ], [ 500663.986806968110614, 1036143.251083980198018 ], [ 500725.920825925306417, 1037042.04055534384679 ], [ 501830.585423193057068, 1037042.077144206268713 ], [ 501892.563009288278408, 1037940.877000858192332 ] ] ], [ [ [ 464271.806788364017848, 1037058.57218496222049 ], [ 463167.124701042717788, 1037059.610705777886324 ], [ 463229.444402380962856, 1037958.363555042073131 ], [ 464334.11668310634559, 1037957.325912707136013 ], [ 464271.806788364017848, 1037058.57218496222049 ] ] ], [ [ [ 506311.18330602592323, 1037941.34706105501391 ], [ 502997.217918868700508, 1037940.947044798755087 ], [ 503059.23905644955812, 1038839.757331449072808 ], [ 506373.175204587576445, 1038840.163030679454096 ], [ 506311.18330602592323, 1037941.34706105501391 ] ] ], [ [ [ 463229.444402380962856, 1037958.363555042073131 ], [ 462124.771040911437012, 1037959.432847402174957 ], [ 462374.625150533742271, 1041554.52515742694959 ], [ 463479.259192735538818, 1041553.459315979271196 ], [ 463229.444402380962856, 1037958.363555042073131 ] ] ], [ [ [ 461269.990002761420328, 1041555.622758368379436 ], [ 461332.59739822713891, 1042454.416108180070296 ], [ 462437.22269295156002, 1042453.319354234496132 ], [ 462374.625150533742271, 1041554.52515742694959 ], [ 461269.990002761420328, 1041555.622758368379436 ] ] ], [ [ [ 499049.338878990325611, 944509.983708293177187 ], [ 499105.797133627173025, 945407.946161251747981 ], [ 502422.638014380121604, 945408.00594953156542 ], [ 502366.206347747822292, 944510.039027699735016 ], [ 500154.961353086458985, 944509.973342996672727 ], [ 500098.565281563147437, 943612.017199741443619 ], [ 496781.671169511275366, 943612.139003247371875 ], [ 496838.09381370007759, 944510.090854189824313 ], [ 499049.338878990325611, 944509.983708293177187 ] ] ], [ [ [ 511211.191743850533385, 944511.453972305753268 ], [ 510105.567751823749859, 944511.176285976078361 ], [ 510161.937437960063107, 945409.154591618687846 ], [ 511267.552582246717066, 945409.434013517573476 ], [ 511211.191743850533385, 944511.453972305753268 ] ] ], [ [ [ 521387.270600977470167, 948107.284151304513216 ], [ 520281.677828395157121, 948106.739263635477982 ], [ 520338.18060664733639, 949004.765644153230824 ], [ 521443.764512520923745, 949005.312530212337151 ], [ 521387.270600977470167, 948107.284151304513216 ] ] ], [ [ [ 513874.675987380906008, 951696.184216306428425 ], [ 514980.23009402945172, 951696.562977215042338 ], [ 515036.990054143709131, 952594.611290625296533 ], [ 516142.535695160448086, 952595.020954300649464 ], [ 515915.85067194205476, 949002.867523853783496 ], [ 517021.43236770486692, 949003.298640486318618 ], [ 516964.90297950967215, 948105.278091153712012 ], [ 520281.677828395157121, 948106.739263635477982 ], [ 520225.228215100767557, 947208.720762893208303 ], [ 519119.627182551834267, 947208.206757202511653 ], [ 519063.22188320470741, 946310.198090825229883 ], [ 517957.612563143542502, 946309.714908157824539 ], [ 518014.026715609070379, 947207.72163924202323 ], [ 514697.228381349879783, 947206.439611027832143 ], [ 514640.787659702647943, 946308.438521842821501 ], [ 512429.573277605406474, 946307.731898405007087 ], [ 512373.168059894291218, 945409.742268067318946 ], [ 511267.552582246717066, 945409.434013517573476 ], [ 511380.433960107911844, 947205.417570001911372 ], [ 512486.031720253056847, 947205.729362971847877 ], [ 512599.108278478088323, 949001.747826812788844 ], [ 511493.52826959110098, 949001.432478562812321 ], [ 511550.155272512347437, 949899.451709876768291 ], [ 510444.584493532544002, 949899.163546947995201 ], [ 510614.811609820229933, 952593.263149779988453 ], [ 509509.267865211819299, 952592.998742777272128 ], [ 509623.036661935853772, 954389.101043659262359 ], [ 508517.511061040684581, 954388.86224577226676 ], [ 508574.484272573026828, 955286.923505176673643 ], [ 510785.517872715776321, 955287.433688954100944 ], [ 510671.660459571925458, 953491.312103679170832 ], [ 511777.195594369666651, 953491.607335495529696 ], [ 511720.355668325268198, 952593.556608019280247 ], [ 513931.444857794209383, 952594.230678390711546 ], [ 513874.675987380906008, 951696.184216306428425 ] ] ], [ [ [ 503562.464015709061641, 963368.990548101370223 ], [ 503620.014912760467269, 964267.122700724285096 ], [ 504725.4406412539538, 964267.233702740631998 ], [ 504667.898781016469002, 963369.099916653474793 ], [ 503562.464015709061641, 963368.990548101370223 ] ] ], [ [ [ 503677.619101271498948, 965165.262809353065677 ], [ 503620.014912760467269, 964267.122700724285096 ], [ 502514.589291230076924, 964267.041105017415248 ], [ 502572.202526703360491, 965165.17960321821738 ], [ 503677.619101271498948, 965165.262809353065677 ] ] ], [ [ [ 519561.376543800113723, 988524.11334002786316 ], [ 519620.298996822384652, 989422.496240584063344 ], [ 520725.473242379492149, 989423.046970909577794 ], [ 520666.560040640819352, 988524.661959840799682 ], [ 519561.376543800113723, 988524.11334002786316 ] ] ], [ [ [ 521889.605202532489784, 990322.023269268684089 ], [ 521830.648099248181097, 989423.627873520134017 ], [ 520725.473242379492149, 989423.046970909577794 ], [ 520784.439603688661009, 990321.440224402700551 ], [ 521889.605202532489784, 990322.023269268684089 ] ] ], [ [ [ 522994.771446983097121, 990322.636513842036948 ], [ 521889.605202532489784, 990322.023269268684089 ], [ 522007.678860513609834, 992118.838833717745729 ], [ 523112.826566990872379, 992119.456430713529699 ], [ 522994.771446983097121, 990322.636513842036948 ] ] ], [ [ [ 511943.134143337025307, 990317.863045321428217 ], [ 512002.227856896060985, 991216.24836003431119 ], [ 510897.075883578509092, 991215.935208450071514 ], [ 510956.232113605481572, 992114.326841398957185 ], [ 513166.517835297679994, 992114.987208471749909 ], [ 513225.708703623327892, 993013.390914730611257 ], [ 514330.84283526922809, 993013.768443099339493 ], [ 514271.661262268142309, 992115.362772674998268 ], [ 515376.805110108747613, 992115.768590730498545 ], [ 515317.686031022516545, 991217.369173462735489 ], [ 514212.532898024248425, 991216.965342486277223 ], [ 514153.457743032719009, 990318.576144445454702 ], [ 511943.134143337025307, 990317.863045321428217 ] ] ], [ [ [ 522066.795414218271617, 993017.259018648997881 ], [ 522125.965117071347777, 993915.687482874956913 ], [ 523231.094251817441545, 993916.309449975145981 ], [ 523171.933839049714152, 993017.878798484569415 ], [ 522066.795414218271617, 993017.259018648997881 ] ] ], [ [ [ 506654.210907084168866, 993910.162359138717875 ], [ 506713.56411795882741, 994808.571297168382443 ], [ 508923.79163594765123, 994809.000544572481886 ], [ 508864.457068536838051, 993910.587961164419539 ], [ 506654.210907084168866, 993910.162359138717875 ] ] ], [ [ [ 511193.389369881246239, 995707.975723746581934 ], [ 511134.020206377608702, 994809.551134418696165 ], [ 508923.79163594765123, 994809.000544572481886 ], [ 508983.179452894895803, 995707.421370330499485 ], [ 511193.389369881246239, 995707.975723746581934 ] ] ], [ [ [ 513522.461286026111338, 997505.533266324433498 ], [ 513403.600606894819066, 995708.651529268827289 ], [ 511193.389369881246239, 995707.975723746581934 ], [ 511252.811765515245497, 996606.408572371816263 ], [ 512357.907870147551876, 996606.733220815425739 ], [ 512417.374156382167712, 997505.176268481183797 ], [ 513522.461286026111338, 997505.533266324433498 ] ] ], [ [ [ 513581.971447185555007, 998403.986557339667343 ], [ 514687.04962942347629, 998404.375963747384958 ], [ 514627.548814292124007, 997505.920681961812079 ], [ 513522.461286026111338, 997505.533266324433498 ], [ 513581.971447185555007, 998403.986557339667343 ] ] ], [ [ [ 515792.128244585299399, 998404.795815341407433 ], [ 514687.04962942347629, 998404.375963747384958 ], [ 514746.603649835044052, 999302.839542433968745 ], [ 515851.672912244743202, 999303.261416580760852 ], [ 515792.128244585299399, 998404.795815341407433 ] ] ], [ [ [ 515911.270776237768587, 1000201.73532727593556 ], [ 517016.331146393436939, 1000202.189728346536867 ], [ 516956.742641876800917, 999303.713763311621733 ], [ 515851.672912244743202, 999303.261416580760852 ], [ 515911.270776237768587, 1000201.73532727593556 ] ] ], [ [ [ 516956.742641876800917, 999303.713763311621733 ], [ 518061.812871306028683, 999304.196582695352845 ], [ 518181.024343767378014, 1001101.161002591717988 ], [ 519286.076385055028368, 1001101.678517176071182 ], [ 519107.36701336177066, 998406.238041901262477 ], [ 516897.207325245952234, 998405.246112185763195 ], [ 516956.742641876800917, 999303.713763311621733 ] ] ], [ [ [ 514746.603649835044052, 999302.839542433968745 ], [ 513641.534822078014258, 999302.448140807566233 ], [ 513701.15141020581359, 1000200.918024825979955 ], [ 514806.2108750314801, 1000201.311426123720594 ], [ 514746.603649835044052, 999302.839542433968745 ] ] ], [ [ [ 519286.076385055028368, 1001101.678517176071182 ], [ 519345.752516264852602, 1002000.175342887523584 ], [ 520450.795754727500025, 1002000.725530207622796 ], [ 520391.12899472063873, 1001102.226559234084561 ], [ 519286.076385055028368, 1001101.678517176071182 ] ] ], [ [ [ 499935.720573429542128, 1009183.498147722100839 ], [ 500116.855486421729438, 1011879.135903225978836 ], [ 501221.789458264771383, 1011879.154593728249893 ], [ 501282.264891528873704, 1012777.718919564969838 ], [ 505701.963465004926547, 1012778.109330851351842 ], [ 505762.454172591213137, 1013676.689144567237236 ], [ 507972.285330741491634, 1013677.073366837226786 ], [ 507851.395183706306852, 1011879.914686773438007 ], [ 504536.591719819407444, 1011879.395793728763238 ], [ 504415.857704779307824, 1010082.281683935318142 ], [ 501100.99851552862674, 1010082.051013989257626 ], [ 501040.683007061714306, 1009183.511743939947337 ], [ 499935.720573429542128, 1009183.498147722100839 ] ] ], [ [ [ 518037.472983522748109, 1015477.561029942589812 ], [ 515827.673549701692536, 1015476.611974357161671 ], [ 516009.527611311525106, 1018172.505644364166074 ], [ 518219.269919601443689, 1018173.467456289450638 ], [ 518037.472983522748109, 1015477.561029942589812 ] ] ], [ [ [ 520611.232648033241276, 1020870.549409330938943 ], [ 519506.388762658054475, 1020869.984262532554567 ], [ 519567.244064883969259, 1021768.664389070821926 ], [ 521776.913326329260599, 1021769.830273107392713 ], [ 521837.802662591333501, 1022668.523392145521939 ], [ 522942.628674531588331, 1022669.155344917904586 ], [ 522820.922270969429519, 1020871.773089642520063 ], [ 521716.077139964851085, 1020871.145685004419647 ], [ 521655.294104010681622, 1019972.469619667972438 ], [ 520550.440063473128248, 1019971.875583893968724 ], [ 520611.232648033241276, 1020870.549409330938943 ] ] ], [ [ [ 506002.022836843272671, 1033447.396182983764447 ], [ 506125.527217724709772, 1035244.950772756594233 ], [ 507230.211851791653316, 1035245.141587159247138 ], [ 507106.726880099216942, 1033447.583140989765525 ], [ 506002.022836843272671, 1033447.396182983764447 ] ] ], [ [ [ 507230.211851791653316, 1035245.141587159247138 ], [ 507353.909866008965764, 1037042.734389551100321 ], [ 508458.57527315459447, 1037042.960698965238407 ], [ 508334.896698405151255, 1035245.36396704101935 ], [ 507230.211851791653316, 1035245.141587159247138 ] ] ], [ [ [ 506373.175204587576445, 1038840.163030679454096 ], [ 506435.220370185154025, 1039738.987617302918807 ], [ 507539.856333024508785, 1039739.18815355526749 ], [ 507477.820918616955169, 1038840.36161330435425 ], [ 506373.175204587576445, 1038840.163030679454096 ] ] ] ] } }
]
}
