{
"type": "FeatureCollection",
"name": "urban-1990",
"crs": { "type": "name", "properties": { "name": "urn:ogc:def:crs:EPSG::32637" } },
"features": [
{ "type": "Feature", "properties": { "year": 1990 }, "geometry": { "type": "MultiPolygon", "coordinates": [ [ [ [ 456328.481067054148298, 950818.503659571055323 ], [ 455222.894660887366626, 950819.66360239230562 ], [ 455280.084536900627427, 951717.643385348259471 ], [ 456385.661950509762391, 951716.483841430745088 ], [ 456442.896488273399882, 952614.471689660102129 ], [ 457548.463612728519365, 952613.341603326494806 ], [ 457376.947935189469717, 949919.399771267548203 ], [ 456271.353838372277096, 949920.531136277946644 ], [ 456328.481067054148298, 950818.503659571055323 ] ] ], [ [ [ 428745.754634143493604, 951754.181099906913005 ], [ 428803.214736127993092, 952652.167065869900398 ], [ 429908.823872054344974, 952650.310555548756383 ], [ 429966.328788290673401, 953548.303841487853788 ], [ 431071.926800364512019, 953546.476170044858009 ], [ 430899.600755064224359, 950852.519697796902619 ], [ 429793.975615634873975, 950854.34669354732614 ], [ 429851.372814348898828, 951752.324842138215899 ], [ 428745.754634143493604, 951754.181099906913005 ] ] ], [ [ [ 429151.840568141604308, 975106.187150360434316 ], [ 429210.710331267269794, 976004.372569112456404 ], [ 430316.083372928900644, 976002.481220285757445 ], [ 430433.965926627861336, 977798.875036234967411 ], [ 432644.668756382772699, 977795.181166011607274 ], [ 432526.823316466237884, 975998.787833846989088 ], [ 431421.454357114620507, 976000.619641957804561 ], [ 431362.603128962451592, 975102.434532767627388 ], [ 429151.840568141604308, 975106.187150360434316 ] ] ], [ [ [ 452894.492262161744293, 983156.690127425827086 ], [ 453999.754806974146049, 983155.427305035176687 ], [ 453940.659129309118725, 982257.176178336958401 ], [ 452835.387286634708289, 982258.439440887188539 ], [ 452894.492262161744293, 983156.690127425827086 ] ] ], [ [ [ 431805.097351187490858, 998459.657642823760398 ], [ 431986.040580507251434, 1001154.850882704369724 ], [ 436406.461072674544994, 1001147.579083815217018 ], [ 436285.854402053693775, 999350.775450823130086 ], [ 432970.484970643301494, 999356.183703784365207 ], [ 432910.233892089221627, 998457.793957954621874 ], [ 431805.097351187490858, 998459.657642823760398 ] ] ], [ [ [ 445066.612481120158918, 998439.30328114470467 ], [ 445006.519395993673243, 997540.920044994563796 ], [ 443901.393358348344918, 997542.449027621536516 ], [ 444081.862238717498258, 1000237.621973448432982 ], [ 441871.661995114060119, 1000240.769813219318166 ], [ 441931.944761139107868, 1001139.176357707590796 ], [ 439721.756647968024481, 1001142.445846977643669 ], [ 439782.112179204355925, 1002040.860035735997371 ], [ 443097.363267400534824, 1002036.002216705470346 ], [ 443218.178599560633302, 1003832.855949943652377 ], [ 445428.299522776796948, 1003829.771325508831069 ], [ 445186.959872024133801, 1000236.093811698141508 ], [ 446292.055889768293127, 1000234.596155061735772 ], [ 446171.727439871057868, 998437.805018166312948 ], [ 445066.612481120158918, 998439.30328114470467 ] ] ], [ [ [ 456298.012279797170777, 1001120.901577718206681 ], [ 456358.225489343574736, 1002019.321300727897324 ], [ 454148.096166666829959, 1002021.795867177774198 ], [ 454087.864005228329916, 1001123.377237269887701 ], [ 452982.787854561582208, 1001124.660863083088771 ], [ 452922.59989356668666, 1000226.250810275436379 ], [ 451817.512885142932646, 1000227.565440822858363 ], [ 451937.961438996368088, 1002024.392665944527835 ], [ 453043.02949474012712, 1002023.07898742496036 ], [ 453103.324813611863647, 1002921.505191179807298 ], [ 454208.381998271564953, 1002920.22258095885627 ], [ 454268.721499550389126, 1003818.657386498060077 ], [ 455373.767840896849521, 1003817.405903493403457 ], [ 455313.437833546835463, 1002918.970556139713153 ], [ 457523.545586210559122, 1002916.558261953643523 ], [ 457463.288205231016036, 1002018.129854151397012 ], [ 458568.349667572765611, 1002016.968965098727494 ], [ 458508.155402485863306, 1001118.54803969245404 ], [ 456298.012279797170777, 1001120.901577718206681 ] ] ], [ [ [ 458688.899105462012812, 1003813.835128962644376 ], [ 458628.597568728378974, 1002915.397992221754976 ], [ 457523.545586210559122, 1002916.558261953643523 ], [ 457583.85661129001528, 1003814.994774907943793 ], [ 458688.899105462012812, 1003813.835128962644376 ] ] ], [ [ [ 469859.836629603349138, 1005600.836552118649706 ], [ 469799.522775250254199, 1004702.3753423076123 ], [ 468694.500466838420834, 1004703.227973917382769 ], [ 468754.823808100714814, 1005601.688277753652073 ], [ 469859.836629603349138, 1005600.836552118649706 ] ] ], [ [ [ 471146.082911658508237, 1008295.451048279530369 ], [ 471085.617922526900657, 1007396.964333557174541 ], [ 469980.624984673107974, 1007397.783514006529003 ], [ 469920.204032909066882, 1006499.30594003549777 ], [ 468815.200706823787186, 1006500.156755218282342 ], [ 468754.823808100714814, 1005601.688277753652073 ], [ 467649.810066062724218, 1005602.570668665808626 ], [ 467770.636423499963712, 1007399.514034429681487 ], [ 468875.631162514444441, 1007398.633414254756644 ], [ 468996.652742817124818, 1009195.611308830557391 ], [ 471206.601439749356359, 1009193.945969448541291 ], [ 471267.173506303923205, 1010092.449105022940785 ], [ 472372.13704060803866, 1010091.663579940213822 ], [ 472554.145837726653554, 1012787.225328882108442 ], [ 471449.210931780165993, 1012788.007877784897573 ], [ 471631.730185522523243, 1015483.640866858884692 ], [ 472736.636386545666028, 1015482.861334734712727 ], [ 472797.573623090051115, 1016381.423208758234978 ], [ 475007.364484630059451, 1016379.959152115974575 ], [ 474764.013257631682791, 1012785.752881497261114 ], [ 473659.079935498710256, 1012786.473663490614854 ], [ 473356.047248976770788, 1008293.906821756158024 ], [ 471146.082911658508237, 1008295.451048279530369 ] ] ], [ [ [ 471385.085105107165873, 1028065.045375167042948 ], [ 471446.791070265404414, 1028963.721803746069781 ], [ 472551.553405309736263, 1028962.926592873875052 ], [ 472675.10650476522278, 1030760.306730004260316 ], [ 473779.848598089243751, 1030759.545065185637213 ], [ 473532.995343717688229, 1027164.814027969958261 ], [ 472428.21441556798527, 1027165.580015535815619 ], [ 472489.857146471156739, 1028064.249113229918294 ], [ 471385.085105107165873, 1028065.045375167042948 ] ] ], [ [ [ 430569.720184982405044, 1029015.203077362384647 ], [ 430756.242599770659581, 1031711.222650639945641 ], [ 431861.028265376458876, 1031709.266569070401601 ], [ 431798.81007896468509, 1030810.585095340386033 ], [ 432903.603541741380468, 1030808.660397735075094 ], [ 432779.348272490315139, 1029011.322002094937488 ], [ 430569.720184982405044, 1029015.203077362384647 ] ] ], [ [ [ 428193.164362604438793, 1042502.100592059548944 ], [ 428130.26047316979384, 1041603.319945653784089 ], [ 427025.574951795861125, 1041605.402196898008697 ], [ 427088.488754860474728, 1042504.182843394111842 ], [ 428193.164362604438793, 1042502.100592059548944 ] ] ], [ [ [ 487993.107193362317048, 944511.671644135727547 ], [ 490204.355325730866753, 944511.10361528606154 ], [ 490147.87949091946939, 943613.1596111911349 ], [ 487936.613614857837092, 943613.730037061264738 ], [ 487993.107193362317048, 944511.671644135727547 ] ] ], [ [ [ 512429.573277605406474, 946307.731898405007087 ], [ 511323.966654489166103, 946307.421876750537194 ], [ 511380.433960107911844, 947205.417570001911372 ], [ 512486.031720253056847, 947205.729362971847877 ], [ 512429.573277605406474, 946307.731898405007087 ] ] ], [ [ [ 510501.273626327281818, 950797.188879419467412 ], [ 512712.397730793105438, 950797.797723642317578 ], [ 512825.900073418975808, 952593.879117539850995 ], [ 513931.444857794209383, 952594.230678390711546 ], [ 513874.675987380906008, 951696.184216306428425 ], [ 514980.23009402945172, 951696.562977215042338 ], [ 514866.86978995957179, 949900.490014624316245 ], [ 515972.442131610936485, 949900.894055035198107 ], [ 515915.85067194205476, 949002.867523853783496 ], [ 517021.43236770486692, 949003.298640486318618 ], [ 516964.90297950967215, 948105.278091153712012 ], [ 515859.312410486047156, 948104.848863589111716 ], [ 515802.82734771509422, 947206.838066221564077 ], [ 512486.031720253056847, 947205.729362971847877 ], [ 512599.108278478088323, 949001.747826812788844 ], [ 511493.52826959110098, 949001.432478562812321 ], [ 511550.155272512347437, 949899.451709876768291 ], [ 510444.584493532544002, 949899.163546947995201 ], [ 510501.273626327281818, 950797.188879419467412 ] ] ], [ [ [ 501582.190519599884283, 966961.423535151057877 ], [ 501755.697057602228597, 969655.929897374706343 ], [ 502861.06818602012936, 969655.991649905918166 ], [ 502687.588895479158964, 966961.480486752814613 ], [ 501582.190519599884283, 966961.423535151057877 ] ] ], [ [ [ 492039.771986954845488, 973249.438673079828732 ], [ 491981.587748779624235, 972351.243238703813404 ], [ 490876.243044905713759, 972351.47316910722293 ], [ 490818.103053430910222, 971453.28705951187294 ], [ 491923.456890833971556, 971453.055784800671972 ], [ 491865.379413597518578, 970554.876303398399614 ], [ 492970.742135804146528, 970554.673286404111423 ], [ 492912.72715461498592, 969656.500406543840654 ], [ 495123.470233387546614, 969656.180357578094117 ], [ 495181.466990039567463, 970554.356045399443246 ], [ 496286.829187363211531, 970554.241821341100149 ], [ 496170.907241227163468, 968757.895529585541226 ], [ 498381.667751014407258, 968757.749939056229778 ], [ 498323.804980484128464, 967859.585791272460483 ], [ 499429.194234958151355, 967859.555792080122046 ], [ 499544.95492369029671, 969655.895103080081753 ], [ 498439.583852897689212, 969655.922061310731806 ], [ 498555.57604880008148, 971452.290261193644255 ], [ 499660.928902065847069, 971452.266361188841984 ], [ 499718.995873668056447, 972350.463990399846807 ], [ 500824.33959718036931, 972350.471278228331357 ], [ 500476.792190462641884, 966961.39607182238251 ], [ 501582.190519599884283, 966961.423535151057877 ], [ 501524.461620161193423, 966063.270701224100776 ], [ 502629.869061613921076, 966063.326061129686423 ], [ 502572.202526703360491, 965165.17960321821738 ], [ 500361.36957290180726, 965165.101491815410554 ], [ 500303.738238407473546, 964266.966132486704737 ], [ 499198.312741789035499, 964266.972755652037449 ], [ 499255.953128346707672, 965165.106586535694078 ], [ 495939.703532138548326, 965165.298472406808287 ], [ 495882.035979156557005, 964267.169062893488444 ], [ 493671.184250124439131, 964267.446965953684412 ], [ 493786.608962219790556, 966063.708088432322256 ], [ 492681.200966647127643, 966063.888416225439869 ], [ 492739.002452162501868, 966962.029500372475013 ], [ 491633.60332134377677, 966962.237943451618776 ], [ 491749.384603173995856, 968758.541226224508137 ], [ 490644.003416012332309, 968758.776507932925597 ], [ 490701.983238505315967, 969656.938736888463609 ], [ 488491.23822386469692, 969657.495348877622746 ], [ 488549.289674865431152, 970555.662940732319839 ], [ 487443.925795761868358, 970555.984348759287968 ], [ 487618.428002701257356, 973250.531078599742614 ], [ 486513.09117419004906, 973250.878379479050636 ], [ 486571.374561861157417, 974149.075310722808354 ], [ 485466.046494269743562, 974149.4510751622729 ], [ 485524.392471237864811, 975047.654760471428744 ], [ 487735.029876341344789, 975046.935407488257624 ], [ 487676.702232939715032, 974148.729253506870009 ], [ 488782.029540142393671, 974148.412903462420218 ], [ 488723.764465592917986, 973250.213457566103898 ], [ 492039.771986954845488, 973249.438673079828732 ] ] ], [ [ [ 482383.874276399379596, 977743.605185158434324 ], [ 482325.340422148583457, 976845.381078085629269 ], [ 485641.244713602995034, 976844.086074107559398 ], [ 485524.392471237864811, 975047.654760471428744 ], [ 479997.790907845599577, 975049.973499683197588 ], [ 480056.23622144467663, 975948.179448161041364 ], [ 478950.92345424980158, 975948.731339508551173 ], [ 479067.992894501658157, 977745.165003007161431 ], [ 482383.874276399379596, 977743.605185158434324 ] ] ], [ [ [ 482795.107930978410877, 984031.398076367215253 ], [ 482677.345342570799403, 982234.845716931042261 ], [ 480466.850593683542684, 982235.844540465739556 ], [ 480584.650206754973624, 984032.392343497020192 ], [ 479479.420501616084948, 984032.934489334234968 ], [ 479597.452535198826808, 985829.512222873279825 ], [ 481807.874272923567332, 985828.462421552743763 ], [ 481689.879339004924987, 984031.880205867346376 ], [ 482795.107930978410877, 984031.398076367215253 ] ] ], [ [ [ 513048.295750763034448, 990318.204495318583213 ], [ 513107.38018417940475, 991216.591738029033877 ], [ 512002.227856896060985, 991216.24836003431119 ], [ 512061.374796607939061, 992114.641898063826375 ], [ 515376.805110108747613, 992115.768590730498545 ], [ 515317.686031022516545, 991217.369173462735489 ], [ 514212.532898024248425, 991216.965342486277223 ], [ 514153.457743032719009, 990318.576144445454702 ], [ 513048.295750763034448, 990318.204495318583213 ] ] ], [ [ [ 488524.692993724544067, 1003794.095558509347029 ], [ 488644.945300082617905, 1005591.048896842868999 ], [ 493064.950894118053839, 1005590.033805693499744 ], [ 492944.774166334187612, 1003793.06897447432857 ], [ 490734.734126033319626, 1003793.521048640017398 ], [ 490614.733170305436943, 1001996.595061796484515 ], [ 489509.693894431227818, 1001996.86984025593847 ], [ 489449.764082101173699, 1001098.420604822225869 ], [ 488344.715076773078181, 1001098.727317570243031 ], [ 488284.829251129180193, 1000200.287676294217817 ], [ 489389.887668288429268, 1000199.979588025831617 ], [ 489330.064653487352189, 999301.546781856566668 ], [ 488224.996832978795283, 999301.856241190223955 ], [ 488105.492221142165363, 997505.017957475502044 ], [ 489210.578822901647072, 997504.705769358668476 ], [ 489031.750581961649004, 994809.505630125524476 ], [ 487926.63587194198044, 994809.821878110407852 ], [ 487867.123909126443323, 993911.439511981443502 ], [ 486761.999488898436539, 993911.787412795936689 ], [ 486881.095541934773792, 995708.55766459601 ], [ 485775.989451883418951, 995708.93328990181908 ], [ 485716.405351397814229, 994810.545381333096884 ], [ 484611.289475706696976, 994810.95263668068219 ], [ 484551.749444844841491, 993912.574139859178104 ], [ 485656.874678333289921, 993912.165622069616802 ], [ 485597.397433180303778, 993013.79400412493851 ], [ 484492.262850380153395, 993014.203779931063764 ], [ 484432.829692804196384, 992115.841548915486783 ], [ 482222.540435734437779, 992116.75436955713667 ], [ 482281.99228031228995, 993015.114175363210961 ], [ 481176.856227867479902, 993015.614795127068646 ], [ 481057.987309194111731, 991218.905634426977485 ], [ 479952.832014242943842, 991219.438819816801697 ], [ 480071.719620364019647, 993016.145696355612017 ], [ 477861.444609827594832, 993017.298343532485887 ], [ 477801.955369785660878, 992118.943060232093558 ], [ 476696.807548222539481, 992119.565868666744791 ], [ 476637.362451641878579, 991221.219737691106275 ], [ 477742.519618061196525, 991220.5958713615546 ], [ 477564.533297676884104, 988525.602791814133525 ], [ 476459.348147656070068, 988526.229805367882363 ], [ 476163.727622748177964, 984034.740976931061596 ], [ 479479.420501616084948, 984032.934489334234968 ], [ 479420.484698154381476, 983134.657674062415026 ], [ 478315.245122667518444, 983135.230901164817624 ], [ 478256.353539046540391, 982236.96317823138088 ], [ 479361.602370891952887, 982236.388882529106922 ], [ 479302.773520313552581, 981338.12810679175891 ], [ 481513.287879873765633, 981337.06716579082422 ], [ 481395.827540604281239, 979540.565235279966146 ], [ 479185.276251141447574, 979541.630570942419581 ], [ 479126.607833513466176, 978643.393794953706674 ], [ 475810.748537426872645, 978645.218907591886818 ], [ 475928.194221327314153, 980441.694295598892495 ], [ 473717.654772970767226, 980443.056429559946992 ], [ 473776.476361056207679, 981341.304171389900148 ], [ 472671.214737900241744, 981342.02916428563185 ], [ 472789.036994534486439, 983138.546754330862314 ], [ 471683.793090463383123, 983139.299869197304361 ], [ 471742.793785328511149, 984037.569747456116602 ], [ 469532.321994330501184, 984039.164186221780255 ], [ 469709.701059604878537, 986734.016597963287495 ], [ 468604.491725768486504, 986734.856323668383993 ], [ 468723.03082883002935, 988531.462971365777776 ], [ 467617.839210826845374, 988532.331149453995749 ], [ 467558.533554644847754, 987634.02463751938194 ], [ 466453.331654347479343, 987634.923756065545604 ], [ 466394.070246832852717, 986736.62604920216836 ], [ 465288.85803652316099, 986737.556049298495054 ], [ 465229.640893363044597, 985839.267103492282331 ], [ 464124.418345315265469, 985840.227926240419038 ], [ 464065.245482198894024, 984941.947697492665611 ], [ 462960.012568688485771, 984942.939284003456123 ], [ 462900.884001305093989, 984044.66772832814604 ], [ 461795.640694601461291, 984045.690019721165299 ], [ 461677.525794889836106, 982249.172120302100666 ], [ 460572.262782162113581, 982250.225689125014469 ], [ 460690.396260584180709, 984046.742321333498694 ], [ 458479.903880150464829, 984048.936955856042914 ], [ 458420.791737898718566, 983150.675854692817666 ], [ 457315.534427181060892, 983151.8187417590525 ], [ 457374.655868504603859, 984050.079289098270237 ], [ 456269.406599086825736, 984051.251633223379031 ], [ 456210.275856866675895, 983152.991612386191264 ], [ 453999.754806974146049, 983155.427305035176687 ], [ 454118.107177317142487, 984951.953335591242649 ], [ 455223.349747052008752, 984950.721445399220102 ], [ 455282.597117172554135, 985848.996845577843487 ], [ 456387.829045971273445, 985847.795501891640015 ], [ 456328.59099561534822, 984949.519593771896325 ], [ 457433.830955618119333, 984948.347780527547002 ], [ 457552.342065289209131, 986744.90862711565569 ], [ 459762.780972261389252, 986742.657428837381303 ], [ 459822.098329398664646, 987640.950969783822075 ], [ 460927.306656481523532, 987639.871135506080464 ], [ 460986.6683024422382, 988538.173291208455339 ], [ 462091.866140704369172, 988537.124234331073239 ], [ 462210.731587727903388, 990333.753872170695104 ], [ 461105.552447363908868, 990334.80160038464237 ], [ 461343.9641356166685, 993928.154430681839585 ], [ 462449.105778014694806, 993927.109412721940316 ], [ 462628.449289616604801, 996622.210548633942381 ], [ 460418.22129625082016, 996624.326819196110591 ], [ 460478.128521793230902, 997522.708621661993675 ], [ 459373.022216037090402, 997523.811699199490249 ], [ 459432.992496579536237, 998422.200921085197479 ], [ 457222.795132121886127, 998424.497116568847559 ], [ 457342.934377534664236, 1000221.297322420636192 ], [ 458448.014773958653677, 1000220.135208104504272 ], [ 458508.155402485863306, 1001118.54803969245404 ], [ 459613.225113300140947, 1001117.417065804125741 ], [ 459493.016406630689744, 999320.598217549500987 ], [ 460598.103836823021993, 999319.496447865269147 ], [ 460538.089368813729379, 998421.098495252081193 ], [ 461643.185077818692662, 998420.026517134276219 ], [ 461703.19010563188931, 999318.425153220654465 ], [ 462808.275245632161386, 999317.384333453141153 ], [ 462868.324438558076508, 1000215.791776158730499 ], [ 465078.472574204788543, 1000213.803073094575666 ], [ 465138.556464857887477, 1001112.220140904886648 ], [ 462928.427234460541513, 1001114.207322598318569 ], [ 462988.583632848807611, 1002012.630980684421957 ], [ 460778.468961895036045, 1002014.738858866970986 ], [ 460898.980474572279491, 1003811.607672889134847 ], [ 459793.94038236833876, 1003812.706095013185404 ], [ 459854.286059178237338, 1004711.152004851726815 ], [ 463169.374438016908243, 1004707.950703979702666 ], [ 463109.057235118758399, 1003809.502663457999006 ], [ 464214.093968587112613, 1003808.496075832168572 ], [ 464274.401683880365454, 1004706.944881230592728 ], [ 465379.427877134294249, 1004705.969696994870901 ], [ 465319.129647599707823, 1003807.520099395769648 ], [ 466424.164304721052758, 1003806.57473400013987 ], [ 466363.929134571983013, 1002908.132465679664165 ], [ 471889.135580913629383, 1002903.860314327175729 ], [ 471949.323401588655543, 1003802.307067802525125 ], [ 475264.408680922409985, 1003800.113792144926265 ], [ 475204.249247984378599, 1002901.664019671967253 ], [ 477414.321318446425721, 1002900.352736397995614 ], [ 477354.234292477252893, 1002001.909000164596364 ], [ 478459.27875992731424, 1002001.298121001687832 ], [ 478399.254663677129429, 1001102.861455623409711 ], [ 479504.307932839903515, 1001102.279997405130416 ], [ 479444.346748000243679, 1000203.850376503658481 ], [ 480549.408839331066702, 1000203.298288947553374 ], [ 480609.360597973631229, 1001101.729066751664504 ], [ 482819.464246427756734, 1001100.718787809601054 ], [ 482759.531334768864326, 1000202.285614220658317 ], [ 483864.591804013820365, 1000201.825026896898635 ], [ 483924.515294881246518, 1001100.259439368615858 ], [ 485029.565869575424585, 1001099.830618186737411 ], [ 485269.756476682494394, 1004693.655420919880271 ], [ 484164.743662853143178, 1004694.079132636426948 ], [ 484224.934353494842071, 1005592.554606775636785 ], [ 486434.9406260777032, 1005591.740424261544831 ], [ 486374.768856511160266, 1004693.262345707742497 ], [ 487479.780834895907901, 1004692.899906940176152 ], [ 487419.671936668513808, 1003794.42872693866957 ], [ 488524.692993724544067, 1003794.095558509347029 ] ] ], [ [ [ 503431.657542426837608, 1011879.284538970096037 ], [ 504536.591719819407444, 1011879.395793728763238 ], [ 504415.857704779307824, 1010082.281683935318142 ], [ 501100.99851552862674, 1010082.051013989257626 ], [ 501282.264891528873704, 1012777.718919564969838 ], [ 503492.113972611026838, 1012777.852361016091891 ], [ 503431.657542426837608, 1011879.284538970096037 ] ] ], [ [ [ 507851.395183706306852, 1011879.914686773438007 ], [ 504536.591719819407444, 1011879.395793728763238 ], [ 504597.038651126204059, 1012777.965404877671972 ], [ 505701.963465004926547, 1012778.109330851351842 ], [ 505762.454172591213137, 1013676.689144567237236 ], [ 507972.285330741491634, 1013677.073366837226786 ], [ 507851.395183706306852, 1011879.914686773438007 ] ] ], [ [ [ 517053.736828416935168, 1017274.329222036642022 ], [ 517114.398513582069427, 1018172.971027015009895 ], [ 518219.269919601443689, 1018173.467456289450638 ], [ 518037.472983522748109, 1015477.561029942589812 ], [ 515827.673549701692536, 1015476.611974357161671 ], [ 515948.856395894719753, 1017273.865956307854503 ], [ 517053.736828416935168, 1017274.329222036642022 ] ] ], [ [ [ 498269.097656225261744, 1033446.969777839025483 ], [ 498330.891164983680937, 1034345.730068678851239 ], [ 499435.584942020883318, 1034345.698186098248698 ], [ 499497.422058224037755, 1035244.468760127085261 ], [ 500602.106098976451904, 1035244.470182091929018 ], [ 500416.783845942700282, 1032548.178812122554518 ], [ 499312.070671552501153, 1032548.182675829506479 ], [ 499373.801146292244084, 1033446.936160701909102 ], [ 498269.097656225261744, 1033446.969777839025483 ] ] ] ] } }
]
}
