{
"type": "FeatureCollection",
"name": "urban-1975",
"crs": { "type": "name", "properties": { "name": "urn:ogc:def:crs:EPSG::32723" } },
"features": [
{ "type": "Feature", "properties": { "year": 1975 }, "geometry": { "type": "MultiPolygon", "coordinates": [ [ [ [ 291696.507593506365083, 7350797.911265617236495 ], [ 291517.343107856751885, 7349868.018759155645967 ], [ 290443.505041613418143, 7349852.385808972641826 ], [ 290622.644146478269249, 7350782.29749929625541 ], [ 291696.507593506365083, 7350797.911265617236495 ] ] ], [ [ [ 287937.857020720141008, 7353524.707174800336361 ], [ 290085.760108094487805, 7353556.221387941390276 ], [ 289727.830137469165493, 7351696.505112533457577 ], [ 290801.723746665287763, 7351712.18008531536907 ], [ 290622.644146478269249, 7350782.29749929625541 ], [ 287401.024943313212134, 7350734.973770651966333 ], [ 287937.857020720141008, 7353524.707174800336361 ] ] ], [ [ [ 294717.185398931265809, 7377722.000341862440109 ], [ 293642.580648352974094, 7377706.777268913574517 ], [ 293465.218197184265591, 7376777.665250563062727 ], [ 292390.633782185148448, 7376762.343745628371835 ], [ 293099.625998354516923, 7380478.695238006301224 ], [ 290950.242189857992344, 7380447.964222135953605 ], [ 291304.28087955963565, 7382306.043455868959427 ], [ 292379.025271921884269, 7382321.411063944920897 ], [ 292202.01064910547575, 7381392.404583157971501 ], [ 294351.43499251420144, 7381422.938986741006374 ], [ 294174.310729547985829, 7380493.941477634012699 ], [ 295248.990711779217236, 7380509.108207862824202 ], [ 294717.185398931265809, 7377722.000341862440109 ] ] ], [ [ [ 273577.752401536970865, 7379261.276363421231508 ], [ 273754.46048440708546, 7380190.664367200806737 ], [ 271604.895889501436614, 7380157.070153149776161 ], [ 271428.23782314104028, 7379227.643465500324965 ], [ 270353.472637196828146, 7379210.707641733810306 ], [ 270706.679422761895694, 7381069.570858990773559 ], [ 271781.494607138447464, 7381086.467929273843765 ], [ 271958.033974019461311, 7382015.836810478940606 ], [ 273032.868878924986348, 7382032.635026454925537 ], [ 273209.373871073010378, 7382961.955717504024506 ], [ 276433.922199471620843, 7383011.815623793751001 ], [ 276257.342256141477264, 7382082.552699644118547 ], [ 275182.522995161823928, 7382065.992968736216426 ], [ 274829.234938975889236, 7380207.342146225273609 ], [ 275904.004198036913294, 7380223.940376317128539 ], [ 275727.246087308507413, 7379294.59094397816807 ], [ 273577.752401536970865, 7379261.276363421231508 ] ] ], [ [ [ 277685.306814872310497, 7383957.491601338610053 ], [ 277508.761284881504253, 7383028.276664832606912 ], [ 276433.922199471620843, 7383011.815623793751001 ], [ 276610.442749625304714, 7383941.04974503070116 ], [ 277685.306814872310497, 7383957.491601338610053 ] ] ], [ [ [ 296677.955162790720351, 7382382.086942423135042 ], [ 294528.499703434412368, 7382351.907909747213125 ], [ 295059.336503989296034, 7385138.643326815217733 ], [ 296134.141680830274709, 7385153.716446451842785 ], [ 296310.993173852795735, 7386082.55251158028841 ], [ 297385.818654572649393, 7386097.527614155784249 ], [ 297032.006063003791496, 7384239.864293029531837 ], [ 298106.776820334023796, 7384254.797317329794168 ], [ 297929.756122515071183, 7383325.941555252298713 ], [ 296855.010400482686237, 7383310.989879629574716 ], [ 296677.955162790720351, 7382382.086942423135042 ] ] ], [ [ [ 293984.526593001559377, 7385123.490838069468737 ], [ 292909.711923030670732, 7385108.258978127501905 ], [ 293086.488394301792141, 7386037.151161678135395 ], [ 294161.328068560746033, 7386052.364287422969937 ], [ 293984.526593001559377, 7385123.490838069468737 ] ] ], [ [ [ 292011.643939172208775, 7386021.858690693974495 ], [ 290936.794678328093141, 7386006.48687235917896 ], [ 291113.461626141506713, 7386935.388045991770923 ], [ 292188.335875803837553, 7386950.741088673472404 ], [ 292011.643939172208775, 7386021.858690693974495 ] ] ], [ [ [ 296310.993173852795735, 7386082.55251158028841 ], [ 294161.328068560746033, 7386052.364287422969937 ], [ 294338.069991681026295, 7386981.209218275733292 ], [ 292188.335875803837553, 7386950.741088673472404 ], [ 292718.054465962748509, 7389737.217160052619874 ], [ 294867.93842652218882, 7389767.573064130730927 ], [ 294691.375172649277374, 7388838.813590207137167 ], [ 295766.285055239219218, 7388853.891342345625162 ], [ 295589.637264409393538, 7387925.122061369940639 ], [ 296664.51744320068974, 7387940.139190731570125 ], [ 296310.993173852795735, 7386082.55251158028841 ] ] ], [ [ [ 283747.897056929126848, 7393312.273028360679746 ], [ 281597.705900066881441, 7393280.32543377391994 ], [ 281421.70473180920817, 7392351.435462152585387 ], [ 280346.626471648225561, 7392335.323964121751487 ], [ 280698.519594113924541, 7394193.113279301673174 ], [ 281773.647624295554124, 7394209.186828099191189 ], [ 281949.52990249695722, 7395138.019661579281092 ], [ 277648.887748739274684, 7395073.32671220600605 ], [ 277121.361089025158435, 7392286.514399589970708 ], [ 276046.262344456394203, 7392270.086180442944169 ], [ 275870.326202284893952, 7391341.07235137745738 ], [ 274795.247159422491677, 7391324.545809296891093 ], [ 275147.010289086494595, 7393182.583059877157211 ], [ 274071.876280323718674, 7393166.015617072582245 ], [ 274247.643903206044342, 7394095.010372348129749 ], [ 275322.802775016112719, 7394111.558679315261543 ], [ 275498.53587233251892, 7395040.505650177598 ], [ 274423.352147047640756, 7395023.976464422419667 ], [ 274599.001009837724268, 7395952.913909785449505 ], [ 276749.412951371981762, 7395985.854992283508182 ], [ 276925.052102622576058, 7396914.725651549175382 ], [ 280150.705816527130082, 7396963.487206120043993 ], [ 280501.954875787196215, 7398821.028872613795102 ], [ 281577.212227229378186, 7398837.086784405633807 ], [ 281401.592585518665146, 7397908.349135655909777 ], [ 283552.042454853188246, 7397940.26578086707741 ], [ 283024.677753127762116, 7395153.995167243294418 ], [ 284099.820578460930847, 7395169.891584666445851 ], [ 283747.897056929126848, 7393312.273028360679746 ] ] ], [ [ [ 269398.34468958521029, 7396798.181992910802364 ], [ 268323.079598615760915, 7396781.216671110130847 ], [ 268498.460804197122343, 7397710.211926790885627 ], [ 269573.750702961056959, 7397727.158002618700266 ], [ 269749.097377111786045, 7398656.105342026799917 ], [ 270824.406736160279252, 7398672.953181130811572 ], [ 270122.564750688208733, 7394957.06863640062511 ], [ 267972.139206559571903, 7394923.140039000660181 ], [ 268147.639065397670493, 7395852.192714016884565 ], [ 269222.879338998929597, 7395869.177296403795481 ], [ 269398.34468958521029, 7396798.181992910802364 ] ] ], [ [ [ 269983.420051381748635, 7422732.529340146109462 ], [ 268907.442646501585841, 7422715.784282909706235 ], [ 269081.063731911126524, 7423644.05820950679481 ], [ 270157.065665870788507, 7423660.784314967691898 ], [ 269983.420051381748635, 7422732.529340146109462 ] ] ], [ [ [ 266199.942578372894786, 7425449.987269829958677 ], [ 268352.071513526432682, 7425483.754780456423759 ], [ 267831.459851670486387, 7422698.960939219221473 ], [ 268907.442646501585841, 7422715.784282909706235 ], [ 268733.762215678987559, 7421787.482056285254657 ], [ 266581.840279757627286, 7421753.719063418917358 ], [ 266755.471641778247431, 7422682.059306743554771 ], [ 264603.478876370354556, 7422648.021166063845158 ], [ 264256.254962276667356, 7420791.236047118902206 ], [ 263180.299415334826335, 7420774.061306365765631 ], [ 263353.916490853880532, 7421702.487174043431878 ], [ 262277.930891462252475, 7421685.253228116780519 ], [ 262451.464149389124941, 7422613.669842017814517 ], [ 263527.474270631442778, 7422630.884653147310019 ], [ 263700.972752675181255, 7423559.253760024905205 ], [ 262624.938119119848125, 7423542.058069250546396 ], [ 262971.708186029572971, 7425398.7494290843606 ], [ 261895.619024163926952, 7425381.51371943578124 ], [ 262242.102962074219249, 7427238.12992455996573 ], [ 261165.959295990876853, 7427220.854248369112611 ], [ 261339.087873927986948, 7428149.13896806538105 ], [ 264567.575627259560861, 7428200.674282623454928 ], [ 264394.373663717880845, 7427272.44679194316268 ], [ 265470.500749567116145, 7427289.487987888045609 ], [ 265297.215001395205036, 7426361.251241148449481 ], [ 266373.312131039565429, 7426378.233288200572133 ], [ 266199.942578372894786, 7425449.987269829958677 ] ] ], [ [ [ 288970.130661219125614, 7426716.799970997497439 ], [ 287894.142789747915231, 7426701.459249556064606 ], [ 288241.684109266090672, 7428557.118291306309402 ], [ 290393.753071860061027, 7428587.648016918450594 ], [ 290046.113606372266077, 7426732.062558241188526 ], [ 291122.091650334885344, 7426747.247013402171433 ], [ 290426.000047424226068, 7423035.814019974321127 ], [ 288274.23560191236902, 7423005.219690206460655 ], [ 288970.130661219125614, 7426716.799970997497439 ] ] ], [ [ [ 267930.968253793544136, 7434731.176893562078476 ], [ 267758.132695098989643, 7433803.184791970998049 ], [ 268834.419964284752496, 7433819.937234131619334 ], [ 268661.500649143010378, 7432891.935862237587571 ], [ 266508.969508017296903, 7432858.315238190814853 ], [ 266336.039692764519714, 7431930.247904384508729 ], [ 268488.521985890460201, 7431963.906340532004833 ], [ 268315.483976498944685, 7431035.848652772605419 ], [ 269391.692554524634033, 7431052.579732660204172 ], [ 269045.389601205242798, 7429196.417593715712428 ], [ 266893.064832618052606, 7429162.801739983260632 ], [ 267066.197074401774444, 7430090.934743760153651 ], [ 265990.002082938619424, 7430074.028636090457439 ], [ 266163.050550412095618, 7431002.152375771664083 ], [ 264010.595263158262242, 7430968.143926883116364 ], [ 263837.595670595066622, 7430039.982205210253596 ], [ 262761.384199390711728, 7430022.841877283528447 ], [ 263280.131785606499761, 7432807.299395330250263 ], [ 262203.841507884440944, 7432790.138129815459251 ], [ 262376.614369638846256, 7433718.253188887611032 ], [ 261300.294132326554973, 7433701.032973332330585 ], [ 261645.613205189554719, 7435557.216497720219195 ], [ 264874.703595271857921, 7435608.529263052158058 ], [ 264529.238196479273029, 7433752.459717961028218 ], [ 265605.541836384043563, 7433769.446036223322153 ], [ 265778.32859074906446, 7434697.475948622450233 ], [ 267930.968253793544136, 7434731.176893562078476 ] ] ], [ [ [ 290878.930916615354363, 7436921.34086425229907 ], [ 288726.411424525664188, 7436890.985186484642327 ], [ 289072.594277652155142, 7438746.067316598258913 ], [ 290148.905338538286742, 7438761.247509552165866 ], [ 290321.931883105426095, 7439688.728616030886769 ], [ 291398.262446914042812, 7439703.812806759029627 ], [ 291052.100975296227261, 7437848.859288559295237 ], [ 292128.377805890166201, 7437863.902156714349985 ], [ 291781.929256585077383, 7436008.873986234888434 ], [ 290705.701311932760291, 7435993.794641708955169 ], [ 290878.930916615354363, 7436921.34086425229907 ] ] ], [ [ [ 302334.539198350918014, 7440777.633767776191235 ], [ 301258.23191554157529, 7440763.344837388023734 ], [ 301604.475403667718638, 7442617.806921476498246 ], [ 302680.83153109846171, 7442632.060022886842489 ], [ 302334.539198350918014, 7440777.633767776191235 ] ] ], [ [ [ 276632.118188087246381, 7446890.294720930978656 ], [ 276115.310845508938655, 7444107.663116442039609 ], [ 278268.352304684638511, 7444139.745280355215073 ], [ 278095.915690140274819, 7443212.182740634307265 ], [ 275942.92289043602068, 7443180.063501624390483 ], [ 275770.475518168241251, 7442252.435986623167992 ], [ 273617.510376947582699, 7442219.968883987516165 ], [ 273445.052275484893471, 7441292.276208141818643 ], [ 272368.586098045401741, 7441275.907451851293445 ], [ 272196.092950553284027, 7440348.168136265128851 ], [ 271119.645785002387129, 7440331.702948395162821 ], [ 270947.117609609442297, 7439403.916920213960111 ], [ 269870.689434565836564, 7439387.355228016152978 ], [ 270043.19325783860404, 7440315.16000534594059 ], [ 268966.735343833221123, 7440298.539304820820689 ], [ 269311.516226819250733, 7442154.102326676249504 ], [ 270388.022810919152107, 7442170.685515699908137 ], [ 271249.057723726436961, 7446809.009787277318537 ], [ 270172.429630641709082, 7446792.520126761868596 ], [ 270344.434215135057457, 7447720.119858043268323 ], [ 271421.086581529234536, 7447736.590855707414448 ], [ 271593.056059860507958, 7448664.144033132120967 ], [ 273746.393261204008013, 7448696.816219121217728 ], [ 273574.375246758107096, 7447769.300254657864571 ], [ 276804.268454918114003, 7447817.782896108925343 ], [ 276976.359294830239378, 7448745.243251607753336 ], [ 278053.004135614610277, 7448761.230605675838888 ], [ 277708.714457666152157, 7446906.319049666635692 ], [ 276632.118188087246381, 7446890.294720930978656 ] ] ], [ [ [ 274995.036759780021384, 7449640.50562853179872 ], [ 274823.053882911452092, 7448713.036060566082597 ], [ 273746.393261204008013, 7448696.816219121217728 ], [ 273918.351875250227749, 7449624.304337211884558 ], [ 274995.036759780021384, 7449640.50562853179872 ] ] ], [ [ [ 294202.065738365170546, 7448991.743172514252365 ], [ 293125.496388788451441, 7448976.917961647734046 ], [ 293297.892173974658363, 7449904.076468962244689 ], [ 294374.485838536522351, 7449918.883634446188807 ], [ 294202.065738365170546, 7448991.743172514252365 ] ] ], [ [ [ 316755.978999103768729, 7358555.862737940624356 ], [ 315682.011565368797164, 7358542.165322108194232 ], [ 315861.172220066306181, 7359471.40305816847831 ], [ 321231.094434407772496, 7359538.996945191174746 ], [ 321410.322141665965319, 7360468.114243781194091 ], [ 322484.319547097431496, 7360481.374444147571921 ], [ 322125.753607530030422, 7358623.1478640884161 ], [ 319977.856177636887878, 7358596.474196790717542 ], [ 319619.152635692851618, 7356738.06007999740541 ], [ 316397.427744989632629, 7356697.338226934894919 ], [ 316755.978999103768729, 7358555.862737940624356 ] ] ], [ [ [ 325526.958224780799355, 7359591.630293069407344 ], [ 324452.99834368226584, 7359578.592095601372421 ], [ 324811.546164362342097, 7361436.688700726255774 ], [ 328033.566069402033463, 7361475.454074000939727 ], [ 327854.245956405065954, 7360546.474470984190702 ], [ 326780.268674738530535, 7360533.614589624106884 ], [ 326421.49970053875586, 7358675.533732011914253 ], [ 325347.5692115285201, 7358662.557443838566542 ], [ 325526.958224780799355, 7359591.630293069407344 ] ] ], [ [ [ 323737.53151901694946, 7361423.606840444728732 ], [ 322663.512827404309064, 7361410.44494257774204 ], [ 323021.719999172899406, 7363268.500438548624516 ], [ 321947.646551136509515, 7363255.29498306568712 ], [ 322126.635110264876857, 7364184.298232199624181 ], [ 323200.733886683476157, 7364197.485468989238143 ], [ 323379.687972645682748, 7365126.442042985931039 ], [ 324453.808009483618662, 7365139.531148499809206 ], [ 324274.82860157644609, 7364210.592750402167439 ], [ 325348.919279625406489, 7364223.62007824331522 ], [ 325706.868922954367008, 7366081.43216819409281 ], [ 327855.139567376754712, 7366107.174576301127672 ], [ 327317.973391451174393, 7363320.522444671951234 ], [ 326243.916054012661334, 7363307.636911919340491 ], [ 326064.766334218322299, 7362378.677941033616662 ], [ 323916.69035436946433, 7362352.630612810142338 ], [ 323737.53151901694946, 7361423.606840444728732 ] ] ], [ [ [ 313354.909677960677072, 7363146.771716950461268 ], [ 312280.798537559690885, 7363132.846327889710665 ], [ 312816.901649481384084, 7365920.265965429134667 ], [ 313891.088662488386035, 7365934.135986302047968 ], [ 314426.730173146701418, 7368721.243246059864759 ], [ 315500.988704273069743, 7368734.978199818171561 ], [ 315322.476001045666635, 7367805.989344647154212 ], [ 316396.705029899021611, 7367819.662809196859598 ], [ 315860.732697342638858, 7365032.580235698260367 ], [ 314786.579502113396302, 7365018.851659830659628 ], [ 314607.827879328280687, 7364089.748670242726803 ], [ 315681.955777526658494, 7364103.495646120980382 ], [ 315503.119123199954629, 7363174.382496552541852 ], [ 316577.217477392579895, 7363188.067890895530581 ], [ 316398.295771256438456, 7362258.944566441699862 ], [ 317472.364590351760853, 7362272.568339889869094 ], [ 317114.291286192717962, 7360414.27273157518357 ], [ 313892.2241587737808, 7360373.050799109041691 ], [ 314250.145460958010517, 7362231.456950223073363 ], [ 313176.063920416636392, 7362217.593103669583797 ], [ 313354.909677960677072, 7363146.771716950461268 ] ], [ [ 315324.222736348514445, 7362245.240770514123142 ], [ 315145.266618959140033, 7361316.070451512932777 ], [ 316219.314324999519158, 7361329.792663831263781 ], [ 316398.295771256438456, 7362258.944566441699862 ], [ 315324.222736348514445, 7362245.240770514123142 ] ] ], [ [ [ 313703.546259252936579, 7376124.860266719013453 ], [ 312629.073222576174885, 7376111.032904073596001 ], [ 312984.762226128019392, 7377968.616755078546703 ], [ 314059.285573780478444, 7377982.407491812482476 ], [ 313703.546259252936579, 7376124.860266719013453 ] ] ], [ [ [ 325271.158432522905059, 7408680.443813038989902 ], [ 326346.481665555795189, 7408693.166913188993931 ], [ 325994.388040194055066, 7406837.688399916514754 ], [ 328144.922969784762245, 7406862.969224269501865 ], [ 327968.736634018016048, 7405935.22358924895525 ], [ 334420.09708762797527, 7406009.283145757392049 ], [ 334596.432770658633672, 7406936.923594558611512 ], [ 335671.670814009383321, 7406948.973992533050478 ], [ 335847.97147051570937, 7407876.56935712043196 ], [ 336923.230593663349282, 7407888.523703014478087 ], [ 337451.847602021065541, 7410671.091965558938682 ], [ 338527.177577995113097, 7410682.915678258053958 ], [ 338351.006981197395362, 7409755.437837242148817 ], [ 339426.308329687919468, 7409767.20029507484287 ], [ 339250.052895767439622, 7408839.712185910902917 ], [ 340325.325625830388162, 7408851.413349080830812 ], [ 340501.605946506955661, 7409778.884180323220789 ], [ 341576.899856649746653, 7409790.489494604058564 ], [ 341929.330329891468864, 7411645.31408130005002 ], [ 344080.006652625801507, 7411668.220257880166173 ], [ 344256.181644203257747, 7412595.556965894065797 ], [ 346406.893212034599856, 7412618.114883555099368 ], [ 346230.668474642327055, 7411690.812393175438046 ], [ 350531.949416764138732, 7411735.054589700885117 ], [ 351060.742029017652385, 7414516.675674976781011 ], [ 353211.510847973753698, 7414538.224199699237943 ], [ 353035.256961442530155, 7413611.078352577984333 ], [ 354110.611357004381716, 7413621.751863203942776 ], [ 353934.272497966652736, 7412694.595578684471548 ], [ 356084.921347530558705, 7412715.740965224802494 ], [ 355908.472591406956781, 7411788.591071947477758 ], [ 356983.767075998475775, 7411799.062881490215659 ], [ 357160.24073963961564, 7412726.19595911167562 ], [ 358235.556809982692357, 7412736.572488672100008 ], [ 358059.058235491043888, 7411809.456198800355196 ], [ 359134.34609488886781, 7411819.771025314927101 ], [ 358957.762468684639316, 7410892.644227805547416 ], [ 360033.022125988034531, 7410902.897311331704259 ], [ 359856.353427649242803, 7409975.759991299360991 ], [ 360931.584891686099581, 7409985.951291896402836 ], [ 361284.912013427121565, 7411840.165211647748947 ], [ 363435.465031650324818, 7411860.245451762340963 ], [ 363788.65121230785735, 7413714.283797189593315 ], [ 362713.326457478746306, 7413704.316201771609485 ], [ 362889.804371369828004, 7414631.311218876391649 ], [ 366115.843892047414556, 7414660.928948038257658 ], [ 365939.291242003557272, 7413733.983705424703658 ], [ 368089.918798530939966, 7413753.369912587106228 ], [ 367559.75003084319178, 7410972.470530006103218 ], [ 366484.51262262032833, 7410962.767028328962624 ], [ 366307.694234813796356, 7410035.729687402024865 ], [ 368458.116049279691651, 7410055.09128774702549 ], [ 368281.187518917140551, 7409128.059880868531764 ], [ 367206.003125537186861, 7409118.401795640587807 ], [ 367029.039360406866763, 7408191.326637178659439 ], [ 368104.198771385708824, 7408201.001288978382945 ], [ 367750.040632260963321, 7406346.802486795932055 ], [ 366674.931214498705231, 7406337.094658468849957 ], [ 366320.582260149822105, 7404482.753691658377647 ], [ 367395.64164680079557, 7404492.494754401966929 ], [ 367572.871244391193613, 7405419.662244806066155 ], [ 370798.106121972668916, 7405448.363531617447734 ], [ 370620.80144309689058, 7404521.245747225359082 ], [ 369545.751213322510011, 7404511.740780856460333 ], [ 369368.411338143632747, 7403584.579220364801586 ], [ 370443.436527941084933, 7403594.100741999223828 ], [ 370088.525996233394835, 7401739.729005604982376 ], [ 371163.498065019783098, 7401749.204901438206434 ], [ 370808.296457428892609, 7399894.757247541099787 ], [ 369733.374541762750596, 7399885.248195474036038 ], [ 369377.982179456914309, 7398030.658184517174959 ], [ 367228.229626482236199, 7398011.336976408027112 ], [ 367050.493318834574893, 7397083.967639341950417 ], [ 369200.195662537938915, 7397103.322188979946077 ], [ 369022.348924268211704, 7396175.958845522254705 ], [ 374396.426569463394117, 7396223.047094104811549 ], [ 374574.398938098340295, 7397150.327499127015471 ], [ 375649.23077806411311, 7397159.491817740723491 ], [ 376005.044951462943573, 7399013.937853356823325 ], [ 374930.162867202365305, 7399004.806499244645238 ], [ 375285.68570633744821, 7400859.176525298506021 ], [ 376360.617996980727185, 7400868.274972971528769 ], [ 376182.861616137146484, 7399941.120019733905792 ], [ 377257.765938389580697, 7399950.156085506081581 ], [ 377435.547421136754565, 7400877.294620651751757 ], [ 378510.474003728770185, 7400886.235469585284591 ], [ 378688.220287197618745, 7401813.330446225591004 ], [ 380838.115229563845787, 7401830.943084947764874 ], [ 380660.318743925658055, 7400903.880776137113571 ], [ 381735.236951378756203, 7400912.585236191749573 ], [ 381913.058543313003611, 7401839.63125288579613 ], [ 382987.99911868176423, 7401848.240654811263084 ], [ 382810.152416969416663, 7400921.210902372375131 ], [ 383885.065165620064363, 7400929.757775869220495 ], [ 383707.132998647284694, 7400002.717164028435946 ], [ 384782.017929050256498, 7400011.201469052582979 ], [ 384959.975222254870459, 7400938.225857862271369 ], [ 387109.787359176785685, 7400954.925652004778385 ], [ 386575.583556835190393, 7398173.868352955207229 ], [ 385500.754237586341333, 7398165.509305010549724 ], [ 385678.857396841573063, 7399092.571679648011923 ], [ 384604.00027623254573, 7399084.149983140639961 ], [ 384425.92226565052988, 7398157.071384321898222 ], [ 382276.250264097179752, 7398139.958920042961836 ], [ 381741.805078513745684, 7395358.462517860345542 ], [ 380667.040470518753864, 7395349.738961489871144 ], [ 379953.703020044136792, 7391640.630592968314886 ], [ 378879.036396688141394, 7391631.762413301505148 ], [ 379057.436034617014229, 7392559.096828112378716 ], [ 376908.043966782046482, 7392541.156204616650939 ], [ 376729.694720594736282, 7391613.788831416517496 ], [ 374580.341639590449631, 7391595.498944515362382 ], [ 374401.982504274172243, 7390668.071145255118608 ], [ 371178.006633040728047, 7390639.993363200686872 ], [ 371356.290198808594141, 7391567.471020130440593 ], [ 372430.97695478744572, 7391576.89274250343442 ], [ 372609.2254589034128, 7392504.326367031782866 ], [ 373683.93444456771249, 7392513.65240340679884 ], [ 373862.147869610460475, 7393441.042068483307958 ], [ 372787.413713078480214, 7393431.7326222024858 ], [ 372965.541715440223925, 7394359.111523944884539 ], [ 370816.014233589114156, 7394340.288788119331002 ], [ 370994.031688765797298, 7395267.673557994887233 ], [ 368844.441966519749258, 7395248.568138223141432 ], [ 367597.407274387660436, 7388756.065660512074828 ], [ 365448.157668243104126, 7388736.409727608785033 ], [ 365982.81128867669031, 7391519.176142256706953 ], [ 367057.513170941499993, 7391528.993291055783629 ], [ 367413.698275744158309, 7393383.999981180764735 ], [ 366338.946083220362198, 7393374.216361830942333 ], [ 366160.908782443904784, 7392446.709980411455035 ], [ 364011.445383936516009, 7392426.872041249647737 ], [ 363833.398199756280519, 7391499.30457538086921 ], [ 362758.686943374108523, 7391489.250154561363161 ], [ 363114.670847785077058, 7393344.391297290101647 ], [ 362039.906133766518906, 7393334.291535704396665 ], [ 361861.969400667061564, 7392406.717845508828759 ], [ 359712.480633681989275, 7392386.247382063418627 ], [ 359178.460416737070773, 7389603.259517076425254 ], [ 358103.786614507203922, 7389592.854735649190843 ], [ 357747.522820787038654, 7387737.357521202415228 ], [ 356672.896070373360999, 7387726.839492212980986 ], [ 356138.125076644355431, 7384943.335090235807002 ], [ 355063.570574028650299, 7384932.686516761779785 ], [ 354885.218575581093319, 7384004.779194134287536 ], [ 357034.273844063514844, 7384026.031297170557082 ], [ 356141.360175058885943, 7379386.250075028277934 ], [ 355066.960391227446962, 7379375.577905531041324 ], [ 354888.222616157261655, 7378447.521174551919103 ], [ 357036.968330990290269, 7378468.820423441939056 ], [ 357573.152932583470829, 7381252.804209521971643 ], [ 358647.59662357904017, 7381263.283212132751942 ], [ 358468.903280019876547, 7380335.333489838987589 ], [ 361692.13910458853934, 7380366.345260324887931 ], [ 362049.617203023284674, 7382222.114673048257828 ], [ 363124.073256239411421, 7382232.259082490578294 ], [ 363302.747324734576978, 7383160.085313759744167 ], [ 364377.225470962934196, 7383170.133407549932599 ], [ 364555.864616849226877, 7384097.91507607512176 ], [ 363481.361228616326116, 7384087.883913573808968 ], [ 364016.841933646763209, 7386871.11408475600183 ], [ 365091.420990852755494, 7386881.094541106373072 ], [ 365269.819421334657818, 7387808.765902698040009 ], [ 366344.420569123583846, 7387818.650285305455327 ], [ 365987.513102235505357, 7385963.313713890500367 ], [ 367062.060730437631719, 7385973.152545606717467 ], [ 366704.862037308048457, 7384117.73946485389024 ], [ 365630.364878143300302, 7384107.866926044225693 ], [ 365451.700486868852749, 7383180.102160898968577 ], [ 367600.641226929379627, 7383199.801651768386364 ], [ 367421.86613205797039, 7382272.043036730960011 ], [ 365272.975911962799728, 7382252.309793557971716 ], [ 365094.191155316948425, 7381324.489807972684503 ], [ 364019.76665871439036, 7381314.487203967757523 ], [ 363662.067165129410569, 7379458.730404622852802 ], [ 360438.926385181024671, 7379428.144146891310811 ], [ 360260.062246221466921, 7378500.173136385157704 ], [ 359185.700862382655032, 7378489.801718192175031 ], [ 359006.80187632428715, 7377561.785863615572453 ], [ 360081.137971172924154, 7377572.174384723417461 ], [ 359902.153561942977831, 7376644.147875793278217 ], [ 358827.842765604611486, 7376633.742237102240324 ], [ 358290.604704552330077, 7373849.4445646321401 ], [ 360439.071153556171339, 7373870.279099876061082 ], [ 360618.261284334002994, 7374798.37184364721179 ], [ 361692.515009888564236, 7374808.652571182698011 ], [ 361154.688181257224642, 7372024.342263888567686 ], [ 360080.510485676757526, 7372014.010174890980124 ], [ 360259.820886700530536, 7372942.158549005165696 ], [ 359185.614621324464679, 7372931.763944884762168 ], [ 359006.329569792607799, 7372003.598407663404942 ], [ 357932.145408878684975, 7371993.106960769742727 ], [ 357573.445660413475707, 7370136.657881643623114 ], [ 355425.168926268350333, 7370115.366923104971647 ], [ 355962.976276197528932, 7372900.102216303348541 ], [ 357037.192340807639994, 7372910.735779982991517 ], [ 357216.366597825719509, 7373838.907859846018255 ], [ 353993.632451852783561, 7373806.819979374296963 ], [ 354351.648767708800733, 7375663.184030115604401 ], [ 353277.346750033379067, 7375652.363397544249892 ], [ 353635.07216175965732, 7377508.650525631383061 ], [ 348263.258109689457342, 7377453.527164982631803 ], [ 348084.551800848101266, 7376525.31082653068006 ], [ 347010.203859497327358, 7376514.030150234699249 ], [ 346831.462794717517681, 7375585.76843735948205 ], [ 345757.136596241733059, 7375574.390735594555736 ], [ 344862.657554968551267, 7370932.574802265502512 ], [ 342714.247392723278608, 7370909.405099395662546 ], [ 342893.212580258143134, 7371837.859510278329253 ], [ 339670.494222200475633, 7371802.559932082891464 ], [ 339312.65571557439398, 7369945.5170578956604 ], [ 338238.459517999959644, 7369933.555686984211206 ], [ 337880.431863381119911, 7368076.364715227857232 ], [ 335732.129541438946035, 7368052.131526591256261 ], [ 335911.122696056903806, 7368980.776693694293499 ], [ 333762.754637641366571, 7368956.259909996762872 ], [ 334120.459997246856801, 7370813.536939361132681 ], [ 333046.219655879889615, 7370801.194590452127159 ], [ 333224.957204269128852, 7371729.80863219872117 ], [ 332150.687743995571509, 7371717.404414564371109 ], [ 331971.975472777499817, 7370788.772496184334159 ], [ 330897.727423216216266, 7370776.27065484598279 ], [ 330540.173812648630701, 7368918.88623302616179 ], [ 329465.972442168975249, 7368906.268733469769359 ], [ 329287.131132222595625, 7367977.516125116497278 ], [ 327138.767189196660183, 7367952.00566709972918 ], [ 326959.916630554420408, 7367023.188674611970782 ], [ 324811.587384050129913, 7366997.322685409337282 ], [ 324632.727604297397193, 7366068.441121364012361 ], [ 323558.582255085813813, 7366055.370176967233419 ], [ 323379.687972645682748, 7365126.442042985931039 ], [ 322305.563877418055199, 7365113.273010101169348 ], [ 322484.432850622455589, 7366042.219333205372095 ], [ 321410.279366213944741, 7366028.988588265143335 ], [ 321767.787339390139095, 7367886.832325713708997 ], [ 323916.191401519696228, 7367913.141190563328564 ], [ 324273.561310230521485, 7369770.798641048371792 ], [ 323199.310764513385948, 7369757.720406073145568 ], [ 323377.880738406907767, 7370686.524701440706849 ], [ 324452.156545523030218, 7370699.584821112453938 ], [ 324809.167568159929942, 7372557.072172785177827 ], [ 323734.841266931849532, 7372544.048239493742585 ], [ 324448.044591972255148, 7376258.755563211627305 ], [ 323373.613371791958343, 7376245.724232792854309 ], [ 323195.427462839521468, 7375317.071775089949369 ], [ 322121.017370230285451, 7375303.942766781896353 ], [ 321942.796862582908943, 7374375.243922183290124 ], [ 319794.014763591170777, 7374348.7107501514256 ], [ 319615.784885831410065, 7373419.947276487015188 ], [ 322838.876228835899383, 7373459.68197557516396 ], [ 322660.510907708201557, 7372530.94460104778409 ], [ 319437.49523465835955, 7372491.155436672270298 ], [ 319259.145812040311284, 7371562.33521432057023 ], [ 318184.824200074304827, 7371548.894511243328452 ], [ 317649.493060591223184, 7368762.208618924021721 ], [ 315500.988704273069743, 7368734.978199818171561 ], [ 315679.441672658431344, 7369663.938562529161572 ], [ 316753.721209384792019, 7369677.575360063463449 ], [ 316932.139680527325254, 7370606.48893538210541 ], [ 314783.52589054859709, 7370579.172188991680741 ], [ 315318.271492502244655, 7373365.852086880244315 ], [ 316392.656158219557256, 7373379.495417427271605 ], [ 316748.904940567037556, 7375237.103317164815962 ], [ 315674.469887986080721, 7375223.496532727964222 ], [ 316030.429327065998223, 7377081.027409486472607 ], [ 314955.939685396035202, 7377067.37753245793283 ], [ 315311.609848127467558, 7378924.831455646082759 ], [ 313162.517154396511614, 7378897.366091536357999 ], [ 313340.21236436557956, 7379826.087057148106396 ], [ 315489.35532434983179, 7379853.515896874479949 ], [ 315667.041061187512241, 7380782.172013012692332 ], [ 314592.446596475900151, 7380768.515576416626573 ], [ 314770.047476407373324, 7381697.161602634005249 ], [ 313695.423621525405906, 7381683.443941333331168 ], [ 314227.792570809950121, 7384469.266895428299904 ], [ 313153.089145649923012, 7384455.524525200016797 ], [ 311554.5958680245094, 7376097.125927905552089 ], [ 312629.073222576174885, 7376111.032904073596001 ], [ 312451.139151240466163, 7375182.198356734588742 ], [ 311376.686963450862095, 7375168.273017516359687 ], [ 311198.718358037003782, 7374239.391655969433486 ], [ 312273.1453694976517, 7374253.3353729583323 ], [ 312095.091879325569607, 7373324.443936331197619 ], [ 309946.283876366098411, 7373296.440017827786505 ], [ 310302.230429954419378, 7375154.268034833483398 ], [ 309227.769525987212546, 7375140.183406753465533 ], [ 309938.84573692898266, 7378855.571569602936506 ], [ 308864.279864786076359, 7378841.480994415469468 ], [ 309219.409611391602084, 7380699.041282422840595 ], [ 310294.025712617090903, 7380713.095095725730062 ], [ 310471.526161102636252, 7381641.814277358353138 ], [ 309396.884959677001461, 7381627.778822962194681 ], [ 309751.656596345128492, 7383485.168779037892818 ], [ 308676.960830644937232, 7383471.09060138463974 ], [ 308854.232046612887643, 7384399.761392578482628 ], [ 309928.952880786382593, 7384413.821227325126529 ], [ 310283.36637203063583, 7386271.041146213188767 ], [ 311358.132931106491014, 7386284.985026163049042 ], [ 311535.27517684653867, 7387213.534258548170328 ], [ 309385.687592628586572, 7387185.603755530901253 ], [ 309562.720067445538007, 7388114.1612608153373 ], [ 308487.894652791088447, 7388100.095392268151045 ], [ 308310.887205184262712, 7387171.519574670121074 ], [ 304011.641106728522573, 7387114.389943402260542 ], [ 303657.647448971460108, 7385257.006122218444943 ], [ 302582.874715708545409, 7385242.488528715446591 ], [ 302405.813471779576503, 7384313.735525464639068 ], [ 300256.304371970705688, 7384284.425195127725601 ], [ 300610.267107159714215, 7386141.976908644661307 ], [ 299535.455596383428201, 7386127.239810638129711 ], [ 299889.129876682651229, 7387984.714889821596444 ], [ 302038.84832849301165, 7388014.035635527223349 ], [ 302215.646053235745057, 7388942.693532506003976 ], [ 303290.523402033490129, 7388957.216529484838247 ], [ 303467.286491388222203, 7389885.827608517371118 ], [ 302392.384152668295428, 7389871.323062753304839 ], [ 302745.681467701680958, 7391728.49708850774914 ], [ 299520.797114057466388, 7391684.619055630639195 ], [ 299873.706201304448768, 7393541.790547377429903 ], [ 297723.660374830244109, 7393512.216800717636943 ], [ 297899.975652329390869, 7394440.797053780406713 ], [ 296824.9208035802003, 7394425.910055944696069 ], [ 297001.151577047945466, 7395354.480499085970223 ], [ 295926.067112204094883, 7395339.532972443848848 ], [ 295749.861250395188108, 7394410.943969510495663 ], [ 294674.796967873349786, 7394395.89879241026938 ], [ 295027.099311392987147, 7396253.085604839958251 ], [ 297177.322768693091348, 7396283.022602308541536 ], [ 297353.434376542922109, 7397211.536381963640451 ], [ 299503.688833980530035, 7397241.120272316038609 ], [ 299151.306427265750244, 7395384.138372762128711 ], [ 301301.442670917953365, 7395413.48002059943974 ], [ 301653.924708781240042, 7397270.388161141425371 ], [ 302729.035739994025789, 7397284.903610041365027 ], [ 302905.212221966474317, 7398213.29692299477756 ], [ 305055.470401617581956, 7398242.054172238335013 ], [ 305935.706979365902953, 7402883.414891778491437 ], [ 304860.45578402816318, 7402869.167129652574658 ], [ 305036.299267665483057, 7403797.37311833165586 ], [ 307186.846852080430835, 7403825.753383557312191 ], [ 307362.680356562370434, 7404753.894858652725816 ], [ 306287.383973983232863, 7404739.762312998995185 ], [ 306463.132969949219842, 7405667.893902884796262 ], [ 308613.770927844219841, 7405696.043907320126891 ], [ 308437.972267283126712, 7404767.948640087619424 ], [ 309513.259731115074828, 7404781.923659244552255 ], [ 309161.433647852914874, 7402925.685252700932324 ], [ 310236.666981366055552, 7402939.617737678810954 ], [ 310412.634729379671626, 7403867.732844453305006 ], [ 312563.137939280248247, 7403895.325216315686703 ], [ 312211.043267582252156, 7402039.139295792207122 ], [ 313286.23858910787385, 7402052.853394022211432 ], [ 313110.076785797195043, 7401124.736452482640743 ], [ 314185.242885786457919, 7401138.389751364476979 ], [ 314361.429579369840212, 7402066.48865550942719 ], [ 315436.616263316594996, 7402080.045082138851285 ], [ 315612.768102153379004, 7403008.097983989864588 ], [ 318838.377235638094135, 7403048.240456840954721 ], [ 318662.15072676318232, 7402120.241371551528573 ], [ 319737.320434946101159, 7402133.482477368786931 ], [ 320441.9673189005116, 7405845.239840177819133 ], [ 319366.698082947754301, 7405832.070178667083383 ], [ 319542.685465838992968, 7406759.957628445699811 ], [ 320617.979559947096277, 7406773.109465171582997 ], [ 320793.932005160837434, 7407700.951236159540713 ], [ 322944.557427025516517, 7407726.983317844569683 ], [ 323296.382278492907062, 7409582.512376058846712 ], [ 325447.090630053426139, 7409608.159079045057297 ], [ 325271.158432522905059, 7408680.443813038989902 ] ], [ [ 360754.831100785289891, 7409058.803434463217854 ], [ 361830.034380366909318, 7409068.9329121876508 ], [ 362006.813123929663561, 7409996.064050141721964 ], [ 360931.584891686099581, 7409985.951291896402836 ], [ 360754.831100785289891, 7409058.803434463217854 ] ], [ [ 382454.277987825742457, 7399067.070050804875791 ], [ 381379.412770204711705, 7399058.411812618374825 ], [ 381201.410184669890441, 7398131.284374091774225 ], [ 382276.250264097179752, 7398139.958920042961836 ], [ 382454.277987825742457, 7399067.070050804875791 ] ], [ [ 381557.35502639238257, 7399985.512094710022211 ], [ 380482.461934705963358, 7399976.7913280390203 ], [ 380304.544803758151829, 7399049.674724828451872 ], [ 381379.412770204711705, 7399058.411812618374825 ], [ 381557.35502639238257, 7399985.512094710022211 ] ], [ [ 377086.332925077644177, 7393468.496266697533429 ], [ 376011.607450737152249, 7393459.423889462836087 ], [ 375833.343673640221823, 7392532.067320929840207 ], [ 376908.043966782046482, 7392541.156204616650939 ], [ 377086.332925077644177, 7393468.496266697533429 ] ], [ [ 311546.162988680647686, 7381655.770280603319407 ], [ 311723.628835330426227, 7382584.442780252546072 ], [ 310648.966914052143693, 7382570.505093209445477 ], [ 310471.526161102636252, 7381641.814277358353138 ], [ 311546.162988680647686, 7381655.770280603319407 ] ], [ [ 311003.669325465569273, 7384427.801693061366677 ], [ 312078.381405478168745, 7384441.702791713178158 ], [ 312432.895131640485488, 7386298.849595069885254 ], [ 311358.132931106491014, 7386284.985026163049042 ], [ 311003.669325465569273, 7384427.801693061366677 ] ], [ [ 313507.652998471981846, 7386312.634854845702648 ], [ 313684.845339153893292, 7387241.147629452869296 ], [ 312610.062423315481283, 7387227.380584558472037 ], [ 312432.895131640485488, 7386298.849595069885254 ], [ 313507.652998471981846, 7386312.634854845702648 ] ], [ [ 314759.623949208471458, 7387254.835395134054124 ], [ 314936.781605993455742, 7388183.301759131252766 ], [ 313861.977953401394188, 7388169.632165678776801 ], [ 313684.845339153893292, 7387241.147629452869296 ], [ 314759.623949208471458, 7387254.835395134054124 ] ], [ [ 363082.038149373023771, 7410006.098267434164882 ], [ 362728.370580389047973, 7408151.842117399908602 ], [ 360578.017159021401312, 7408131.628290829248726 ], [ 360401.143068264354952, 7407204.425845110788941 ], [ 363626.593480083800387, 7407234.678852735087276 ], [ 364157.259993007290177, 7410016.05394515953958 ], [ 363082.038149373023771, 7410006.098267434164882 ] ], [ [ 359502.835603070561774, 7408121.403481014072895 ], [ 359679.624586053541861, 7409048.595386486500502 ], [ 358604.414811188122258, 7409038.308766847476363 ], [ 358427.650783637422137, 7408111.100071631371975 ], [ 359502.835603070561774, 7408121.403481014072895 ] ], [ [ 365422.699331694282591, 7405400.134694635868073 ], [ 365599.818701319105458, 7406327.308184456080198 ], [ 364524.703067758237012, 7406317.443063406273723 ], [ 364347.608702176890802, 7405390.252907833084464 ], [ 365422.699331694282591, 7405400.134694635868073 ] ], [ [ 360768.098617352545261, 7403505.572821907699108 ], [ 360945.238294884213246, 7404432.86782862432301 ], [ 359870.15992075856775, 7404422.654536506161094 ], [ 359693.045252757961862, 7403495.342723469249904 ], [ 360768.098617352545261, 7403505.572821907699108 ] ], [ [ 362918.195680531905964, 7403525.79681139998138 ], [ 362740.945805787690915, 7402598.507995491847396 ], [ 363815.964525162242353, 7402608.518626448698342 ], [ 363993.239429009146988, 7403535.790705245919526 ], [ 362918.195680531905964, 7403525.79681139998138 ] ], [ [ 363638.629445634782314, 7401681.219208110123873 ], [ 364713.619964195648208, 7401691.167802792042494 ], [ 364890.980085683055222, 7402618.450497418642044 ], [ 363815.964525162242353, 7402608.518626448698342 ], [ 363638.629445634782314, 7401681.219208110123873 ] ], [ [ 309884.552380021894351, 7401083.303359751589596 ], [ 310060.6395309313084, 7402011.474581520073116 ], [ 308985.431065906595904, 7401997.523961653932929 ], [ 308809.368793013854884, 7401069.334590453654528 ], [ 309884.552380021894351, 7401083.303359751589596 ] ], [ [ 313832.690290664089844, 7399282.107855932787061 ], [ 314008.996455570857506, 7400210.262823577970266 ], [ 311858.709717778314371, 7400182.841229174286127 ], [ 311682.453368450398557, 7399254.650100531987846 ], [ 313832.690290664089844, 7399282.107855932787061 ] ], [ [ 364358.719173226098064, 7399836.520374786108732 ], [ 364181.178507489676122, 7398909.155609572306275 ], [ 365256.090695834136568, 7398919.075592238456011 ], [ 365433.656435361946933, 7399846.423618104308844 ], [ 364358.719173226098064, 7399836.520374786108732 ] ], [ [ 365078.464769152575172, 7397991.700192185118794 ], [ 366153.34874831471825, 7398001.558031984604895 ], [ 366330.999761657963973, 7398928.916706064715981 ], [ 365256.090695834136568, 7398919.075592238456011 ], [ 365078.464769152575172, 7397991.700192185118794 ] ], [ [ 309916.605944500654005, 7389971.191445864737034 ], [ 309739.69285205740016, 7389042.690485483035445 ], [ 310814.538885305693839, 7389056.65882551856339 ], [ 311168.355388848809525, 7390913.596002893522382 ], [ 307943.654046989337076, 7390871.562942731194198 ], [ 308297.081822469830513, 7392728.496730918996036 ], [ 307222.122566629084758, 7392714.363961176015437 ], [ 307398.721970119397156, 7393642.806785335764289 ], [ 306323.73329197493149, 7393628.613199654966593 ], [ 306147.15884928451851, 7392700.152066852897406 ], [ 303997.217930538463406, 7392671.490896604955196 ], [ 303820.633757609757595, 7391742.96477572992444 ], [ 304895.581508333736565, 7391757.353304419666529 ], [ 304542.184284888382535, 7389900.252939684316516 ], [ 309916.605944500654005, 7389971.191445864737034 ] ], [ [ 313141.205989179899916, 7390012.804100144654512 ], [ 313318.134401547606103, 7390941.222175411880016 ], [ 312243.247066803218331, 7390927.448674633167684 ], [ 312066.3436621875735, 7389999.012414998374879 ], [ 313141.205989179899916, 7390012.804100144654512 ] ] ], [ [ [ 314341.955030945711769, 7407620.967148492112756 ], [ 315417.295162891503423, 7407634.494490742683411 ], [ 315593.063645732589066, 7408562.397682659327984 ], [ 317743.78072770772269, 7408589.180580951273441 ], [ 317567.962588327180129, 7407661.313176532275975 ], [ 319718.613062408403493, 7407687.817209711298347 ], [ 319542.685465838992968, 7406759.957628445699811 ], [ 318467.387180757126771, 7406746.727104242891073 ], [ 318115.402350185322575, 7404890.888599978759885 ], [ 314889.631220901501365, 7404850.61738808080554 ], [ 315241.46692984958645, 7406706.56338844820857 ], [ 314166.151631055399776, 7406693.018095951527357 ], [ 314341.955030945711769, 7407620.967148492112756 ] ] ], [ [ [ 314341.955030945711769, 7407620.967148492112756 ], [ 312191.261803656583652, 7407593.676455932669342 ], [ 312366.955824822420254, 7408521.633539080619812 ], [ 311291.577865085448138, 7408507.888204745948315 ], [ 311115.908658334636129, 7407579.91310185007751 ], [ 308965.189179390785284, 7407552.150368569418788 ], [ 309140.808766489557456, 7408480.161594983190298 ], [ 305914.621795844752342, 7408437.981798774562776 ], [ 306090.107309831189923, 7409366.019395826384425 ], [ 305014.67788027448114, 7409351.820327559486032 ], [ 305365.420356341463048, 7411207.847815409302711 ], [ 308591.843802286311984, 7411250.100396687164903 ], [ 308416.42808282742044, 7410322.155005117878318 ], [ 313793.587900887941942, 7410391.094658207148314 ], [ 313617.988530386821367, 7409463.211397098377347 ], [ 314693.382606733648572, 7409476.781495086848736 ], [ 314341.955030945711769, 7407620.967148492112756 ] ] ], [ [ [ 322045.164274744340219, 7408641.802770246751606 ], [ 319894.48087072710041, 7408615.648938601836562 ], [ 320070.28888886841014, 7409543.452831236645579 ], [ 318994.916095718857832, 7409530.275778348557651 ], [ 319346.303129267937038, 7411385.835694409906864 ], [ 322572.557881014188752, 7411425.024486949667335 ], [ 322396.819824653910473, 7410497.311695154756308 ], [ 323472.20497425692156, 7410510.235232087783515 ], [ 323296.382278492907062, 7409582.512376058846712 ], [ 322221.021955256117508, 7409569.571128285489976 ], [ 322045.164274744340219, 7408641.802770246751606 ] ] ], [ [ [ 339778.639306372031569, 7411622.093850766308606 ], [ 339602.503800522419624, 7410694.660844694823027 ], [ 338527.177577995113097, 7410682.915678258053958 ], [ 338703.288219298236072, 7411610.365961261093616 ], [ 339778.639306372031569, 7411622.093850766308606 ] ] ], [ [ [ 325798.775504313583951, 7411463.506383966654539 ], [ 324723.373713576467708, 7411450.757625934667885 ], [ 324547.586020355694927, 7410523.080198887735605 ], [ 323472.20497425692156, 7410510.235232087783515 ], [ 323647.967847480264027, 7411437.930327519774437 ], [ 322572.557881014188752, 7411425.024486949667335 ], [ 322748.236122418602463, 7412352.709519756957889 ], [ 323823.670896245166659, 7412365.597678434103727 ], [ 324174.897512735216878, 7414220.849210998043418 ], [ 327401.326147231622599, 7414258.936983534134924 ], [ 327225.668369200604502, 7413331.377864508889616 ], [ 326150.221004737482872, 7413318.742826568894088 ], [ 325798.775504313583951, 7411463.506383966654539 ] ] ], [ [ [ 321848.390856137499213, 7413267.417830424383283 ], [ 322923.854546948801726, 7413280.366809656843543 ], [ 322748.236122418602463, 7412352.709519756957889 ], [ 321672.797226337483153, 7412339.742845118977129 ], [ 321848.390856137499213, 7413267.417830424383283 ] ] ], [ [ [ 311068.683925605670083, 7418686.441880490630865 ], [ 314295.647875326278154, 7418727.321115419268608 ], [ 313770.357782392646186, 7415944.285802745260298 ], [ 312694.781649786164053, 7415930.684104973450303 ], [ 312869.913360215374269, 7416858.408219219185412 ], [ 310718.6985409517074, 7416831.005417622625828 ], [ 311068.683925605670083, 7418686.441880490630865 ] ] ], [ [ [ 328103.358653360744938, 7417968.897090187296271 ], [ 327027.787394872750156, 7417956.349753074347973 ], [ 327203.12111004156759, 7418883.788264337927103 ], [ 328278.717118863016367, 7418896.318104580044746 ], [ 328103.358653360744938, 7417968.897090187296271 ] ] ], [ [ [ 337409.653367330145556, 7421775.41915319673717 ], [ 339560.919983525644056, 7421798.887806545943022 ], [ 339736.286263751972001, 7422726.025770327076316 ], [ 340811.938697184552439, 7422737.625645531341434 ], [ 339934.383795405563433, 7418101.747660259716213 ], [ 335632.246775309555233, 7418054.534995150752366 ], [ 336158.662389661883935, 7420836.350552605465055 ], [ 337234.276622772798873, 7420848.219432206824422 ], [ 337409.653367330145556, 7421775.41915319673717 ] ] ], [ [ [ 319697.451017039828002, 7413241.284400844015181 ], [ 320048.359743657289073, 7415096.622026406228542 ], [ 321123.881296269362792, 7415109.692527618259192 ], [ 321299.270729334559292, 7416037.302017265930772 ], [ 319148.173919266846497, 7416011.118021420203149 ], [ 319673.83494091022294, 7418793.886468008160591 ], [ 318598.206029217457399, 7418780.730059405788779 ], [ 318773.282071942288894, 7419708.281849915161729 ], [ 317697.624221924110316, 7419695.064846416004002 ], [ 317872.615776748280041, 7420622.606670091859996 ], [ 320023.976663713227026, 7420648.926964328624308 ], [ 320198.957831885432824, 7421576.405720195733011 ], [ 319123.254801323870197, 7421563.302387064322829 ], [ 320346.275914728059433, 7428055.003989027813077 ], [ 322498.023030314652715, 7428080.885930025950074 ], [ 322323.435854933341034, 7427153.617867889814079 ], [ 323399.278547059046105, 7427166.459289643913507 ], [ 323224.606906599830836, 7426239.181232835166156 ], [ 325376.230647396820132, 7426264.664848651736975 ], [ 325026.609228611923754, 7424410.096183783374727 ], [ 327178.117983257398009, 7424435.337249277159572 ], [ 326828.158436553785577, 7422580.728396287187934 ], [ 325752.455471147433855, 7422568.111991660669446 ], [ 325577.410617644316517, 7421640.748771340586245 ], [ 326653.088876967318356, 7421653.382671130821109 ], [ 326302.770194828044623, 7419798.608543594367802 ], [ 327378.39496647764463, 7419811.199188283644617 ], [ 327203.12111004156759, 7418883.788264337927103 ], [ 326127.521076082775835, 7418871.180109230801463 ], [ 325952.212108092440758, 7417943.724073132500052 ], [ 322725.461827435472514, 7417905.376958802342415 ], [ 322374.812882118509151, 7416050.276402840390801 ], [ 324525.884808406699449, 7416075.989958269521594 ], [ 324350.421076629776508, 7415148.433424770832062 ], [ 322199.398685943684541, 7415122.684593220241368 ], [ 321848.390856137499213, 7413267.417830424383283 ], [ 319697.451017039828002, 7413241.284400844015181 ] ], [ [ 322900.696572752611246, 7418832.885737229138613 ], [ 321825.080187613551971, 7418819.964305115863681 ], [ 321649.870176921307575, 7417892.437889965251088 ], [ 322725.461827435472514, 7417905.376958802342415 ], [ 322900.696572752611246, 7418832.885737229138613 ] ] ], [ [ [ 338285.637806136510335, 7426411.006929459050298 ], [ 339361.396607446717098, 7426422.6945686256513 ], [ 339011.133280357171316, 7424568.575834946706891 ], [ 336859.710729242302477, 7424545.053875173442066 ], [ 337034.822954013885465, 7425472.161224942654371 ], [ 335959.081276660319418, 7425460.300245851278305 ], [ 336134.108856829057913, 7426387.397421139292419 ], [ 335058.338658609136473, 7426375.475548719055951 ], [ 335582.987726271327119, 7429156.654539969749749 ], [ 336658.831948413862847, 7429168.524856528267264 ], [ 336483.984194587217644, 7428241.509710591286421 ], [ 337559.799933890230022, 7428253.319174584001303 ], [ 337384.867558219935745, 7427326.293858759105206 ], [ 338460.654823918011971, 7427338.042430287227035 ], [ 338285.637806136510335, 7426411.006929459050298 ] ] ], [ [ [ 317293.027984768268652, 7428942.924202947877347 ], [ 316217.110804732714314, 7428929.649674749001861 ], [ 316391.430695807328448, 7429856.968264894559979 ], [ 317467.372474865871482, 7429870.22513319645077 ], [ 317293.027984768268652, 7428942.924202947877347 ] ] ], [ [ [ 303967.107337615394499, 7438024.239644348621368 ], [ 305043.327440814930014, 7438038.349099203012884 ], [ 304869.839453647378832, 7437111.065492479130626 ], [ 308098.399043159675784, 7437152.980752397328615 ], [ 308271.960470445512328, 7438080.21084269694984 ], [ 307195.75398202863289, 7438066.334696438163519 ], [ 307369.231236064922996, 7438993.555030059069395 ], [ 312750.341450033651199, 7439062.069421112537384 ], [ 312576.741797543130815, 7438134.937790090218186 ], [ 311500.553109352651518, 7438121.372695084661245 ], [ 311326.918214586214162, 7437194.195869248360395 ], [ 312403.082407506066374, 7437207.778663093224168 ], [ 312229.363281827361789, 7436280.592024173587561 ], [ 311153.22359365056036, 7436266.991517180576921 ], [ 310979.469248450361192, 7435339.759622918441892 ], [ 316360.001407555537298, 7435407.072393408045173 ], [ 316186.064690833445638, 7434479.901370011270046 ], [ 315109.991486772429198, 7434466.576862700283527 ], [ 314761.98785213555675, 7432612.11698972992599 ], [ 315838.011955804890022, 7432625.476799689233303 ], [ 316012.068206283031031, 7433552.702844089828432 ], [ 317088.11256318539381, 7433565.967104990966618 ], [ 317262.133596280647907, 7434493.148014733567834 ], [ 318338.198228285647929, 7434506.316798701882362 ], [ 318164.15264355216641, 7433579.153477160260081 ], [ 319240.188472550187726, 7433592.261962423101068 ], [ 319066.058538729092106, 7432665.088725605979562 ], [ 320142.065574210253544, 7432678.136872354894876 ], [ 320316.220075348275714, 7433605.292562598362565 ], [ 321392.247477110999171, 7433618.245279489085078 ], [ 320869.530830120202154, 7430836.748360285535455 ], [ 319793.577168061048724, 7430823.743044590577483 ], [ 319619.243266849662177, 7429896.504875166341662 ], [ 321771.097204930149019, 7429922.472636407241225 ], [ 321596.654287723358721, 7428995.242065964266658 ], [ 320520.754024293040857, 7428982.279634043574333 ], [ 320346.275914728059433, 7428055.003989027813077 ], [ 318194.512020891648717, 7428028.80985071696341 ], [ 318543.309990165522322, 7429883.404002679511905 ], [ 317467.372474865871482, 7429870.22513319645077 ], [ 317815.882121355971321, 7431724.744348649866879 ], [ 316739.891172689385712, 7431711.522757092490792 ], [ 316565.690819094306789, 7430784.259287017397583 ], [ 315489.720164682774339, 7430770.942091589793563 ], [ 315315.484627848083619, 7429843.633395939134061 ], [ 314239.534245848190039, 7429830.220524480566382 ], [ 314413.745199312805198, 7430757.546921642497182 ], [ 313337.765897835197393, 7430744.073775324039161 ], [ 313163.579524663451593, 7429816.729648663662374 ], [ 312087.620439152000472, 7429803.160766618326306 ], [ 311564.776679806236643, 7427020.909297462552786 ], [ 309412.992864831583574, 7426993.430537972599268 ], [ 309935.689074577763677, 7429775.788976319134235 ], [ 307783.73995098087471, 7429748.105138417333364 ], [ 307609.616741420002654, 7428820.644261509180069 ], [ 306533.660028578597121, 7428806.667408095672727 ], [ 306881.797622372978367, 7430661.597288334742188 ], [ 305805.787263964535668, 7430647.578254553489387 ], [ 305979.741985861212015, 7431575.019575973041356 ], [ 303827.658542172575835, 7431546.783437894657254 ], [ 304001.504516459302977, 7432474.232957344502211 ], [ 305077.573051926447079, 7432488.372056381776929 ], [ 305251.383890907978639, 7433415.775945223867893 ], [ 303099.193192576174624, 7433387.455712517723441 ], [ 303272.895333577645943, 7434314.867815747857094 ], [ 301120.637205519946292, 7434286.271917412057519 ], [ 301467.764550669759046, 7436141.085007012821734 ], [ 302543.944910990307108, 7436155.385926650837064 ], [ 302890.882645751175005, 7438010.052416065707803 ], [ 301814.653340019285679, 7437995.787412386387587 ], [ 301988.008271472761407, 7438923.097148533910513 ], [ 299835.486809631576762, 7438894.369764128699899 ], [ 299141.904980422346853, 7435184.820921355858445 ], [ 300218.070175144472159, 7435199.295545253902674 ], [ 299870.872554173693061, 7433344.391007518395782 ], [ 297718.635440973332152, 7433315.291610354557633 ], [ 297892.215067436802201, 7434242.793894266709685 ], [ 295739.910050974343903, 7434213.419071646407247 ], [ 296086.792569156270474, 7436068.412867926061153 ], [ 297162.996406748774461, 7436083.102974559180439 ], [ 296989.560470464872196, 7435155.638075328432024 ], [ 298065.735087257344276, 7435170.26843205280602 ], [ 298412.596299259806983, 7437025.134333453141153 ], [ 297336.372742024250329, 7437010.540145440027118 ], [ 297509.689474366372451, 7437937.949604019522667 ], [ 293204.649770578369498, 7437878.86722921486944 ], [ 293550.908944059279747, 7439733.747965273447335 ], [ 295703.536102025071159, 7439763.372173679992557 ], [ 295530.387446447391994, 7438835.981939038261771 ], [ 296606.669405206805095, 7438850.695532385259867 ], [ 296779.842491860152222, 7439778.067676734179258 ], [ 297856.144122551660985, 7439792.685448406264186 ], [ 297682.946601849398576, 7438865.331366330385208 ], [ 298759.219061588228215, 7438879.889442905783653 ], [ 298932.441019317950122, 7439807.225490725599229 ], [ 300008.733207374345511, 7439821.687805706635118 ], [ 300181.919977453304455, 7440748.978211670182645 ], [ 301258.23191554157529, 7440763.344837388023734 ], [ 301085.020711936696898, 7439836.072395355440676 ], [ 302161.303558221901767, 7439850.379261665046215 ], [ 302334.539198350918014, 7440777.633767776191235 ], [ 304487.139899019966833, 7440805.978550475090742 ], [ 303967.107337615394499, 7438024.239644348621368 ] ], [ [ 310250.749606351309922, 7437180.535287447273731 ], [ 310424.360008906980511, 7438107.72984011285007 ], [ 309348.162471005111001, 7438094.009223284199834 ], [ 309174.576557607215364, 7437166.796915797516704 ], [ 310250.749606351309922, 7437180.535287447273731 ] ] ], [ [ [ 343405.122054970357567, 7442189.626093769446015 ], [ 342328.948440117645077, 7442178.305075604468584 ], [ 342154.866481348697562, 7441251.72159209381789 ], [ 341078.713715169229545, 7441240.306087279692292 ], [ 340904.596309776068665, 7440313.678639670833945 ], [ 341980.724524044431746, 7440325.111045680008829 ], [ 341632.260621265508235, 7438471.808701112866402 ], [ 339480.098725110467058, 7438448.798485722392797 ], [ 339828.46437002834864, 7440302.168576521798968 ], [ 338752.328679595666472, 7440290.58085463475436 ], [ 338404.012153928459156, 7438437.176806937903166 ], [ 337327.92180041980464, 7438425.477411948144436 ], [ 337502.085485357034486, 7439352.210017931647599 ], [ 336425.966766405152157, 7439340.449946568347514 ], [ 336948.024454551865347, 7442120.535957340151072 ], [ 335871.828298643114977, 7442108.749316987581551 ], [ 336219.517970268207137, 7443962.038382814265788 ], [ 338372.004517397726886, 7443985.466090866364539 ], [ 338198.140636224299669, 7443058.869084618985653 ], [ 339274.353700911975466, 7443070.483554692938924 ], [ 339448.242095984518528, 7443997.06361872702837 ], [ 343753.155032558715902, 7444042.67825978435576 ], [ 343405.122054970357567, 7442189.626093769446015 ] ] ], [ [ [ 356108.876520188234281, 7346025.311528575606644 ], [ 355927.79743500915356, 7345096.366785312071443 ], [ 358074.664205140434206, 7345117.796192161738873 ], [ 357893.473745376104489, 7344188.858226977288723 ], [ 358966.876603235257789, 7344199.469699130393565 ], [ 358785.600381464289967, 7343270.520961145870388 ], [ 354492.071985395392403, 7343227.521786751225591 ], [ 354310.838307030964643, 7342298.47449594270438 ], [ 352164.105570311076008, 7342276.456347277387977 ], [ 351982.863147723372094, 7341347.345364235341549 ], [ 349836.168218601145782, 7341324.969471119344234 ], [ 349654.917078814003617, 7340395.794607914052904 ], [ 347508.259753897902556, 7340373.060704536736012 ], [ 347326.999924007279333, 7339443.82177315838635 ], [ 345180.380000077188015, 7339420.729593448340893 ], [ 344999.111507255991455, 7338491.426405814476311 ], [ 343925.821924778050743, 7338479.741393664851785 ], [ 343744.519122803350911, 7337550.391724891960621 ], [ 341597.980593928135931, 7337526.743650238960981 ], [ 341416.669180508877616, 7336597.329419729299843 ], [ 340343.420184964314103, 7336585.366255085915327 ], [ 340162.074504550255369, 7335655.905351682566106 ], [ 338015.61692855891306, 7335631.700561720877886 ], [ 337834.262688376300503, 7334702.174790862947702 ], [ 336761.054058878624346, 7334689.933063287287951 ], [ 336579.665593974175863, 7333760.360427606850863 ], [ 334433.288529496290721, 7333735.598100951872766 ], [ 334251.891556687885895, 7332805.960291862487793 ], [ 333178.723072753986344, 7332793.439590406604111 ], [ 332997.291917608643416, 7331863.754724385216832 ], [ 330850.994924079277553, 7331838.434038625098765 ], [ 330669.555313088349067, 7330908.683693004772067 ], [ 329596.426754636107944, 7330895.8836062066257 ], [ 329414.953003806411289, 7329966.086011368781328 ], [ 324049.380043299985118, 7329900.779032464139163 ], [ 324230.725267139379866, 7330830.669002870097756 ], [ 325303.873472147795837, 7330843.8738187327981 ], [ 325485.184588433825411, 7331773.716324778273702 ], [ 326558.354507856129203, 7331786.821703130379319 ], [ 326739.63149848615285, 7332716.616819531656802 ], [ 328886.010885455762036, 7332742.547957131639123 ], [ 328704.682519360794686, 7331812.789702901616693 ], [ 329777.840660343761556, 7331825.652327883988619 ], [ 330140.488928384031169, 7333685.103218341246247 ], [ 331213.694573837390635, 7333697.848221968859434 ], [ 331394.954608606756665, 7334627.5120929479599 ], [ 335687.841708486783318, 7334677.610515814274549 ], [ 335869.144579777377658, 7335607.172610845416784 ], [ 336942.382613005000167, 7335619.476982234977186 ], [ 337123.651254364987835, 7336548.992201026529074 ], [ 339270.167548411875032, 7336573.322331523522735 ], [ 339451.427611951483414, 7337502.772658404894173 ], [ 340524.705921821645461, 7337514.798519788309932 ], [ 340887.097556953085586, 7339373.577199252322316 ], [ 344107.064750454097521, 7339409.062501654028893 ], [ 344288.247597859590314, 7340338.355065366253257 ], [ 343214.903136177395936, 7340326.625236868858337 ], [ 343758.014883740746882, 7343114.385537827387452 ], [ 346978.268375183921307, 7343149.172218544408679 ], [ 347159.262531496060546, 7344078.315106539055705 ], [ 348232.698963745031506, 7344089.731764829717577 ], [ 348413.658728963171598, 7345018.828445874154568 ], [ 347340.196680530614685, 7345007.429562462493777 ], [ 347701.884948922670446, 7346865.573243856430054 ], [ 346628.368214350950439, 7346854.129422344267368 ], [ 346809.096745627350174, 7347783.176438833586872 ], [ 348956.177903875475749, 7347805.948150330223143 ], [ 349317.557233633240685, 7349663.88616856560111 ], [ 350391.143771253700834, 7349675.116043219342828 ], [ 350029.713288727332838, 7347817.213384832255542 ], [ 353250.298960900399834, 7347850.526621899567544 ], [ 353069.416875203780364, 7346921.585734993219376 ], [ 355216.405955614056438, 7346943.42767247185111 ], [ 355035.412578446033876, 7346014.493659875355661 ], [ 356108.876520188234281, 7346025.311528575606644 ] ] ], [ [ [ 350391.143771253700834, 7349675.116043219342828 ], [ 350752.334101113374345, 7351532.905486352741718 ], [ 352899.599179239943624, 7351555.053735604509711 ], [ 352718.982919532281812, 7350626.20835941657424 ], [ 353792.584832329303026, 7350637.179596345871687 ], [ 353611.882941410760395, 7349708.323536203242838 ], [ 350391.143771253700834, 7349675.116043219342828 ] ] ], [ [ [ 355397.339252610458061, 7347872.33340648189187 ], [ 355759.025598306965549, 7349730.060104233212769 ], [ 354685.455932465731166, 7349719.231995277106762 ], [ 355046.850786481460091, 7351576.880795929580927 ], [ 353973.22665442887228, 7351566.007413628511131 ], [ 354695.193215782870539, 7355281.036581097170711 ], [ 351473.994240475818515, 7355248.145250730216503 ], [ 351293.669275545456912, 7354319.377658979035914 ], [ 350219.955023465445265, 7354308.235923893749714 ], [ 350580.493884646275546, 7356165.778053680434823 ], [ 348432.953043294139206, 7356143.324399721808732 ], [ 348613.081431267317384, 7357072.088341549038887 ], [ 349686.879065210698172, 7357083.337640680372715 ], [ 349866.972907046088949, 7358012.055770233273506 ], [ 350940.792576912557706, 7358023.207366862334311 ], [ 351120.851854848209769, 7358951.879758045077324 ], [ 352194.693582313833758, 7358962.933724419213831 ], [ 352014.608828417723998, 7358034.278857348486781 ], [ 353088.42168619442964, 7358045.270243214443326 ], [ 352908.251387800788507, 7357116.60473042819649 ], [ 353982.035384331014939, 7357127.533496214076877 ], [ 354342.366890632605646, 7358984.801428657025099 ], [ 356490.026834375923499, 7359006.348838225007057 ], [ 355588.492460209294222, 7354363.14245031028986 ], [ 360956.947183081123512, 7354416.043716222979128 ], [ 360776.332306779397186, 7353487.405028911307454 ], [ 365070.936348969349638, 7353528.351484203711152 ], [ 364890.159053670999128, 7352599.753859064541757 ], [ 370258.21681900578551, 7352649.217696630395949 ], [ 369896.225711998180486, 7350792.110128282569349 ], [ 370969.777030614844989, 7350801.796359982341528 ], [ 370788.665531939535867, 7349873.217680641449988 ], [ 372935.708071895234752, 7349892.383412241004407 ], [ 373116.870832696091384, 7350820.927921585738659 ], [ 374190.41336531075649, 7350830.373254118487239 ], [ 373827.976322789967526, 7348973.290344726294279 ], [ 375974.950189358438365, 7348992.008154556155205 ], [ 376156.250136745278724, 7349920.529565490782261 ], [ 377229.758457944612019, 7349929.750969970598817 ], [ 377048.432854426500853, 7349001.246533307246864 ], [ 378121.912706765229814, 7349010.404562978073955 ], [ 378303.26396988047054, 7349938.892053269781172 ], [ 380450.266664234630298, 7349956.933261342346668 ], [ 380268.864071499556303, 7349028.479580106213689 ], [ 379195.389770936279092, 7349019.48224482871592 ], [ 378650.89723422890529, 7346233.902950663119555 ], [ 373283.868914618098643, 7346187.455990807153285 ], [ 373102.379294401674997, 7345258.788477172143757 ], [ 372028.99072238674853, 7345249.24066299200058 ], [ 371665.882163891277742, 7343391.787165056914091 ], [ 368445.852950104977936, 7343362.557748502120376 ], [ 368808.807359847938642, 7345220.11441994830966 ], [ 365588.597012318845373, 7345190.263948019593954 ], [ 365951.156646961579099, 7347047.811645688489079 ], [ 364877.695776049629785, 7347037.735153123736382 ], [ 365058.859689659962896, 7347966.48408218100667 ], [ 361838.381538058980368, 7347935.824098761193454 ], [ 361657.294526949932333, 7347007.023152800276875 ], [ 359510.344585080863908, 7346986.146369632333517 ], [ 359329.248706986836623, 7346057.282387007027864 ], [ 357182.337172497122083, 7346036.048938348889351 ], [ 357363.38179343752563, 7346964.947880074381828 ], [ 356289.895517572876997, 7346954.227991763502359 ], [ 356470.854425216268282, 7347883.116191247478127 ], [ 355397.339252610458061, 7347872.33340648189187 ] ], [ [ 359691.380344731442165, 7347914.982133189216256 ], [ 358617.874946720548905, 7347904.440553135238588 ], [ 358436.864807756675873, 7346975.587338875979185 ], [ 359510.344585080863908, 7346986.146369632333517 ], [ 359691.380344731442165, 7347914.982133189216256 ] ] ], [ [ [ 379028.066136592067778, 7353652.563000533729792 ], [ 380101.671420680824667, 7353661.556238369084895 ], [ 379920.535690782824531, 7352733.197180373594165 ], [ 380994.112600287189707, 7352742.127042355015874 ], [ 380631.608951215341222, 7350885.359054665081203 ], [ 378484.554946329910308, 7350867.351625964045525 ], [ 379028.066136592067778, 7353652.563000533729792 ] ] ], [ [ [ 384769.99977077258518, 7361113.524686013348401 ], [ 383696.197911729046609, 7361104.905736865475774 ], [ 383876.841927351371851, 7362032.981466202996671 ], [ 382803.011853203875944, 7362024.299205711111426 ], [ 383164.06779902317794, 7363880.400987138040364 ], [ 382090.183978098910302, 7363871.672123737633228 ], [ 382270.595936582947616, 7364799.69819163531065 ], [ 384418.411926821689121, 7364817.042739394120872 ], [ 384237.948936786444392, 7363889.049951381981373 ], [ 385311.827416054729838, 7363897.619017659686506 ], [ 385853.111881907621864, 7366681.46480272244662 ], [ 386927.064272433053702, 7366689.904305657371879 ], [ 386746.670968049031217, 7365761.999840933829546 ], [ 388894.516956376086455, 7365778.672409903258085 ], [ 388714.012244806974195, 7364850.773403169587255 ], [ 387640.116061444568913, 7364842.460538271814585 ], [ 387278.976561772637069, 7362986.546796971932054 ], [ 385131.278551714960486, 7362969.615211493335664 ], [ 384769.99977077258518, 7361113.524686013348401 ] ] ], [ [ [ 389435.668770052725449, 7368562.204254399985075 ], [ 391583.657597441517282, 7368578.458901862613857 ], [ 391403.283050571451895, 7367650.675294579006732 ], [ 390329.315396229329053, 7367642.57144739665091 ], [ 389968.436109045462217, 7365786.888937447220087 ], [ 388894.516956376086455, 7365778.672409903258085 ], [ 389435.668770052725449, 7368562.204254399985075 ] ] ], [ [ [ 343607.867084649391472, 7364432.853450458496809 ], [ 342533.841256887186319, 7364421.185067895799875 ], [ 342892.602015746873803, 7366278.424274571239948 ], [ 341818.521827704680618, 7366266.711352990940213 ], [ 342356.137086367001757, 7369052.411988073028624 ], [ 343430.29331725044176, 7369064.071941992267966 ], [ 343609.403786846320145, 7369992.564924942329526 ], [ 344683.581748493481427, 7370004.127495655789971 ], [ 344862.657554968551267, 7370932.574802265502512 ], [ 347011.053438143804669, 7370955.425596073269844 ], [ 346831.926977403694764, 7370027.01337300799787 ], [ 345757.756137107033283, 7370015.61031114961952 ], [ 345578.595000696135685, 7369087.152497118338943 ], [ 344504.445947122527286, 7369075.652111143805087 ], [ 343607.867084649391472, 7364432.853450458496809 ] ] ], [ [ [ 350591.845720266574062, 7372845.739526709541678 ], [ 346294.879511968232691, 7372800.81543923355639 ], [ 346652.66171391797252, 7374657.478758710436523 ], [ 347726.95910265436396, 7374668.794328779913485 ], [ 348084.551800848101266, 7376525.31082653068006 ], [ 349158.89624157291837, 7376536.511946399696171 ], [ 348980.104630428482778, 7375608.285084659233689 ], [ 350054.420317174866796, 7375619.42403329629451 ], [ 349875.543383292970248, 7374691.186633510515094 ], [ 350949.830324693117291, 7374702.26337125711143 ], [ 350591.845720266574062, 7372845.739526709541678 ] ] ], [ [ [ 361155.470841122441925, 7377582.48339369893074 ], [ 360081.137971172924154, 7377572.174384723417461 ], [ 360260.062246221466921, 7378500.173136385157704 ], [ 361334.420408518752083, 7378510.465070368722081 ], [ 361155.470841122441925, 7377582.48339369893074 ] ] ], [ [ [ 380671.285809625056572, 7389794.734742014668882 ], [ 379596.672400457842741, 7389785.912772183306515 ], [ 379953.703020044136792, 7391640.630592968314886 ], [ 381028.366866753727663, 7391649.419700087979436 ], [ 380671.285809625056572, 7389794.734742014668882 ] ] ], [ [ [ 393745.312288645945955, 7390821.587836124002934 ], [ 394819.917041399050504, 7390829.365168414078653 ], [ 394641.018127132439986, 7389902.220213918015361 ], [ 392491.85669953172328, 7389886.55428303219378 ], [ 393028.220556479645893, 7392668.004331337288022 ], [ 390878.897681782953441, 7392652.118732094764709 ], [ 391057.514312501763925, 7393579.246746297925711 ], [ 393206.887651082128286, 7393595.100140639580786 ], [ 393385.494313753384631, 7394522.168872892856598 ], [ 394460.202491558156908, 7394529.961018831469119 ], [ 394281.570601091603749, 7393602.908332723192871 ], [ 395356.251104742055759, 7393610.637522855773568 ], [ 394998.755510317685548, 7391756.483027530834079 ], [ 393924.125497792032547, 7391748.721757173538208 ], [ 393745.312288645945955, 7390821.587836124002934 ] ] ], [ [ [ 385137.872153998585418, 7401865.22316537424922 ], [ 382987.99911868176423, 7401848.240654811263084 ], [ 383343.511487149284221, 7403702.218892035074532 ], [ 385493.484925726195797, 7403719.136599667370319 ], [ 385137.872153998585418, 7401865.22316537424922 ] ] ], [ [ [ 393364.581784829148091, 7411181.805619846098125 ], [ 396590.078286398609634, 7411204.793851338326931 ], [ 396234.980673626880161, 7409351.598978554829955 ], [ 391934.514174633659422, 7409320.664151389151812 ], [ 392111.992981131363194, 7410247.338462883606553 ], [ 393187.138362145749852, 7410255.174056785181165 ], [ 393364.581784829148091, 7411181.805619846098125 ] ] ], [ [ [ 357160.24073963961564, 7412726.19595911167562 ], [ 356084.921347530558705, 7412715.740965224802494 ], [ 356261.309992681548465, 7413642.863563576713204 ], [ 357336.654282834904734, 7413653.301756244152784 ], [ 357160.24073963961564, 7412726.19595911167562 ] ] ], [ [ [ 398008.049922375066672, 7418616.503465540707111 ], [ 396932.686766929691657, 7418609.045185627415776 ], [ 397109.636105754296295, 7419535.404467896558344 ], [ 398185.02423020452261, 7419542.847063987515867 ], [ 398008.049922375066672, 7418616.503465540707111 ] ] ], [ [ [ 374349.467519229860045, 7418434.34328137151897 ], [ 375424.886335440678522, 7418443.445098346099257 ], [ 375248.375352998788003, 7417516.739338650368154 ], [ 373097.584600865258835, 7417498.424834197387099 ], [ 373626.787335237197112, 7420278.558958685025573 ], [ 372551.31287427485222, 7420269.333221241831779 ], [ 372727.568383043340873, 7421196.006965786218643 ], [ 373803.067713660944719, 7421205.216407675296068 ], [ 373979.287822499929462, 7422131.846919950097799 ], [ 375054.809075973345898, 7422140.961914140731096 ], [ 375407.118176480056718, 7423994.109727814793587 ], [ 376482.686223484051879, 7424003.114148925989866 ], [ 376130.32741716702003, 7422149.998743079602718 ], [ 377205.842871153494343, 7422158.957408018410206 ], [ 376676.777849013684317, 7419379.131203725934029 ], [ 374525.893323286494706, 7419361.038354516029358 ], [ 374349.467519229860045, 7418434.34328137151897 ] ] ], [ [ [ 401411.174475094478112, 7419564.705514062196016 ], [ 398185.02423020452261, 7419542.847063987515867 ], [ 398361.938054954633117, 7420469.164024813100696 ], [ 395135.691599055251572, 7420446.648653132840991 ], [ 395312.470099204627331, 7421372.986040700227022 ], [ 393161.577079819049686, 7421357.61630461551249 ], [ 393867.887165561842266, 7425062.825248530134559 ], [ 394943.434556796390098, 7425070.486280532553792 ], [ 394590.350594471150544, 7423217.966535046696663 ], [ 396741.3384181415895, 7423233.117115166038275 ], [ 396564.655912462621927, 7422306.84869310259819 ], [ 398715.584247981663793, 7422321.718095922842622 ], [ 398892.31661264214199, 7423247.955237345770001 ], [ 397816.828706500120461, 7423240.575232981704175 ], [ 397993.475659003539477, 7424166.801411136984825 ], [ 400144.498961420671549, 7424181.452111110091209 ], [ 399967.802161644271109, 7423255.25712928082794 ], [ 401043.285378581320401, 7423262.480909796431661 ], [ 401396.668325185077265, 7425114.813229447230697 ], [ 402472.199090905487537, 7425121.927856622263789 ], [ 402648.824709706706926, 7426048.038735311478376 ], [ 403724.378118056396488, 7426055.059836514294147 ], [ 403371.01651414250955, 7424202.842536507174373 ], [ 404446.517825135611929, 7424209.816515712067485 ], [ 403738.968458153947722, 7420505.125739799812436 ], [ 401588.163200030394364, 7420490.975633427500725 ], [ 401411.174475094478112, 7419564.705514062196016 ] ] ], [ [ [ 400850.681127100309823, 7427885.966739160940051 ], [ 404077.497588324069511, 7427907.171250734478235 ], [ 403900.968120794335846, 7426981.128771595656872 ], [ 401749.809220719267614, 7426967.039486695080996 ], [ 401573.269030236115213, 7426040.939608110114932 ], [ 400497.711054547864478, 7426033.762453927658498 ], [ 400850.681127100309823, 7427885.966739160940051 ] ] ], [ [ [ 399951.440440981939901, 7428804.82054774556309 ], [ 401027.075401162146591, 7428812.029148984700441 ], [ 400850.681127100309823, 7427885.966739160940051 ], [ 399775.071045225951821, 7427878.742625257000327 ], [ 399951.440440981939901, 7428804.82054774556309 ] ] ] ] } }
]
}
