{
"type": "FeatureCollection",
"name": "urban-2065",
"crs": { "type": "name", "properties": { "name": "urn:ogc:def:crs:EPSG::32633" } },
"features": [
{ "type": "Feature", "properties": { "year": 2065 }, "geometry": { "type": "MultiPolygon", "coordinates": [ [ [ [ 305308.221270354813896, 5266878.035928059369326 ], [ 305448.104829002637416, 5267916.578284829854965 ], [ 307366.583454200648703, 5267852.997292453423142 ], [ 307087.093487906677183, 5265775.924692097119987 ], [ 304208.997453650226817, 5265871.620479834266007 ], [ 304348.919987489818595, 5266910.077595105394721 ], [ 305308.221270354813896, 5266878.035928059369326 ] ] ], [ [ [ 349165.039263563521672, 5278099.566632268950343 ], [ 349302.423331540834624, 5279139.639322450384498 ], [ 351219.449730888474733, 5279090.318126920610666 ], [ 350944.958398437825963, 5277010.17982414830476 ], [ 349986.318146842357237, 5277034.793761645443738 ], [ 349300.181825640669558, 5271835.782087403349578 ], [ 348341.225803245324641, 5271860.63436015509069 ], [ 348478.469593431451358, 5272900.277545058168471 ], [ 347519.577494319994003, 5272925.271553334780037 ], [ 347794.261786098359153, 5275004.740359048359096 ], [ 345876.732762528234161, 5275055.137757963500917 ], [ 346014.236636837711558, 5276094.947430429980159 ], [ 346972.937490873388015, 5276069.685808149166405 ], [ 347247.888862142222933, 5278149.551921058446169 ], [ 346289.31469663156895, 5278174.781489530578256 ], [ 346564.486495386809111, 5280254.902063081972301 ], [ 347522.933894194371533, 5280229.704603641293943 ], [ 347385.399671270744875, 5279189.592423958703876 ], [ 348343.911156812217087, 5279164.536883887834847 ], [ 348206.463719253661111, 5278124.480302690528333 ], [ 349165.039263563521672, 5278099.566632268950343 ] ] ], [ [ [ 346702.10754339088453, 5281295.06987869553268 ], [ 346564.486495386809111, 5280254.902063081972301 ], [ 345606.039796623284929, 5280280.257536171004176 ], [ 345743.724259330541827, 5281320.409307234920561 ], [ 346702.10754339088453, 5281295.06987869553268 ] ] ], [ [ [ 344110.50886738859117, 5290761.539849958382547 ], [ 343972.422618426789995, 5289720.789699542336166 ], [ 343014.550275096669793, 5289746.633455222472548 ], [ 342600.241840792354196, 5286624.862635739147663 ], [ 338767.997140907449648, 5286730.011992457322776 ], [ 339044.687687552650459, 5288810.993166855536401 ], [ 340002.620627396623604, 5288784.500284359790385 ], [ 340140.937709287973121, 5289825.114536793902516 ], [ 342056.678672737092711, 5289772.635511836968362 ], [ 342471.389626705960836, 5292895.005689510144293 ], [ 343429.070366415777244, 5292869.05172133538872 ], [ 343567.29075867740903, 5293910.001848489977419 ], [ 344524.90858743339777, 5293884.222361333668232 ], [ 344386.751853274472523, 5292843.25614623259753 ], [ 345344.434082645340823, 5292817.618961992673576 ], [ 345068.318349955021404, 5290735.870470027439296 ], [ 344110.50886738859117, 5290761.539849958382547 ] ] ], [ [ [ 350677.549383666832, 5289544.315651353448629 ], [ 348761.79528909502551, 5289593.945357996970415 ], [ 348899.563572470680811, 5290634.776200753636658 ], [ 350815.190494681941345, 5290585.178986090235412 ], [ 350677.549383666832, 5289544.315651353448629 ] ] ], [ [ [ 345758.783733448246494, 5295940.782312160357833 ], [ 346716.275679565966129, 5295915.35200644377619 ], [ 346854.375458336668089, 5296956.566949564032257 ], [ 344939.519738144474104, 5297007.553690397180617 ], [ 345077.770433162455447, 5298048.808477004989982 ], [ 346035.134185545146465, 5298023.252025064080954 ], [ 347003.099906029878184, 5305314.17352101765573 ], [ 347960.017725237878039, 5305288.889436538331211 ], [ 347821.730395960039459, 5304247.095736796967685 ], [ 348778.71284103760263, 5304221.954074393026531 ], [ 348502.336178858124185, 5302138.551414881832898 ], [ 349459.447048701229505, 5302113.535788661800325 ], [ 349597.559842151706107, 5303155.217231794260442 ], [ 350554.607628150144592, 5303130.376631368882954 ], [ 350830.775705852080137, 5305213.989707046188414 ], [ 352744.618080487125553, 5305164.85030273348093 ], [ 352468.705411560484208, 5303081.17149087972939 ], [ 351511.656152883544564, 5303105.69471843354404 ], [ 351373.671008379431441, 5302063.980510649271309 ], [ 353287.897896206646692, 5302015.059851119294763 ], [ 353150.063716266537085, 5300973.385236157104373 ], [ 356021.600843443360645, 5300901.144599580205977 ], [ 355883.981317661586218, 5299859.492951730266213 ], [ 357798.470485884346999, 5299812.092458738945425 ], [ 357661.001731335534714, 5298770.480151953175664 ], [ 356703.693046106258407, 5298794.11767927929759 ], [ 356428.697782172705047, 5296711.14346846845001 ], [ 357386.133910637872759, 5296687.47284066863358 ], [ 356562.088063926436007, 5290440.186818485148251 ], [ 357519.906727630761452, 5290416.575525728985667 ], [ 357108.388194048951846, 5287293.857857351191342 ], [ 358066.398183412733488, 5287270.355384484864771 ], [ 357929.33529962884495, 5286229.577230647206306 ], [ 356971.261799067724496, 5286253.096169025637209 ], [ 356834.158631349215284, 5285212.406523569487035 ], [ 358750.433276023599319, 5285165.493887715041637 ], [ 358476.550473068607971, 5283084.264802443794906 ], [ 359434.815698507474735, 5283061.012714228592813 ], [ 359297.972514015331399, 5282020.48966782912612 ], [ 360256.301814534643199, 5281997.379156143404543 ], [ 359846.101477205520496, 5278876.192133272998035 ], [ 358887.582012746890541, 5278899.3520681951195 ], [ 359161.1525038855616, 5280980.038567693904042 ], [ 357244.369024894898757, 5281026.766621340997517 ], [ 357381.315855628461577, 5282067.18483707960695 ], [ 356422.988506671623327, 5282090.769498661160469 ], [ 356560.021983663085848, 5283131.243222937919199 ], [ 355601.75872864224948, 5283154.969559255056083 ], [ 355738.87889148487011, 5284195.498829575255513 ], [ 354780.679758195765316, 5284219.366890237666667 ], [ 355055.116802847827785, 5286300.608578506857157 ], [ 354097.045316236035433, 5286324.602053690701723 ], [ 354234.36225585907232, 5287365.314529858529568 ], [ 352318.348367389640771, 5287413.743376936763525 ], [ 352593.306295438902453, 5289495.319079030305147 ], [ 351635.427489692112431, 5289519.738224457018077 ], [ 351773.005017435294576, 5290560.61785127222538 ], [ 350815.190494681941345, 5290585.178986090235412 ], [ 351090.5427921260125, 5292667.121942541562021 ], [ 350132.856204984360375, 5292691.808827278204262 ], [ 350270.631032719393261, 5293732.872215284965932 ], [ 345482.527160737896338, 5293858.601295758970082 ], [ 345758.783733448246494, 5295940.782312160357833 ] ], [ [ 350416.558660134091042, 5302088.678821291774511 ], [ 350140.530872997827828, 5300005.500482195988297 ], [ 351097.770809044945054, 5299980.769418012350798 ], [ 351373.671008379431441, 5302063.980510649271309 ], [ 350416.558660134091042, 5302088.678821291774511 ] ], [ [ 355604.270078904228285, 5290463.956413110718131 ], [ 355466.94686523952987, 5289423.011310670524836 ], [ 354509.065987788140774, 5289446.955624209716916 ], [ 354371.702480199746788, 5288406.099041827023029 ], [ 356287.592026741593145, 5288358.335854968987405 ], [ 356562.088063926436007, 5290440.186818485148251 ], [ 355604.270078904228285, 5290463.956413110718131 ] ], [ [ 356013.188965299865231, 5286276.773284300230443 ], [ 356150.378873309236951, 5287317.518537844531238 ], [ 355192.370225732563995, 5287341.337427998892963 ], [ 355055.116802847827785, 5286300.608578506857157 ], [ 356013.188965299865231, 5286276.773284300230443 ] ], [ [ 348907.229911476722918, 5297947.533914473839104 ], [ 349864.596627334482037, 5297922.611618822440505 ], [ 350002.55205676186597, 5298964.019883458502591 ], [ 349045.249087430653162, 5298988.925867949612439 ], [ 348907.229911476722918, 5297947.533914473839104 ] ], [ [ 347673.768364926450886, 5295890.080179396085441 ], [ 348631.261784848291427, 5295864.966828853823245 ], [ 348769.234143473557197, 5296906.214246365241706 ], [ 347811.804432636126876, 5296931.311344342306256 ], [ 347673.768364926450886, 5295890.080179396085441 ] ], [ [ 353963.606795578612946, 5292594.011534533463418 ], [ 353005.918092049658298, 5292618.223298263736069 ], [ 352730.820241827284917, 5290536.215028651989996 ], [ 354646.452777153346688, 5290487.884311643429101 ], [ 354783.862846822070424, 5291528.885138781741261 ], [ 353826.109830169356428, 5291552.954945096746087 ], [ 353963.606795578612946, 5292594.011534533463418 ] ] ], [ [ [ 310868.374789555266034, 5293840.360418586060405 ], [ 310587.675138083985075, 5291759.732298917137086 ], [ 308672.116064772882964, 5291822.632179501466453 ], [ 308812.581204087997321, 5292862.880527949891984 ], [ 307854.866735421295743, 5292894.553172249346972 ], [ 308276.598699408583343, 5296015.682559640146792 ], [ 310191.646087902248837, 5295952.585530551150441 ], [ 310332.144316710648127, 5296993.135138196870685 ], [ 311289.605607909732498, 5296961.839476989582181 ], [ 311149.171157759265043, 5295921.274827758781612 ], [ 312106.697138399933465, 5295890.122662554495037 ], [ 311826.028263693209738, 5293809.178150236606598 ], [ 310868.374789555266034, 5293840.360418586060405 ] ] ], [ [ [ 321563.611674107727595, 5301862.265337185934186 ], [ 321423.694981039268896, 5300821.189171365462244 ], [ 320466.479978363728151, 5300850.837737383320928 ], [ 320606.46052285109181, 5301891.898485849611461 ], [ 321563.611674107727595, 5301862.265337185934186 ] ] ], [ [ [ 323757.566405483579729, 5303885.905387500301003 ], [ 323617.729539107822347, 5302844.654231281019747 ], [ 322660.640502374153584, 5302873.954498617909849 ], [ 322520.763703618256841, 5301832.790884145535529 ], [ 321563.611674107727595, 5301862.265337185934186 ], [ 322263.554730441654101, 5307068.726661504246294 ], [ 323220.387220342934597, 5307039.3296565907076 ], [ 323080.414614807581529, 5305997.877692632377148 ], [ 325951.109204913780559, 5305910.593011314049363 ], [ 325671.61932263179915, 5303827.812119262292981 ], [ 323757.566405483579729, 5303885.905387500301003 ] ] ], [ [ [ 344964.10178137908224, 5311642.872953698039055 ], [ 345241.540108176996, 5313727.418699190020561 ], [ 347154.348482455068734, 5313676.31735054589808 ], [ 346738.610338664264418, 5310549.509791939519346 ], [ 345782.013718235306442, 5310575.0299789365381 ], [ 345920.633624888549093, 5311617.210145064629614 ], [ 344964.10178137908224, 5311642.872953698039055 ] ] ], [ [ [ 319278.492864254629239, 5313437.666722466237843 ], [ 319559.438244092976674, 5315521.499369244091213 ], [ 317646.80796611943515, 5315581.794207578524947 ], [ 317787.444988760282286, 5316623.788141880184412 ], [ 322568.70697097259108, 5316474.321925415657461 ], [ 321867.365008849999867, 5311264.68816804420203 ], [ 319954.216519557463471, 5311324.152631189674139 ], [ 320234.937609021842945, 5313407.726964629255235 ], [ 319278.492864254629239, 5313437.666722466237843 ] ] ], [ [ [ 317253.443459862843156, 5319780.52871875744313 ], [ 317112.670012135640718, 5318738.332976621575654 ], [ 318068.79126074683154, 5318707.993217585608363 ], [ 317787.444988760282286, 5316623.788141880184412 ], [ 315874.946754114702344, 5316684.688596654683352 ], [ 316015.736177650163881, 5317726.724069696851075 ], [ 315059.552652013022453, 5317757.397634954191744 ], [ 315341.332232305489015, 5319841.655007919296622 ], [ 317253.443459862843156, 5319780.52871875744313 ] ] ], [ [ [ 343606.523522369214334, 5315863.927549132145941 ], [ 343884.406309250858612, 5317948.990080522373319 ], [ 347708.994519499130547, 5317846.412810395471752 ], [ 347847.714682114659809, 5318889.118823019787669 ], [ 348803.799593017552979, 5318863.888787548057735 ], [ 348526.510968249291182, 5316778.516762902028859 ], [ 345657.873884211468976, 5316854.782847361639142 ], [ 345519.07245596346911, 5315812.255347169004381 ], [ 343606.523522369214334, 5315863.927549132145941 ] ] ], [ [ [ 319728.379215516557451, 5323889.671663776040077 ], [ 319446.920759515487589, 5321804.71035857591778 ], [ 318490.991218063049018, 5321834.844373618252575 ], [ 318350.23382726451382, 5320792.48813593108207 ], [ 315482.258220582734793, 5320883.892357687465847 ], [ 315623.208339428936597, 5321926.202196318656206 ], [ 316579.135002900962718, 5321895.590289912186563 ], [ 316720.044986255466938, 5322937.988101993687451 ], [ 318631.772678999346681, 5322877.273177042603493 ], [ 318913.40780661161989, 5324962.348621429875493 ], [ 317957.67205863527488, 5324992.595356008037925 ], [ 318098.590042298310436, 5326035.226514250040054 ], [ 319054.26147094508633, 5326004.995332607068121 ], [ 319195.139200732810423, 5327047.714749962091446 ], [ 320150.747256653557997, 5327017.658583545126021 ], [ 319869.144516124506481, 5324932.261273644864559 ], [ 320824.882182008062955, 5324902.333310103043914 ], [ 320684.181176074896939, 5323859.72809976246208 ], [ 319728.379215516557451, 5323889.671663776040077 ] ] ], [ [ [ 319476.966851968201809, 5329133.371843894943595 ], [ 319195.139200732810423, 5327047.714749962091446 ], [ 318239.53211121680215, 5327077.930364689789712 ], [ 318521.488500151608605, 5329163.556282834149897 ], [ 319476.966851968201809, 5329133.371843894943595 ] ] ], [ [ [ 323188.308134875260293, 5335302.778166904114187 ], [ 323047.431403100257739, 5334259.428610473871231 ], [ 322092.272308598796371, 5334289.055881277658045 ], [ 321951.355102389119565, 5333245.795112434774637 ], [ 319085.690249640727416, 5333335.681974168866873 ], [ 319367.935591406770982, 5335422.182311632670462 ], [ 322233.213531061599497, 5335332.389666365459561 ], [ 322515.168019918433856, 5337419.276426785625517 ], [ 323470.13358267856529, 5337389.696512157097459 ], [ 323329.208861806837376, 5336346.200788998045027 ], [ 324284.239927145885304, 5336316.764792688190937 ], [ 324143.403708440484479, 5335273.326354407705367 ], [ 323188.308134875260293, 5335302.778166904114187 ] ] ], [ [ [ 336699.729809140204452, 5335948.630044509656727 ], [ 336839.751342383679003, 5336992.350194978527725 ], [ 338749.711471600632649, 5336938.142026080749929 ], [ 338469.95006393676158, 5334850.70994311850518 ], [ 337514.840582404809538, 5334877.76674214284867 ], [ 337654.773923626809847, 5335921.429842009209096 ], [ 336699.729809140204452, 5335948.630044509656727 ] ] ], [ [ [ 359436.109573414199986, 5275755.651820368133485 ], [ 359846.101477205520496, 5278876.192133272998035 ], [ 360804.621577912010252, 5278853.190152163617313 ], [ 360667.997795658768155, 5277812.92175973765552 ], [ 361626.581873405026272, 5277790.061222339980304 ], [ 361353.530365621787496, 5275709.706936514005065 ], [ 359436.109573414199986, 5275755.651820368133485 ] ] ], [ [ [ 357244.369024894898757, 5281026.766621340997517 ], [ 357107.4454092545202, 5279986.420289628207684 ], [ 356148.991253817279357, 5280010.037729594856501 ], [ 356285.97826289513614, 5281050.367679043672979 ], [ 357244.369024894898757, 5281026.766621340997517 ] ] ], [ [ [ 360803.55975685728481, 5286159.969456764869392 ], [ 360393.081571808666922, 5283037.918704696930945 ], [ 359434.815698507474735, 5283061.012714228592813 ], [ 359845.48428304377012, 5286183.013876515440643 ], [ 360803.55975685728481, 5286159.969456764869392 ] ] ], [ [ [ 392420.387335877283476, 5285488.225225095637143 ], [ 392555.164899241644889, 5286529.616622319445014 ], [ 398303.361544803949073, 5286426.08813246153295 ], [ 397900.238127238175366, 5283301.813576108776033 ], [ 395025.566736330743879, 5283353.025621719658375 ], [ 395294.673824032361154, 5285435.696456771343946 ], [ 392420.387335877283476, 5285488.225225095637143 ] ] ], [ [ [ 358618.311109805188607, 5298747.001172534190118 ], [ 358480.929313899367116, 5297705.444723481312394 ], [ 357523.556205751490779, 5297728.940290881320834 ], [ 357661.001731335534714, 5298770.480151953175664 ], [ 358618.311109805188607, 5298747.001172534190118 ] ] ], [ [ [ 357253.962546456663404, 5302960.935561018064618 ], [ 358211.016108226962388, 5302937.364402251318097 ], [ 358073.477675841073506, 5301895.534548976458609 ], [ 359030.595746760431211, 5301872.105417327955365 ], [ 358893.144327753572725, 5300830.331484564580023 ], [ 356021.600843443360645, 5300901.144599580205977 ], [ 356159.243634688202292, 5301942.86873496696353 ], [ 357116.360303561028559, 5301919.122320850379765 ], [ 357253.962546456663404, 5302960.935561018064618 ] ] ], [ [ [ 361901.954103696974926, 5301802.769843791611493 ], [ 359030.595746760431211, 5301872.105417327955365 ], [ 359305.568197236862034, 5303955.871011004783213 ], [ 361219.5511521109147, 5303909.555448637343943 ], [ 361082.180976999457926, 5302867.602944005280733 ], [ 362039.237311805074569, 5302844.666457319632173 ], [ 361901.954103696974926, 5301802.769843791611493 ] ] ], [ [ [ 358486.162640244117938, 5305021.241899847984314 ], [ 358761.402051804936491, 5307105.410018745809793 ], [ 361631.80064340919489, 5307035.849076639860868 ], [ 361494.36098686081823, 5305993.678479934111238 ], [ 360537.496872452727985, 5306016.723431278951466 ], [ 360400.016510264598764, 5304974.642314431257546 ], [ 358486.162640244117938, 5305021.241899847984314 ] ] ], [ [ [ 393748.122446903900709, 5310536.684708251617849 ], [ 393612.700109586701728, 5309493.650550061836839 ], [ 391699.442811927408911, 5309529.280800193548203 ], [ 391834.992982038238551, 5310572.279318070039153 ], [ 393748.122446903900709, 5310536.684708251617849 ] ] ], [ [ [ 369289.013408432016149, 5314177.161446655169129 ], [ 368877.621609357011039, 5311048.981877156533301 ], [ 367921.072318967722822, 5311070.830540774390101 ], [ 367783.923789163294714, 5310028.267110714688897 ], [ 366827.311215537367389, 5310050.29167689755559 ], [ 367239.017819916363806, 5313178.149929313920438 ], [ 368195.438472807407379, 5313156.176413014531136 ], [ 368607.160414956975728, 5316284.743280247785151 ], [ 367650.931861881632358, 5316306.665619879961014 ], [ 367788.282632279384416, 5317349.650445346720517 ], [ 369700.61227228725329, 5317305.999025313183665 ], [ 369563.389646513329353, 5316262.979994811117649 ], [ 370519.619551565439906, 5316241.375761720351875 ], [ 370245.371393574634567, 5314155.522958319634199 ], [ 369289.013408432016149, 5314177.161446655169129 ] ] ], [ [ [ 394154.524413872393779, 5313666.227565918117762 ], [ 394019.034600895363837, 5312622.973180771805346 ], [ 393062.597488383529708, 5312640.655343970283866 ], [ 393198.151277140714228, 5313683.891851004213095 ], [ 394154.524413872393779, 5313666.227565918117762 ] ] ], [ [ [ 401524.696520972589497, 5318765.034393569454551 ], [ 401389.542785995523445, 5317721.28574491571635 ], [ 402345.664051814412232, 5317704.965639809146523 ], [ 402210.596704315103125, 5316661.272530385293067 ], [ 401254.411391339031979, 5316677.610817702487111 ], [ 401119.302338926470838, 5315634.009576349519193 ], [ 398250.55739566416014, 5315684.032941047102213 ], [ 398385.858535625797231, 5316727.579863969236612 ], [ 397429.675294700660743, 5316744.554278881289065 ], [ 397158.967376478656661, 5314657.570115094073117 ], [ 398115.278660024283454, 5314640.559625756926835 ], [ 397980.022330598207191, 5313597.159882585518062 ], [ 397023.647055799723603, 5313614.188387819565833 ], [ 396617.820670055341907, 5310484.484198686666787 ], [ 393748.122446903900709, 5310536.684708251617849 ], [ 394019.034600895363837, 5312622.973180771805346 ], [ 394975.47225415072171, 5312605.449933862313628 ], [ 395110.898092510644346, 5313648.722228017635643 ], [ 394154.524413872393779, 5313666.227565918117762 ], [ 394290.036715034744702, 5314709.555430903099477 ], [ 396202.65662117046304, 5314674.739578087814152 ], [ 396473.492584220541175, 5316761.687729266472161 ], [ 394561.128774495737161, 5316796.431742292828858 ], [ 394832.310764414607547, 5318883.602398963645101 ], [ 395788.364269572775811, 5318866.186819082126021 ], [ 395652.82610901480075, 5317822.546699798665941 ], [ 398521.182078014360741, 5317771.200430067256093 ], [ 398656.528020932688378, 5318814.894674905575812 ], [ 401524.696520972589497, 5318765.034393569454551 ] ] ], [ [ [ 368063.053298018465284, 5319435.839701119810343 ], [ 367788.282632279384416, 5317349.650445346720517 ], [ 366832.118837389396504, 5317371.714784789830446 ], [ 367107.017712361062877, 5319457.869885727763176 ], [ 368063.053298018465284, 5319435.839701119810343 ] ] ], [ [ [ 404527.853448970126919, 5319760.483067555353045 ], [ 403988.051867859321646, 5315585.417201512493193 ], [ 403031.801523619971704, 5315601.455663235858083 ], [ 403571.859325487515889, 5319776.448524537496269 ], [ 404527.853448970126919, 5319760.483067555353045 ] ] ], [ [ [ 361242.734316986054182, 5325876.047406459227204 ], [ 361380.806489433394745, 5326919.55561142321676 ], [ 362336.387673946330324, 5326896.529808610677719 ], [ 362198.379767383798026, 5325853.004636234603822 ], [ 361242.734316986054182, 5325876.047406459227204 ] ] ], [ [ [ 361933.327039007795975, 5331094.322742005810142 ], [ 362071.515133518434595, 5332138.198280043900013 ], [ 363982.034987758961506, 5332092.476305482909083 ], [ 363705.939400164294057, 5330004.730580884031951 ], [ 362750.550392708333675, 5330027.545926014892757 ], [ 362612.472988181223627, 5328983.800417974591255 ], [ 363567.926319814869203, 5328960.968032102100551 ], [ 363291.969593934481964, 5326873.663383739069104 ], [ 362336.387673946330324, 5326896.529808610677719 ], [ 362474.418748069438152, 5327940.128390687517822 ], [ 361518.90184942324413, 5327963.137211943976581 ], [ 361657.02039539226098, 5329006.792243520729244 ], [ 360701.568546639173292, 5329029.943510686978698 ], [ 360978.003865363949444, 5331117.440037007443607 ], [ 361933.327039007795975, 5331094.322742005810142 ] ] ] ] } }
]
}
