{
"type": "FeatureCollection",
"name": "urban-2070",
"crs": { "type": "name", "properties": { "name": "urn:ogc:def:crs:EPSG::32638" } },
"features": [
{ "type": "Feature", "properties": { "year": 2070 }, "geometry": { "type": "MultiPolygon", "coordinates": [ [ [ [ 633054.439744418952614, 2707680.773522097617388 ], [ 632684.449740607989952, 2705820.3595513808541 ], [ 631612.503746705828235, 2705810.257176555227488 ], [ 631427.572769369580783, 2704880.111363200005144 ], [ 630355.603510296437889, 2704870.108759960159659 ], [ 630170.706491533317603, 2703940.009582464583218 ], [ 631242.701973318005912, 2703949.994423280470073 ], [ 631057.891360537963919, 2703019.906340100802481 ], [ 632129.916012310655788, 2703029.955343804787844 ], [ 631945.19178480876144, 2702099.878340737894177 ], [ 628729.048065689275973, 2702070.030254550743848 ], [ 628913.850903534563258, 2703000.054061621427536 ], [ 626769.822080653393641, 2702980.529412681236863 ], [ 627139.71327384095639, 2704840.592732557561249 ], [ 626067.755628023529425, 2704830.917979709804058 ], [ 626437.940202313940972, 2706691.06120279757306 ], [ 625366.037908101570792, 2706681.43311809701845 ], [ 625180.889248039457016, 2705751.364752725232393 ], [ 624108.963516805088148, 2705741.836307078134269 ], [ 625035.440558074042201, 2710392.378176661208272 ], [ 626107.234879765659571, 2710401.994900853838772 ], [ 625921.845291102072224, 2709471.811173599213362 ], [ 626993.668749964912422, 2709481.492309223394841 ], [ 627179.032040905207396, 2710411.693750612437725 ], [ 628250.832065626163967, 2710421.47472726367414 ], [ 628065.495068960473873, 2709491.255543797742575 ], [ 631280.991428176290356, 2709521.037854636088014 ], [ 631651.567876095534302, 2711381.611967863049358 ], [ 633795.141724207787775, 2711401.948863157071173 ], [ 633424.670410936116241, 2709541.303248055744916 ], [ 634496.514397728606127, 2709551.559104763437063 ], [ 634126.336249722633511, 2707690.993605034891516 ], [ 633054.439744418952614, 2707680.773522097617388 ] ] ], [ [ [ 639855.780251549906097, 2709604.070044700987637 ], [ 637712.064629475818947, 2709582.819331735838205 ], [ 638452.827357169357128, 2713304.514178890734911 ], [ 640596.332795656053349, 2713325.909359870944172 ], [ 639855.780251549906097, 2709604.070044700987637 ] ] ], [ [ [ 642033.293426109710708, 2736564.668456976301968 ], [ 640962.209021363873035, 2736553.721155030187219 ], [ 641149.105308314203285, 2737484.913723439443856 ], [ 642220.163165637059137, 2737495.879436444491148 ], [ 642033.293426109710708, 2736564.668456976301968 ] ] ], [ [ [ 652606.953469614731148, 2741324.112381116021425 ], [ 652420.082579903537408, 2740392.615683698561043 ], [ 651349.074864113470539, 2740380.84727790672332 ], [ 651535.972310134908184, 2741312.325250377878547 ], [ 652606.953469614731148, 2741324.112381116021425 ] ] ], [ [ [ 646181.11678403976839, 2741254.635690547991544 ], [ 645620.206065247999504, 2738460.570237085223198 ], [ 646691.250236801570281, 2738471.886300169862807 ], [ 646504.42662016057875, 2737540.571809848770499 ], [ 644362.288439970347099, 2737518.059715838171542 ], [ 644549.165147433290258, 2738449.337157178204507 ], [ 643478.127459422801621, 2738438.187058916781098 ], [ 643291.224201541510411, 2737506.928100074641407 ], [ 642220.163165637059137, 2737495.879436444491148 ], [ 642407.092977284220979, 2738427.119940780568868 ], [ 640265.033534880494699, 2738405.234638860449195 ], [ 640452.076553603401408, 2739336.467829124536365 ], [ 639381.078119018347934, 2739325.631256353110075 ], [ 639942.647470445372164, 2742119.452812393661588 ], [ 638871.731938316253945, 2742108.644074877724051 ], [ 638684.455454761045985, 2741177.359086398500949 ], [ 635471.64752270525787, 2741145.486421179957688 ], [ 635659.00384459621273, 2742076.716364237945527 ], [ 637800.819505902007222, 2742097.918421985581517 ], [ 637988.182709258631803, 2743029.214566660579294 ], [ 639059.068522578570992, 2743039.958611492533237 ], [ 639246.465205506188795, 2743971.302713288459927 ], [ 641388.192917841952294, 2743993.077041083015501 ], [ 641200.849482390331104, 2743061.696040461305529 ], [ 642271.744676682865247, 2743072.689427560660988 ], [ 642646.438377699581906, 2744935.518040332943201 ], [ 644788.131840471411124, 2744957.828331818804145 ], [ 644600.808202964253724, 2744026.362113281153142 ], [ 645671.686384675791487, 2744037.623431519605219 ], [ 645110.155565679538995, 2741243.34698634268716 ], [ 646181.11678403976839, 2741254.635690547991544 ] ], [ [ 642084.48792947572656, 2742141.3195472038351 ], [ 643155.412904191063717, 2742152.377547478303313 ], [ 643342.643045766162686, 2743083.765931730624288 ], [ 642271.744676682865247, 2743072.689427560660988 ], [ 642084.48792947572656, 2742141.3195472038351 ] ], [ [ 641710.154651900171302, 2740278.668553231284022 ], [ 641897.291253865580074, 2741209.979261444881558 ], [ 640826.342851303284988, 2741199.022810663562268 ], [ 640639.179659757879563, 2740267.73054738342762 ], [ 641710.154651900171302, 2740278.668553231284022 ] ], [ [ 643665.090777680743486, 2739369.475575117394328 ], [ 644039.197587140020914, 2741232.141347773838788 ], [ 642968.242824507295154, 2741221.018773313146085 ], [ 642594.08285900845658, 2739358.389987012837082 ], [ 643665.090777680743486, 2739369.475575117394328 ] ] ], [ [ [ 651026.126518475241028, 2744095.177298332098871 ], [ 648884.34052433213219, 2744071.906290241982788 ], [ 649071.557708352687769, 2745003.44704035948962 ], [ 651213.290495651541278, 2745026.755482282489538 ], [ 651026.126518475241028, 2744095.177298332098871 ] ] ], [ [ [ 649258.834899539127946, 2745935.017529360484332 ], [ 649071.557708352687769, 2745003.44704035948962 ], [ 648000.696313873399049, 2744991.917593663092703 ], [ 648188.000123163452372, 2745923.469392248895019 ], [ 649258.834899539127946, 2745935.017529360484332 ] ] ], [ [ [ 646233.757548989844508, 2746832.16695394879207 ], [ 647304.559106287662871, 2746843.567325039766729 ], [ 646929.838220324949361, 2744980.471327713225037 ], [ 644788.131840471411124, 2744957.828331818804145 ], [ 644975.515524004935287, 2745889.324227191507816 ], [ 646046.34045927610714, 2745900.622742721345276 ], [ 646233.757548989844508, 2746832.16695394879207 ] ] ], [ [ [ 650516.983575822901912, 2746878.267855759710073 ], [ 648375.363947276724502, 2746855.050931327044964 ], [ 648750.271631720941514, 2748718.30329949175939 ], [ 649821.026495468686335, 2748729.907601001206785 ], [ 649633.569295161636546, 2747798.247792539186776 ], [ 651775.142345291096717, 2747821.668722198344767 ], [ 651400.514460557023995, 2745958.36343614757061 ], [ 650329.673004043870606, 2745946.648876798339188 ], [ 650516.983575822901912, 2746878.267855759710073 ] ] ], [ [ [ 648750.271631720941514, 2748718.30329949175939 ], [ 647679.520082167582586, 2748706.782290763221681 ], [ 647867.090598670998588, 2749638.434429610613734 ], [ 648937.815487923217006, 2749649.974162866361439 ], [ 648750.271631720941514, 2748718.30329949175939 ] ] ], [ [ [ 655924.746897971024737, 2752516.493234436959028 ], [ 654854.081725857919082, 2752504.396781221963465 ], [ 655041.732149350922555, 2753436.281337930355221 ], [ 656112.370642000576481, 2753448.396746024023741 ], [ 655924.746897971024737, 2752516.493234436959028 ] ] ], [ [ [ 631488.515934423543513, 2753190.850112859159708 ], [ 630417.950761108193547, 2753180.653451635036618 ], [ 630794.661215894506313, 2755043.654911891557276 ], [ 631865.17284710041713, 2755053.888241511769593 ], [ 632053.591543650836684, 2755985.451768340542912 ], [ 634194.570066599408165, 2756006.205618384294212 ], [ 634006.204931044252589, 2755074.605292523279786 ], [ 635076.72543140174821, 2755085.089016734622419 ], [ 634888.447201540227979, 2754153.499943466857076 ], [ 631676.814310009591281, 2754122.354362051002681 ], [ 631488.515934423543513, 2753190.850112859159708 ] ] ], [ [ [ 640617.578003566712141, 2756070.471076887100935 ], [ 643829.123857391765341, 2756103.731076917145401 ], [ 644205.552564557525329, 2757967.355215506628156 ], [ 646346.492051436798647, 2757990.021007308736444 ], [ 646158.301199306733906, 2757058.156534244772047 ], [ 649369.81514338881243, 2757092.725549657363445 ], [ 648993.773967409739271, 2755228.973527537658811 ], [ 647923.212557775666937, 2755217.404607714619488 ], [ 647547.357963042217307, 2753353.809736232738942 ], [ 649688.590957702719606, 2753376.955878748558462 ], [ 649876.434826040174812, 2754308.775959210004658 ], [ 652017.627735717920586, 2754332.29352182103321 ], [ 651829.837275345460512, 2753400.435752661898732 ], [ 652900.465489848866127, 2753412.30084288213402 ], [ 652712.761697601526976, 2752480.454111851286143 ], [ 647359.520691260229796, 2752422.057079045102 ], [ 647171.743439293000847, 2751490.334251318126917 ], [ 648242.411678481032141, 2751501.828105031978339 ], [ 647867.090598670998588, 2749638.434429610613734 ], [ 646796.369003071682528, 2749626.978015574160963 ], [ 646984.026209208415821, 2750558.641235881019384 ], [ 645913.334560078335926, 2750547.249455448705703 ], [ 646476.74640226631891, 2753342.361810301896185 ], [ 645406.138100760290399, 2753330.99731250712648 ], [ 645218.247413960983977, 2752399.282088767271489 ], [ 644147.615635390393436, 2752388.019692273810506 ], [ 644335.533034697058611, 2753319.716241299640387 ], [ 642194.332513604313135, 2753297.404372514691204 ], [ 642382.363414337858558, 2754229.093424915801734 ], [ 641311.794643935281783, 2754218.044018022250384 ], [ 641123.737010924727656, 2753286.373571899253875 ], [ 635770.806123213726096, 2753232.470846843905747 ], [ 636147.248935763724148, 2755095.656208649277687 ], [ 638288.30505173781421, 2755117.041001354344189 ], [ 638664.881259616930038, 2756980.419278760906309 ], [ 637594.405215948587283, 2756969.648080633953214 ], [ 637782.810251120128669, 2757901.363316794857383 ], [ 636712.364053884171881, 2757890.657116611488163 ], [ 636900.85599151533097, 2758822.383585220668465 ], [ 637971.275390990194865, 2758833.108329625800252 ], [ 638159.800633500912227, 2759764.883136291988194 ], [ 640300.595046883565374, 2759786.620577862951905 ], [ 639923.711854722350836, 2757923.026382317766547 ], [ 642064.625895760254934, 2757945.023677896242589 ], [ 641876.327978961518966, 2757013.234047289472073 ], [ 640805.842617325833999, 2757002.212260605301708 ], [ 640617.578003566712141, 2756070.471076887100935 ] ] ], [ [ [ 655229.442522455472499, 2754368.195850301068276 ], [ 655041.732149350922555, 2753436.281337930355221 ], [ 653971.097106575150974, 2753424.249370762612671 ], [ 654158.834172153845429, 2754356.144940704572946 ], [ 653088.22925118112471, 2754344.177498421166092 ], [ 653276.052979518193752, 2755276.084095686208457 ], [ 654346.631195000139996, 2755288.070467955432832 ], [ 654534.48817303206306, 2756220.02596975537017 ], [ 655605.043109165737405, 2756232.114810968283564 ], [ 655417.212843087734655, 2755300.140335564967245 ], [ 656487.797947594081052, 2755312.293700157664716 ], [ 656300.054325903300196, 2754380.33022885164246 ], [ 655229.442522455472499, 2754368.195850301068276 ] ] ], [ [ [ 647793.474899018299766, 2759865.335528183728456 ], [ 648863.89924638485536, 2759876.915005558170378 ], [ 648487.444546723738313, 2758013.021065642591566 ], [ 646346.492051436798647, 2757990.021007308736444 ], [ 646534.742930420907214, 2758921.915381830651313 ], [ 647605.190772553789429, 2758933.392423139885068 ], [ 647793.474899018299766, 2759865.335528183728456 ] ] ], [ [ [ 622860.533934705192223, 2763338.80521232355386 ], [ 620720.052869527135044, 2763319.764848824590445 ], [ 620909.335613448405638, 2764251.375843486282974 ], [ 619839.126024833531119, 2764241.96304864808917 ], [ 619649.816366332932375, 2763310.370216312352568 ], [ 617509.35130000137724, 2763291.83204337162897 ], [ 617888.138581090606749, 2765154.974810848943889 ], [ 618958.315945946145803, 2765164.238277518656105 ], [ 619147.773070584284142, 2766095.872192592360079 ], [ 620217.926135793095455, 2766105.237577309366316 ], [ 620028.495948666124605, 2765173.585496611427516 ], [ 621098.678612985066138, 2765183.016469398979098 ], [ 621288.081866096938029, 2766114.686743677593768 ], [ 623428.401416891021654, 2766133.836426520254463 ], [ 622860.533934705192223, 2763338.80521232355386 ] ] ], [ [ [ 618077.622646743315272, 2766086.59058825392276 ], [ 617888.138581090606749, 2765154.974810848943889 ], [ 616817.963830367545597, 2765145.795095343142748 ], [ 617007.474840545095503, 2766077.392763031180948 ], [ 618077.622646743315272, 2766086.59058825392276 ] ] ], [ [ [ 652323.864012900041416, 2766425.163721761200577 ], [ 653394.110729144071229, 2766437.126986471004784 ], [ 653205.513904638006352, 2765504.897892973385751 ], [ 655346.071217600721866, 2765529.037753504235297 ], [ 655534.614387327572331, 2766461.304997898638248 ], [ 656604.871376727242023, 2766473.519747906830162 ], [ 657170.779990582494065, 2769270.559995387680829 ], [ 656100.603527198778465, 2769258.287798827979714 ], [ 656289.386443717987277, 2770190.675812893081456 ], [ 660570.005855229916051, 2770240.344990193843842 ], [ 660381.330365330795757, 2769307.880086977034807 ], [ 661451.52089747809805, 2769320.487957117147744 ], [ 661074.403270992334001, 2767455.610439201351255 ], [ 662144.651040919008665, 2767468.263638150878251 ], [ 661956.208876009448431, 2766535.851007682736963 ], [ 660885.934290080331266, 2766523.217082128860056 ], [ 660320.886701964307576, 2763726.218409958761185 ], [ 659250.535283679608256, 2763713.725964929908514 ], [ 659062.27909934730269, 2762781.472665382549167 ], [ 657991.904430936439894, 2762769.083127659745514 ], [ 658180.187398699694313, 2763701.317272558808327 ], [ 656039.502133652102202, 2763676.751139047555625 ], [ 656227.898614424513653, 2764608.977188833523542 ], [ 654087.280806791619398, 2764584.707901509478688 ], [ 653898.830716815311462, 2763652.519996054470539 ], [ 652828.500142098055221, 2763640.530041875783354 ], [ 653016.977041592122987, 2764572.698917212896049 ], [ 650876.379669710760936, 2764548.932259182445705 ], [ 651064.970181161770597, 2765481.093227490317076 ], [ 648924.439857280580327, 2765457.623744101263583 ], [ 649113.144030804745853, 2766389.776872160844505 ], [ 646972.680610977113247, 2766366.604743517469615 ], [ 647161.498496737214737, 2767298.750098070595413 ], [ 646091.298548013437539, 2767287.270879407878965 ], [ 646469.168117923429236, 2769151.613972047809511 ], [ 647539.314313578186557, 2769163.130999565590173 ], [ 647728.312240485684015, 2770095.366581113543361 ], [ 648798.434816540800966, 2770106.986465852241963 ], [ 648420.552740289829671, 2768242.507499475032091 ], [ 649490.732370920130052, 2768254.173362773377448 ], [ 649301.908202714286745, 2767321.960072616580874 ], [ 652512.547638841788284, 2767357.403901248238981 ], [ 652323.864012900041416, 2766425.163721761200577 ] ], [ [ 659438.851375120691955, 2764646.009441497270018 ], [ 659627.227371567860246, 2765578.323112428188324 ], [ 658556.93308272829745, 2765565.876063795760274 ], [ 658368.530283330357634, 2764633.581578824669123 ], [ 659438.851375120691955, 2764646.009441497270018 ] ] ], [ [ [ 683746.624613811261952, 2698968.11589688109234 ], [ 682674.295332393143326, 2698954.146902651060373 ], [ 682857.52698567439802, 2699884.991116038989276 ], [ 683929.830265372758731, 2699898.979181436356157 ], [ 683746.624613811261952, 2698968.11589688109234 ] ] ], [ [ [ 662147.904982330976054, 2703344.588836065493524 ], [ 661963.91299255087506, 2702414.003199500031769 ], [ 663036.060021557263099, 2702426.409668230451643 ], [ 662852.154033242142759, 2701495.834740223363042 ], [ 663924.330832452978939, 2701508.30455301143229 ], [ 663740.510825082892552, 2700577.740319140721112 ], [ 662668.307944779284298, 2700565.289075271692127 ], [ 662484.521758199203759, 2699634.772656521294266 ], [ 659267.856824748683721, 2699597.965644241310656 ], [ 659451.721245008986443, 2700528.426569959148765 ], [ 656235.166948451893404, 2700492.300868891179562 ], [ 656051.224265294033103, 2699561.895184156484902 ], [ 653906.820221602218226, 2699538.257384451571852 ], [ 654090.815096346312203, 2700468.626381860114634 ], [ 653018.644401334109716, 2700456.911927571520209 ], [ 653386.866316576371901, 2702317.700663642957807 ], [ 656603.232192225637846, 2702353.199719886761159 ], [ 656787.354748801328242, 2703283.692919787485152 ], [ 658931.564060332020745, 2703307.805436160415411 ], [ 658747.493740217410959, 2702377.275345615111291 ], [ 660891.769618792575784, 2702401.678657277021557 ], [ 661075.787715445854701, 2703332.245750492438674 ], [ 662147.904982330976054, 2703344.588836065493524 ] ] ], [ [ [ 665916.379146743332967, 2706174.21016203565523 ], [ 664844.329181464854628, 2706161.565234135370702 ], [ 665028.50849944842048, 2707092.305390926543623 ], [ 666100.532328843139112, 2707104.969007224310189 ], [ 665916.379146743332967, 2706174.21016203565523 ] ] ], [ [ [ 654467.647244695224799, 2729263.975013745948672 ], [ 655538.989940929226577, 2729275.933504773769528 ], [ 655725.008801685762592, 2730207.167863370850682 ], [ 656796.328562156530097, 2730219.227782598696649 ], [ 657168.493270360515453, 2732081.82279249606654 ], [ 658239.763679609284736, 2732094.002979498356581 ], [ 658425.909497090382501, 2733025.363739213440567 ], [ 657354.665533836348914, 2733013.164770300500095 ], [ 657727.189869240042754, 2734875.937756987288594 ], [ 655584.818344836938195, 2734851.713268248829991 ], [ 655771.223372660344467, 2735783.106738877948374 ], [ 656842.380901228869334, 2735795.19631110643968 ], [ 657028.819387772586197, 2736726.638261085376143 ], [ 653815.436711850576103, 2736690.562009009998292 ], [ 653628.918741438305005, 2735759.176337955985218 ], [ 650415.487500048824586, 2735723.902571019716561 ], [ 650602.084983866312541, 2736655.23221527878195 ], [ 651673.198827783693559, 2736666.925876068882644 ], [ 652046.520738379098475, 2738529.711417668964714 ], [ 654188.652552906423807, 2738553.422401796560735 ], [ 654562.108247200143524, 2740416.401642797514796 ], [ 653491.093699624645524, 2740404.467138123698533 ], [ 653677.938036315259524, 2741335.982588501647115 ], [ 652606.953469614731148, 2741324.112381116021425 ], [ 652793.884335876791738, 2742255.638810949400067 ], [ 653864.842339840717614, 2742267.527786788064986 ], [ 654051.806608134415001, 2743199.102750109042972 ], [ 652980.875176624511369, 2743187.194990318268538 ], [ 653167.925989795126952, 2744118.780936352908611 ], [ 652097.024557540658861, 2744106.93753780098632 ], [ 652284.161936246557161, 2745038.534480686765164 ], [ 651213.290495651541278, 2745026.755482282489538 ], [ 651400.514460557023995, 2745958.36343614757061 ], [ 653542.207525133155286, 2745982.042196976486593 ], [ 653729.438243164331652, 2746913.717545868363231 ], [ 652658.616625615395606, 2746901.817739902529866 ], [ 652845.933932142448612, 2747833.504090537782758 ], [ 654987.527348753763363, 2747857.424642297439277 ], [ 654800.263287645415403, 2746925.700596590526402 ], [ 656941.923752906033769, 2746949.916438841726631 ], [ 657129.134581693448126, 2747881.678291716147214 ], [ 659270.755821901140735, 2747906.265052013099194 ], [ 659457.973344831960276, 2748838.094754316378385 ], [ 658387.187579630874097, 2748825.740745275747031 ], [ 658761.855622124741785, 2750689.451984129380435 ], [ 657691.126657060347497, 2750677.143313521519303 ], [ 657503.736035849899054, 2749745.291711851023138 ], [ 656432.983938653371297, 2749733.08536728983745 ], [ 656807.878404903342016, 2751596.780577283818275 ], [ 655737.183095896849409, 2751584.619676859118044 ], [ 655924.746897971024737, 2752516.493234436959028 ], [ 656995.415540519403294, 2752528.673102198168635 ], [ 657183.012608352350071, 2753460.595596692990512 ], [ 659324.307057466823608, 2753485.243632416240871 ], [ 659511.910693330690265, 2754417.234194809570909 ], [ 660582.536547566414811, 2754429.7024658145383 ], [ 660957.870161284226924, 2756293.811925558373332 ], [ 659887.297688646242023, 2756281.305442589335144 ], [ 660075.081043916055933, 2757213.386162523180246 ], [ 665427.845937533653341, 2757276.849856081884354 ], [ 665240.196077095111832, 2756344.673208775930107 ], [ 666310.786681397585198, 2756357.597376071847975 ], [ 666123.223356141825207, 2755425.431622558739036 ], [ 669335.09747030865401, 2755464.647453747689724 ], [ 669147.673983259242959, 2754532.453962753526866 ], [ 665935.719878854928538, 2754493.296015148051083 ], [ 665748.276251636678353, 2753561.190536527428776 ], [ 666818.950553513830528, 2753574.140446504577994 ], [ 666631.593425568426028, 2752642.045844090171158 ], [ 668773.006473687244579, 2752668.157490184530616 ], [ 668585.762455374002457, 2751736.054473980795592 ], [ 670727.243781642871909, 2751762.461225097067654 ], [ 670914.434547586133704, 2752694.602877106517553 ], [ 671985.154278792091645, 2752707.950727872084826 ], [ 672172.378219065838493, 2753640.14192758500576 ], [ 674313.775936293182895, 2753667.126788187772036 ], [ 674126.605248890817165, 2752734.89675310626626 ], [ 675197.336535456357524, 2752748.494931244757026 ], [ 674823.227705610916018, 2750884.086627578828484 ], [ 675894.016099478816614, 2750897.729322900529951 ], [ 675707.077928840997629, 2749965.551038319710642 ], [ 677848.71966063301079, 2749993.047639967873693 ], [ 678035.604662115685642, 2750925.264890995342284 ], [ 681248.017301076557487, 2750967.193714987952262 ], [ 681808.791378988651559, 2753764.203278051689267 ], [ 680738.062941072043031, 2753750.084766574669629 ], [ 680925.133660796796903, 2754682.462311388924718 ], [ 679854.435860454803333, 2754668.40766778960824 ], [ 680228.809698972851038, 2756533.214538061991334 ], [ 679158.169166850391775, 2756519.204182066489011 ], [ 679345.472313819103874, 2757451.633523568045348 ], [ 681486.704091938678175, 2757479.777098751626909 ], [ 681674.013652550289407, 2758412.276136883534491 ], [ 683815.208266850328073, 2758440.79353697411716 ], [ 684002.524212277494371, 2759373.362464061938226 ], [ 685073.100979428971186, 2759387.766383313573897 ], [ 685447.858577599748969, 2761253.035255067516118 ], [ 687588.917809078469872, 2761282.173444950487465 ], [ 686278.683511856594123, 2754753.988244376145303 ], [ 687349.40581870416645, 2754768.543987610843033 ], [ 687536.376563288038597, 2755701.070257975719869 ], [ 689677.780499293003231, 2755730.47200112324208 ], [ 690051.794475686969236, 2757595.695396550465375 ], [ 691122.449534427374601, 2757610.561415953561664 ], [ 690748.488783139851876, 2755745.29820507299155 ], [ 691819.201309306663461, 2755760.207966629881412 ], [ 691632.336962350062095, 2754827.602215331979096 ], [ 690561.597841351176612, 2754812.712366173509508 ], [ 690374.766524989157915, 2753880.157015012577176 ], [ 692516.302197145530954, 2753909.980423180386424 ], [ 692889.918101612129249, 2755775.201287823263556 ], [ 693960.639183872612193, 2755790.278170695528388 ], [ 694147.509944200515747, 2756722.954383218195289 ], [ 695218.208744711009786, 2756738.134842199739069 ], [ 695405.112491499981843, 2757670.861652306746691 ], [ 696475.789030318032019, 2757686.14576134365052 ], [ 695915.336315592401661, 2754887.996947648003697 ], [ 698056.862047316739336, 2754918.695544050075114 ], [ 698243.566888849250972, 2755851.421360219363123 ], [ 699314.309778170310892, 2755866.916082518175244 ], [ 699127.631510344566777, 2754934.170157099608332 ], [ 700198.405403251294047, 2754949.728316189255565 ], [ 700011.813243475509807, 2754016.992881735321134 ], [ 698941.012789646862075, 2754001.454844400286674 ], [ 698754.45361823332496, 2753068.770126916002482 ], [ 697683.631037166225724, 2753053.335685493424535 ], [ 697497.10487285524141, 2752120.701608116272837 ], [ 696426.260144505184144, 2752105.370688633993268 ], [ 696239.767006020760164, 2751172.787174537777901 ], [ 695168.900110315647908, 2751157.559703053440899 ], [ 694796.039509650669061, 2749292.524126337841153 ], [ 693725.123902472201735, 2749277.419960168655962 ], [ 693538.756470898864791, 2748344.967787764966488 ], [ 691396.885144425556064, 2748315.049307239241898 ], [ 691210.524296126561239, 2747382.667278689797968 ], [ 693352.448640624294057, 2747412.546043409500271 ], [ 692793.882778959814459, 2744615.463204483501613 ], [ 693864.93085960985627, 2744630.467948111239821 ], [ 692935.312211332726292, 2739969.171119717415422 ], [ 691864.131901409593411, 2739954.265409885440022 ], [ 691678.360578850260936, 2739022.116735176648945 ], [ 692749.567305344273336, 2739037.002684825100005 ], [ 692007.183831174741499, 2735308.631469592452049 ], [ 693078.50042126129847, 2735323.521482925396413 ], [ 692893.079965541372076, 2734391.484512778930366 ], [ 693964.427236190531403, 2734406.437738623470068 ], [ 693779.092746164067648, 2733474.411243695300072 ], [ 694850.470705539919436, 2733489.427643361501396 ], [ 694665.222160800825804, 2732557.411609190050513 ], [ 695736.630817085504532, 2732572.491143989376724 ], [ 695366.365168204181828, 2730708.510161369107664 ], [ 696437.83084326563403, 2730723.633031269535422 ], [ 695882.958204861264676, 2727927.828641728498042 ], [ 694811.413647281937301, 2727912.764963151421398 ], [ 694996.337891111848876, 2728844.649882174562663 ], [ 693924.823987585259601, 2728829.649249424226582 ], [ 693739.873456304892898, 2727897.784017293713987 ], [ 692668.337607903988101, 2727882.885802107863128 ], [ 692298.562822831561789, 2726019.284917648881674 ], [ 693370.151222973829135, 2726034.14386154524982 ], [ 692816.014977711718529, 2723238.909140533767641 ], [ 693887.686459867400117, 2723253.791883313562721 ], [ 693518.61283911135979, 2721390.413036688696593 ], [ 696733.810799355152994, 2721435.438969186041504 ], [ 696365.13282679731492, 2719572.062463482841849 ], [ 694221.558353881817311, 2719542.041141026653349 ], [ 694037.256385079585016, 2718610.437125641386956 ], [ 695109.067611841950566, 2718625.386955879628658 ], [ 694924.851428024587221, 2717693.79333401331678 ], [ 695996.693210598314181, 2717708.806018299423158 ], [ 695628.491967599838972, 2715845.669496053364128 ], [ 696700.390463170711882, 2715860.72539646923542 ], [ 696516.405376006034203, 2714929.182479707989842 ], [ 699732.205900407861918, 2714974.785523034632206 ], [ 699548.3587732919259, 2714043.213676904328167 ], [ 698476.394683934631757, 2714027.949964225292206 ], [ 697741.497440375271253, 2710302.040599693544209 ], [ 699885.638865774963051, 2710332.493323070928454 ], [ 700069.221650481689721, 2711263.964998099021614 ], [ 701141.273028843686916, 2711279.334329355508089 ], [ 700957.716319652274251, 2710347.843006709124893 ], [ 702029.798299855319783, 2710363.274907776154578 ], [ 701662.91565485810861, 2708500.342745997477323 ], [ 702735.054295483278111, 2708515.817504888400435 ], [ 702551.728331749560311, 2707584.376649274490774 ], [ 703623.897578480071388, 2707599.913887603674084 ], [ 703440.657181115355343, 2706668.483275837730616 ], [ 704512.857042465126142, 2706684.082954813260585 ], [ 704146.606863314984366, 2704821.272100504953414 ], [ 705218.863350151572376, 2704836.914484997745603 ], [ 705035.853540460695513, 2703905.53422592766583 ], [ 707180.432402791921049, 2703937.025728818029165 ], [ 706814.695233765873127, 2702074.27606788976118 ], [ 707887.043603420839645, 2702090.105386688839644 ], [ 707704.290226539596915, 2701158.755677426699549 ], [ 709849.052969860145822, 2701190.620738297235221 ], [ 709666.410969072254375, 2700259.261422330513597 ], [ 710738.825372657272965, 2700275.297099670395255 ], [ 710556.268776033190079, 2699343.94790995400399 ], [ 711628.713863002019934, 2699360.04571761097759 ], [ 711446.242650295025669, 2698428.706639398820698 ], [ 707156.387074885074981, 2698364.885798823554069 ], [ 706973.871690995874815, 2697433.655531970784068 ], [ 704828.92025377007667, 2697402.275623865425587 ], [ 705011.487472200300545, 2698333.466601681429893 ], [ 703939.044632261851802, 2698317.879801336675882 ], [ 704121.697302910033613, 2699249.080966011155397 ], [ 705194.114211435546167, 2699264.687383950687945 ], [ 705376.800469381036237, 2700195.937987769022584 ], [ 703232.023149111890234, 2700164.767805057577789 ], [ 703597.678041385835968, 2702027.279979076236486 ], [ 701453.022934798616916, 2701996.359121437650174 ], [ 701270.113785788067617, 2701065.127307972405106 ], [ 700197.767093921196647, 2701049.809384186286479 ], [ 700563.69689774827566, 2702912.2637058198452 ], [ 701635.991635056445375, 2702927.620746724773198 ], [ 701819.019884470384568, 2703858.912200931925327 ], [ 699674.486923124175519, 2703828.240979011636227 ], [ 700040.826092609553598, 2705690.835081350523978 ], [ 698968.618406888796017, 2705675.583406162448227 ], [ 699151.903363052755594, 2706606.905652232468128 ], [ 697007.553491886006668, 2706576.60946635575965 ], [ 697190.95010025985539, 2707507.922475482802838 ], [ 695046.670090758241713, 2707477.9157086298801 ], [ 695413.746314044110477, 2709340.553214214276522 ], [ 691125.447426097816788, 2709281.369723732583225 ], [ 691492.970781095325947, 2711143.97093744110316 ], [ 688276.948516955133528, 2711100.32996647246182 ], [ 688460.877997522940859, 2712031.617140774149448 ], [ 687388.905209016171284, 2712017.21526935743168 ], [ 687756.995432806084864, 2713879.840294869150966 ], [ 686685.079141176654957, 2713865.482029121369123 ], [ 686869.239912424236536, 2714796.819896632805467 ], [ 685797.353978125844151, 2714782.52461657486856 ], [ 685244.972263312200084, 2711988.658266051206738 ], [ 684173.012057841406204, 2711974.503130255732685 ], [ 684357.105746111599728, 2712905.742894183378667 ], [ 682213.250039526028559, 2712877.640914960764349 ], [ 682029.1040609695483, 2711946.439580703619868 ], [ 683101.055998439202085, 2711960.430235781241208 ], [ 682732.995474831550382, 2710098.078276297077537 ], [ 683805.00379231874831, 2710112.112758973613381 ], [ 683621.089219219167717, 2709180.962117492686957 ], [ 685765.170517714926973, 2709209.239190245047212 ], [ 685397.624882446834818, 2707346.950101951137185 ], [ 684325.52996519242879, 2707332.808918321505189 ], [ 683958.170957010821439, 2705470.676880624145269 ], [ 686102.469261790858582, 2705498.96455433126539 ], [ 685918.931434942758642, 2704567.904621405526996 ], [ 686991.112924345536157, 2704582.152314477600157 ], [ 686807.66083195572719, 2703651.1028120694682 ], [ 685735.453298576408997, 2703636.874322521965951 ], [ 685552.034854761324823, 2702705.873640661127865 ], [ 684479.805474810069427, 2702691.746305828448385 ], [ 684663.249955993378535, 2703622.727827491238713 ], [ 683591.050780008896254, 2703608.663325041532516 ], [ 683774.581013577990234, 2704539.655301076825708 ], [ 682702.412033234257251, 2704525.653669954743236 ], [ 682886.028039596392773, 2705456.656114908866584 ], [ 681813.889246584498324, 2705442.717394058126956 ], [ 681997.591046150540933, 2706373.73032246902585 ], [ 680925.482432183111086, 2706359.854550834745169 ], [ 681293.117391298292205, 2708221.931012350600213 ], [ 678076.97252511093393, 2708180.68174136755988 ], [ 678260.957944079651497, 2709111.707151842769235 ], [ 677188.943833698518574, 2709098.102609174326062 ], [ 677373.01514041016344, 2710029.138573905453086 ], [ 676301.031155076925643, 2710015.597162425052375 ], [ 676853.682116525946185, 2712808.82558085443452 ], [ 675781.780569195165299, 2712795.309289918746799 ], [ 675413.234501514001749, 2710933.165454548317939 ], [ 672197.396498529589735, 2710893.223912368062884 ], [ 672566.09956741228234, 2712755.253935516346246 ], [ 671494.213699792628177, 2712742.066650765947998 ], [ 671125.458284534164704, 2710880.074452851433307 ], [ 670053.523923799977638, 2710867.007184265647084 ], [ 669869.209785381448455, 2709936.07424119533971 ], [ 667725.300193928764202, 2709910.223908838350326 ], [ 667540.993574783322401, 2708979.358065917622298 ], [ 666469.018295885878615, 2708966.574899224564433 ], [ 666284.745379238156602, 2708035.75724731059745 ], [ 665212.747695401892997, 2708023.074927350040525 ], [ 665028.50849944842048, 2707092.305390926543623 ], [ 663956.488389775389805, 2707079.723844642750919 ], [ 663772.28293269558344, 2706149.002348226495087 ], [ 661628.201487984275445, 2706124.12269551679492 ], [ 661812.459232916822657, 2707054.806955238804221 ], [ 660740.450137398904189, 2707042.47160871187225 ], [ 660924.793947757338174, 2707973.166610687039793 ], [ 659852.814636966446415, 2707960.894763783086091 ], [ 660037.2445332929492, 2708891.60052238823846 ], [ 661109.197672735899687, 2708903.890948133543134 ], [ 661847.411678107106127, 2712627.081990833859891 ], [ 662919.263677879818715, 2712639.529116048011929 ], [ 663103.940728894434869, 2713570.419067876413465 ], [ 664175.770181982778013, 2713582.967137403320521 ], [ 664360.480902744922787, 2714513.905268192756921 ], [ 663288.677672608639114, 2714501.338472035247833 ], [ 663473.474506976664998, 2715432.287345484364778 ], [ 654899.388847088208422, 2715334.566312643699348 ], [ 654529.435191188473254, 2713472.995766410138458 ], [ 653457.63789805455599, 2713461.187985599506646 ], [ 653642.61099415877834, 2714391.94011080218479 ], [ 652570.843409236869775, 2714380.196129558607936 ], [ 652755.902748253312893, 2715310.959124429617077 ], [ 649540.69930367206689, 2715276.165591719560325 ], [ 649725.897472322219983, 2716206.902656269725412 ], [ 648654.196036704932339, 2716195.451040430925786 ], [ 649024.825014197500423, 2718056.976322330068797 ], [ 652239.781648370437324, 2718091.688639281317592 ], [ 652795.938333858619444, 2720884.362613456323743 ], [ 651724.361693958286196, 2720872.654013039544225 ], [ 651909.893563717720099, 2721803.585640710778534 ], [ 647623.726222082041204, 2721757.502103475388139 ], [ 647809.423511992092244, 2722688.389318103436381 ], [ 648880.933954135049134, 2722699.804884523618966 ], [ 649066.664899197174236, 2723630.739907468203455 ], [ 651209.643096969928592, 2723653.855539217125624 ], [ 651395.381303975591436, 2724584.856949375476688 ], [ 649252.455859748530202, 2724561.704339178279042 ], [ 649810.188813959481195, 2727354.774256507400423 ], [ 651952.955881306203082, 2727378.037986595649272 ], [ 652511.070350194117054, 2730171.484590750187635 ], [ 654653.692528865998611, 2730195.190692742355168 ], [ 654467.647244695224799, 2729263.975013745948672 ] ], [ [ 685207.965348986093886, 2754739.516022637486458 ], [ 685021.001061541959643, 2753807.059733767062426 ], [ 686091.745824764017016, 2753821.512199252843857 ], [ 686278.683511856594123, 2754753.988244376145303 ], [ 685207.965348986093886, 2754739.516022637486458 ] ], [ [ 707338.961960172047839, 2699296.145900612231344 ], [ 706266.535755778197199, 2699280.375694768503308 ], [ 706083.934944994281977, 2698349.13526679482311 ], [ 707156.387074885074981, 2698364.885798823554069 ], [ 707338.961960172047839, 2699296.145900612231344 ] ], [ [ 700224.085021830513142, 2706622.176898513920605 ], [ 700407.403511243406683, 2707553.548582497052848 ], [ 699335.247889120364562, 2707538.257749830838293 ], [ 699151.903363052755594, 2706606.905652232468128 ], [ 700224.085021830513142, 2706622.176898513920605 ] ], [ [ 653538.320331808528863, 2724608.339862369466573 ], [ 653909.871187174459919, 2726470.505342259071767 ], [ 652838.452729421551339, 2726458.685432518366724 ], [ 652652.620927497162484, 2725527.606530456338078 ], [ 651581.179505061358213, 2725515.88781600445509 ], [ 651395.381303975591436, 2724584.856949375476688 ], [ 653538.320331808528863, 2724608.339862369466573 ] ], [ [ 691769.785701421904378, 2750179.904572447296232 ], [ 691956.325405845651403, 2751112.377843939699233 ], [ 690885.475752395228483, 2751097.48406917322427 ], [ 690698.9095050804317, 2750165.030660159885883 ], [ 691769.785701421904378, 2750179.904572447296232 ] ], [ [ 656704.147721599554643, 2740440.519809411372989 ], [ 657264.621624462306499, 2743235.324841845780611 ], [ 658335.566950176493265, 2743247.565148699562997 ], [ 658896.500518386950716, 2746042.69542064005509 ], [ 656754.772859082557261, 2746018.184467835817486 ], [ 656193.679808151791804, 2743223.167674231808633 ], [ 655122.741477343486622, 2743211.093644202221185 ], [ 654748.926034153439105, 2741347.935874152928591 ], [ 655819.917487042024732, 2741359.972239699680358 ], [ 655633.126246550586075, 2740428.419199347030371 ], [ 656704.147721599554643, 2740440.519809411372989 ] ], [ [ 697374.406295861466788, 2708439.26532266754657 ], [ 697557.922076598275453, 2709370.63802502816543 ], [ 696485.831981973256916, 2709355.554529120679945 ], [ 696302.29013615171425, 2708424.20135944802314 ], [ 697374.406295861466788, 2708439.26532266754657 ] ] ], [ [ [ 655398.473269146168604, 2733920.349472224246711 ], [ 654327.266263753408566, 2733908.380287974141538 ], [ 654513.637814647634514, 2734839.725355262868106 ], [ 655584.818344836938195, 2734851.713268248829991 ], [ 655398.473269146168604, 2733920.349472224246711 ] ] ], [ [ [ 672172.378219065838493, 2753640.14192758500576 ], [ 671101.685119038564153, 2753626.774701235815883 ], [ 671288.995493892580271, 2754558.97671481128782 ], [ 672359.661952984053642, 2754572.363332336768508 ], [ 672172.378219065838493, 2753640.14192758500576 ] ] ], [ [ [ 659699.574237753869966, 2755349.254792443010956 ], [ 658628.97862111357972, 2755336.85092692496255 ], [ 658816.728770921938121, 2756268.882491331081837 ], [ 659887.297688646242023, 2756281.305442589335144 ], [ 659699.574237753869966, 2755349.254792443010956 ] ] ], [ [ [ 672734.408793308073655, 2756436.896826323121786 ], [ 668451.9790070715826, 2756383.696338733658195 ], [ 668827.17843547440134, 2758248.195631412789226 ], [ 670968.279010511469096, 2758274.706279259640723 ], [ 670780.702760005602613, 2757342.402760032564402 ], [ 671851.285417767707258, 2757355.764065579511225 ], [ 672038.834985124995001, 2758288.087010355200619 ], [ 673109.394782862160355, 2758301.551348658278584 ], [ 673296.977453310857527, 2759233.9240388777107 ], [ 674367.51441137236543, 2759247.491483537945896 ], [ 674179.958427516627125, 2758315.099296000320464 ], [ 675250.525942883105017, 2758328.730854226276278 ], [ 675063.056406009709463, 2757396.349464379716665 ], [ 672921.871895488700829, 2757369.208950264379382 ], [ 672734.408793308073655, 2756436.896826323121786 ] ] ], [ [ [ 690238.89090812834911, 2758528.352872300893068 ], [ 690051.794475686969236, 2757595.695396550465375 ], [ 688981.143641548347659, 2757580.912988954223692 ], [ 689168.266704270732589, 2758513.550561636686325 ], [ 690238.89090812834911, 2758528.352872300893068 ] ] ], [ [ [ 659380.3386967247352, 2759065.157578802201897 ], [ 660450.827459210762754, 2759077.637880914378911 ], [ 660075.081043916055933, 2757213.386162523180246 ], [ 657934.000160148483701, 2757188.585615383461118 ], [ 658121.89685777341947, 2758120.658216535113752 ], [ 659192.408810820430517, 2758133.035799984820187 ], [ 659380.3386967247352, 2759065.157578802201897 ] ] ], [ [ [ 680282.883904757676646, 2762114.236102431546897 ], [ 679212.407410911866464, 2762100.191437252797186 ], [ 679400.095595434657298, 2763032.783549009356648 ], [ 682611.456986400065944, 2763075.227929609362036 ], [ 681861.382918058894575, 2759344.805591893848032 ], [ 680790.818343415041454, 2759330.652635090984404 ], [ 680978.273986158776097, 2760263.192814879119396 ], [ 679907.740105681004934, 2760249.103826909791678 ], [ 680282.883904757676646, 2762114.236102431546897 ] ] ], [ [ [ 670836.638662644545548, 2762923.283783928956836 ], [ 669766.223856858210638, 2762909.973180215805769 ], [ 669390.426238801795989, 2761045.171333788428456 ], [ 668319.961727416608483, 2761031.983295598067343 ], [ 669071.9031953610247, 2764761.630543795414269 ], [ 671212.622020983719267, 2764788.245837352704257 ], [ 671024.600441977265291, 2763855.749636008404195 ], [ 672094.992294240742922, 2763869.163474963977933 ], [ 671719.182017454062589, 2762004.223135659936816 ], [ 672789.631161806173623, 2762017.681725275702775 ], [ 672601.842435782891698, 2761085.237571400590241 ], [ 673672.322134963585995, 2761098.760364344343543 ], [ 673296.977453310857527, 2759233.9240388777107 ], [ 671155.915063623338938, 2759207.040059060323983 ], [ 671531.366569212055765, 2761071.798469877801836 ], [ 670460.894511475577019, 2761058.443057945463806 ], [ 670836.638662644545548, 2762923.283783928956836 ] ] ], [ [ [ 674235.787477513076738, 2763896.242476134561002 ], [ 675306.190856028348207, 2763909.9076420343481 ], [ 675118.336037459084764, 2762977.363656184636056 ], [ 676188.770037880400196, 2762991.09299779869616 ], [ 675813.2931262482889, 2761126.057031868491322 ], [ 673672.322134963585995, 2761098.760364344343543 ], [ 674235.787477513076738, 2763896.242476134561002 ] ] ], [ [ [ 679400.095595434657298, 2763032.783549009356648 ], [ 678329.649793107877485, 2763018.802942325361073 ], [ 678517.424424131633714, 2763951.405823339708149 ], [ 679587.843503530370072, 2763965.406117917969823 ], [ 679400.095595434657298, 2763032.783549009356648 ] ] ], [ [ [ 678705.258786378777586, 2764884.039163295645267 ], [ 678517.424424131633714, 2763951.405823339708149 ], [ 677447.009305584011599, 2763937.489313760772347 ], [ 677634.870403663488105, 2764870.102978239301592 ], [ 678705.258786378777586, 2764884.039163295645267 ] ] ], [ [ [ 680658.266567536164075, 2763979.490199400112033 ], [ 679587.843503530370072, 2763965.406117917969823 ], [ 679775.651133066276088, 2764898.059161440003663 ], [ 680846.04746747459285, 2764912.162974579725415 ], [ 680658.266567536164075, 2763979.490199400112033 ] ] ], [ [ [ 668754.555115998489782, 2768478.503358530346304 ], [ 666614.073068289784715, 2768452.235479189548641 ], [ 666802.52767940890044, 2769384.786182299256325 ], [ 665732.319027828867547, 2769371.758681521285325 ], [ 665920.860307238646783, 2770304.320327326655388 ], [ 666991.042126356158406, 2770317.367260800674558 ], [ 667179.616407009772956, 2771249.978732131887227 ], [ 669319.93748868489638, 2771276.363460256252438 ], [ 669131.416882937191986, 2770343.713007921352983 ], [ 670201.609867809573188, 2770357.01182514987886 ], [ 670013.17589910083916, 2769424.372280159033835 ], [ 668942.956091333529912, 2769411.092979829292744 ], [ 668754.555115998489782, 2768478.503358530346304 ] ] ], [ [ [ 668627.049431786639616, 2773128.482292556203902 ], [ 670767.270591585780494, 2773155.113169702701271 ], [ 670390.103640878922306, 2771289.681810092646629 ], [ 669319.93748868489638, 2771276.363460256252438 ], [ 669508.517906450433657, 2772209.044354292564094 ], [ 668438.382348702871241, 2772195.790475321933627 ], [ 668627.049431786639616, 2773128.482292556203902 ] ] ], [ [ [ 722640.086284373071976, 2673536.774735332932323 ], [ 720493.611211825278588, 2673503.32279331702739 ], [ 720674.142988997511566, 2674434.115125764161348 ], [ 722820.566841505235061, 2674467.60663700895384 ], [ 722640.086284373071976, 2673536.774735332932323 ] ] ], [ [ [ 709761.532931706402451, 2673340.931579338386655 ], [ 708688.351754122413695, 2673325.138683553319424 ], [ 708869.165447971550748, 2674255.715395913459361 ], [ 707796.014664521208033, 2674239.984190118033439 ], [ 707976.913511783699505, 2675170.570937842130661 ], [ 704757.566407501115464, 2675123.806030326522887 ], [ 704938.601774409064092, 2676054.364042113069445 ], [ 703865.521095124655403, 2676038.918733072001487 ], [ 704046.6416811310919, 2676969.486835949588567 ], [ 708338.889719377853908, 2677031.832906574010849 ], [ 708157.871864092536271, 2676101.187171018216759 ], [ 709230.971325942431577, 2676116.95728838769719 ], [ 709050.038639267557301, 2675186.321591882500798 ], [ 710123.168520465958863, 2675202.153425284661353 ], [ 709761.532931706402451, 2673340.931579338386655 ] ] ], [ [ [ 720674.142988997511566, 2674434.115125764161348 ], [ 719600.938604025286622, 2674417.49113490851596 ], [ 719420.381212534965016, 2673486.718544881790876 ], [ 718347.156205331906676, 2673470.195441783871502 ], [ 718708.381633090320975, 2675331.730812595225871 ], [ 716562.049002660089172, 2675298.849314746446908 ], [ 716923.614646504051052, 2677160.424391540233046 ], [ 717996.727192906779237, 2677176.863933483604342 ], [ 717815.940310187870637, 2676246.041880202013999 ], [ 719962.23158706643153, 2676279.125235247425735 ], [ 719781.555396231124178, 2675348.293359366711229 ], [ 720854.734157205559313, 2675364.937107730191201 ], [ 720674.142988997511566, 2674434.115125764161348 ] ] ], [ [ [ 721216.094658374437131, 2677226.670088219456375 ], [ 721035.384714362211525, 2676295.78875621361658 ], [ 719962.23158706643153, 2676279.125235247425735 ], [ 720142.967174441786483, 2677209.986779550090432 ], [ 721216.094658374437131, 2677226.670088219456375 ] ] ], [ [ [ 730333.211256397305988, 2674587.384229592047632 ], [ 731406.466934128198773, 2674604.820082447491586 ], [ 731226.191143505740911, 2673673.828778295777738 ], [ 723713.331406484707259, 2673553.622433505486697 ], [ 724074.30067127046641, 2675415.355585274752229 ], [ 721927.917940427549183, 2675381.662059969734401 ], [ 722108.542866769596003, 2676312.53350918693468 ], [ 724254.874344553682022, 2676346.266720360144973 ], [ 724435.507375636836514, 2677277.207584276795387 ], [ 725508.655117880320176, 2677294.215947352815419 ], [ 725870.047952084802091, 2679156.226775655988604 ], [ 723723.860160388867371, 2679122.211681194137782 ], [ 723543.082765833591111, 2678191.231210840400308 ], [ 721396.863987150834873, 2678157.581120760180056 ], [ 721758.580790617503226, 2680019.492355548776686 ], [ 720685.530294889351353, 2680002.749593099113554 ], [ 720866.503447500057518, 2680933.729981244541705 ], [ 719793.483648933004588, 2680917.048741000238806 ], [ 720155.65950930211693, 2682779.059109481982887 ], [ 721228.627908836584538, 2682795.780035208445042 ], [ 721409.779213364468887, 2683726.849735134746879 ], [ 723555.679679582011886, 2683760.575684162322432 ], [ 723374.57979458977934, 2682829.46616891073063 ], [ 725520.551958326017484, 2682863.478027698583901 ], [ 725339.56282455753535, 2681932.358432796318084 ], [ 726412.582261683885008, 2681949.466523908544332 ], [ 726593.545705339638516, 2682880.606109825894237 ], [ 728739.548651466728188, 2682915.106591290794313 ], [ 728196.990386104211211, 2680121.657246802002192 ], [ 730343.168120651622303, 2680156.363053950481117 ], [ 730523.910236610216089, 2681087.523088759742677 ], [ 731596.981282491236925, 2681105.018137610983104 ], [ 731055.009780215332285, 2678311.567375077400357 ], [ 732128.163017248967662, 2678329.08347427053377 ], [ 731586.802018920890987, 2675535.841187053360045 ], [ 730513.571936821565032, 2675518.38529527746141 ], [ 730333.211256397305988, 2674587.384229592047632 ] ], [ [ 728367.127474148059264, 2675483.71718416037038 ], [ 728547.598675405140966, 2676414.708028666675091 ], [ 729620.792687016306445, 2676432.021470668260008 ], [ 729801.297586675966159, 2677363.062117261812091 ], [ 728728.129195700399578, 2677345.72866243077442 ], [ 728908.719032930210233, 2678276.779102512635291 ], [ 727835.581473888014443, 2678259.506924365647137 ], [ 727654.966003511333838, 2677328.476484079379588 ], [ 726581.807985705323517, 2677311.305579838808626 ], [ 726401.226215677219443, 2676380.324887286871672 ], [ 727474.409859761828557, 2676397.475834994576871 ], [ 727293.913044743356295, 2675466.504960060119629 ], [ 728367.127474148059264, 2675483.71718416037038 ] ] ], [ [ [ 729631.671509032254107, 2682001.27926750248298 ], [ 730704.711651365505531, 2682018.713013350497931 ], [ 730523.910236610216089, 2681087.523088759742677 ], [ 729450.844425147282891, 2681070.109431385528296 ], [ 729631.671509032254107, 2682001.27926750248298 ] ] ], [ [ [ 723389.245398146682419, 2688399.567588485311717 ], [ 723207.82297550176736, 2687468.328724724240601 ], [ 721062.138475895742886, 2687434.606348186731339 ], [ 721243.612420797580853, 2688365.805301239248365 ], [ 723389.245398146682419, 2688399.567588485311717 ] ] ], [ [ [ 720715.658919148147106, 2691142.762895506806672 ], [ 721788.390520761488006, 2691159.581478778272867 ], [ 721606.738445339840837, 2690228.292849420104176 ], [ 722679.500860819360241, 2690245.173123430926353 ], [ 722497.933942097122781, 2689313.894431630615145 ], [ 721425.145744648645632, 2689297.034129279665649 ], [ 721243.612420797580853, 2688365.805301239248365 ], [ 719097.999497881857678, 2688332.369386702775955 ], [ 719279.584374847006984, 2689263.558386224787682 ], [ 718206.811153866467066, 2689246.942940930370241 ], [ 718388.481217649881728, 2690178.141914926934987 ], [ 717315.738733650068752, 2690161.588224971201271 ], [ 717497.494004435720854, 2691092.797188292257488 ], [ 716424.782248576637357, 2691076.305292477831244 ], [ 716606.622746552689932, 2692007.524259964004159 ], [ 718751.999554659472778, 2692040.629470915533602 ], [ 718933.847823671530932, 2692971.918087133672088 ], [ 721079.192803937359713, 2693005.389987346250564 ], [ 721261.048814545501955, 2693936.748442810960114 ], [ 723406.362164786085486, 2693970.587306183297187 ], [ 723224.557798663037829, 2693039.188813877291977 ], [ 722151.872787348809652, 2693022.248533667996526 ], [ 721970.1019688018132, 2692090.900034481659532 ], [ 720897.396171433501877, 2692074.061477290466428 ], [ 720715.658919148147106, 2691142.762895506806672 ] ] ], [ [ [ 688925.31774757639505, 2698108.259222354739904 ], [ 687852.941491497447714, 2698093.900143687613308 ], [ 688035.98349322064314, 2699024.810415794607252 ], [ 686963.637461843201891, 2699010.514000897295773 ], [ 686780.569480419857427, 2698079.62289698375389 ], [ 683563.478674810496159, 2698037.28212915873155 ], [ 683746.624613811261952, 2698968.11589688109234 ], [ 684818.95804637123365, 2698982.166743380948901 ], [ 685002.137699306709692, 2699913.049127163365483 ], [ 686074.449311700649559, 2699927.200955146923661 ], [ 686257.662660231231712, 2700858.132030486594886 ], [ 685185.377053060685284, 2700843.961059978697449 ], [ 685552.034854761324823, 2702705.873640661127865 ], [ 687696.506202011951245, 2702734.374211622402072 ], [ 687879.872580331051722, 2703665.413298080209643 ], [ 688952.088567901053466, 2703679.805782515089959 ], [ 688768.748217722633854, 2702748.747451650444418 ], [ 690913.24505434173625, 2702777.739850642625242 ], [ 690363.738030392443761, 2699984.627128563821316 ], [ 689291.409461900475435, 2699970.147752067539841 ], [ 688925.31774757639505, 2698108.259222354739904 ] ] ], [ [ [ 686286.066777048166841, 2706430.054138327948749 ], [ 686653.440864500589669, 2708292.322327679488808 ], [ 687725.518081052578054, 2708306.646987580694258 ], [ 687909.26855663920287, 2709237.844906955957413 ], [ 688981.323914157575928, 2709252.271011680364609 ], [ 688797.599527960410342, 2708321.053784306626767 ], [ 689869.685229388298467, 2708335.542719827964902 ], [ 689502.4675909812795, 2706473.15882010711357 ], [ 686286.066777048166841, 2706430.054138327948749 ] ] ], [ [ [ 694959.362293496611528, 2723268.757218307349831 ], [ 693887.686459867400117, 2723253.791883313562721 ], [ 694256.998520037857816, 2725117.290881189052016 ], [ 695328.621872458723374, 2725132.295507362112403 ], [ 694959.362293496611528, 2723268.757218307349831 ] ] ], [ [ [ 696808.043855068390258, 2732587.653552038129419 ], [ 695736.630817085504532, 2732572.491143989376724 ], [ 695921.853025644901209, 2733504.526942324824631 ], [ 696993.239730463479646, 2733519.709142647217959 ], [ 696808.043855068390258, 2732587.653552038129419 ] ] ], [ [ [ 703783.957410956616513, 2756862.588071246631444 ], [ 702713.22321882750839, 2756846.738802055362612 ], [ 702899.940812443965115, 2757779.606595852412283 ], [ 700758.53909794264473, 2757748.118459734600037 ], [ 700571.768332644365728, 2756815.291087661404163 ], [ 701642.493533994420432, 2756830.973141576163471 ], [ 701269.183749862713739, 2754965.37002343731001 ], [ 700198.405403251294047, 2754949.728316189255565 ], [ 700385.057100360631011, 2755882.494378989562392 ], [ 699314.309778170310892, 2755866.916082518175244 ], [ 699501.047590966336429, 2756799.692638175096363 ], [ 698430.331285146065056, 2756784.17779099335894 ], [ 698617.155234049772844, 2757716.964853887911886 ], [ 697546.469936566078104, 2757701.513494506943971 ], [ 697733.380042005330324, 2758634.311079014092684 ], [ 700945.369394092122093, 2758680.976512748748064 ], [ 701132.259218927822076, 2759613.865264253225178 ], [ 698990.98178104008548, 2759582.630946157500148 ], [ 699177.984374804887921, 2760515.510010611265898 ], [ 702389.827363512828015, 2760562.547666809987277 ], [ 702202.904628890566528, 2759629.607955498620868 ], [ 703273.554531254339963, 2759645.434337728191167 ], [ 703086.717917309259064, 2758712.505101889837533 ], [ 704157.398936861776747, 2758728.394892878830433 ], [ 703783.957410956616513, 2756862.588071246631444 ] ] ], [ [ [ 707182.798555061919615, 2757843.586527705658227 ], [ 706112.077270689769648, 2757827.466081865597516 ], [ 706485.531430681236088, 2759693.415651936549693 ], [ 707556.199540577013977, 2759709.576819772366434 ], [ 707182.798555061919615, 2757843.586527705658227 ] ] ], [ [ [ 704208.63016120903194, 2764310.542079244274646 ], [ 706349.677248844644055, 2764342.649380036629736 ], [ 706162.596419214969501, 2763409.525477759540081 ], [ 708303.71510627202224, 2763441.927265241276473 ], [ 708490.74265053041745, 2764375.092033823486418 ], [ 707420.207648552721366, 2764358.828786706551909 ], [ 707607.321300615440123, 2765292.003990513738245 ], [ 709748.342631454812363, 2765324.655281433369964 ], [ 709187.339915726566687, 2762525.09953186661005 ], [ 713469.758171914261766, 2762591.162058642599732 ], [ 712909.609736412530765, 2759791.638231482822448 ], [ 707556.199540577013977, 2759709.576819772366434 ], [ 707742.989235936664045, 2760642.618172059766948 ], [ 706672.347727994900197, 2760626.436619728803635 ], [ 706485.531430681236088, 2759693.415651936549693 ], [ 705414.867908356594853, 2759677.338183775544167 ], [ 705788.613197897095233, 2761543.37020296882838 ], [ 703647.406277708825655, 2761511.38506910437718 ], [ 703834.421405873843469, 2762444.406599808949977 ], [ 702763.851374229183421, 2762428.519354863557965 ], [ 702950.952645980636589, 2763361.551366779021919 ], [ 704021.496034432668239, 2763377.45893065398559 ], [ 704208.63016120903194, 2764310.542079244274646 ] ], [ [ 706859.223500616732053, 2761559.488399488385767 ], [ 707046.158746371045709, 2762492.571008824277669 ], [ 705975.575068172765896, 2762476.432424610015005 ], [ 705788.613197897095233, 2761543.37020296882838 ], [ 706859.223500616732053, 2761559.488399488385767 ] ] ], [ [ [ 721898.010552492924035, 2767377.214959829114377 ], [ 720827.498348590335809, 2767359.883001142181456 ], [ 721014.470412670634687, 2768293.398938492871821 ], [ 723155.446451258379966, 2768328.188535184599459 ], [ 722968.527676080120727, 2767394.630873213987797 ], [ 724039.049743090756238, 2767412.130743664689362 ], [ 723665.443412804394029, 2765545.067106775939465 ], [ 721524.297714822809212, 2765510.234790566843003 ], [ 721898.010552492924035, 2767377.214959829114377 ] ] ] ] } }
]
}
