{
"type": "FeatureCollection",
"name": "urban-2020",
"crs": { "type": "name", "properties": { "name": "urn:ogc:def:crs:EPSG::32638" } },
"features": [
{ "type": "Feature", "properties": { "year": 2020 }, "geometry": { "type": "MultiPolygon", "coordinates": [ [ [ [ 658379.532911418005824, 2700516.302804681006819 ], [ 655162.989270648453385, 2700480.422695094719529 ], [ 655531.106731697218493, 2702341.284785122610629 ], [ 656603.232192225637846, 2702353.199719886761159 ], [ 656787.354748801328242, 2703283.692919787485152 ], [ 657859.457623715396039, 2703295.708204057998955 ], [ 657675.361186998547055, 2702365.196572836954147 ], [ 658747.493740217410959, 2702377.275345615111291 ], [ 658379.532911418005824, 2700516.302804681006819 ] ] ], [ [ [ 682702.412033234257251, 2704525.653669954743236 ], [ 683069.703763443510979, 2706387.688165120780468 ], [ 684141.820608238456771, 2706401.728080698754638 ], [ 683958.170957010821439, 2705470.676880624145269 ], [ 685030.318023013998754, 2705484.779693122021854 ], [ 684846.754139417083934, 2704553.7389509184286 ], [ 682702.412033234257251, 2704525.653669954743236 ] ] ], [ [ [ 629468.620636258623563, 2705790.298407347407192 ], [ 629283.637190801324323, 2704860.188121342565864 ], [ 628211.6737867082702, 2704850.349445990286767 ], [ 628396.683471372816712, 2705780.442010235507041 ], [ 627324.749201153754257, 2705770.667602983769029 ], [ 627509.845346306217834, 2706700.771302631590515 ], [ 626437.940202313940972, 2706691.06120279757306 ], [ 626623.122828684514388, 2707621.176052012946457 ], [ 628766.883463334175758, 2707640.713688763789833 ], [ 628952.073766659013927, 2708570.892836438026279 ], [ 633239.524995835730806, 2708611.023907305672765 ], [ 632869.414658679161221, 2706750.552075698040426 ], [ 631797.494903340819292, 2706740.431880046147853 ], [ 631612.503746705828235, 2705810.257176555227488 ], [ 629468.620636258623563, 2705790.298407347407192 ] ] ], [ [ [ 683069.703763443510979, 2706387.688165120780468 ], [ 681997.591046150540933, 2706373.73032246902585 ], [ 682181.352570827235468, 2707304.772857876028866 ], [ 681109.27004537335597, 2707290.877977225929499 ], [ 681293.117391298292205, 2708221.931012350600213 ], [ 682365.173818545881659, 2708235.845017298124731 ], [ 682549.054787237197161, 2709166.946817759424448 ], [ 684693.127787992125377, 2709195.059574345126748 ], [ 684509.29902580101043, 2708263.919410523492843 ], [ 683437.234355325927027, 2708249.841149383224547 ], [ 683069.703763443510979, 2706387.688165120780468 ] ] ], [ [ [ 629137.324272233527154, 2709501.100878659635782 ], [ 628952.073766659013927, 2708570.892836438026279 ], [ 627880.218282193760388, 2708561.065256342291832 ], [ 628065.495068960473873, 2709491.255543797742575 ], [ 629137.324272233527154, 2709501.100878659635782 ] ] ], [ [ [ 634496.514397728606127, 2709551.559104763437063 ], [ 634311.395246705505997, 2708621.26186950225383 ], [ 633239.524995835730806, 2708611.023907305672765 ], [ 633424.670410936116241, 2709541.303248055744916 ], [ 634496.514397728606127, 2709551.559104763437063 ] ] ], [ [ [ 664325.078964822459966, 2708941.254947490524501 ], [ 663253.114864346454851, 2708928.718158986885101 ], [ 663068.763472362072207, 2707997.956579812802374 ], [ 661996.776884835329838, 2707985.520548800006509 ], [ 661812.459232916822657, 2707054.806955238804221 ], [ 660740.450137398904189, 2707042.47160871187225 ], [ 661293.661310298833996, 2709834.644637955352664 ], [ 663437.526149568497203, 2709859.509121088776737 ], [ 663806.528391557047144, 2711721.179261784534901 ], [ 667022.196222890401259, 2711759.204495335463434 ], [ 666284.745379238156602, 2708035.75724731059745 ], [ 664140.753734497819096, 2708010.474705425556749 ], [ 664325.078964822459966, 2708941.254947490524501 ] ] ], [ [ [ 679149.016768744797446, 2708194.349376271944493 ], [ 679332.976070467731915, 2709125.393842158839107 ], [ 678260.957944079651497, 2709111.707151842769235 ], [ 678445.003120725974441, 2710042.762159223668277 ], [ 677373.01514041016344, 2710029.138573905453086 ], [ 677557.146212424035184, 2710960.204137260559946 ], [ 681845.017804794944823, 2711015.267940362915397 ], [ 681477.024467888986692, 2709153.01367322774604 ], [ 680404.998237019404769, 2709139.162681992165744 ], [ 680221.065049419761635, 2708208.099132639821619 ], [ 679149.016768744797446, 2708194.349376271944493 ] ] ], [ [ [ 660853.215697982581332, 2723761.962179638445377 ], [ 660667.774628396495245, 2722830.822557949461043 ], [ 659596.226110198069364, 2722818.499221341684461 ], [ 659781.693515776772983, 2723749.620103080291301 ], [ 660853.215697982581332, 2723761.962179638445377 ] ] ], [ [ [ 659136.763332253322005, 2752553.283088004682213 ], [ 659324.307057466823608, 2753485.243632416240871 ], [ 660394.959587883553468, 2753497.692820826079696 ], [ 660207.442529107211158, 2752565.713209402747452 ], [ 661278.125291728880256, 2752578.226752050686628 ], [ 661840.776149857672863, 2755374.313036193139851 ], [ 660770.173406063811854, 2755361.742161632049829 ], [ 660957.870161284226924, 2756293.811925558373332 ], [ 664169.609146740171127, 2756331.832581819035113 ], [ 663981.992459150613286, 2755399.7053082883358 ], [ 665052.606072277063504, 2755412.526709279511124 ], [ 664865.075925180222839, 2754480.410340285394341 ], [ 665935.719878854928538, 2754493.296015148051083 ], [ 665748.276251636678353, 2753561.190536527428776 ], [ 666818.950553513830528, 2753574.140446504577994 ], [ 666631.593425568426028, 2752642.045844090171158 ], [ 667702.298083322588354, 2752655.059950428083539 ], [ 667515.02743404917419, 2751722.976210037246346 ], [ 668585.762455374002457, 2751736.054473980795592 ], [ 668398.578264179872349, 2750803.981581422034651 ], [ 669469.343656786717474, 2750817.123964217491448 ], [ 669282.245903085917234, 2749885.061905290000141 ], [ 670353.041674704058096, 2749898.268368182238191 ], [ 670166.030337917385623, 2748966.217128672637045 ], [ 671236.856496297288686, 2748979.48763290932402 ], [ 671049.931555851828307, 2748047.447198591660708 ], [ 672120.788108760723844, 2748060.781705419998616 ], [ 671747.170778052182868, 2746196.752518157940358 ], [ 673889.001655203523114, 2746223.594061839859933 ], [ 674075.72731122863479, 2747155.632279281038791 ], [ 673004.836499313707463, 2747142.150532729458064 ], [ 673378.52028276422061, 2749006.278628304135054 ], [ 672307.686469958978705, 2748992.84146551322192 ], [ 672494.644625582848676, 2749924.931359636131674 ], [ 671423.841240917914547, 2749911.558185694273561 ], [ 671610.885787610663101, 2750843.658874244894832 ], [ 670540.112823314033449, 2750830.349727890919894 ], [ 670727.243781642871909, 2751762.461225097067654 ], [ 671797.990134270628914, 2751775.789715867023915 ], [ 672172.378219065838493, 2753640.14192758500576 ], [ 673243.075150207849219, 2753653.592622625175864 ], [ 673055.87783794850111, 2752721.382019262295216 ], [ 675197.336535456357524, 2752748.494931244757026 ], [ 674636.262945687398314, 2749951.927784109953791 ], [ 675707.077928840997629, 2749965.551038319710642 ], [ 675333.380878847907297, 2748101.285045965574682 ], [ 676404.252918898244388, 2748114.952772300690413 ], [ 676591.044994677300565, 2749047.090116166509688 ], [ 678732.747769170673564, 2749074.714459547773004 ], [ 678919.546456985990517, 2750006.920991152524948 ], [ 681061.212029890273698, 2750034.917803694494069 ], [ 681434.882284403429367, 2751899.49991956166923 ], [ 682505.667957819066942, 2751913.662619499955326 ], [ 682692.566061089746654, 2752846.018775492440909 ], [ 683763.329210744588636, 2752860.284575627651066 ], [ 683950.260415392927825, 2753792.690759707707912 ], [ 685021.001061541959643, 2753807.059733767062426 ], [ 684834.096450552577153, 2752874.633837138768286 ], [ 685904.867804350564256, 2752889.066561979241669 ], [ 686091.745824764017016, 2753821.512199252843857 ], [ 688233.247797745745629, 2753850.667612392455339 ], [ 688420.132293352857232, 2754783.183254323899746 ], [ 689490.862959627062082, 2754797.906046509277076 ], [ 688930.468160439631902, 2752000.390945625025779 ], [ 687859.657750050071627, 2751985.727628298103809 ], [ 687672.952202231972478, 2751053.303251279518008 ], [ 686602.119409398641437, 2751038.743140760343522 ], [ 686415.446959999389946, 2750106.36890060082078 ], [ 689628.037556626368314, 2750150.240138842258602 ], [ 689255.030880616628565, 2748285.464173830114305 ], [ 690325.955891624093056, 2748300.215073157567531 ], [ 690512.402884111506864, 2749232.607667293865234 ], [ 691583.305613569682464, 2749247.461732687894255 ], [ 691210.524296126561239, 2747382.667278689797968 ], [ 692281.484325122786686, 2747397.565005700103939 ], [ 692095.209600561065599, 2746465.19352836208418 ], [ 693166.20041378471069, 2746480.154709681868553 ], [ 692607.813375242752954, 2743683.162998219020665 ], [ 693678.887921275570989, 2743698.147904014214873 ], [ 693306.980853363405913, 2741833.598868197761476 ], [ 692235.853405860834755, 2741818.653591444250196 ], [ 691492.648878902662545, 2738089.998314723838121 ], [ 692563.882012210204266, 2738104.864519699010998 ], [ 692378.256334055680782, 2737172.756607002578676 ], [ 691306.996803689515218, 2737157.910131197422743 ], [ 690935.871535950805992, 2735293.824405643157661 ], [ 692007.183831174741499, 2735308.631469592452049 ], [ 691821.737010691314936, 2734376.614210246596485 ], [ 693964.427236190531403, 2734406.437738623470068 ], [ 693779.092746164067648, 2733474.411243695300072 ], [ 694850.470705539919436, 2733489.427643361501396 ], [ 694480.033214515540749, 2731625.425770002882928 ], [ 695551.468197231064551, 2731640.485556105151772 ], [ 695181.321732125710696, 2729776.564942488912493 ], [ 694109.834125791210681, 2729761.544607403688133 ], [ 694294.903868806781247, 2730693.470108503941447 ], [ 693223.446921067428775, 2730678.512870617676526 ], [ 693038.350868089357391, 2729746.607059196103364 ], [ 691966.87193500995636, 2729731.752295826096088 ], [ 691596.806078057270497, 2727868.070315561722964 ], [ 692668.337607903988101, 2727882.885802107863128 ], [ 691929.026529747992754, 2724155.80426787910983 ], [ 689785.757599014090374, 2724126.412646045908332 ], [ 689601.026399502763525, 2723194.756445203442127 ], [ 690672.68497158610262, 2723209.391423495486379 ], [ 690488.039659010828473, 2722277.745688756462187 ], [ 691559.72874550789129, 2722292.443715 ], [ 691744.347822969779372, 2723224.108987935818732 ], [ 693887.686459867400117, 2723253.791883313562721 ], [ 693518.61283911135979, 2721390.413036688696593 ], [ 691375.169299464439973, 2721360.808431871235371 ], [ 691190.669486941187643, 2720429.203121352475137 ], [ 693334.165448778541759, 2720458.768627058714628 ], [ 692781.180983200087212, 2717664.015246538445354 ], [ 693853.01402692485135, 2717678.863077440299094 ], [ 693668.831281518330798, 2716747.318979242816567 ], [ 695812.562791397678666, 2716777.222775402944535 ], [ 695628.491967599838972, 2715845.669496053364128 ], [ 696700.390463170711882, 2715860.72539646923542 ], [ 696332.479878725600429, 2713997.669507496990263 ], [ 697404.43506045488175, 2714012.768575115129352 ], [ 697036.815067573450506, 2712149.793248632457107 ], [ 698108.82690866291523, 2712164.935434483457357 ], [ 697741.497440375271253, 2710302.040599693544209 ], [ 696669.433420547749847, 2710286.937555788550526 ], [ 696302.29013615171425, 2708424.20135944802314 ], [ 695230.178400123259053, 2708409.219549135770649 ], [ 695413.746314044110477, 2709340.553214214276522 ], [ 694341.665048650931567, 2709325.634078257717192 ], [ 694525.318645866587758, 2710256.978093217592686 ], [ 695597.373830428463407, 2710271.916720981709659 ], [ 695781.060947183403187, 2711203.310086557175964 ], [ 693637.00714357290417, 2711173.476049879565835 ], [ 693820.806062141316943, 2712104.860274608712643 ], [ 691676.821915323613212, 2712075.316257745027542 ], [ 692044.703086791327223, 2713938.096410817932338 ], [ 690972.769751925603487, 2713923.408919915091246 ], [ 691156.825926513760351, 2714854.824330867733806 ], [ 689013.02441585296765, 2714825.657447001896799 ], [ 689197.192540550953709, 2715757.063867219723761 ], [ 688125.324335396056995, 2715742.584539180621505 ], [ 688309.578286024858244, 2716674.001411173958331 ], [ 686165.906893308740109, 2716645.251110785175115 ], [ 686350.272876239730977, 2717576.659087372478098 ], [ 684206.670607151230797, 2717548.199682333972305 ], [ 684022.252243045251817, 2716616.830344908405095 ], [ 682950.431136073661037, 2716602.743532547727227 ], [ 682766.04628874361515, 2715671.423251907341182 ], [ 683837.893581226002425, 2715685.490802143700421 ], [ 683469.355372776277363, 2713822.901032200548798 ], [ 679181.78136275766883, 2713767.278498251922429 ], [ 679366.125296784448437, 2714698.481745580211282 ], [ 678294.26811221241951, 2714684.762717434205115 ], [ 678478.697979748714715, 2715615.976529367733747 ], [ 676335.048004276352003, 2715588.747228650841862 ], [ 675597.477645074483007, 2711864.222571207210422 ], [ 674525.553885305766016, 2711850.807538964319974 ], [ 674709.8829779853113, 2712781.875253273639828 ], [ 671494.213699792628177, 2712742.066650765947998 ], [ 671309.806082502240315, 2711811.055781393311918 ], [ 667022.196222890401259, 2711759.204495335463434 ], [ 667206.708584085921757, 2712690.139964006375521 ], [ 665062.978701306274161, 2712664.670067164115608 ], [ 665617.032202334376052, 2715457.540740471333265 ], [ 663473.474506976664998, 2715432.287345484364778 ], [ 663658.331229950417764, 2716363.265705195255578 ], [ 660443.100944849778898, 2716325.946882741525769 ], [ 660258.165475560817868, 2715395.024626701604575 ], [ 653827.644068021909334, 2715322.721567494329065 ], [ 653642.61099415877834, 2714391.94011080218479 ], [ 652570.843409236869775, 2714380.196129558607936 ], [ 652755.902748253312893, 2715310.959124429617077 ], [ 650612.430390182416886, 2715287.681138132698834 ], [ 651168.126048126490787, 2718080.035486206412315 ], [ 652239.781648370437324, 2718091.688639281317592 ], [ 652425.107223935192451, 2719022.550572907086462 ], [ 653496.739937999751419, 2719034.304603967815638 ], [ 653682.099183684564196, 2719965.214433494023979 ], [ 654753.709032541140914, 2719977.069415489211679 ], [ 654939.10193022643216, 2720908.027216549497098 ], [ 656010.68893482349813, 2720919.983222456648946 ], [ 656381.601949698873796, 2722782.024401357397437 ], [ 655310.067614057566971, 2722770.031185774132609 ], [ 655124.554791412781924, 2721839.014467653352767 ], [ 647623.726222082041204, 2721757.502103475388139 ], [ 647809.423511992092244, 2722688.389318103436381 ], [ 649952.447737481561489, 2722711.302967484574765 ], [ 650138.152313802856952, 2723642.2564502870664 ], [ 651209.643096969928592, 2723653.855539217125624 ], [ 651395.381303975591436, 2724584.856949375476688 ], [ 653538.320331808528863, 2724608.339862369466573 ], [ 653724.065773161826655, 2725539.40785020776093 ], [ 654795.514066085452214, 2725551.291776868514717 ], [ 654981.293095467030071, 2726482.407886919565499 ], [ 656052.71847832435742, 2726494.393068123608828 ], [ 656238.531077575054951, 2727425.557376180309802 ], [ 657309.933571238536388, 2727437.643884981051087 ], [ 657495.779722181148827, 2728368.856466873548925 ], [ 661781.31963834434282, 2728418.104296658188105 ], [ 661409.898351941374131, 2726555.558579976670444 ], [ 664624.249508469365537, 2726593.249632083810866 ], [ 664809.851096351630986, 2727524.564240071922541 ], [ 662666.999408016446978, 2727499.316480055917054 ], [ 663038.487721492769197, 2729361.959211120847613 ], [ 657681.685810546390712, 2729300.098650220781565 ], [ 658239.763679609284736, 2732094.002979498356581 ], [ 660382.315148556022905, 2732118.611779006198049 ], [ 660940.773675357108004, 2734912.896171883214265 ], [ 658798.380911380867474, 2734888.17433604458347 ], [ 658984.706504061003216, 2735819.624207348562777 ], [ 657913.541937042726204, 2735807.368800043594092 ], [ 658286.425862533738837, 2737670.320071078836918 ], [ 656144.213276461930946, 2737645.982772301416844 ], [ 655957.6883505564183, 2736714.529901195783168 ], [ 651673.198827783693559, 2736666.925876068882644 ], [ 651859.829790685791522, 2737598.303814859129488 ], [ 652930.920511189615354, 2737610.099103291053325 ], [ 653117.584935000166297, 2738541.525412623770535 ], [ 654188.652552906423807, 2738553.422401796560735 ], [ 654375.35041943017859, 2739484.897157716099173 ], [ 657588.494468930060975, 2739521.142524967901409 ], [ 657961.910853637615219, 2741384.294217055197805 ], [ 656890.912418898195028, 2741372.091686782892793 ], [ 657264.621624462306499, 2743235.324841845780611 ], [ 658335.566950176493265, 2743247.565148699562997 ], [ 658148.708938964409754, 2742315.914769357070327 ], [ 659219.684354104334489, 2742328.219293049070984 ], [ 659967.3696506844135, 2746055.075733705889434 ], [ 657825.634929147083312, 2746030.39833257580176 ], [ 658012.759221433545463, 2746962.149233672302216 ], [ 659083.598212392884307, 2746974.465279857162386 ], [ 659270.755821901140735, 2747906.265052013099194 ], [ 660341.571754399919882, 2747918.683352922089398 ], [ 660154.440749656641856, 2746986.864579075947404 ], [ 661225.28685710253194, 2746999.347133017610759 ], [ 661599.555557489511557, 2748863.052701397798955 ], [ 660528.762662830296904, 2748850.532072459347546 ], [ 660716.013472864637151, 2749782.410754905547947 ], [ 659645.250779101857916, 2749769.954403978772461 ], [ 659832.588122628629208, 2750701.844018223695457 ], [ 656620.401203587418422, 2750664.918004721403122 ], [ 656995.415540519403294, 2752528.673102198168635 ], [ 659136.763332253322005, 2752553.283088004682213 ] ], [ [ 680874.466472965432331, 2749102.672168314922601 ], [ 681945.331858011893928, 2749116.776039473246783 ], [ 682132.050854156957939, 2750049.041268866509199 ], [ 681061.212029890273698, 2750034.917803694494069 ], [ 680874.466472965432331, 2749102.672168314922601 ] ], [ [ 688046.422949266736396, 2752918.182409528177232 ], [ 686975.643295975518413, 2752903.582752116490155 ], [ 686788.85152210178785, 2751971.147752130869776 ], [ 687859.657750050071627, 2751985.727628298103809 ], [ 688046.422949266736396, 2752918.182409528177232 ] ], [ [ 688184.110087529639713, 2748270.796607246156782 ], [ 687997.66968936030753, 2747338.473941599950194 ], [ 686926.726567581063136, 2747323.909437190275639 ], [ 686740.319308721111156, 2746391.636820204555988 ], [ 689953.240800629835576, 2746435.521011461503804 ], [ 690139.568529753014445, 2747367.852860347367823 ], [ 689068.617002123733982, 2747353.121748652774841 ], [ 689255.030880616628565, 2748285.464173830114305 ], [ 688184.110087529639713, 2748270.796607246156782 ] ], [ [ 687113.19348848995287, 2748256.212371407076716 ], [ 686042.281059626489878, 2748241.711464324500412 ], [ 685855.787612908403389, 2747309.42823343956843 ], [ 686926.726567581063136, 2747323.909437190275639 ], [ 687113.19348848995287, 2748256.212371407076716 ] ], [ [ 693408.602586483815685, 2731610.448826985899359 ], [ 691265.754298486746848, 2731580.743462039157748 ], [ 691451.022242231178097, 2732512.670223759952933 ], [ 690379.630872837500647, 2732497.922161485999823 ], [ 690750.398347663227469, 2734361.826828997116536 ], [ 689679.06395248149056, 2734347.122367012314498 ], [ 689864.563511620042846, 2735279.100289057008922 ], [ 688793.259734215098433, 2735264.459117825143039 ], [ 688422.267520834458992, 2733400.572663484606892 ], [ 689493.624036301975138, 2733415.174597181845456 ], [ 688937.662166639463976, 2730619.512028207536787 ], [ 693223.446921067428775, 2730678.512870617676526 ], [ 693408.602586483815685, 2731610.448826985899359 ] ], [ [ 664253.225955644273199, 2724730.709424539003521 ], [ 662110.216125233564526, 2724705.57480155210942 ], [ 661924.741489195032045, 2723774.386818654369563 ], [ 662996.27091346133966, 2723786.894021826330572 ], [ 662810.882506153662689, 2722855.716836166102439 ], [ 664954.004999408032745, 2722880.941265739034861 ], [ 665139.340757333440706, 2723812.156127477996051 ], [ 666210.881225033081137, 2723824.911033409181982 ], [ 666581.679680304601789, 2725687.46749839419499 ], [ 665510.191881454084069, 2725674.674786136951298 ], [ 665695.707243523444049, 2726605.978617177344859 ], [ 664624.249508469365537, 2726593.249632083810866 ], [ 664253.225955644273199, 2724730.709424539003521 ] ], [ [ 660853.215697982581332, 2723761.962179638445377 ], [ 661038.7166764724534, 2724693.13137918477878 ], [ 659967.220839954214171, 2724680.770547300111502 ], [ 659781.693515776772983, 2723749.620103080291301 ], [ 657638.65988220483996, 2723725.183630608487874 ], [ 657267.679647634387948, 2721863.046173543669283 ], [ 660482.393469769041985, 2721899.71249709604308 ], [ 660667.774628396495245, 2722830.822557949461043 ], [ 661739.326752364169806, 2722843.228428992908448 ], [ 661924.741489195032045, 2723774.386818654369563 ], [ 660853.215697982581332, 2723761.962179638445377 ] ], [ [ 661786.779746525455266, 2749794.950444666668773 ], [ 661974.06382534140721, 2750726.878183632623404 ], [ 660903.32418241747655, 2750714.319417491555214 ], [ 660716.013472864637151, 2749782.410754905547947 ], [ 661786.779746525455266, 2749794.950444666668773 ] ], [ [ 664115.553955981042236, 2750752.245823390316218 ], [ 663044.807075246470049, 2750739.52031835867092 ], [ 662483.214363528997637, 2747943.769804720301181 ], [ 665695.705495575675741, 2747982.024133093655109 ], [ 665882.763379954500124, 2748913.968359403777868 ], [ 663741.152172232163139, 2748888.343898499384522 ], [ 664115.553955981042236, 2750752.245823390316218 ] ], [ [ 689453.7558779300889, 2727838.68752030050382 ], [ 689083.823401130852289, 2725975.204112557694316 ], [ 691226.97873516776599, 2726004.508646195288748 ], [ 691411.862591299810447, 2726936.274450637865812 ], [ 690340.309069163631648, 2726921.561277870088816 ], [ 690525.278842740575783, 2727853.337555629201233 ], [ 689453.7558779300889, 2727838.68752030050382 ] ], [ [ 688012.252106683095917, 2725960.675846370868385 ], [ 687827.349072064273059, 2725028.998669873457402 ], [ 688898.946639975882135, 2725043.507435918785632 ], [ 689083.823401130852289, 2725975.204112557694316 ], [ 688012.252106683095917, 2725960.675846370868385 ] ] ], [ [ [ 694284.583783576032147, 2752074.959219975862652 ], [ 693538.756470898864791, 2748344.967787764966488 ], [ 692467.818662891979329, 2748329.966878097038716 ], [ 692840.666169509408064, 2750194.861877729650587 ], [ 691769.785701421904378, 2750179.904572447296232 ], [ 692142.924724701559171, 2752044.881564598530531 ], [ 693213.752103304956108, 2752059.878666655626148 ], [ 693773.828017471474595, 2754857.632510256953537 ], [ 694844.579999244306237, 2754872.772960115224123 ], [ 695218.208744711009786, 2756738.134842199739069 ], [ 696288.911885830457322, 2756753.398895101156086 ], [ 695728.637894148123451, 2753955.341831436380744 ], [ 697870.216762703843415, 2753986.000324973836541 ], [ 697497.10487285524141, 2752120.701608116272837 ], [ 694284.583783576032147, 2752074.959219975862652 ] ] ], [ [ [ 693960.639183872612193, 2755790.278170695528388 ], [ 693773.828017471474595, 2754857.632510256953537 ], [ 692703.080346448463388, 2754842.575596013572067 ], [ 692889.918101612129249, 2755775.201287823263556 ], [ 693960.639183872612193, 2755790.278170695528388 ] ] ], [ [ [ 647040.698491720249876, 2756137.74264482781291 ], [ 646852.654437876073644, 2755205.919173609465361 ], [ 645782.099583898787387, 2755194.517223658971488 ], [ 645594.08882476168219, 2754262.742351747117937 ], [ 646664.670407368335873, 2754274.125567832496017 ], [ 646476.74640226631891, 2753342.361810301896185 ], [ 644335.533034697058611, 2753319.716241299640387 ], [ 644711.547972032451071, 2755183.198756310157478 ], [ 643640.999578465474769, 2755171.963770021684468 ], [ 643829.123857391765341, 2756103.731076917145401 ], [ 644899.645505929132923, 2756114.984756639227271 ], [ 645276.020693841623142, 2757978.646328866947442 ], [ 646346.492051436798647, 2757990.021007308736444 ], [ 646158.301199306733906, 2757058.156534244772047 ], [ 649369.81514338881243, 2757092.725549657363445 ], [ 649181.764554501045495, 2756160.834581687580794 ], [ 647040.698491720249876, 2756137.74264482781291 ] ] ], [ [ [ 639547.069003540556878, 2756059.551418225746602 ], [ 641688.090130015625618, 2756081.474238555878401 ], [ 641499.912350985920057, 2755149.744234521407634 ], [ 642570.454379387083463, 2755160.812263265717775 ], [ 642382.363414337858558, 2754229.093424915801734 ], [ 637029.550759212463163, 2754174.680860653053969 ], [ 637217.775467938394286, 2755106.306869705207646 ], [ 638288.30505173781421, 2755117.041001354344189 ], [ 638664.881259616930038, 2756980.419278760906309 ], [ 637594.405215948587283, 2756969.648080633953214 ], [ 638159.800633500912227, 2759764.883136291988194 ], [ 639230.196294032386504, 2759775.710051067173481 ], [ 639041.697855628561229, 2758843.916656585410237 ], [ 640112.123409211169928, 2758854.808567570056766 ], [ 639547.069003540556878, 2756059.551418225746602 ] ] ], [ [ [ 724967.010966902715154, 2674501.422869642265141 ], [ 725147.499667718890123, 2675432.324162963312119 ], [ 728367.127474148059264, 2675483.71718416037038 ], [ 728006.363037163042463, 2673621.824794724583626 ], [ 725859.836944522103295, 2673587.561295744031668 ], [ 726040.240692986990325, 2674518.452762274071574 ], [ 724967.010966902715154, 2674501.422869642265141 ] ] ], [ [ [ 707796.014664521208033, 2674239.984190118033439 ], [ 707976.913511783699505, 2675170.570937842130661 ], [ 704757.566407501115464, 2675123.806030326522887 ], [ 705119.696673296624795, 2676984.951511015649885 ], [ 708338.889719377853908, 2677031.832906574010849 ], [ 708157.871864092536271, 2676101.187171018216759 ], [ 709230.971325942431577, 2676116.95728838769719 ], [ 708869.165447971550748, 2674255.715395913459361 ], [ 707796.014664521208033, 2674239.984190118033439 ] ] ], [ [ [ 732128.163017248967662, 2678329.08347427053377 ], [ 731767.196395777864382, 2676466.892109176609665 ], [ 729620.792687016306445, 2676432.021470668260008 ], [ 729981.861793574062176, 2678294.132585289422423 ], [ 727835.581473888014443, 2678259.506924365647137 ], [ 728196.990386104211211, 2680121.657246802002192 ], [ 729270.076649762107991, 2680138.969469908624887 ], [ 729089.368184986291453, 2679207.859365978743881 ], [ 731235.607655024155974, 2679242.687752834521234 ], [ 731055.009780215332285, 2678311.567375077400357 ], [ 732128.163017248967662, 2678329.08347427053377 ] ] ], [ [ [ 687146.765126781072468, 2699941.434667325112969 ], [ 686963.637461843201891, 2699010.514000897295773 ], [ 685891.29565430409275, 2698996.299444074742496 ], [ 686440.935697828885168, 2701789.092687085270882 ], [ 687513.199498934904113, 2701803.364755684509873 ], [ 687329.952473167446442, 2700872.384913254063576 ], [ 688402.24651608755812, 2700886.719710232689977 ], [ 688219.085168772260658, 2699955.750265644863248 ], [ 687146.765126781072468, 2699941.434667325112969 ] ] ], [ [ [ 704304.409501972491853, 2700180.311936988960952 ], [ 704487.181227355846204, 2701111.572731361724436 ], [ 703414.82082828367129, 2701096.008979446254671 ], [ 703780.594786322792061, 2702958.580821052659303 ], [ 705925.216334512340836, 2702989.868899554014206 ], [ 705559.546243941411376, 2701127.218430233653635 ], [ 706631.915902261971496, 2701142.946078204084188 ], [ 706449.196075565530919, 2700211.645959536079317 ], [ 704304.409501972491853, 2700180.311936988960952 ] ] ], [ [ [ 701635.991635056445375, 2702927.620746724773198 ], [ 702185.255022379336879, 2705721.584664552472532 ], [ 700040.826092609553598, 2705690.835081350523978 ], [ 700407.403511243406683, 2707553.548582497052848 ], [ 701479.563650729018264, 2707568.921548277139664 ], [ 701296.271194980014116, 2706637.530249806120992 ], [ 703440.657181115355343, 2706668.483275837730616 ], [ 703257.476314803352579, 2705737.082576774526387 ], [ 704329.702191170770675, 2705752.662572233472019 ], [ 703780.594786322792061, 2702958.580821052659303 ], [ 702708.290923178079538, 2702943.059784430544823 ], [ 702525.348202068824321, 2702011.778564851731062 ], [ 700380.702215358847752, 2701981.021646723151207 ], [ 700563.69689774827566, 2702912.2637058198452 ], [ 701635.991635056445375, 2702927.620746724773198 ] ] ], [ [ [ 686653.440864500589669, 2708292.322327679488808 ], [ 688797.599527960410342, 2708321.053784306626767 ], [ 688430.329746002680622, 2706458.708510859869421 ], [ 686286.066777048166841, 2706430.054138327948749 ], [ 686653.440864500589669, 2708292.322327679488808 ] ] ], [ [ [ 697190.95010025985539, 2707507.922475482802838 ], [ 697741.497440375271253, 2710302.040599693544209 ], [ 698813.565914067206904, 2710317.225854761898518 ], [ 698630.016622080234811, 2709385.803704001009464 ], [ 700774.219162253895774, 2709416.381619451567531 ], [ 700407.403511243406683, 2707553.548582497052848 ], [ 697190.95010025985539, 2707507.922475482802838 ] ] ], [ [ [ 688460.877997522940859, 2712031.617140774149448 ], [ 688644.867142251343466, 2712962.934100892860442 ], [ 687572.9204850186361, 2712948.512888315599412 ], [ 687941.130050294101238, 2714811.197506119962782 ], [ 689013.02441585296765, 2714825.657447001896799 ], [ 688828.915949057554826, 2713894.280863931868225 ], [ 690972.769751925603487, 2713923.408919915091246 ], [ 690604.836326538934372, 2712060.667632981669158 ], [ 688460.877997522940859, 2712031.617140774149448 ] ] ], [ [ [ 700198.405403251294047, 2754949.728316189255565 ], [ 700011.813243475509807, 2754016.992881735321134 ], [ 697870.216762703843415, 2753986.000324973836541 ], [ 698056.862047316739336, 2754918.695544050075114 ], [ 700198.405403251294047, 2754949.728316189255565 ] ] ], [ [ [ 699314.309778170310892, 2755866.916082518175244 ], [ 699501.047590966336429, 2756799.692638175096363 ], [ 698430.331285146065056, 2756784.17779099335894 ], [ 698617.155234049772844, 2757716.964853887911886 ], [ 700758.53909794264473, 2757748.118459734600037 ], [ 700571.768332644365728, 2756815.291087661404163 ], [ 701642.493533994420432, 2756830.973141576163471 ], [ 701455.808879239484668, 2755898.156251753214747 ], [ 699314.309778170310892, 2755866.916082518175244 ] ] ], [ [ [ 709374.281372566940263, 2763458.253879629541188 ], [ 708626.872261839453131, 2759725.821689482312649 ], [ 707556.199540577013977, 2759709.576819772366434 ], [ 708303.71510627202224, 2763441.927265241276473 ], [ 709374.281372566940263, 2763458.253879629541188 ] ] ], [ [ [ 723155.446451258379966, 2768328.188535184599459 ], [ 722594.868094938690774, 2765527.608998334035277 ], [ 721524.297714822809212, 2765510.234790566843003 ], [ 722084.955970701761544, 2768310.751745393034071 ], [ 723155.446451258379966, 2768328.188535184599459 ] ] ] ] } }
]
}
