{
"type": "FeatureCollection",
"name": "urban-2085",
"crs": { "type": "name", "properties": { "name": "urn:ogc:def:crs:EPSG::32638" } },
"features": [
{ "type": "Feature", "properties": { "year": 2085 }, "geometry": { "type": "MultiPolygon", "coordinates": [ [ [ [ 634496.514397728606127, 2709551.559104763437063 ], [ 634311.395246705505997, 2708621.26186950225383 ], [ 635383.268523305770941, 2708631.581912274006754 ], [ 635198.235777352820151, 2707701.295740592293441 ], [ 633054.439744418952614, 2707680.773522097617388 ], [ 632684.449740607989952, 2705820.3595513808541 ], [ 631612.503746705828235, 2705810.257176555227488 ], [ 631057.891360537963919, 2703019.906340100802481 ], [ 633201.943645182298496, 2703040.08625898277387 ], [ 633017.245614285115153, 2702109.99146802444011 ], [ 626584.966818737331778, 2702050.540929903276265 ], [ 626954.73756634676829, 2703910.546674679033458 ], [ 625882.753684064839035, 2703900.889572492800653 ], [ 626067.755628023529425, 2704830.917979709804058 ], [ 624995.800825080252253, 2704821.325186124071479 ], [ 625180.889248039457016, 2705751.364752725232393 ], [ 623037.040583561640233, 2705732.389846011530608 ], [ 623778.206857210956514, 2709452.695193923078477 ], [ 624850.024668231606483, 2709462.212135603185743 ], [ 625035.440558074042201, 2710392.378176661208272 ], [ 629322.634978066082112, 2710431.337832143064588 ], [ 629137.324272233527154, 2709501.100878659635782 ], [ 631280.991428176290356, 2709521.037854636088014 ], [ 631651.567876095534302, 2711381.611967863049358 ], [ 633795.141724207787775, 2711401.948863157071173 ], [ 633609.875987724750303, 2710471.611561089288443 ], [ 635753.514446398476139, 2710492.241230528336018 ], [ 635568.361413653823547, 2709561.897070001345128 ], [ 634496.514397728606127, 2709551.559104763437063 ] ] ], [ [ [ 639855.780251549906097, 2709604.070044700987637 ], [ 637712.064629475818947, 2709582.819331735838205 ], [ 638452.827357169357128, 2713304.514178890734911 ], [ 640596.332795656053349, 2713325.909359870944172 ], [ 639855.780251549906097, 2709604.070044700987637 ] ] ], [ [ [ 655398.473269146168604, 2733920.349472224246711 ], [ 654327.266263753408566, 2733908.380287974141538 ], [ 654513.637814647634514, 2734839.725355262868106 ], [ 655584.818344836938195, 2734851.713268248829991 ], [ 655398.473269146168604, 2733920.349472224246711 ] ] ], [ [ [ 641846.483760742470622, 2735633.486985360272229 ], [ 640775.372818268486299, 2735622.558079023379833 ], [ 641149.105308314203285, 2737484.913723439443856 ], [ 642220.163165637059137, 2737495.879436444491148 ], [ 641846.483760742470622, 2735633.486985360272229 ] ] ], [ [ [ 650788.742464236565866, 2737586.591491022147238 ], [ 649717.658507901243865, 2737574.962130183819681 ], [ 649904.402513246866874, 2738506.332403979729861 ], [ 650975.459939105785452, 2738517.980415320489556 ], [ 650788.742464236565866, 2737586.591491022147238 ] ] ], [ [ [ 635097.115276490570977, 2739283.114972062408924 ], [ 638310.082797940238379, 2739314.877685721032321 ], [ 638122.986628752551042, 2738383.681239479221404 ], [ 639194.008526749443263, 2738394.416452091187239 ], [ 639006.999033651663922, 2737463.231143339071423 ], [ 634722.823573925066739, 2737420.861325611826032 ], [ 635097.115276490570977, 2739283.114972062408924 ] ] ], [ [ [ 645620.206065247999504, 2738460.570237085223198 ], [ 646691.250236801570281, 2738471.886300169862807 ], [ 646504.42662016057875, 2737540.571809848770499 ], [ 644362.288439970347099, 2737518.059715838171542 ], [ 644549.165147433290258, 2738449.337157178204507 ], [ 643478.127459422801621, 2738438.187058916781098 ], [ 643291.224201541510411, 2737506.928100074641407 ], [ 642220.163165637059137, 2737495.879436444491148 ], [ 642407.092977284220979, 2738427.119940780568868 ], [ 640265.033534880494699, 2738405.234638860449195 ], [ 640452.076553603401408, 2739336.467829124536365 ], [ 639381.078119018347934, 2739325.631256353110075 ], [ 639942.647470445372164, 2742119.452812393661588 ], [ 638871.731938316253945, 2742108.644074877724051 ], [ 638497.239073955570348, 2740246.103629022371024 ], [ 637426.273432455374859, 2740235.41471356106922 ], [ 637613.516412954544649, 2741166.651809961069375 ], [ 635471.64752270525787, 2741145.486421179957688 ], [ 635659.00384459621273, 2742076.716364237945527 ], [ 636729.910149298259057, 2742087.275852256454527 ], [ 636917.299975130939856, 2743018.553632973693311 ], [ 639059.068522578570992, 2743039.958611492533237 ], [ 639246.465205506188795, 2743971.302713288459927 ], [ 642459.061493440996855, 2744004.088919580448419 ], [ 642646.438377699581906, 2744935.518040332943201 ], [ 644788.131840471411124, 2744957.828331818804145 ], [ 644600.808202964253724, 2744026.362113281153142 ], [ 645671.686384675791487, 2744037.623431519605219 ], [ 645110.155565679538995, 2741243.34698634268716 ], [ 646181.11678403976839, 2741254.635690547991544 ], [ 645620.206065247999504, 2738460.570237085223198 ] ], [ [ 641710.154651900171302, 2740278.668553231284022 ], [ 641897.291253865580074, 2741209.979261444881558 ], [ 640826.342851303284988, 2741199.022810663562268 ], [ 640639.179659757879563, 2740267.73054738342762 ], [ 641710.154651900171302, 2740278.668553231284022 ] ], [ [ 643665.090777680743486, 2739369.475575117394328 ], [ 643852.11415426817257, 2740300.793665720615536 ], [ 642781.132808763650246, 2740289.689592176117003 ], [ 642594.08285900845658, 2739358.389987012837082 ], [ 643665.090777680743486, 2739369.475575117394328 ] ] ], [ [ [ 649955.231848703813739, 2744083.500216343440115 ], [ 649768.101269269478507, 2743151.970500586554408 ], [ 648697.183349539176561, 2743140.395261887926608 ], [ 648884.34052433213219, 2744071.906290241982788 ], [ 647813.452521465718746, 2744060.395518448203802 ], [ 648188.000123163452372, 2745923.469392248895019 ], [ 649258.834899539127946, 2745935.017529360484332 ], [ 649071.557708352687769, 2745003.44704035948962 ], [ 651213.290495651541278, 2745026.755482282489538 ], [ 651026.126518475241028, 2744095.177298332098871 ], [ 649955.231848703813739, 2744083.500216343440115 ] ] ], [ [ [ 646233.757548989844508, 2746832.16695394879207 ], [ 647304.559106287662871, 2746843.567325039766729 ], [ 646929.838220324949361, 2744980.471327713225037 ], [ 644788.131840471411124, 2744957.828331818804145 ], [ 644975.515524004935287, 2745889.324227191507816 ], [ 646046.34045927610714, 2745900.622742721345276 ], [ 646233.757548989844508, 2746832.16695394879207 ] ] ], [ [ [ 650516.983575822901912, 2746878.267855759710073 ], [ 648375.363947276724502, 2746855.050931327044964 ], [ 648750.271631720941514, 2748718.30329949175939 ], [ 649821.026495468686335, 2748729.907601001206785 ], [ 649633.569295161636546, 2747798.247792539186776 ], [ 651775.142345291096717, 2747821.668722198344767 ], [ 651400.514460557023995, 2745958.36343614757061 ], [ 650329.673004043870606, 2745946.648876798339188 ], [ 650516.983575822901912, 2746878.267855759710073 ] ] ], [ [ [ 648750.271631720941514, 2748718.30329949175939 ], [ 647679.520082167582586, 2748706.782290763221681 ], [ 647867.090598670998588, 2749638.434429610613734 ], [ 648937.815487923217006, 2749649.974162866361439 ], [ 648750.271631720941514, 2748718.30329949175939 ] ] ], [ [ [ 655041.732149350922555, 2753436.281337930355221 ], [ 653971.097106575150974, 2753424.249370762612671 ], [ 654158.834172153845429, 2754356.144940704572946 ], [ 653088.22925118112471, 2754344.177498421166092 ], [ 653276.052979518193752, 2755276.084095686208457 ], [ 654346.631195000139996, 2755288.070467955432832 ], [ 654534.48817303206306, 2756220.02596975537017 ], [ 655605.043109165737405, 2756232.114810968283564 ], [ 655417.212843087734655, 2755300.140335564967245 ], [ 656487.797947594081052, 2755312.293700157664716 ], [ 655924.746897971024737, 2752516.493234436959028 ], [ 654854.081725857919082, 2752504.396781221963465 ], [ 655041.732149350922555, 2753436.281337930355221 ] ] ], [ [ [ 631488.515934423543513, 2753190.850112859159708 ], [ 630417.950761108193547, 2753180.653451635036618 ], [ 630794.661215894506313, 2755043.654911891557276 ], [ 631865.17284710041713, 2755053.888241511769593 ], [ 632053.591543650836684, 2755985.451768340542912 ], [ 634194.570066599408165, 2756006.205618384294212 ], [ 634006.204931044252589, 2755074.605292523279786 ], [ 635076.72543140174821, 2755085.089016734622419 ], [ 634888.447201540227979, 2754153.499943466857076 ], [ 631676.814310009591281, 2754122.354362051002681 ], [ 631488.515934423543513, 2753190.850112859159708 ] ] ], [ [ [ 641123.737010924727656, 2753286.373571899253875 ], [ 635770.806123213726096, 2753232.470846843905747 ], [ 636147.248935763724148, 2755095.656208649277687 ], [ 637217.775467938394286, 2755106.306869705207646 ], [ 637594.405215948587283, 2756969.648080633953214 ], [ 636523.932230677222833, 2756958.960409077815711 ], [ 636900.85599151533097, 2758822.383585220668465 ], [ 637971.275390990194865, 2758833.108329625800252 ], [ 638159.800633500912227, 2759764.883136291988194 ], [ 640300.595046883565374, 2759786.620577862951905 ], [ 640112.123409211169928, 2758854.808567570056766 ], [ 641182.55207552225329, 2758865.7840640633367 ], [ 640994.167308666277677, 2757933.983250605408102 ], [ 642064.625895760254934, 2757945.023677896242589 ], [ 641688.090130015625618, 2756081.474238555878401 ], [ 643829.123857391765341, 2756103.731076917145401 ], [ 644205.552564557525329, 2757967.355215506628156 ], [ 646346.492051436798647, 2757990.021007308736444 ], [ 646158.301199306733906, 2757058.156534244772047 ], [ 648299.307206925237551, 2757081.11900329682976 ], [ 648487.444546723738313, 2758013.021065642591566 ], [ 649557.925731997471303, 2758024.646448665764183 ], [ 648993.773967409739271, 2755228.973527537658811 ], [ 647923.212557775666937, 2755217.404607714619488 ], [ 647547.357963042217307, 2753353.809736232738942 ], [ 649688.590957702719606, 2753376.955878748558462 ], [ 649876.434826040174812, 2754308.775959210004658 ], [ 652017.627735717920586, 2754332.29352182103321 ], [ 651829.837275345460512, 2753400.435752661898732 ], [ 652900.465489848866127, 2753412.30084288213402 ], [ 652712.761697601526976, 2752480.454111851286143 ], [ 647359.520691260229796, 2752422.057079045102 ], [ 647171.743439293000847, 2751490.334251318126917 ], [ 648242.411678481032141, 2751501.828105031978339 ], [ 647867.090598670998588, 2749638.434429610613734 ], [ 646796.369003071682528, 2749626.978015574160963 ], [ 646984.026209208415821, 2750558.641235881019384 ], [ 644842.64616023004055, 2750535.941019129473716 ], [ 645218.247413960983977, 2752399.282088767271489 ], [ 644147.615635390393436, 2752388.019692273810506 ], [ 644335.533034697058611, 2753319.716241299640387 ], [ 642194.332513604313135, 2753297.404372514691204 ], [ 642382.363414337858558, 2754229.093424915801734 ], [ 641311.794643935281783, 2754218.044018022250384 ], [ 641123.737010924727656, 2753286.373571899253875 ] ], [ [ 646288.882424639887176, 2752410.627883842214942 ], [ 646476.74640226631891, 2753342.361810301896185 ], [ 645406.138100760290399, 2753330.99731250712648 ], [ 645218.247413960983977, 2752399.282088767271489 ], [ 646288.882424639887176, 2752410.627883842214942 ] ] ], [ [ [ 659192.408810820430517, 2758133.035799984820187 ], [ 659380.3386967247352, 2759065.157578802201897 ], [ 660450.827459210762754, 2759077.637880914378911 ], [ 660075.081043916055933, 2757213.386162523180246 ], [ 657934.000160148483701, 2757188.585615383461118 ], [ 658121.89685777341947, 2758120.658216535113752 ], [ 659192.408810820430517, 2758133.035799984820187 ] ] ], [ [ [ 646534.742930420907214, 2758921.915381830651313 ], [ 647605.190772553789429, 2758933.392423139885068 ], [ 647981.819038447225466, 2760797.308584745973349 ], [ 650122.61747535795439, 2760820.588904265314341 ], [ 649934.326900061918423, 2759888.578108727931976 ], [ 648863.89924638485536, 2759876.915005558170378 ], [ 648487.444546723738313, 2758013.021065642591566 ], [ 646346.492051436798647, 2757990.021007308736444 ], [ 646534.742930420907214, 2758921.915381830651313 ] ] ], [ [ [ 622860.533934705192223, 2763338.80521232355386 ], [ 620720.052869527135044, 2763319.764848824590445 ], [ 620909.335613448405638, 2764251.375843486282974 ], [ 619839.126024833531119, 2764241.96304864808917 ], [ 619649.816366332932375, 2763310.370216312352568 ], [ 617509.35130000137724, 2763291.83204337162897 ], [ 617888.138581090606749, 2765154.974810848943889 ], [ 618958.315945946145803, 2765164.238277518656105 ], [ 619147.773070584284142, 2766095.872192592360079 ], [ 620217.926135793095455, 2766105.237577309366316 ], [ 620028.495948666124605, 2765173.585496611427516 ], [ 621098.678612985066138, 2765183.016469398979098 ], [ 621288.081866096938029, 2766114.686743677593768 ], [ 623428.401416891021654, 2766133.836426520254463 ], [ 622860.533934705192223, 2763338.80521232355386 ] ] ], [ [ [ 617888.138581090606749, 2765154.974810848943889 ], [ 616817.963830367545597, 2765145.795095343142748 ], [ 617007.474840545095503, 2766077.392763031180948 ], [ 618077.622646743315272, 2766086.59058825392276 ], [ 617888.138581090606749, 2765154.974810848943889 ] ] ], [ [ [ 652323.864012900041416, 2766425.163721761200577 ], [ 653394.110729144071229, 2766437.126986471004784 ], [ 653205.513904638006352, 2765504.897892973385751 ], [ 655346.071217600721866, 2765529.037753504235297 ], [ 655534.614387327572331, 2766461.304997898638248 ], [ 656604.871376727242023, 2766473.519747906830162 ], [ 657170.779990582494065, 2769270.559995387680829 ], [ 656100.603527198778465, 2769258.287798827979714 ], [ 656289.386443717987277, 2770190.675812893081456 ], [ 660570.005855229916051, 2770240.344990193843842 ], [ 660381.330365330795757, 2769307.880086977034807 ], [ 661451.52089747809805, 2769320.487957117147744 ], [ 661074.403270992334001, 2767455.610439201351255 ], [ 662144.651040919008665, 2767468.263638150878251 ], [ 661767.82659236586187, 2765603.468637640587986 ], [ 660697.525200200732797, 2765590.853969808202237 ], [ 660132.657297816127539, 2762793.945927719585598 ], [ 659062.27909934730269, 2762781.472665382549167 ], [ 658874.082824223325588, 2761849.249525520019233 ], [ 657803.681382138980553, 2761836.879126800224185 ], [ 658180.187398699694313, 2763701.317272558808327 ], [ 656039.502133652102202, 2763676.751139047555625 ], [ 656227.898614424513653, 2764608.977188833523542 ], [ 655157.587989820400253, 2764596.800658167805523 ], [ 654969.164706082548946, 2763664.59369456442073 ], [ 652828.500142098055221, 2763640.530041875783354 ], [ 653016.977041592122987, 2764572.698917212896049 ], [ 650876.379669710760936, 2764548.932259182445705 ], [ 651064.970181161770597, 2765481.093227490317076 ], [ 648924.439857280580327, 2765457.623744101263583 ], [ 649113.144030804745853, 2766389.776872160844505 ], [ 646972.680610977113247, 2766366.604743517469615 ], [ 647161.498496737214737, 2767298.750098070595413 ], [ 646091.298548013437539, 2767287.270879407878965 ], [ 646469.168117923429236, 2769151.613972047809511 ], [ 647539.314313578186557, 2769163.130999565590173 ], [ 647728.312240485684015, 2770095.366581113543361 ], [ 648798.434816540800966, 2770106.986465852241963 ], [ 648420.552740289829671, 2768242.507499475032091 ], [ 649490.732370920130052, 2768254.173362773377448 ], [ 649301.908202714286745, 2767321.960072616580874 ], [ 652512.547638841788284, 2767357.403901248238981 ], [ 652323.864012900041416, 2766425.163721761200577 ] ] ], [ [ [ 683746.624613811261952, 2698968.11589688109234 ], [ 682674.295332393143326, 2698954.146902651060373 ], [ 682857.52698567439802, 2699884.991116038989276 ], [ 683929.830265372758731, 2699898.979181436356157 ], [ 683746.624613811261952, 2698968.11589688109234 ] ] ], [ [ [ 661075.787715445854701, 2703332.245750492438674 ], [ 662147.904982330976054, 2703344.588836065493524 ], [ 661963.91299255087506, 2702414.003199500031769 ], [ 663036.060021557263099, 2702426.409668230451643 ], [ 662852.154033242142759, 2701495.834740223363042 ], [ 663924.330832452978939, 2701508.30455301143229 ], [ 663740.510825082892552, 2700577.740319140721112 ], [ 662668.307944779284298, 2700565.289075271692127 ], [ 662484.521758199203759, 2699634.772656521294266 ], [ 659267.856824748683721, 2699597.965644241310656 ], [ 659451.721245008986443, 2700528.426569959148765 ], [ 656235.166948451893404, 2700492.300868891179562 ], [ 656051.224265294033103, 2699561.895184156484902 ], [ 653906.820221602218226, 2699538.257384451571852 ], [ 654090.815096346312203, 2700468.626381860114634 ], [ 653018.644401334109716, 2700456.911927571520209 ], [ 653386.866316576371901, 2702317.700663642957807 ], [ 656603.232192225637846, 2702353.199719886761159 ], [ 656971.537259138771333, 2704214.215325064025819 ], [ 658043.614004535018466, 2704226.249055889435112 ], [ 657859.457623715396039, 2703295.708204057998955 ], [ 658931.564060332020745, 2703307.805436160415411 ], [ 658747.493740217410959, 2702377.275345615111291 ], [ 660891.769618792575784, 2702401.678657277021557 ], [ 661075.787715445854701, 2703332.245750492438674 ] ] ], [ [ [ 659852.814636966446415, 2707960.894763783086091 ], [ 659668.444664929877035, 2707030.218325380701572 ], [ 658596.442791344830766, 2707018.047103570308536 ], [ 658780.838928302633576, 2707948.705006409436464 ], [ 659852.814636966446415, 2707960.894763783086091 ] ] ], [ [ [ 686653.440864500589669, 2708292.322327679488808 ], [ 687725.518081052578054, 2708306.646987580694258 ], [ 687909.26855663920287, 2709237.844906955957413 ], [ 688981.323914157575928, 2709252.271011680364609 ], [ 688797.599527960410342, 2708321.053784306626767 ], [ 689869.685229388298467, 2708335.542719827964902 ], [ 689502.4675909812795, 2706473.15882010711357 ], [ 686286.066777048166841, 2706430.054138327948749 ], [ 686653.440864500589669, 2708292.322327679488808 ] ] ], [ [ [ 658780.838928302633576, 2707948.705006409436464 ], [ 657708.866797606693581, 2707936.597336900886148 ], [ 658077.891236718511209, 2709797.964013365563005 ], [ 659149.811002064030617, 2709810.108743787743151 ], [ 658780.838928302633576, 2707948.705006409436464 ] ] ], [ [ [ 686837.217432544799522, 2709223.500967132393271 ], [ 686653.440864500589669, 2708292.322327679488808 ], [ 685581.367854138137773, 2708278.079802643507719 ], [ 685397.624882446834818, 2707346.950101951137185 ], [ 684325.52996519242879, 2707332.808918321505189 ], [ 684141.820608238456771, 2706401.728080698754638 ], [ 685213.941604714142159, 2706415.850071123801172 ], [ 685030.318023013998754, 2705484.779693122021854 ], [ 686102.469261790858582, 2705498.96455433126539 ], [ 685918.931434942758642, 2704567.904621405526996 ], [ 686991.112924345536157, 2704582.152314477600157 ], [ 686807.66083195572719, 2703651.1028120694682 ], [ 685735.453298576408997, 2703636.874322521965951 ], [ 685552.034854761324823, 2702705.873640661127865 ], [ 684479.805474810069427, 2702691.746305828448385 ], [ 684663.249955993378535, 2703622.727827491238713 ], [ 683591.050780008896254, 2703608.663325041532516 ], [ 683774.581013577990234, 2704539.655301076825708 ], [ 682702.412033234257251, 2704525.653669954743236 ], [ 682886.028039596392773, 2705456.656114908866584 ], [ 681813.889246584498324, 2705442.717394058126956 ], [ 681997.591046150540933, 2706373.73032246902585 ], [ 680925.482432183111086, 2706359.854550834745169 ], [ 681293.117391298292205, 2708221.931012350600213 ], [ 678076.97252511093393, 2708180.68174136755988 ], [ 678260.957944079651497, 2709111.707151842769235 ], [ 677188.943833698518574, 2709098.102609174326062 ], [ 677373.01514041016344, 2710029.138573905453086 ], [ 676301.031155076925643, 2710015.597162425052375 ], [ 676485.188369981944561, 2710946.643695887178183 ], [ 670053.523923799977638, 2710867.007184265647084 ], [ 669869.209785381448455, 2709936.07424119533971 ], [ 667725.300193928764202, 2709910.223908838350326 ], [ 667356.746810166630894, 2708048.521667041815817 ], [ 665212.747695401892997, 2708023.074927350040525 ], [ 665028.50849944842048, 2707092.305390926543623 ], [ 667172.559902125503868, 2707117.714695266447961 ], [ 666988.43285270454362, 2706186.937133657280356 ], [ 664844.329181464854628, 2706161.565234135370702 ], [ 664476.150187566876411, 2704300.172991808038205 ], [ 663404.05168961873278, 2704287.647380877751857 ], [ 663772.28293269558344, 2706149.002348226495087 ], [ 661628.201487984275445, 2706124.12269551679492 ], [ 661812.459232916822657, 2707054.806955238804221 ], [ 660740.450137398904189, 2707042.47160871187225 ], [ 660924.793947757338174, 2707973.166610687039793 ], [ 659852.814636966446415, 2707960.894763783086091 ], [ 660037.2445332929492, 2708891.60052238823846 ], [ 661109.197672735899687, 2708903.890948133543134 ], [ 661847.411678107106127, 2712627.081990833859891 ], [ 662919.263677879818715, 2712639.529116048011929 ], [ 663103.940728894434869, 2713570.419067876413465 ], [ 664175.770181982778013, 2713582.967137403320521 ], [ 664360.480902744922787, 2714513.905268192756921 ], [ 663288.677672608639114, 2714501.338472035247833 ], [ 663473.474506976664998, 2715432.287345484364778 ], [ 654899.388847088208422, 2715334.566312643699348 ], [ 654529.435191188473254, 2713472.995766410138458 ], [ 653457.63789805455599, 2713461.187985599506646 ], [ 653642.61099415877834, 2714391.94011080218479 ], [ 651499.079256217577495, 2714368.534420792013407 ], [ 651684.16486367455218, 2715299.278981841169298 ], [ 649540.69930367206689, 2715276.165591719560325 ], [ 649355.561149439075962, 2714345.457814324647188 ], [ 648283.807147455983795, 2714334.042913470882922 ], [ 649024.825014197500423, 2718056.976322330068797 ], [ 652239.781648370437324, 2718091.688639281317592 ], [ 652795.938333858619444, 2720884.362613456323743 ], [ 651724.361693958286196, 2720872.654013039544225 ], [ 651909.893563717720099, 2721803.585640710778534 ], [ 647623.726222082041204, 2721757.502103475388139 ], [ 647995.180829107295722, 2723619.305909187532961 ], [ 651209.643096969928592, 2723653.855539217125624 ], [ 651395.381303975591436, 2724584.856949375476688 ], [ 649252.455859748530202, 2724561.704339178279042 ], [ 649810.188813959481195, 2727354.774256507400423 ], [ 650881.570656748139299, 2727366.364792494103312 ], [ 651067.575241696904413, 2728297.465565676800907 ], [ 652138.934052378637716, 2728309.157324540428817 ], [ 652324.972209357656538, 2729240.306186921428889 ], [ 651253.639822246157564, 2729228.595847894437611 ], [ 651439.764396348153241, 2730159.755656151566654 ], [ 654653.692528865998611, 2730195.190692742355168 ], [ 654467.647244695224799, 2729263.975013745948672 ], [ 655538.989940929226577, 2729275.933504773769528 ], [ 655725.008801685762592, 2730207.167863370850682 ], [ 656796.328562156530097, 2730219.227782598696649 ], [ 657727.189869240042754, 2734875.937756987288594 ], [ 655584.818344836938195, 2734851.713268248829991 ], [ 655771.223372660344467, 2735783.106738877948374 ], [ 656842.380901228869334, 2735795.19631110643968 ], [ 657028.819387772586197, 2736726.638261085376143 ], [ 653815.436711850576103, 2736690.562009009998292 ], [ 653628.918741438305005, 2735759.176337955985218 ], [ 649344.35051188012585, 2735712.310464798472822 ], [ 649530.97450676234439, 2736643.621489477809519 ], [ 650602.084983866312541, 2736655.23221527878195 ], [ 650788.742464236565866, 2737586.591491022147238 ], [ 651859.829790685791522, 2737598.303814859129488 ], [ 652046.520738379098475, 2738529.711417668964714 ], [ 653117.584935000166297, 2738541.525412623770535 ], [ 653304.309331832570024, 2739472.98141853325069 ], [ 654375.35041943017859, 2739484.897157716099173 ], [ 654562.108247200143524, 2740416.401642797514796 ], [ 653491.093699624645524, 2740404.467138123698533 ], [ 653677.938036315259524, 2741335.982588501647115 ], [ 652606.953469614731148, 2741324.112381116021425 ], [ 652420.082579903537408, 2740392.615683698561043 ], [ 651349.074864113470539, 2740380.84727790672332 ], [ 651722.929742421372794, 2742243.83293977426365 ], [ 653864.842339840717614, 2742267.527786788064986 ], [ 654051.806608134415001, 2743199.102750109042972 ], [ 652980.875176624511369, 2743187.194990318268538 ], [ 653167.925989795126952, 2744118.780936352908611 ], [ 652097.024557540658861, 2744106.93753780098632 ], [ 652284.161936246557161, 2745038.534480686765164 ], [ 651213.290495651541278, 2745026.755482282489538 ], [ 651400.514460557023995, 2745958.36343614757061 ], [ 653542.207525133155286, 2745982.042196976486593 ], [ 653729.438243164331652, 2746913.717545868363231 ], [ 652658.616625615395606, 2746901.817739902529866 ], [ 652845.933932142448612, 2747833.504090537782758 ], [ 654987.527348753763363, 2747857.424642297439277 ], [ 654800.263287645415403, 2746925.700596590526402 ], [ 655871.091782934730873, 2746937.766893699765205 ], [ 656058.329226249363273, 2747869.509828977752477 ], [ 659270.755821901140735, 2747906.265052013099194 ], [ 659457.973344831960276, 2748838.094754316378385 ], [ 658387.187579630874097, 2748825.740745275747031 ], [ 658761.855622124741785, 2750689.451984129380435 ], [ 657691.126657060347497, 2750677.143313521519303 ], [ 657503.736035849899054, 2749745.291711851023138 ], [ 656432.983938653371297, 2749733.08536728983745 ], [ 656807.878404903342016, 2751596.780577283818275 ], [ 655737.183095896849409, 2751584.619676859118044 ], [ 655924.746897971024737, 2752516.493234436959028 ], [ 656995.415540519403294, 2752528.673102198168635 ], [ 657183.012608352350071, 2753460.595596692990512 ], [ 659324.307057466823608, 2753485.243632416240871 ], [ 659511.910693330690265, 2754417.234194809570909 ], [ 660582.536547566414811, 2754429.7024658145383 ], [ 660770.173406063811854, 2755361.742161632049829 ], [ 658628.97862111357972, 2755336.85092692496255 ], [ 658816.728770921938121, 2756268.882491331081837 ], [ 659887.297688646242023, 2756281.305442589335144 ], [ 660075.081043916055933, 2757213.386162523180246 ], [ 665427.845937533653341, 2757276.849856081884354 ], [ 665240.196077095111832, 2756344.673208775930107 ], [ 667381.380983453826047, 2756370.605085467454046 ], [ 667193.844334559747949, 2755438.420049882028252 ], [ 669335.09747030865401, 2755464.647453747689724 ], [ 669147.673983259242959, 2754532.453962753526866 ], [ 665935.719878854928538, 2754493.296015148051083 ], [ 665748.276251636678353, 2753561.190536527428776 ], [ 667889.628567364416085, 2753587.173816183581948 ], [ 667702.298083322588354, 2752655.059950428083539 ], [ 668773.006473687244579, 2752668.157490184530616 ], [ 668585.762455374002457, 2751736.054473980795592 ], [ 670727.243781642871909, 2751762.461225097067654 ], [ 671101.685119038564153, 2753626.774701235815883 ], [ 670030.995826299069449, 2753613.490941757336259 ], [ 670218.33284525887575, 2754545.673592220526189 ], [ 672359.661952984053642, 2754572.363332336768508 ], [ 672172.378219065838493, 2753640.14192758500576 ], [ 674313.775936293182895, 2753667.126788187772036 ], [ 674126.605248890817165, 2752734.89675310626626 ], [ 675197.336535456357524, 2752748.494931244757026 ], [ 675010.252236237400211, 2751816.275670846458524 ], [ 676081.014031063416041, 2751829.93782285740599 ], [ 675707.077928840997629, 2749965.551038319710642 ], [ 677848.71966063301079, 2749993.047639967873693 ], [ 678035.604662115685642, 2750925.264890995342284 ], [ 681248.017301076557487, 2750967.193714987952262 ], [ 681808.791378988651559, 2753764.203278051689267 ], [ 680738.062941072043031, 2753750.084766574669629 ], [ 680925.133660796796903, 2754682.462311388924718 ], [ 679854.435860454803333, 2754668.40766778960824 ], [ 680041.59291918517556, 2755600.795928423292935 ], [ 678970.925748585257679, 2755586.805191352032125 ], [ 679345.472313819103874, 2757451.633523568045348 ], [ 681486.704091938678175, 2757479.777098751626909 ], [ 681674.013652550289407, 2758412.276136883534491 ], [ 683815.208266850328073, 2758440.79353697411716 ], [ 684002.524212277494371, 2759373.362464061938226 ], [ 685073.100979428971186, 2759387.766383313573897 ], [ 685447.858577599748969, 2761253.035255067516118 ], [ 686518.386122498195618, 2761267.562491889577359 ], [ 686705.827744683949277, 2762200.262546555139124 ], [ 687776.332752653164789, 2762214.893380964174867 ], [ 686278.683511856594123, 2754753.988244376145303 ], [ 687349.40581870416645, 2754768.543987610843033 ], [ 687536.376563288038597, 2755701.070257975719869 ], [ 689677.780499293003231, 2755730.47200112324208 ], [ 689864.757672027335502, 2756663.068445316050202 ], [ 688794.080217393813655, 2756648.305925151333213 ], [ 688981.143641548347659, 2757580.912988954223692 ], [ 687910.497008208883926, 2757566.214191153645515 ], [ 688097.646704266080633, 2758498.831888877321035 ], [ 689168.266704270732589, 2758513.550561636686325 ], [ 689355.449403414735571, 2759446.21866067359224 ], [ 690426.046967203728855, 2759461.040890048258007 ], [ 690051.794475686969236, 2757595.695396550465375 ], [ 691122.449534427374601, 2757610.561415953561664 ], [ 691309.519339635735378, 2758543.238822884391993 ], [ 692380.152022591675632, 2758558.208415414672345 ], [ 691819.201309306663461, 2755760.207966629881412 ], [ 693960.639183872612193, 2755790.278170695528388 ], [ 694147.509944200515747, 2756722.954383218195289 ], [ 695218.208744711009786, 2756738.134842199739069 ], [ 695405.112491499981843, 2757670.861652306746691 ], [ 697546.469936566078104, 2757701.513494506943971 ], [ 697733.380042005330324, 2758634.311079014092684 ], [ 699874.701842830982059, 2758665.337710302788764 ], [ 700061.618277575820684, 2759598.206261850427836 ], [ 698990.98178104008548, 2759582.630946157500148 ], [ 699177.984374804887921, 2760515.510010611265898 ], [ 702389.827363512828015, 2760562.547666809987277 ], [ 702202.904628890566528, 2759629.607955498620868 ], [ 703273.554531254339963, 2759645.434337728191167 ], [ 703086.717917309259064, 2758712.505101889837533 ], [ 705228.084493443951942, 2758744.36835102783516 ], [ 705041.36056799965445, 2757811.429279397241771 ], [ 706112.077270689769648, 2757827.466081865597516 ], [ 705925.43941235949751, 2756894.537444413173944 ], [ 702713.22321882750839, 2756846.738802055362612 ], [ 702899.940812443965115, 2757779.606595852412283 ], [ 700758.53909794264473, 2757748.118459734600037 ], [ 700571.768332644365728, 2756815.291087661404163 ], [ 701642.493533994420432, 2756830.973141576163471 ], [ 701269.183749862713739, 2754965.37002343731001 ], [ 700198.405403251294047, 2754949.728316189255565 ], [ 699825.28062319336459, 2753084.288058117497712 ], [ 698754.45361823332496, 2753068.770126916002482 ], [ 698567.953998258337379, 2752136.115987147670239 ], [ 697497.10487285524141, 2752120.701608116272837 ], [ 697310.638271922827698, 2751188.098075359594077 ], [ 695168.900110315647908, 2751157.559703053440899 ], [ 694796.039509650669061, 2749292.524126337841153 ], [ 693725.123902472201735, 2749277.419960168655962 ], [ 693538.756470898864791, 2748344.967787764966488 ], [ 692467.818662891979329, 2748329.966878097038716 ], [ 692281.484325122786686, 2747397.565005700103939 ], [ 693352.448640624294057, 2747412.546043409500271 ], [ 693166.20041378471069, 2746480.154709681868553 ], [ 694237.195534362690523, 2746495.199175630230457 ], [ 693864.93085960985627, 2744630.467948111239821 ], [ 694935.983265449875034, 2744645.555922192055732 ], [ 694378.112616972182877, 2741848.627291073091328 ], [ 693306.980853363405913, 2741833.598868197761476 ], [ 692378.256334055680782, 2737172.756607002578676 ], [ 694520.788321558386087, 2737202.698577418923378 ], [ 694335.275026010116562, 2736270.581388165708631 ], [ 692192.690273003070615, 2736240.678929407615215 ], [ 692007.183831174741499, 2735308.631469592452049 ], [ 693078.50042126129847, 2735323.521482925396413 ], [ 692893.079965541372076, 2734391.484512778930366 ], [ 693964.427236190531403, 2734406.437738623470068 ], [ 693779.092746164067648, 2733474.411243695300072 ], [ 694850.470705539919436, 2733489.427643361501396 ], [ 694665.222160800825804, 2732557.411609190050513 ], [ 695736.630817085504532, 2732572.491143989376724 ], [ 695551.468197231064551, 2731640.485556105151772 ], [ 696622.907558627659455, 2731655.628187348600477 ], [ 696252.813711104448885, 2729791.668066501617432 ], [ 697324.310086737968959, 2729806.853981503285468 ], [ 697139.378831053967588, 2728874.899432203732431 ], [ 696067.856164262862876, 2728859.733275748323649 ], [ 695882.958204861264676, 2727927.828641728498042 ], [ 694811.413647281937301, 2727912.764963151421398 ], [ 694996.337891111848876, 2728844.649882174562663 ], [ 693924.823987585259601, 2728829.649249424226582 ], [ 693739.873456304892898, 2727897.784017293713987 ], [ 692668.337607903988101, 2727882.885802107863128 ], [ 692298.562822831561789, 2726019.284917648881674 ], [ 693370.151222973829135, 2726034.14386154524982 ], [ 692816.014977711718529, 2723238.909140533767641 ], [ 693887.686459867400117, 2723253.791883313562721 ], [ 693703.119843509281054, 2722322.087449703831226 ], [ 694774.821903143078089, 2722337.033162214327604 ], [ 694590.34111501800362, 2721405.339142112061381 ], [ 696733.810799355152994, 2721435.438969186041504 ], [ 696365.13282679731492, 2719572.062463482841849 ], [ 695293.343396581476554, 2719557.010560300201178 ], [ 695109.067611841950566, 2718625.386955879628658 ], [ 696180.883223100099713, 2718640.419241928029805 ], [ 695996.693210598314181, 2717708.806018299423158 ], [ 697068.539398745750077, 2717723.901132349390537 ], [ 696700.390463170711882, 2715860.72539646923542 ], [ 697772.293382392846979, 2715875.863672510255128 ], [ 697588.334431343013421, 2714944.301143864169717 ], [ 699732.205900407861918, 2714974.785523034632206 ], [ 699548.3587732919259, 2714043.213676904328167 ], [ 698476.394683934631757, 2714027.949964225292206 ], [ 697741.497440375271253, 2710302.040599693544209 ], [ 699885.638865774963051, 2710332.493323070928454 ], [ 700252.863994600251317, 2712195.466610358096659 ], [ 701324.889287726720795, 2712210.855604558251798 ], [ 700957.716319652274251, 2710347.843006709124893 ], [ 702029.798299855319783, 2710363.274907776154578 ], [ 701662.91565485810861, 2708500.342745997477323 ], [ 702735.054295483278111, 2708515.817504888400435 ], [ 702551.728331749560311, 2707584.376649274490774 ], [ 703623.897578480071388, 2707599.913887603674084 ], [ 703440.657181115355343, 2706668.483275837730616 ], [ 704512.857042465126142, 2706684.082954813260585 ], [ 704146.606863314984366, 2704821.272100504953414 ], [ 705218.863350151572376, 2704836.914484997745603 ], [ 705035.853540460695513, 2703905.53422592766583 ], [ 707180.432402791921049, 2703937.025728818029165 ], [ 706997.534067975822836, 2703005.635945716872811 ], [ 708069.856473296415061, 2703021.484999360051006 ], [ 707704.290226539596915, 2701158.755677426699549 ], [ 709849.052969860145822, 2701190.620738297235221 ], [ 709666.410969072254375, 2700259.261422330513597 ], [ 710738.825372657272965, 2700275.297099670395255 ], [ 710556.268776033190079, 2699343.94790995400399 ], [ 711628.713863002019934, 2699360.04571761097759 ], [ 711446.242650295025669, 2698428.706639398820698 ], [ 710373.771649579866789, 2698412.628618027549237 ], [ 710191.33399540069513, 2697481.339206765405834 ], [ 709118.841841791057959, 2697465.362803924363106 ], [ 709301.305402935715392, 2698396.632472265977412 ], [ 708228.843886118382215, 2698380.718199924565852 ], [ 708046.354415072943084, 2697449.468246384523809 ], [ 706973.871690995874815, 2697433.655531970784068 ], [ 706791.415810599108227, 2696502.455082956235856 ], [ 705718.911858825711533, 2696486.74385284120217 ], [ 705901.39364531240426, 2697417.924658516421914 ], [ 704828.92025377007667, 2697402.275623865425587 ], [ 705011.487472200300545, 2698333.466601681429893 ], [ 703939.044632261851802, 2698317.879801336675882 ], [ 704121.697302910033613, 2699249.080966011155397 ], [ 705194.114211435546167, 2699264.687383950687945 ], [ 705376.800469381036237, 2700195.937987769022584 ], [ 703232.023149111890234, 2700164.767805057577789 ], [ 703414.82082828367129, 2701096.008979446254671 ], [ 702342.465022501302883, 2701080.527172356378287 ], [ 702525.348202068824321, 2702011.778564851731062 ], [ 701453.022934798616916, 2701996.359121437650174 ], [ 701270.113785788067617, 2701065.127307972405106 ], [ 700197.767093921196647, 2701049.809384186286479 ], [ 700746.751139000058174, 2703843.535578570794314 ], [ 699674.486923124175519, 2703828.240979011636227 ], [ 700040.826092609553598, 2705690.835081350523978 ], [ 697896.415208358783275, 2705660.41380579629913 ], [ 698079.726194464485161, 2706591.716508872341365 ], [ 697007.553491886006668, 2706576.60946635575965 ], [ 697190.95010025985539, 2707507.922475482802838 ], [ 695046.670090758241713, 2707477.9157086298801 ], [ 695230.178400123259053, 2708409.219549135770649 ], [ 694158.071063610143028, 2708394.319889679551125 ], [ 694341.665048650931567, 2709325.634078257717192 ], [ 691125.447426097816788, 2709281.369723732583225 ], [ 691492.970781095325947, 2711143.97093744110316 ], [ 688276.948516955133528, 2711100.32996647246182 ], [ 688460.877997522940859, 2712031.617140774149448 ], [ 687388.905209016171284, 2712017.21526935743168 ], [ 687572.9204850186361, 2712948.512888315599412 ], [ 686500.978049337631091, 2712934.173950977623463 ], [ 686685.079141176654957, 2713865.482029121369123 ], [ 685613.167050044052303, 2713851.206064727157354 ], [ 685244.972263312200084, 2711988.658266051206738 ], [ 684173.012057841406204, 2711974.503130255732685 ], [ 683988.978072550613433, 2711043.293090874329209 ], [ 682916.995879255933687, 2711029.239409953355789 ], [ 682732.995474831550382, 2710098.078276297077537 ], [ 683805.00379231874831, 2710112.112758973613381 ], [ 683621.089219219167717, 2709180.962117492686957 ], [ 686837.217432544799522, 2709223.500967132393271 ] ], [ [ 685207.965348986093886, 2754739.516022637486458 ], [ 685021.001061541959643, 2753807.059733767062426 ], [ 686091.745824764017016, 2753821.512199252843857 ], [ 686278.683511856594123, 2754753.988244376145303 ], [ 685207.965348986093886, 2754739.516022637486458 ] ], [ [ 700385.057100360631011, 2755882.494378989562392 ], [ 699314.309778170310892, 2755866.916082518175244 ], [ 699127.631510344566777, 2754934.170157099608332 ], [ 700198.405403251294047, 2754949.728316189255565 ], [ 700385.057100360631011, 2755882.494378989562392 ] ], [ [ 699501.047590966336429, 2756799.692638175096363 ], [ 696288.911885830457322, 2756753.398895101156086 ], [ 695915.336315592401661, 2754887.996947648003697 ], [ 698056.862047316739336, 2754918.695544050075114 ], [ 698243.566888849250972, 2755851.421360219363123 ], [ 699314.309778170310892, 2755866.916082518175244 ], [ 699501.047590966336429, 2756799.692638175096363 ] ], [ [ 684357.105746111599728, 2712905.742894183378667 ], [ 683285.17583030438982, 2712891.650770840700716 ], [ 683101.055998439202085, 2711960.430235781241208 ], [ 684173.012057841406204, 2711974.503130255732685 ], [ 684357.105746111599728, 2712905.742894183378667 ] ], [ [ 691445.532231037737802, 2753895.026967391837388 ], [ 691632.336962350062095, 2754827.602215331979096 ], [ 690561.597841351176612, 2754812.712366173509508 ], [ 690374.766524989157915, 2753880.157015012577176 ], [ 691445.532231037737802, 2753895.026967391837388 ] ], [ [ 656754.772859082557261, 2746018.184467835817486 ], [ 656380.650884631788358, 2744154.810102702118456 ], [ 658522.484885201905854, 2744179.245372245553881 ], [ 658709.462741964729503, 2745110.955457165837288 ], [ 657638.570564172347076, 2745098.677311691921204 ], [ 657825.634929147083312, 2746030.39833257580176 ], [ 656754.772859082557261, 2746018.184467835817486 ] ], [ [ 656193.679808151791804, 2743223.167674231808633 ], [ 656006.768674932303838, 2742291.555058948229998 ], [ 654935.803778223926201, 2742279.499868910759687 ], [ 654748.926034153439105, 2741347.935874152928591 ], [ 656890.912418898195028, 2741372.091686782892793 ], [ 657264.621624462306499, 2743235.324841845780611 ], [ 656193.679808151791804, 2743223.167674231808633 ] ], [ [ 697374.406295861466788, 2708439.26532266754657 ], [ 697557.922076598275453, 2709370.63802502816543 ], [ 696485.831981973256916, 2709355.554529120679945 ], [ 696302.29013615171425, 2708424.20135944802314 ], [ 697374.406295861466788, 2708439.26532266754657 ] ], [ [ 707156.387074885074981, 2698364.885798823554069 ], [ 707338.961960172047839, 2699296.145900612231344 ], [ 706266.535755778197199, 2699280.375694768503308 ], [ 706083.934944994281977, 2698349.13526679482311 ], [ 707156.387074885074981, 2698364.885798823554069 ] ] ], [ [ [ 672734.408793308073655, 2756436.896826323121786 ], [ 668451.9790070715826, 2756383.696338733658195 ], [ 668827.17843547440134, 2758248.195631412789226 ], [ 670968.279010511469096, 2758274.706279259640723 ], [ 670780.702760005602613, 2757342.402760032564402 ], [ 671851.285417767707258, 2757355.764065579511225 ], [ 672038.834985124995001, 2758288.087010355200619 ], [ 673109.394782862160355, 2758301.551348658278584 ], [ 673296.977453310857527, 2759233.9240388777107 ], [ 674367.51441137236543, 2759247.491483537945896 ], [ 674179.958427516627125, 2758315.099296000320464 ], [ 675250.525942883105017, 2758328.730854226276278 ], [ 675063.056406009709463, 2757396.349464379716665 ], [ 672921.871895488700829, 2757369.208950264379382 ], [ 672734.408793308073655, 2756436.896826323121786 ] ] ], [ [ [ 666686.09286740119569, 2758222.019390679895878 ], [ 665615.555651490343735, 2758209.056668519508094 ], [ 666179.043893419438973, 2761005.858269952237606 ], [ 667249.500953546841629, 2761018.878941580653191 ], [ 666686.09286740119569, 2758222.019390679895878 ] ] ], [ [ [ 676321.09735275642015, 2758342.446025193203241 ], [ 675250.525942883105017, 2758328.730854226276278 ], [ 675813.2931262482889, 2761126.057031868491322 ], [ 676883.784465900505893, 2761139.830910163931549 ], [ 676321.09735275642015, 2758342.446025193203241 ] ] ], [ [ [ 692058.394707437139004, 2762274.254202046897262 ], [ 691496.64876169024501, 2759475.946787456516176 ], [ 690426.046967203728855, 2759461.040890048258007 ], [ 690987.872882766649127, 2762259.288370230700821 ], [ 692058.394707437139004, 2762274.254202046897262 ] ] ], [ [ [ 669766.223856858210638, 2762909.973180215805769 ], [ 669390.426238801795989, 2761045.171333788428456 ], [ 667249.500953546841629, 2761018.878941580653191 ], [ 667437.423322399496101, 2761951.225935680326074 ], [ 668507.857361343805678, 2761964.349665521178395 ], [ 669071.9031953610247, 2764761.630543795414269 ], [ 671212.622020983719267, 2764788.245837352704257 ], [ 671024.600441977265291, 2763855.749636008404195 ], [ 672094.992294240742922, 2763869.163474963977933 ], [ 671907.057259837514721, 2762936.678131554275751 ], [ 672977.479672197485343, 2762950.15622491389513 ], [ 672601.842435782891698, 2761085.237571400590241 ], [ 673672.322134963585995, 2761098.760364344343543 ], [ 673296.977453310857527, 2759233.9240388777107 ], [ 671155.915063623338938, 2759207.040059060323983 ], [ 671531.366569212055765, 2761071.798469877801836 ], [ 670460.894511475577019, 2761058.443057945463806 ], [ 670836.638662644545548, 2762923.283783928956836 ], [ 669766.223856858210638, 2762909.973180215805769 ] ] ], [ [ [ 673672.322134963585995, 2761098.760364344343543 ], [ 674235.787477513076738, 2763896.242476134561002 ], [ 675306.190856028348207, 2763909.9076420343481 ], [ 675118.336037459084764, 2762977.363656184636056 ], [ 676188.770037880400196, 2762991.09299779869616 ], [ 675813.2931262482889, 2761126.057031868491322 ], [ 673672.322134963585995, 2761098.760364344343543 ] ] ], [ [ [ 681861.382918058894575, 2759344.805591893848032 ], [ 680790.818343415041454, 2759330.652635090984404 ], [ 680978.273986158776097, 2760263.192814879119396 ], [ 679907.740105681004934, 2760249.103826909791678 ], [ 680282.883904757676646, 2762114.236102431546897 ], [ 679212.407410911866464, 2762100.191437252797186 ], [ 679400.095595434657298, 2763032.783549009356648 ], [ 678329.649793107877485, 2763018.802942325361073 ], [ 678517.424424131633714, 2763951.405823339708149 ], [ 679587.843503530370072, 2763965.406117917969823 ], [ 679775.651133066276088, 2764898.059161440003663 ], [ 678705.258786378777586, 2764884.039163295645267 ], [ 678893.152877714019269, 2765816.702979656402022 ], [ 681033.888076929142699, 2765844.866257523186505 ], [ 680658.266567536164075, 2763979.490199400112033 ], [ 681728.693639901233837, 2763993.658069702796638 ], [ 681540.999168320209719, 2763060.996040731202811 ], [ 682611.456986400065944, 2763075.227929609362036 ], [ 681861.382918058894575, 2759344.805591893848032 ] ] ], [ [ [ 663531.962394167203456, 2763764.19827804621309 ], [ 662461.600233457516879, 2763751.454564800485969 ], [ 662649.835964771453291, 2764683.795720546506345 ], [ 663720.171345229260623, 2764696.558716285508126 ], [ 663531.962394167203456, 2763764.19827804621309 ] ] ], [ [ [ 678517.424424131633714, 2763951.405823339708149 ], [ 677447.009305584011599, 2763937.489313760772347 ], [ 677634.870403663488105, 2764870.102978239301592 ], [ 678705.258786378777586, 2764884.039163295645267 ], [ 678517.424424131633714, 2763951.405823339708149 ] ] ], [ [ [ 662649.835964771453291, 2764683.795720546506345 ], [ 661579.504192096414044, 2764671.116510650143027 ], [ 661767.82659236586187, 2765603.468637640587986 ], [ 662838.13157180021517, 2765616.167117640841752 ], [ 662649.835964771453291, 2764683.795720546506345 ] ] ], [ [ [ 672471.041730619268492, 2765734.225273999385536 ], [ 672282.987118543125689, 2764801.679183304309845 ], [ 671212.622020983719267, 2764788.245837352704257 ], [ 671400.703397540724836, 2765720.772405381314456 ], [ 672471.041730619268492, 2765734.225273999385536 ] ] ], [ [ [ 668566.213959057815373, 2767545.944126582238823 ], [ 667495.944270915235393, 2767532.787691789213568 ], [ 667684.312234374694526, 2768465.32746630301699 ], [ 665543.83759402576834, 2768439.227395409252495 ], [ 665920.860307238646783, 2770304.320327326655388 ], [ 666991.042126356158406, 2770317.367260800674558 ], [ 667179.616407009772956, 2771249.978732131887227 ], [ 668249.775085294386372, 2771263.129101535771042 ], [ 668627.049431786639616, 2773128.482292556203902 ], [ 670767.270591585780494, 2773155.113169702701271 ], [ 669824.801736879395321, 2768491.763157662469894 ], [ 668754.555115998489782, 2768478.503358530346304 ], [ 668566.213959057815373, 2767545.944126582238823 ] ] ], [ [ [ 667179.616407009772956, 2771249.978732131887227 ], [ 666109.461430133553222, 2771236.912350255995989 ], [ 665920.860307238646783, 2770304.320327326655388 ], [ 664850.68216263060458, 2770291.357351540587842 ], [ 665039.310130968340673, 2771223.929954132530838 ], [ 662899.018470987561159, 2771198.217112090438604 ], [ 663276.561418685829267, 2773063.375864008907229 ], [ 667556.944460945902392, 2773115.29292307049036 ], [ 667179.616407009772956, 2771249.978732131887227 ] ] ], [ [ [ 708869.165447971550748, 2674255.715395913459361 ], [ 707796.014664521208033, 2674239.984190118033439 ], [ 707976.913511783699505, 2675170.570937842130661 ], [ 704757.566407501115464, 2675123.806030326522887 ], [ 704938.601774409064092, 2676054.364042113069445 ], [ 703865.521095124655403, 2676038.918733072001487 ], [ 704046.6416811310919, 2676969.486835949588567 ], [ 709411.963505923282355, 2677047.622502360958606 ], [ 709230.971325942431577, 2676116.95728838769719 ], [ 710304.075544443679973, 2676132.808613221626729 ], [ 709761.532931706402451, 2673340.931579338386655 ], [ 708688.351754122413695, 2673325.138683553319424 ], [ 708869.165447971550748, 2674255.715395913459361 ] ] ], [ [ [ 721035.384714362211525, 2676295.78875621361658 ], [ 719962.23158706643153, 2676279.125235247425735 ], [ 720142.967174441786483, 2677209.986779550090432 ], [ 721216.094658374437131, 2677226.670088219456375 ], [ 721035.384714362211525, 2676295.78875621361658 ] ] ], [ [ [ 719793.483648933004588, 2680917.048741000238806 ], [ 720155.65950930211693, 2682779.059109481982887 ], [ 721228.627908836584538, 2682795.780035208445042 ], [ 721409.779213364468887, 2683726.849735134746879 ], [ 723555.679679582011886, 2683760.575684162322432 ], [ 723374.57979458977934, 2682829.46616891073063 ], [ 727666.544594933046028, 2682897.81563023570925 ], [ 727847.541674986248836, 2683829.005113859660923 ], [ 728920.520037356764078, 2683846.316137380897999 ], [ 728739.548651466728188, 2682915.106591290794313 ], [ 729812.557899301638827, 2682932.478995361831039 ], [ 729631.671509032254107, 2682001.27926750248298 ], [ 730704.711651365505531, 2682018.713013350497931 ], [ 730523.910236610216089, 2681087.523088759742677 ], [ 731596.981282491236925, 2681105.018137610983104 ], [ 731055.009780215332285, 2678311.567375077400357 ], [ 732128.163017248967662, 2678329.08347427053377 ], [ 731226.191143505740911, 2673673.828778295777738 ], [ 723713.331406484707259, 2673553.622433505486697 ], [ 723893.786357883131132, 2674484.474161995574832 ], [ 722820.566841505235061, 2674467.60663700895384 ], [ 722640.086284373071976, 2673536.774735332932323 ], [ 718347.156205331906676, 2673470.195441783871502 ], [ 718708.381633090320975, 2675331.730812595225871 ], [ 716562.049002660089172, 2675298.849314746446908 ], [ 716923.614646504051052, 2677160.424391540233046 ], [ 717996.727192906779237, 2677176.863933483604342 ], [ 717815.940310187870637, 2676246.041880202013999 ], [ 719962.23158706643153, 2676279.125235247425735 ], [ 719781.555396231124178, 2675348.293359366711229 ], [ 720854.734157205559313, 2675364.937107730191201 ], [ 720674.142988997511566, 2674434.115125764161348 ], [ 721747.352393350214697, 2674450.820292367134243 ], [ 722289.227170284138992, 2677243.434657027944922 ], [ 723362.364734570961446, 2677260.280488276388496 ], [ 723543.082765833591111, 2678191.231210840400308 ], [ 721396.863987150834873, 2678157.581120760180056 ], [ 721577.692698596511036, 2679088.521870860364288 ], [ 720504.616530445404351, 2679071.79894145578146 ], [ 720866.503447500057518, 2680933.729981244541705 ], [ 719793.483648933004588, 2680917.048741000238806 ] ], [ [ 723181.706068698316813, 2676329.359496465884149 ], [ 724254.874344553682022, 2676346.266720360144973 ], [ 724435.507375636836514, 2677277.207584276795387 ], [ 723362.364734570961446, 2677260.280488276388496 ], [ 723181.706068698316813, 2676329.359496465884149 ] ], [ [ 729270.076649762107991, 2680138.969469908624887 ], [ 729450.844425147282891, 2681070.109431385528296 ], [ 728377.783823728677817, 2681052.777163100894541 ], [ 728196.990386104211211, 2680121.657246802002192 ], [ 729270.076649762107991, 2680138.969469908624887 ] ], [ [ 728728.129195700399578, 2677345.72866243077442 ], [ 728908.719032930210233, 2678276.779102512635291 ], [ 727835.581473888014443, 2678259.506924365647137 ], [ 727293.913044743356295, 2675466.504960060119629 ], [ 728367.127474148059264, 2675483.71718416037038 ], [ 728547.598675405140966, 2676414.708028666675091 ], [ 729620.792687016306445, 2676432.021470668260008 ], [ 729801.297586675966159, 2677363.062117261812091 ], [ 728728.129195700399578, 2677345.72866243077442 ] ] ], [ [ [ 731958.592066329903901, 2682967.468142098281533 ], [ 730885.572362802340649, 2682949.93284483300522 ], [ 731066.492368806502782, 2683881.182600322179496 ], [ 732139.486386596923694, 2683898.738044525496662 ], [ 731958.592066329903901, 2682967.468142098281533 ] ] ], [ [ [ 724809.771039208862931, 2684708.720161937177181 ], [ 724628.637509031221271, 2683777.560846632812172 ], [ 723555.679679582011886, 2683760.575684162322432 ], [ 723736.838924951152876, 2684691.715034437831491 ], [ 724809.771039208862931, 2684708.720161937177181 ] ] ], [ [ [ 729993.503593844361603, 2683863.708632073830813 ], [ 728920.520037356764078, 2683846.316137380897999 ], [ 729101.550735111231916, 2684777.555594283156097 ], [ 730174.508590545039624, 2684794.968194757122546 ], [ 729993.503593844361603, 2683863.708632073830813 ] ] ], [ [ [ 720715.658919148147106, 2691142.762895506806672 ], [ 722861.127144564175978, 2691176.481739647686481 ], [ 722497.933942097122781, 2689313.894431630615145 ], [ 721425.145744648645632, 2689297.034129279665649 ], [ 721243.612420797580853, 2688365.805301239248365 ], [ 723389.245398146682419, 2688399.567588485311717 ], [ 723207.82297550176736, 2687468.328724724240601 ], [ 722134.978208162123337, 2687451.42675278428942 ], [ 721953.589397168369032, 2686520.23773151403293 ], [ 720880.723912048619241, 2686503.437253021169454 ], [ 721062.138475895742886, 2687434.606348186731339 ], [ 719989.303754374850541, 2687417.86750862468034 ], [ 720170.803464695811272, 2688349.046548532322049 ], [ 718025.200496036326513, 2688315.773813464213163 ], [ 718388.481217649881728, 2690178.141914926934987 ], [ 716243.001171753276139, 2690145.11617532838136 ], [ 716606.622746552689932, 2692007.524259964004159 ], [ 717679.308686669450253, 2692024.036017150618136 ], [ 717861.182778246584348, 2692955.304728655610234 ], [ 721079.192803937359713, 2693005.389987346250564 ], [ 721261.048814545501955, 2693936.748442810960114 ], [ 723406.362164786085486, 2693970.587306183297187 ], [ 723224.557798663037829, 2693039.188813877291977 ], [ 722151.872787348809652, 2693022.248533667996526 ], [ 721970.1019688018132, 2692090.900034481659532 ], [ 720897.396171433501877, 2692074.061477290466428 ], [ 720715.658919148147106, 2691142.762895506806672 ] ] ], [ [ [ 713408.839060086407699, 2697529.759509040042758 ], [ 711263.830900153610855, 2697497.397457097191364 ], [ 711446.242650295025669, 2698428.706639398820698 ], [ 713591.199010914657265, 2698461.108317794278264 ], [ 713408.839060086407699, 2697529.759509040042758 ] ] ], [ [ [ 691619.154266941361129, 2700930.215606114361435 ], [ 690546.847388754831627, 2700915.635054683778435 ], [ 690363.738030392443761, 2699984.627128563821316 ], [ 689291.409461900475435, 2699970.147752067539841 ], [ 688925.31774757639505, 2698108.259222354739904 ], [ 687852.941491497447714, 2698093.900143687613308 ], [ 688035.98349322064314, 2699024.810415794607252 ], [ 686963.637461843201891, 2699010.514000897295773 ], [ 686780.569480419857427, 2698079.62289698375389 ], [ 683563.478674810496159, 2698037.28212915873155 ], [ 683746.624613811261952, 2698968.11589688109234 ], [ 684818.95804637123365, 2698982.166743380948901 ], [ 685552.034854761324823, 2702705.873640661127865 ], [ 687696.506202011951245, 2702734.374211622402072 ], [ 687879.872580331051722, 2703665.413298080209643 ], [ 688952.088567901053466, 2703679.805782515089959 ], [ 688768.748217722633854, 2702748.747451650444418 ], [ 690913.24505434173625, 2702777.739850642625242 ], [ 690730.016397430095822, 2701846.672623035032302 ], [ 691802.297276030527428, 2701861.272472590208054 ], [ 691619.154266941361129, 2700930.215606114361435 ] ] ], [ [ [ 693974.5366928325966, 2707463.035510375164449 ], [ 692902.407667227438651, 2707448.237432850059122 ], [ 693085.968102446524426, 2708379.502379043027759 ], [ 694158.071063610143028, 2708394.319889679551125 ], [ 693974.5366928325966, 2707463.035510375164449 ] ] ], [ [ [ 698844.200749377021566, 2715891.084326246753335 ], [ 697772.293382392846979, 2715875.863672510255128 ], [ 697956.311911501921713, 2716807.456178235355765 ], [ 699028.193135652458295, 2716822.696487313136458 ], [ 698844.200749377021566, 2715891.084326246753335 ] ] ], [ [ [ 701171.969032683875412, 2716853.424331210087985 ], [ 699028.193135652458295, 2716822.696487313136458 ], [ 699212.245088155148551, 2717754.338658009190112 ], [ 701355.968689047731459, 2717785.105927634052932 ], [ 701171.969032683875412, 2716853.424331210087985 ] ] ], [ [ [ 694959.362293496611528, 2723268.757218307349831 ], [ 693887.686459867400117, 2723253.791883313562721 ], [ 694256.998520037857816, 2725117.290881189052016 ], [ 695328.621872458723374, 2725132.295507362112403 ], [ 694959.362293496611528, 2723268.757218307349831 ] ] ], [ [ [ 696808.043855068390258, 2732587.653552038129419 ], [ 695736.630817085504532, 2732572.491143989376724 ], [ 695921.853025644901209, 2733504.526942324824631 ], [ 696993.239730463479646, 2733519.709142647217959 ], [ 696808.043855068390258, 2732587.653552038129419 ] ] ], [ [ [ 708066.939728708588518, 2756926.821278479881585 ], [ 706996.187269258196466, 2756910.637552738655359 ], [ 707182.798555061919615, 2757843.586527705658227 ], [ 708253.52444492536597, 2757859.790619112085551 ], [ 708066.939728708588518, 2756926.821278479881585 ] ] ], [ [ [ 716494.92578418017365, 2761708.32145438157022 ], [ 716308.289412405109033, 2760775.085059255361557 ], [ 714166.93601644935552, 2760741.465894585009664 ], [ 714353.625568081159145, 2761674.661066901404411 ], [ 716494.92578418017365, 2761708.32145438157022 ] ] ], [ [ [ 701693.285843892022967, 2762412.715885332785547 ], [ 700622.724791091168299, 2762396.99618906667456 ], [ 700809.879358132835478, 2763329.987647558096796 ], [ 701880.41376180248335, 2763345.727606464643031 ], [ 702067.60119755496271, 2764278.770113964565098 ], [ 700997.093452827539295, 2764263.009876729454845 ], [ 701184.367073003668338, 2765196.062894175294787 ], [ 702254.848148977151141, 2765211.843425432685763 ], [ 702442.154613892897032, 2766144.947558481246233 ], [ 703512.613500717096031, 2766160.832285303622484 ], [ 703699.952791533432901, 2767093.987611130811274 ], [ 704770.38950906356331, 2767109.976607685443014 ], [ 704957.761606922838837, 2768043.183203499764204 ], [ 706028.176174987107515, 2768059.276543980930001 ], [ 705653.544837596244179, 2766192.853405134286731 ], [ 704583.076900703599676, 2766176.800900130532682 ], [ 704208.63016120903194, 2764310.542079244274646 ], [ 706349.677248844644055, 2764342.649380036629736 ], [ 706536.817554880864918, 2765275.804149070754647 ], [ 707607.321300615440123, 2765292.003990513738245 ], [ 707794.494417081121355, 2766225.210094422101974 ], [ 708864.976107161259279, 2766241.514283109456301 ], [ 708677.829651555628516, 2765308.287700562737882 ], [ 709748.342631454812363, 2765324.655281433369964 ], [ 709187.339915726566687, 2762525.09953186661005 ], [ 713469.758171914261766, 2762591.162058642599732 ], [ 713096.266465899301693, 2760724.781928625889122 ], [ 714166.93601644935552, 2760741.465894585009664 ], [ 713980.305871405871585, 2759808.301643976476043 ], [ 709697.549618260934949, 2759742.150263279210776 ], [ 709510.872566058882512, 2758809.098898906260729 ], [ 707369.469312894274481, 2758776.566277519799769 ], [ 707182.798555061919615, 2757843.586527705658227 ], [ 706112.077270689769648, 2757827.466081865597516 ], [ 706485.531430681236088, 2759693.415651936549693 ], [ 705414.867908356594853, 2759677.338183775544167 ], [ 705788.613197897095233, 2761543.37020296882838 ], [ 703647.406277708825655, 2761511.38506910437718 ], [ 703834.421405873843469, 2762444.406599808949977 ], [ 702763.851374229183421, 2762428.519354863557965 ], [ 702576.809612682438456, 2761495.518127404153347 ], [ 701506.217445995658636, 2761479.734932975377887 ], [ 701693.285843892022967, 2762412.715885332785547 ] ], [ [ 706859.223500616732053, 2761559.488399488385767 ], [ 707046.158746371045709, 2762492.571008824277669 ], [ 705975.575068172765896, 2762476.432424610015005 ], [ 705788.613197897095233, 2761543.37020296882838 ], [ 706859.223500616732053, 2761559.488399488385767 ] ] ], [ [ [ 706536.817554880864918, 2765275.804149070754647 ], [ 705466.318390601780266, 2765259.688174028880894 ], [ 705653.544837596244179, 2766192.853405134286731 ], [ 706724.017335141194053, 2766208.989802499301732 ], [ 706536.817554880864918, 2765275.804149070754647 ] ] ], [ [ [ 721898.010552492924035, 2767377.214959829114377 ], [ 720827.498348590335809, 2767359.883001142181456 ], [ 721014.470412670634687, 2768293.398938492871821 ], [ 723155.446451258379966, 2768328.188535184599459 ], [ 722968.527676080120727, 2767394.630873213987797 ], [ 724039.049743090756238, 2767412.130743664689362 ], [ 723665.443412804394029, 2765545.067106775939465 ], [ 721524.297714822809212, 2765510.234790566843003 ], [ 721898.010552492924035, 2767377.214959829114377 ] ] ] ] } }
]
}
