{
"type": "FeatureCollection",
"name": "urban-2015",
"crs": { "type": "name", "properties": { "name": "urn:ogc:def:crs:EPSG::32638" } },
"features": [
{ "type": "Feature", "properties": { "year": 2015 }, "geometry": { "type": "MultiPolygon", "coordinates": [ [ [ [ 658379.532911418005824, 2700516.302804681006819 ], [ 657307.348153969971463, 2700504.260904874652624 ], [ 657491.324696409283206, 2701434.714145386125892 ], [ 656419.16959143569693, 2701422.735708529595286 ], [ 656235.166948451893404, 2700492.300868891179562 ], [ 655162.989270648453385, 2700480.422695094719529 ], [ 655531.106731697218493, 2702341.284785122610629 ], [ 656603.232192225637846, 2702353.199719886761159 ], [ 656787.354748801328242, 2703283.692919787485152 ], [ 657859.457623715396039, 2703295.708204057998955 ], [ 657675.361186998547055, 2702365.196572836954147 ], [ 658747.493740217410959, 2702377.275345615111291 ], [ 658379.532911418005824, 2700516.302804681006819 ] ] ], [ [ [ 632352.829429133213125, 2709531.129498477093875 ], [ 634496.514397728606127, 2709551.559104763437063 ], [ 634311.395246705505997, 2708621.26186950225383 ], [ 633239.524995835730806, 2708611.023907305672765 ], [ 633054.439744418952614, 2707680.773522097617388 ], [ 630910.655704162316397, 2707660.579508502967656 ], [ 630725.578118597622961, 2706730.393706280272454 ], [ 631797.494903340819292, 2706740.431880046147853 ], [ 631612.503746705828235, 2705810.257176555227488 ], [ 629468.620636258623563, 2705790.298407347407192 ], [ 629283.637190801324323, 2704860.188121342565864 ], [ 628211.6737867082702, 2704850.349445990286767 ], [ 628396.683471372816712, 2705780.442010235507041 ], [ 627324.749201153754257, 2705770.667602983769029 ], [ 627509.845346306217834, 2706700.771302631590515 ], [ 626437.940202313940972, 2706691.06120279757306 ], [ 626623.122828684514388, 2707621.176052012946457 ], [ 627695.001707314513624, 2707630.903848187532276 ], [ 628065.495068960473873, 2709491.255543797742575 ], [ 629137.324272233527154, 2709501.100878659635782 ], [ 628952.073766659013927, 2708570.892836438026279 ], [ 632167.657746545504779, 2708600.868024283554405 ], [ 632352.829429133213125, 2709531.129498477093875 ] ] ], [ [ [ 664325.078964822459966, 2708941.254947490524501 ], [ 663253.114864346454851, 2708928.718158986885101 ], [ 663806.528391557047144, 2711721.179261784534901 ], [ 667022.196222890401259, 2711759.204495335463434 ], [ 666284.745379238156602, 2708035.75724731059745 ], [ 664140.753734497819096, 2708010.474705425556749 ], [ 664325.078964822459966, 2708941.254947490524501 ] ] ], [ [ [ 681845.017804794944823, 2711015.267940362915397 ], [ 681477.024467888986692, 2709153.01367322774604 ], [ 678260.957944079651497, 2709111.707151842769235 ], [ 678629.10805298271589, 2710973.846780523657799 ], [ 681845.017804794944823, 2711015.267940362915397 ] ] ], [ [ [ 657453.139794901246205, 2722794.100144712254405 ], [ 657267.679647634387948, 2721863.046173543669283 ], [ 656196.115466375718825, 2721850.989070718642324 ], [ 656381.601949698873796, 2722782.024401357397437 ], [ 657453.139794901246205, 2722794.100144712254405 ] ] ], [ [ [ 654238.53676392766647, 2722758.120496323797852 ], [ 654052.99759868811816, 2721827.122362711001188 ], [ 650838.346673357533291, 2721791.941020437981933 ], [ 651209.643096969928592, 2723653.855539217125624 ], [ 652281.137272739666514, 2723665.537175840698183 ], [ 652466.849107922287658, 2724596.557117225136608 ], [ 654609.794999671168625, 2724620.20518641686067 ], [ 654981.293095467030071, 2726482.407886919565499 ], [ 656052.71847832435742, 2726494.393068123608828 ], [ 656238.531077575054951, 2727425.557376180309802 ], [ 657309.933571238536388, 2727437.643884981051087 ], [ 657495.779722181148827, 2728368.856466873548925 ], [ 660709.92928156547714, 2728405.6682895636186 ], [ 660338.455235891742632, 2726543.160191279835999 ], [ 664624.249508469365537, 2726593.249632083810866 ], [ 664253.225955644273199, 2724730.709424539003521 ], [ 659967.220839954214171, 2724680.770547300111502 ], [ 659781.693515776772983, 2723749.620103080291301 ], [ 656567.148382748477161, 2723713.089231356978416 ], [ 656381.601949698873796, 2722782.024401357397437 ], [ 654238.53676392766647, 2722758.120496323797852 ] ], [ [ 660152.80808067729231, 2725611.9505710224621 ], [ 659081.342190991155803, 2725599.653585242573172 ], [ 658895.728591640945524, 2724668.492304208688438 ], [ 659967.220839954214171, 2724680.770547300111502 ], [ 660152.80808067729231, 2725611.9505710224621 ] ] ], [ [ [ 683950.260415392927825, 2753792.690759707707912 ], [ 685021.001061541959643, 2753807.059733767062426 ], [ 684834.096450552577153, 2752874.633837138768286 ], [ 686975.643295975518413, 2752903.582752116490155 ], [ 686602.119409398641437, 2751038.743140760343522 ], [ 685531.290772091364488, 2751024.26644131494686 ], [ 684971.372777066426352, 2748227.293884022627026 ], [ 686042.281059626489878, 2748241.711464324500412 ], [ 685855.787612908403389, 2747309.42823343956843 ], [ 686926.726567581063136, 2747323.909437190275639 ], [ 686553.971714035840705, 2745459.394503081683069 ], [ 687624.967851999681443, 2745473.919591315090656 ], [ 687811.288943474413827, 2746406.181608748156577 ], [ 689953.240800629835576, 2746435.521011461503804 ], [ 690325.955891624093056, 2748300.215073157567531 ], [ 691396.885144425556064, 2748315.049307239241898 ], [ 691210.524296126561239, 2747382.667278689797968 ], [ 692281.484325122786686, 2747397.565005700103939 ], [ 692095.209600561065599, 2746465.19352836208418 ], [ 693166.20041378471069, 2746480.154709681868553 ], [ 692607.813375242752954, 2743683.162998219020665 ], [ 693678.887921275570989, 2743698.147904014214873 ], [ 693306.980853363405913, 2741833.598868197761476 ], [ 687951.386298492085189, 2741759.703905048314482 ], [ 687765.389962279237807, 2740827.573553654365242 ], [ 690978.813250008970499, 2740871.601986639201641 ], [ 690792.955877595464699, 2739939.442787926644087 ], [ 691864.131901409593411, 2739954.265409885440022 ], [ 691492.648878902662545, 2738089.998314723838121 ], [ 692563.882012210204266, 2738104.864519699010998 ], [ 692378.256334055680782, 2737172.756607002578676 ], [ 690235.741550307604484, 2737143.146658955141902 ], [ 690050.122711600270122, 2736211.108380605932325 ], [ 691121.404355332022533, 2736225.852167275734246 ], [ 690935.871535950805992, 2735293.824405643157661 ], [ 688793.259734215098433, 2735264.459117825143039 ], [ 688422.267520834458992, 2733400.572663484606892 ], [ 689493.624036301975138, 2733415.174597181845456 ], [ 688937.662166639463976, 2730619.512028207536787 ], [ 691080.545984554104507, 2730648.846831629984081 ], [ 690895.397302544908598, 2729716.980315264314413 ], [ 691966.87193500995636, 2729731.752295826096088 ], [ 691596.806078057270497, 2727868.070315561722964 ], [ 688382.237159603973851, 2727824.120207574684173 ], [ 687827.349072064273059, 2725028.998669873457402 ], [ 688898.946639975882135, 2725043.507435918785632 ], [ 689083.823401130852289, 2725975.204112557694316 ], [ 691226.97873516776599, 2726004.508646195288748 ], [ 691411.862591299810447, 2726936.274450637865812 ], [ 692483.420404923264869, 2726951.070321924984455 ], [ 691929.026529747992754, 2724155.80426787910983 ], [ 689785.757599014090374, 2724126.412646045908332 ], [ 689416.354848764953203, 2722263.130220570601523 ], [ 691559.72874550789129, 2722292.443715 ], [ 691744.347822969779372, 2723224.108987935818732 ], [ 692816.014977711718529, 2723238.909140533767641 ], [ 692631.422132319537923, 2722307.224301309324801 ], [ 693703.119843509281054, 2722322.087449703831226 ], [ 693518.61283911135979, 2721390.413036688696593 ], [ 690303.453987582004629, 2721346.129928431939334 ], [ 690118.92795939813368, 2720414.544125331100076 ], [ 693334.165448778541759, 2720458.768627058714628 ], [ 692781.180983200087212, 2717664.015246538445354 ], [ 693853.01402692485135, 2717678.863077440299094 ], [ 693668.831281518330798, 2716747.318979242816567 ], [ 695812.562791397678666, 2716777.222775402944535 ], [ 695628.491967599838972, 2715845.669496053364128 ], [ 696700.390463170711882, 2715860.72539646923542 ], [ 696332.479878725600429, 2713997.669507496990263 ], [ 697404.43506045488175, 2714012.768575115129352 ], [ 696853.094449778669514, 2711218.350456579588354 ], [ 697925.132385095115751, 2711233.47306379629299 ], [ 697741.497440375271253, 2710302.040599693544209 ], [ 696669.433420547749847, 2710286.937555788550526 ], [ 696302.29013615171425, 2708424.20135944802314 ], [ 695230.178400123259053, 2708409.219549135770649 ], [ 695964.807662216131575, 2712134.733328074216843 ], [ 692748.811819145223126, 2712090.047137616202235 ], [ 692932.69646934652701, 2713021.441743192728609 ], [ 691860.732684584916569, 2713006.691409829538316 ], [ 692044.703086791327223, 2713938.096410817932338 ], [ 690972.769751925603487, 2713923.408919915091246 ], [ 691156.825926513760351, 2714854.824330867733806 ], [ 689013.02441585296765, 2714825.657447001896799 ], [ 689197.192540550953709, 2715757.063867219723761 ], [ 688125.324335396056995, 2715742.584539180621505 ], [ 688309.578286024858244, 2716674.001411173958331 ], [ 686165.906893308740109, 2716645.251110785175115 ], [ 686350.272876239730977, 2717576.659087372478098 ], [ 685278.469659399008378, 2717562.388179977424443 ], [ 685462.921521866694093, 2718493.806650077458471 ], [ 684391.148671460803598, 2718479.598831536248326 ], [ 684206.670607151230797, 2717548.199682333972305 ], [ 683134.875695400056429, 2717534.093592503108084 ], [ 682766.04628874361515, 2715671.423251907341182 ], [ 683837.893581226002425, 2715685.490802143700421 ], [ 683469.355372776277363, 2713822.901032200548798 ], [ 679181.78136275766883, 2713767.278498251922429 ], [ 679366.125296784448437, 2714698.481745580211282 ], [ 678294.26811221241951, 2714684.762717434205115 ], [ 678478.697979748714715, 2715615.976529367733747 ], [ 677406.870997185236774, 2715602.320708859246224 ], [ 677591.386818689876236, 2716533.545099854003638 ], [ 676519.590029987040907, 2716519.95252589462325 ], [ 675597.477645074483007, 2711864.222571207210422 ], [ 674525.553885305766016, 2711850.807538964319974 ], [ 674709.8829779853113, 2712781.875253273639828 ], [ 671494.213699792628177, 2712742.066650765947998 ], [ 671309.806082502240315, 2711811.055781393311918 ], [ 667022.196222890401259, 2711759.204495335463434 ], [ 667206.708584085921757, 2712690.139964006375521 ], [ 666134.841773213236593, 2712677.36389650311321 ], [ 666319.440194063005038, 2713608.310066367965192 ], [ 665247.603328998549841, 2713595.597469658590853 ], [ 665617.032202334376052, 2715457.540740471333265 ], [ 664545.251504476647824, 2715444.872883588075638 ], [ 664730.081985127762891, 2716375.870000568218529 ], [ 659371.364762960118242, 2716313.671957478392869 ], [ 659186.403038427582942, 2715382.768346624914557 ], [ 653827.644068021909334, 2715322.721567494329065 ], [ 653642.61099415877834, 2714391.94011080218479 ], [ 652570.843409236869775, 2714380.196129558607936 ], [ 652755.902748253312893, 2715310.959124429617077 ], [ 651684.16486367455218, 2715299.278981841169298 ], [ 651869.310466207098216, 2716230.052860667929053 ], [ 650797.602274123346433, 2716218.436595823615789 ], [ 650982.834160781931132, 2717149.221372878644615 ], [ 652054.516061782604083, 2717160.856074176263064 ], [ 652425.107223935192451, 2719022.550572907086462 ], [ 653496.739937999751419, 2719034.304603967815638 ], [ 653682.099183684564196, 2719965.214433494023979 ], [ 654753.709032541140914, 2719977.069415489211679 ], [ 654939.10193022643216, 2720908.027216549497098 ], [ 658153.873477169079706, 2720944.142651160713285 ], [ 658339.247359246015549, 2721875.185777773614973 ], [ 660482.393469769041985, 2721899.71249709604308 ], [ 660667.774628396495245, 2722830.822557949461043 ], [ 661739.326752364169806, 2722843.228428992908448 ], [ 661924.741489195032045, 2723774.386818654369563 ], [ 662996.27091346133966, 2723786.894021826330572 ], [ 662810.882506153662689, 2722855.716836166102439 ], [ 664954.004999408032745, 2722880.941265739034861 ], [ 665139.340757333440706, 2723812.156127477996051 ], [ 666210.881225033081137, 2723824.911033409181982 ], [ 666581.679680304601789, 2725687.46749839419499 ], [ 665510.191881454084069, 2725674.674786136951298 ], [ 665695.707243523444049, 2726605.978617177344859 ], [ 664624.249508469365537, 2726593.249632083810866 ], [ 664809.851096351630986, 2727524.564240071922541 ], [ 662666.999408016446978, 2727499.316480055917054 ], [ 663224.321709527866915, 2730293.32511148089543 ], [ 662152.980519199045375, 2730280.768665705807507 ], [ 661967.120130496681668, 2729349.421641101595014 ], [ 657681.685810546390712, 2729300.098650220781565 ], [ 658053.677791317459196, 2731162.671889474149793 ], [ 659124.97817575535737, 2731174.916089918930084 ], [ 659311.037631013081409, 2732106.265974443405867 ], [ 661453.596256224205717, 2732131.040394869633019 ], [ 661825.789152201497927, 2733993.904675148893148 ], [ 660754.560926757054403, 2733981.438311871141195 ], [ 661127.046327532851137, 2735844.383783760946244 ], [ 660055.874626239063218, 2735831.962534693535417 ], [ 659869.575505431857891, 2734900.493807116523385 ], [ 658798.380911380867474, 2734888.17433604458347 ], [ 659171.092017679126002, 2736751.103816715069115 ], [ 658099.953935496858321, 2736738.829565704334527 ], [ 658286.425862533738837, 2737670.320071078836918 ], [ 657215.317812613910064, 2737658.109935313928872 ], [ 657401.87617368879728, 2738589.611350902356207 ], [ 656330.798148314235732, 2738577.465369296260178 ], [ 655957.6883505564183, 2736714.529901195783168 ], [ 654886.560799898346886, 2736702.504484384320676 ], [ 655073.112230135244317, 2737633.938580386806279 ], [ 654002.01464969269, 2737621.977357926778495 ], [ 654188.652552906423807, 2738553.422401796560735 ], [ 655259.723616032162681, 2738565.402386809233576 ], [ 655446.394955525640398, 2739496.895920757204294 ], [ 658659.549494095379487, 2739533.390369445085526 ], [ 659219.684354104334489, 2742328.219293049070984 ], [ 661361.645870178705081, 2742353.077685794793069 ], [ 661548.4242227608338, 2743284.784921445883811 ], [ 660477.468225423246622, 2743272.295186813920736 ], [ 660851.257740861386992, 2745135.761340705677867 ], [ 659780.358459564158693, 2745123.31679960899055 ], [ 659967.3696506844135, 2746055.075733705889434 ], [ 658896.500518386950716, 2746042.69542064005509 ], [ 659083.598212392884307, 2746974.465279857162386 ], [ 662296.136558604193851, 2747011.912943383678794 ], [ 662483.214363528997637, 2747943.769804720301181 ], [ 667837.384674310567789, 2748007.943472731392831 ], [ 668024.389371549710631, 2748939.926098079420626 ], [ 669095.207970955758356, 2748953.029950994998217 ], [ 669282.245903085917234, 2749885.061905290000141 ], [ 670353.041674704058096, 2749898.268368182238191 ], [ 670166.030337917385623, 2748966.217128672637045 ], [ 671236.856496297288686, 2748979.48763290932402 ], [ 671049.931555851828307, 2748047.447198591660708 ], [ 672120.788108760723844, 2748060.781705419998616 ], [ 671747.170778052182868, 2746196.752518157940358 ], [ 673889.001655203523114, 2746223.594061839859933 ], [ 674075.72731122863479, 2747155.632279281038791 ], [ 673004.836499313707463, 2747142.150532729458064 ], [ 673378.52028276422061, 2749006.278628304135054 ], [ 672307.686469958978705, 2748992.84146551322192 ], [ 672494.644625582848676, 2749924.931359636131674 ], [ 671423.841240917914547, 2749911.558185694273561 ], [ 671985.154278792091645, 2752707.950727872084826 ], [ 674126.605248890817165, 2752734.89675310626626 ], [ 673939.494337725685909, 2751802.696936908643693 ], [ 675010.252236237400211, 2751816.275670846458524 ], [ 674449.357958576758392, 2749019.799123113043606 ], [ 675520.199521260568872, 2749033.40295178303495 ], [ 675333.380878847907297, 2748101.285045965574682 ], [ 676404.252918898244388, 2748114.952772300690413 ], [ 676591.044994677300565, 2749047.090116166509688 ], [ 678732.747769170673564, 2749074.714459547773004 ], [ 678919.546456985990517, 2750006.920991152524948 ], [ 681061.212029890273698, 2750034.917803694494069 ], [ 681434.882284403429367, 2751899.49991956166923 ], [ 682505.667957819066942, 2751913.662619499955326 ], [ 682692.566061089746654, 2752846.018775492440909 ], [ 683763.329210744588636, 2752860.284575627651066 ], [ 683950.260415392927825, 2753792.690759707707912 ] ], [ [ 690421.420025622006506, 2738075.215141414199024 ], [ 688278.975063347374089, 2738045.897881736047566 ], [ 688093.243778674048372, 2737113.868717117700726 ], [ 690235.741550307604484, 2737143.146658955141902 ], [ 690421.420025622006506, 2738075.215141414199024 ] ], [ [ 689047.19070200342685, 2720399.967631190083921 ], [ 688862.698110173339956, 2719468.431232084985822 ], [ 689934.461576558416709, 2719482.988262275233865 ], [ 690118.92795939813368, 2720414.544125331100076 ], [ 689047.19070200342685, 2720399.967631190083921 ] ], [ [ 695260.529114620061591, 2713982.652759305201471 ], [ 695076.637089635594748, 2713051.189267579466105 ], [ 696148.613973428728059, 2713066.186462671030313 ], [ 696332.479878725600429, 2713997.669507496990263 ], [ 695260.529114620061591, 2713982.652759305201471 ] ], [ [ 667650.439812585012987, 2747075.990901907440275 ], [ 668721.311579806962982, 2747089.056287177372724 ], [ 668908.22986249695532, 2748021.028084048070014 ], [ 667837.384674310567789, 2748007.943472731392831 ], [ 667650.439812585012987, 2747075.990901907440275 ] ], [ [ 668534.453124982537702, 2746157.114543115720153 ], [ 669605.355219495017081, 2746170.243958477862179 ], [ 669792.187108213314787, 2747102.204941096715629 ], [ 668721.311579806962982, 2747089.056287177372724 ], [ 668534.453124982537702, 2746157.114543115720153 ] ], [ [ 680874.466472965432331, 2749102.672168314922601 ], [ 681945.331858011893928, 2749116.776039473246783 ], [ 682132.050854156957939, 2750049.041268866509199 ], [ 681061.212029890273698, 2750034.917803694494069 ], [ 680874.466472965432331, 2749102.672168314922601 ] ], [ [ 679803.605117972474545, 2749088.651642309967428 ], [ 679616.892723300494254, 2748156.455815847031772 ], [ 680687.780632421374321, 2748170.456791492644697 ], [ 680874.466472965432331, 2749102.672168314922601 ], [ 679803.605117972474545, 2749088.651642309967428 ] ], [ [ 686367.6837856490165, 2744527.182468460407108 ], [ 685296.665312127093785, 2744512.760281356982887 ], [ 685482.979737035930157, 2745444.952659313566983 ], [ 683341.008170354645699, 2745416.31869731284678 ], [ 683154.64074315445032, 2744484.165548408869654 ], [ 684225.650972595321946, 2744498.421308658085763 ], [ 684039.369736023363657, 2743566.278793337289244 ], [ 686181.455525684636086, 2743595.000698987394571 ], [ 686367.6837856490165, 2744527.182468460407108 ] ], [ [ 687088.333594849333167, 2721302.589589958544821 ], [ 688160.036159345065244, 2721317.020509464200586 ], [ 688344.67429070500657, 2722248.597308446653187 ], [ 687272.997960767941549, 2722234.146950397174805 ], [ 687088.333594849333167, 2721302.589589958544821 ] ] ], [ [ [ 661412.391260319622234, 2747931.184936590492725 ], [ 661599.555557489511557, 2748863.052701397798955 ], [ 662670.352052670088597, 2748875.656642838846892 ], [ 662483.214363528997637, 2747943.769804720301181 ], [ 661412.391260319622234, 2747931.184936590492725 ] ] ], [ [ [ 687997.66968936030753, 2747338.473941599950194 ], [ 686926.726567581063136, 2747323.909437190275639 ], [ 687113.19348848995287, 2748256.212371407076716 ], [ 686042.281059626489878, 2748241.711464324500412 ], [ 686415.446959999389946, 2750106.36890060082078 ], [ 689628.037556626368314, 2750150.240138842258602 ], [ 689441.504399494966492, 2749217.836964760441333 ], [ 688370.610135853523389, 2749203.149623075034469 ], [ 687997.66968936030753, 2747338.473941599950194 ] ] ], [ [ [ 664677.605637904605828, 2753548.324084487278014 ], [ 664302.844651209539734, 2751684.241843320429325 ], [ 667515.02743404917419, 2751722.976210037246346 ], [ 667140.665648206952028, 2749858.899036176502705 ], [ 666069.881117237266153, 2749845.942626391071826 ], [ 665882.763379954500124, 2748913.968359403777868 ], [ 663741.152172232163139, 2748888.343898499384522 ], [ 664115.553955981042236, 2750752.245823390316218 ], [ 663044.807075246470049, 2750739.52031835867092 ], [ 663232.12440450314898, 2751671.497190257068723 ], [ 661090.694789401837625, 2751646.25807745847851 ], [ 660716.013472864637151, 2749782.410754905547947 ], [ 659645.250779101857916, 2749769.954403978772461 ], [ 660019.985373325645924, 2751633.763614285737276 ], [ 658949.279519777628593, 2751621.352544324472547 ], [ 658761.855622124741785, 2750689.451984129380435 ], [ 656620.401203587418422, 2750664.918004721403122 ], [ 656995.415540519403294, 2752528.673102198168635 ], [ 659136.763332253322005, 2752553.283088004682213 ], [ 659324.307057466823608, 2753485.243632416240871 ], [ 660394.959587883553468, 2753497.692820826079696 ], [ 660207.442529107211158, 2752565.713209402747452 ], [ 661278.125291728880256, 2752578.226752050686628 ], [ 662028.446212640614249, 2756306.401941941585392 ], [ 663099.025866523617879, 2756319.075493453070521 ], [ 662723.798996598576196, 2754454.889441524166614 ], [ 663794.435639035771601, 2754467.608149658888578 ], [ 663606.938688491703942, 2753535.541088632307947 ], [ 664677.605637904605828, 2753548.324084487278014 ] ] ], [ [ [ 640994.167308666277677, 2757933.983250605408102 ], [ 640805.842617325833999, 2757002.212260605301708 ], [ 639735.360385477542877, 2756991.274004925973713 ], [ 639547.069003540556878, 2756059.551418225746602 ], [ 641688.090130015625618, 2756081.474238555878401 ], [ 641499.912350985920057, 2755149.744234521407634 ], [ 644711.547972032451071, 2755183.198756310157478 ], [ 645276.020693841623142, 2757978.646328866947442 ], [ 646346.492051436798647, 2757990.021007308736444 ], [ 646158.301199306733906, 2757058.156534244772047 ], [ 649369.81514338881243, 2757092.725549657363445 ], [ 649181.764554501045495, 2756160.834581687580794 ], [ 648111.229876585071906, 2756149.246856392361224 ], [ 647923.212557775666937, 2755217.404607714619488 ], [ 645782.099583898787387, 2755194.517223658971488 ], [ 645594.08882476168219, 2754262.742351747117937 ], [ 646664.670407368335873, 2754274.125567832496017 ], [ 646476.74640226631891, 2753342.361810301896185 ], [ 644335.533034697058611, 2753319.716241299640387 ], [ 644523.5104809331242, 2754251.442590256687254 ], [ 641311.794643935281783, 2754218.044018022250384 ], [ 641123.737010924727656, 2753286.373571899253875 ], [ 640053.144648389425129, 2753275.426191794686019 ], [ 640241.22901703894604, 2754207.078059636522084 ], [ 639170.66650983132422, 2754196.195548266172409 ], [ 638982.555402175756171, 2753264.562230710871518 ], [ 637911.969248457113281, 2753253.781687167473137 ], [ 638100.107098494889215, 2754185.396482428535819 ], [ 637029.550759212463163, 2754174.680860653053969 ], [ 637217.775467938394286, 2755106.306869705207646 ], [ 638288.30505173781421, 2755117.041001354344189 ], [ 638664.881259616930038, 2756980.419278760906309 ], [ 637594.405215948587283, 2756969.648080633953214 ], [ 638159.800633500912227, 2759764.883136291988194 ], [ 639230.196294032386504, 2759775.710051067173481 ], [ 639041.697855628561229, 2758843.916656585410237 ], [ 640112.123409211169928, 2758854.808567570056766 ], [ 639923.711854722350836, 2757923.026382317766547 ], [ 640994.167308666277677, 2757933.983250605408102 ] ] ], [ [ [ 726040.240692986990325, 2674518.452762274071574 ], [ 724967.010966902715154, 2674501.422869642265141 ], [ 725147.499667718890123, 2675432.324162963312119 ], [ 728367.127474148059264, 2675483.71718416037038 ], [ 728006.363037163042463, 2673621.824794724583626 ], [ 725859.836944522103295, 2673587.561295744031668 ], [ 726040.240692986990325, 2674518.452762274071574 ] ] ], [ [ [ 707976.913511783699505, 2675170.570937842130661 ], [ 709050.038639267557301, 2675186.321591882500798 ], [ 708869.165447971550748, 2674255.715395913459361 ], [ 707796.014664521208033, 2674239.984190118033439 ], [ 707976.913511783699505, 2675170.570937842130661 ] ] ], [ [ [ 705119.696673296624795, 2676984.951511015649885 ], [ 708338.889719377853908, 2677031.832906574010849 ], [ 707976.913511783699505, 2675170.570937842130661 ], [ 704757.566407501115464, 2675123.806030326522887 ], [ 705119.696673296624795, 2676984.951511015649885 ] ] ], [ [ [ 731947.650062591419555, 2677397.972865890245885 ], [ 731767.196395777864382, 2676466.892109176609665 ], [ 729620.792687016306445, 2676432.021470668260008 ], [ 729981.861793574062176, 2678294.132585289422423 ], [ 727835.581473888014443, 2678259.506924365647137 ], [ 728196.990386104211211, 2680121.657246802002192 ], [ 729270.076649762107991, 2680138.969469908624887 ], [ 729089.368184986291453, 2679207.859365978743881 ], [ 731235.607655024155974, 2679242.687752834521234 ], [ 730874.471200839267112, 2677380.476850952021778 ], [ 731947.650062591419555, 2677397.972865890245885 ] ] ], [ [ [ 687513.199498934904113, 2701803.364755684509873 ], [ 686963.637461843201891, 2699010.514000897295773 ], [ 685891.29565430409275, 2698996.299444074742496 ], [ 686440.935697828885168, 2701789.092687085270882 ], [ 687513.199498934904113, 2701803.364755684509873 ] ] ], [ [ [ 705559.546243941411376, 2701127.218430233653635 ], [ 706631.915902261971496, 2701142.946078204084188 ], [ 706449.196075565530919, 2700211.645959536079317 ], [ 704304.409501972491853, 2700180.311936988960952 ], [ 704487.181227355846204, 2701111.572731361724436 ], [ 703414.82082828367129, 2701096.008979446254671 ], [ 703780.594786322792061, 2702958.580821052659303 ], [ 704852.903248697519302, 2702974.18385871546343 ], [ 704670.01247696345672, 2702042.863366233184934 ], [ 705742.351533018401824, 2702058.528728456236422 ], [ 705559.546243941411376, 2701127.218430233653635 ] ] ], [ [ [ 704329.702191170770675, 2705752.662572233472019 ], [ 703780.594786322792061, 2702958.580821052659303 ], [ 701635.991635056445375, 2702927.620746724773198 ], [ 701819.019884470384568, 2703858.912200931925327 ], [ 702891.293183735571802, 2703874.370848199352622 ], [ 703074.354981643147767, 2704805.71177327260375 ], [ 702002.107680943096057, 2704790.233501168899238 ], [ 702185.255022379336879, 2705721.584664552472532 ], [ 700040.826092609553598, 2705690.835081350523978 ], [ 700407.403511243406683, 2707553.548582497052848 ], [ 701479.563650729018264, 2707568.921548277139664 ], [ 701296.271194980014116, 2706637.530249806120992 ], [ 703440.657181115355343, 2706668.483275837730616 ], [ 703257.476314803352579, 2705737.082576774526387 ], [ 704329.702191170770675, 2705752.662572233472019 ] ] ], [ [ [ 697374.406295861466788, 2708439.26532266754657 ], [ 697741.497440375271253, 2710302.040599693544209 ], [ 698813.565914067206904, 2710317.225854761898518 ], [ 698630.016622080234811, 2709385.803704001009464 ], [ 699702.115642578923143, 2709401.051568113267422 ], [ 699518.651982994866557, 2708469.639716080389917 ], [ 697374.406295861466788, 2708439.26532266754657 ] ] ], [ [ [ 690604.836326538934372, 2712060.667632981669158 ], [ 688460.877997522940859, 2712031.617140774149448 ], [ 688644.867142251343466, 2712962.934100892860442 ], [ 687572.9204850186361, 2712948.512888315599412 ], [ 687941.130050294101238, 2714811.197506119962782 ], [ 689013.02441585296765, 2714825.657447001896799 ], [ 688828.915949057554826, 2713894.280863931868225 ], [ 690972.769751925603487, 2713923.408919915091246 ], [ 690604.836326538934372, 2712060.667632981669158 ] ] ], [ [ [ 709374.281372566940263, 2763458.253879629541188 ], [ 708626.872261839453131, 2759725.821689482312649 ], [ 707556.199540577013977, 2759709.576819772366434 ], [ 708303.71510627202224, 2763441.927265241276473 ], [ 709374.281372566940263, 2763458.253879629541188 ] ] ], [ [ [ 723155.446451258379966, 2768328.188535184599459 ], [ 722594.868094938690774, 2765527.608998334035277 ], [ 721524.297714822809212, 2765510.234790566843003 ], [ 722084.955970701761544, 2768310.751745393034071 ], [ 723155.446451258379966, 2768328.188535184599459 ] ] ] ] } }
]
}
