{
"type": "FeatureCollection",
"name": "urban-1985",
"crs": { "type": "name", "properties": { "name": "urn:ogc:def:crs:EPSG::32638" } },
"features": [
{ "type": "Feature", "properties": { "year": 1985 }, "geometry": { "type": "MultiPolygon", "coordinates": [ [ [ [ 730874.471200839267112, 2677380.476850952021778 ], [ 731947.650062591419555, 2677397.972865890245885 ], [ 731767.196395777864382, 2676466.892109176609665 ], [ 729620.792687016306445, 2676432.021470668260008 ], [ 730162.485305602313019, 2679225.232891824096441 ], [ 731235.607655024155974, 2679242.687752834521234 ], [ 730874.471200839267112, 2677380.476850952021778 ] ] ], [ [ [ 675447.797209970420226, 2716506.442318433895707 ], [ 675632.425222952500917, 2717437.658221893943846 ], [ 676704.191825923277065, 2717451.18751039262861 ], [ 676519.590029987040907, 2716519.95252589462325 ], [ 675447.797209970420226, 2716506.442318433895707 ] ] ], [ [ [ 654197.890140896080993, 2717184.37254300294444 ], [ 654383.103135836892761, 2718115.242095665540546 ], [ 655454.76907123089768, 2718127.14240219257772 ], [ 655269.582367192488164, 2717196.25431374553591 ], [ 654197.890140896080993, 2717184.37254300294444 ] ] ], [ [ [ 664437.846839274745435, 2747037.29434024868533 ], [ 667650.439812585012987, 2747075.990901907440275 ], [ 667463.554788467707112, 2746144.068368347827345 ], [ 666392.660186068853363, 2746131.105432397685945 ], [ 666205.808438906213269, 2745199.232085764408112 ], [ 669418.583150996593758, 2745238.313026952557266 ], [ 669045.218483036267571, 2743374.541248166467994 ], [ 670116.203989758272655, 2743387.696199289057404 ], [ 670676.261095890891738, 2746183.456616225652397 ], [ 672818.084289860911667, 2746210.131666088476777 ], [ 672631.391871395055205, 2745278.142897164449096 ], [ 677986.150398038909771, 2745346.190434034448117 ], [ 677799.650410848786123, 2744414.134866279084235 ], [ 678870.640448318561539, 2744427.974593207240105 ], [ 679057.113917282433249, 2745360.049621032550931 ], [ 680128.081430244026706, 2745373.992038951721042 ], [ 680314.588108944706619, 2746306.116744146216661 ], [ 681385.533117771032266, 2746320.161926661152393 ], [ 681012.632518948870711, 2744455.903657496441156 ], [ 682083.634599904646166, 2744469.992998665664345 ], [ 681897.300374371581711, 2743537.889625140931457 ], [ 682968.33301364921499, 2743552.042618029285222 ], [ 682782.08498395443894, 2742619.949888851493597 ], [ 683853.148189506726339, 2742634.166494751814753 ], [ 683666.986335161607713, 2741702.084395579062402 ], [ 684738.080114961136132, 2741716.364575785119087 ], [ 684552.004415485309437, 2740784.293092268053442 ], [ 685623.128777524805628, 2740798.63680807268247 ], [ 685251.209326375159435, 2738934.545222144573927 ], [ 686322.390713578439318, 2738948.932843244634569 ], [ 686136.546933801611885, 2738016.912724665366113 ], [ 687207.758906456641853, 2738031.363791367504746 ], [ 687022.001212512142956, 2737099.354243527632207 ], [ 688093.243778674048372, 2737113.868717117700726 ], [ 687350.915222201030701, 2733386.053616958204657 ], [ 688422.267520834458992, 2733400.572663484606892 ], [ 687866.226617150823586, 2730604.968834820203483 ], [ 690009.101947773247957, 2730634.138026479166001 ], [ 689453.7558779300889, 2727838.68752030050382 ], [ 688382.237159603973851, 2727824.120207574684173 ], [ 688567.319173699710518, 2728755.887426713481545 ], [ 687495.830983558204025, 2728741.383316279854625 ], [ 687310.722663738531992, 2727809.635615461971611 ], [ 686239.212366311112419, 2727795.233741985168308 ], [ 686054.137414885684848, 2726863.535531979054213 ], [ 684982.604989734943956, 2726849.235821895301342 ], [ 684797.563425186905079, 2725917.587026560213417 ], [ 683726.008851850870997, 2725903.389406335540116 ], [ 683356.052236372837797, 2724040.22041097888723 ], [ 680141.255418721819296, 2723998.239426069427282 ], [ 679956.287849898450077, 2723066.757691070437431 ], [ 681027.908990827389061, 2723080.649482645560056 ], [ 680843.027424185303971, 2722149.178327911999077 ], [ 685129.657889010151848, 2722205.493888637516648 ], [ 684944.941044752253219, 2721273.975321043282747 ], [ 683873.25101101025939, 2721259.791967724915594 ], [ 683688.567624531802721, 2720328.322619364131242 ], [ 686903.728901344467886, 2720371.062140591442585 ], [ 687088.333594849333167, 2721302.589589958544821 ], [ 688160.036159345065244, 2721317.020509464200586 ], [ 687975.457690677372739, 2720385.473636937327683 ], [ 689047.19070200342685, 2720399.967631190083921 ], [ 688862.698110173339956, 2719468.431232084985822 ], [ 687790.938886797288433, 2719453.956673698499799 ], [ 687606.479749798541889, 2718522.469602592289448 ], [ 689750.054841159144416, 2718551.462322094477713 ], [ 689934.461576558416709, 2719482.988262275233865 ], [ 691006.229310037684627, 2719497.627766258083284 ], [ 690821.848770852899179, 2718566.08234941214323 ], [ 691893.646988676511683, 2718580.784824434202164 ], [ 691709.35227275302168, 2717649.249839280266315 ], [ 692781.180983200087212, 2717664.015246538445354 ], [ 692596.97207014891319, 2716732.490678548812866 ], [ 693668.831281518330798, 2716747.318979242816567 ], [ 693116.640742779127322, 2713952.866213002242148 ], [ 690972.769751925603487, 2713923.408919915091246 ], [ 691156.825926513760351, 2714854.824330867733806 ], [ 690084.923033220460638, 2714840.19972125440836 ], [ 690269.065000574337319, 2715771.625556712504476 ], [ 688125.324335396056995, 2715742.584539180621505 ], [ 688493.89190009154845, 2717605.448139228858054 ], [ 686350.272876239730977, 2717576.659087372478098 ], [ 686534.698539948556572, 2718508.096906444989145 ], [ 683319.379964641295373, 2718465.473448880482465 ], [ 683503.943941713660024, 2719396.883118792902678 ], [ 682432.20557213050779, 2719382.8208899772726 ], [ 682063.084900050191209, 2717520.069908556528389 ], [ 679919.515562161803246, 2717492.26975065888837 ], [ 679734.992398560745642, 2716560.977354711387306 ], [ 677591.386818689876236, 2716533.545099854003638 ], [ 677960.597741198260337, 2718396.083006702829152 ], [ 675817.113013792433776, 2718368.903814328834414 ], [ 675632.425222952500917, 2717437.658221893943846 ], [ 674560.662567709456198, 2717424.211326099000871 ], [ 674376.008334536571056, 2716493.014475624542683 ], [ 675447.797209970420226, 2716506.442318433895707 ], [ 675078.720525855082087, 2714644.09951020590961 ], [ 674006.879239136702381, 2714630.709727357141674 ], [ 673822.404381041764282, 2713699.601795484311879 ], [ 669534.973338756943122, 2713646.94146066531539 ], [ 669719.55299286020454, 2714577.973645028658211 ], [ 668647.731035865843296, 2714564.995377701707184 ], [ 668463.125174821470864, 2713633.982060116715729 ], [ 667391.280801297398284, 2713621.104929271619767 ], [ 667575.912872470449656, 2714552.099408111535013 ], [ 666504.098478561616503, 2714539.285734496079385 ], [ 666873.594630297855474, 2716401.325633466243744 ], [ 669017.12228255928494, 2716427.110667515080422 ], [ 669386.752881677355617, 2718289.34427691809833 ], [ 668315.039655706728809, 2718276.372799084987491 ], [ 668130.168189228745177, 2717345.260095990262926 ], [ 663843.247839480871335, 2717294.273568144533783 ], [ 664028.224333517020568, 2718225.310951320454478 ], [ 658669.787933078012429, 2718163.337654660921544 ], [ 658854.955714904121123, 2719094.31097903707996 ], [ 657783.305518383276649, 2719082.144869274459779 ], [ 657598.111445765243843, 2718151.190180046949536 ], [ 655454.76907123089768, 2718127.14240219257772 ], [ 655640.01573520922102, 2719058.059905156958848 ], [ 653496.739937999751419, 2719034.304603967815638 ], [ 653682.099183684564196, 2719965.214433494023979 ], [ 655825.322357087628916, 2719989.006839592475444 ], [ 656010.68893482349813, 2720919.983222456648946 ], [ 658153.873477169079706, 2720944.142651160713285 ], [ 658339.247359246015549, 2721875.185777773614973 ], [ 661553.971916796406731, 2721912.099615538027138 ], [ 661924.741489195032045, 2723774.386818654369563 ], [ 662996.27091346133966, 2723786.894021826330572 ], [ 662810.882506153662689, 2722855.716836166102439 ], [ 664954.004999408032745, 2722880.941265739034861 ], [ 665139.340757333440706, 2723812.156127477996051 ], [ 667282.425421968800947, 2723837.74851039564237 ], [ 667097.142300582258031, 2722906.495860447175801 ], [ 669240.29460209957324, 2722932.38063425431028 ], [ 669425.525099735939875, 2723863.671184559352696 ], [ 668353.973372186883353, 2723850.668560190591961 ], [ 668539.290021106367931, 2724781.969831821043044 ], [ 667467.768394062179141, 2724769.030830482952297 ], [ 668024.156393918325193, 2727563.055982313118875 ], [ 666952.717560695018619, 2727550.142718945629895 ], [ 666767.168693393236026, 2726618.790255686733872 ], [ 665695.707243523444049, 2726605.978617177344859 ], [ 665881.282469512661919, 2727537.312138783279806 ], [ 664809.851096351630986, 2727524.564240071922541 ], [ 664995.512555793859065, 2728455.908540302421898 ], [ 663924.111251446069218, 2728443.224420312792063 ], [ 664109.858964902581647, 2729374.579513465054333 ], [ 663038.487721492769197, 2729361.959211120847613 ], [ 663410.215582342352718, 2731224.720724508631974 ], [ 661267.589657299569808, 2731199.652837270405143 ], [ 661453.596256224205717, 2732131.040394869633019 ], [ 662524.880978000117466, 2732143.551823731511831 ], [ 662897.020998217980377, 2734006.453907486051321 ], [ 661825.789152201497927, 2733993.904675148893148 ], [ 662011.975445121293887, 2734925.381432037334889 ], [ 660940.773675357108004, 2734912.896171883214265 ], [ 661313.378881217679009, 2736775.901164621580392 ], [ 658099.953935496858321, 2736738.829565704334527 ], [ 658472.957716090022586, 2738601.840333284344524 ], [ 657401.87617368879728, 2738589.611350902356207 ], [ 657588.494468930060975, 2739521.142524967901409 ], [ 659730.608063477207907, 2739545.721244391519576 ], [ 659917.233240157132968, 2740477.319977249950171 ], [ 662059.308069597114809, 2740502.268720601685345 ], [ 662245.940099732019007, 2741433.93520347867161 ], [ 663316.956407621619292, 2741446.553174878004938 ], [ 664437.846839274745435, 2747037.29434024868533 ] ], [ [ 666903.258762693032622, 2743348.480818797368556 ], [ 666716.613109930185601, 2742416.678261881228536 ], [ 668858.625887763104402, 2742442.700366423930973 ], [ 669045.218483036267571, 2743374.541248166467994 ], [ 666903.258762693032622, 2743348.480818797368556 ] ], [ [ 687680.99896873102989, 2729673.161050322465599 ], [ 686609.541298621799797, 2729658.720180942676961 ], [ 686424.346994923078455, 2728726.961952568497509 ], [ 687495.830983558204025, 2728741.383316279854625 ], [ 687680.99896873102989, 2729673.161050322465599 ] ], [ [ 682616.85548240179196, 2720314.241095069330186 ], [ 681545.147441879846156, 2720300.242058948613703 ], [ 681360.471301055280492, 2719368.841121266130358 ], [ 682432.20557213050779, 2719382.8208899772726 ], [ 682616.85548240179196, 2720314.241095069330186 ] ], [ [ 679032.346091432031244, 2718409.796238665468991 ], [ 679217.01495810050983, 2719341.128956526517868 ], [ 678145.292838055058382, 2719327.396556710358709 ], [ 677960.597741198260337, 2718396.083006702829152 ], [ 679032.346091432031244, 2718409.796238665468991 ] ], [ [ 669610.815428669913672, 2724794.99143577227369 ], [ 669796.16558683256153, 2725726.341404975857586 ], [ 668724.666508960537612, 2725713.300806050188839 ], [ 668539.290021106367931, 2724781.969831821043044 ], [ 669610.815428669913672, 2724794.99143577227369 ] ], [ [ 664481.534021154046059, 2731237.378849853761494 ], [ 664667.461359814857133, 2732168.823127289302647 ], [ 665738.757067823433317, 2732181.583005433902144 ], [ 665924.717854045913555, 2733113.076023294124752 ], [ 663782.182974035735242, 2733087.601156956050545 ], [ 663410.215582342352718, 2731224.720724508631974 ], [ 664481.534021154046059, 2731237.378849853761494 ] ], [ [ 666995.990851940121502, 2733125.937727494165301 ], [ 667181.985067425412126, 2734057.47956183180213 ], [ 666110.738499409984797, 2734044.598836025223136 ], [ 665924.717854045913555, 2733113.076023294124752 ], [ 666995.990851940121502, 2733125.937727494165301 ] ], [ [ 659544.042799455812201, 2738614.152318109758198 ], [ 660615.131447722669691, 2738626.547307057771832 ], [ 660801.670201003202237, 2739558.135151491500437 ], [ 659730.608063477207907, 2739545.721244391519576 ], [ 659544.042799455812201, 2738614.152318109758198 ] ], [ [ 661686.223684825003147, 2738639.025301819201559 ], [ 663828.419021288864315, 2738664.230315598659217 ], [ 664014.878261747770011, 2739595.875082687009126 ], [ 662943.805276208557189, 2739583.212068929336965 ], [ 663130.350901206722483, 2740514.867686801124364 ], [ 662059.308069597114809, 2740502.268720601685345 ], [ 661686.223684825003147, 2738639.025301819201559 ] ], [ [ 676495.823519165976904, 2737890.588867791928351 ], [ 674353.484545194893144, 2737863.42999720480293 ], [ 674167.409698584349826, 2736931.653660255949944 ], [ 673096.219619173323736, 2736918.217978801112622 ], [ 672910.178115317597985, 2735986.490849950816482 ], [ 671838.965462536551058, 2735973.157347601372749 ], [ 671652.957319828215986, 2735041.479350636713207 ], [ 672724.196406021248549, 2735054.793660216033459 ], [ 672538.274493369972333, 2734123.126392407808453 ], [ 674680.817117964150384, 2734149.965318852569908 ], [ 674866.686192725086585, 2735081.671025443822145 ], [ 675937.936941169085912, 2735095.234084758907557 ], [ 676495.823519165976904, 2737890.588867791928351 ] ], [ [ 674309.258308368851431, 2732286.64369546668604 ], [ 675380.588270282954909, 2732300.149016714189202 ], [ 675752.094280626624823, 2734163.509116686880589 ], [ 674680.817117964150384, 2734149.965318852569908 ], [ 674309.258308368851431, 2732286.64369546668604 ] ], [ [ 664526.836283715092577, 2736813.71932664886117 ], [ 663455.680169990402646, 2736801.030318336095661 ], [ 663269.40056330175139, 2735869.475053855683655 ], [ 664340.583145689684898, 2735882.145078304689378 ], [ 664526.836283715092577, 2736813.71932664886117 ] ], [ [ 665181.23388473119121, 2729387.282549858093262 ], [ 666252.612504982855171, 2729400.068322032224387 ], [ 666438.367310326779261, 2730331.49101786268875 ], [ 665367.015081094112247, 2730318.686285828705877 ], [ 665181.23388473119121, 2729387.282549858093262 ] ], [ [ 666066.917557354667224, 2728468.675368038471788 ], [ 667138.326280141947791, 2728481.524905263911933 ], [ 667323.994849665323272, 2729412.936831734608859 ], [ 666252.612504982855171, 2729400.068322032224387 ], [ 666066.917557354667224, 2728468.675368038471788 ] ], [ [ 680180.882229560753331, 2729573.813126042485237 ], [ 679109.453319237451069, 2729559.951625758316368 ], [ 679294.891680187312886, 2730491.604027650784701 ], [ 678223.493135412223637, 2730477.805990229826421 ], [ 677667.278247992275283, 2727682.996391430962831 ], [ 679810.237403694191016, 2727710.559483130928129 ], [ 680180.882229560753331, 2729573.813126042485237 ] ] ], [ [ [ 688278.975063347374089, 2738045.897881736047566 ], [ 687207.758906456641853, 2738031.363791367504746 ], [ 687579.453283457667567, 2739895.473429121542722 ], [ 688650.616592553909868, 2739910.046799549367279 ], [ 688278.975063347374089, 2738045.897881736047566 ] ] ], [ [ [ 692980.011792518547736, 2745547.793769173324108 ], [ 692607.813375242752954, 2743683.162998219020665 ], [ 690465.677154040895402, 2743653.442785490304232 ], [ 690651.799497631960548, 2744585.703400415834039 ], [ 689580.764249152503908, 2744570.948335917200893 ], [ 689953.240800629835576, 2746435.521011461503804 ], [ 692095.209600561065599, 2746465.19352836208418 ], [ 691908.994491343270056, 2745532.852428681217134 ], [ 692980.011792518547736, 2745547.793769173324108 ] ] ], [ [ [ 637594.405215948587283, 2756969.648080633953214 ], [ 637971.275390990194865, 2758833.108329625800252 ], [ 640112.123409211169928, 2758854.808567570056766 ], [ 639735.360385477542877, 2756991.274004925973713 ], [ 637594.405215948587283, 2756969.648080633953214 ] ] ] ] } }
]
}
