{
"type": "FeatureCollection",
"name": "urban-2010",
"crs": { "type": "name", "properties": { "name": "urn:ogc:def:crs:EPSG::32638" } },
"features": [
{ "type": "Feature", "properties": { "year": 2010 }, "geometry": { "type": "MultiPolygon", "coordinates": [ [ [ [ 632352.829429133213125, 2709531.129498477093875 ], [ 634496.514397728606127, 2709551.559104763437063 ], [ 634311.395246705505997, 2708621.26186950225383 ], [ 633239.524995835730806, 2708611.023907305672765 ], [ 633054.439744418952614, 2707680.773522097617388 ], [ 630910.655704162316397, 2707660.579508502967656 ], [ 630540.560719979577698, 2705800.236795667558908 ], [ 629468.620636258623563, 2705790.298407347407192 ], [ 629283.637190801324323, 2704860.188121342565864 ], [ 628211.6737867082702, 2704850.349445990286767 ], [ 628396.683471372816712, 2705780.442010235507041 ], [ 627324.749201153754257, 2705770.667602983769029 ], [ 627509.845346306217834, 2706700.771302631590515 ], [ 626437.940202313940972, 2706691.06120279757306 ], [ 626623.122828684514388, 2707621.176052012946457 ], [ 627695.001707314513624, 2707630.903848187532276 ], [ 628065.495068960473873, 2709491.255543797742575 ], [ 629137.324272233527154, 2709501.100878659635782 ], [ 628952.073766659013927, 2708570.892836438026279 ], [ 632167.657746545504779, 2708600.868024283554405 ], [ 632352.829429133213125, 2709531.129498477093875 ] ] ], [ [ [ 664325.078964822459966, 2708941.254947490524501 ], [ 663253.114864346454851, 2708928.718158986885101 ], [ 663806.528391557047144, 2711721.179261784534901 ], [ 667022.196222890401259, 2711759.204495335463434 ], [ 666284.745379238156602, 2708035.75724731059745 ], [ 664140.753734497819096, 2708010.474705425556749 ], [ 664325.078964822459966, 2708941.254947490524501 ] ] ], [ [ [ 678629.10805298271589, 2710973.846780523657799 ], [ 681845.017804794944823, 2711015.267940362915397 ], [ 681477.024467888986692, 2709153.01367322774604 ], [ 678260.957944079651497, 2709111.707151842769235 ], [ 678629.10805298271589, 2710973.846780523657799 ] ] ], [ [ [ 655866.965830298489891, 2725563.258312063291669 ], [ 656238.531077575054951, 2727425.557376180309802 ], [ 658381.339590774849057, 2727449.813061627093703 ], [ 658567.159347495646216, 2728381.044376351870596 ], [ 660709.92928156547714, 2728405.6682895636186 ], [ 660338.455235891742632, 2726543.160191279835999 ], [ 664624.249508469365537, 2726593.249632083810866 ], [ 664253.225955644273199, 2724730.709424539003521 ], [ 659967.220839954214171, 2724680.770547300111502 ], [ 659781.693515776772983, 2723749.620103080291301 ], [ 654424.135898270295002, 2723689.148098565172404 ], [ 654795.514066085452214, 2725551.291776868514717 ], [ 655866.965830298489891, 2725563.258312063291669 ] ], [ [ 660152.80808067729231, 2725611.9505710224621 ], [ 659081.342190991155803, 2725599.653585242573172 ], [ 658895.728591640945524, 2724668.492304208688438 ], [ 659967.220839954214171, 2724680.770547300111502 ], [ 660152.80808067729231, 2725611.9505710224621 ] ] ], [ [ [ 671933.949544090777636, 2747128.752062063664198 ], [ 671747.170778052182868, 2746196.752518157940358 ], [ 673889.001655203523114, 2746223.594061839859933 ], [ 674075.72731122863479, 2747155.632279281038791 ], [ 675146.622003713389859, 2747169.19730355637148 ], [ 675333.380878847907297, 2748101.285045965574682 ], [ 676404.252918898244388, 2748114.952772300690413 ], [ 676591.044994677300565, 2749047.090116166509688 ], [ 677661.894402693258598, 2749060.860618129372597 ], [ 677475.128890410531312, 2748128.703808142337948 ], [ 678546.008817254099995, 2748142.538155362010002 ], [ 678732.747769170673564, 2749074.714459547773004 ], [ 679803.605117972474545, 2749088.651642309967428 ], [ 679616.892723300494254, 2748156.455815847031772 ], [ 680687.780632421374321, 2748170.456791492644697 ], [ 680874.466472965432331, 2749102.672168314922601 ], [ 681945.331858011893928, 2749116.776039473246783 ], [ 682132.050854156957939, 2750049.041268866509199 ], [ 681061.212029890273698, 2750034.917803694494069 ], [ 681248.017301076557487, 2750967.193714987952262 ], [ 682318.829554799711332, 2750981.336789750494063 ], [ 682692.566061089746654, 2752846.018775492440909 ], [ 686975.643295975518413, 2752903.582752116490155 ], [ 686602.119409398641437, 2751038.743140760343522 ], [ 685531.290772091364488, 2751024.26644131494686 ], [ 685344.591764506534673, 2750091.911923115607351 ], [ 683202.893735442776233, 2750063.248109201435 ], [ 682829.568555367877707, 2748198.708695912733674 ], [ 684971.372777066426352, 2748227.293884022627026 ], [ 684784.852801462751813, 2747295.030328374356031 ], [ 686926.726567581063136, 2747323.909437190275639 ], [ 686553.971714035840705, 2745459.394503081683069 ], [ 687624.967851999681443, 2745473.919591315090656 ], [ 687811.288943474413827, 2746406.181608748156577 ], [ 689953.240800629835576, 2746435.521011461503804 ], [ 690139.568529753014445, 2747367.852860347367823 ], [ 692281.484325122786686, 2747397.565005700103939 ], [ 692095.209600561065599, 2746465.19352836208418 ], [ 693166.20041378471069, 2746480.154709681868553 ], [ 692607.813375242752954, 2743683.162998219020665 ], [ 693678.887921275570989, 2743698.147904014214873 ], [ 693306.980853363405913, 2741833.598868197761476 ], [ 691164.730250543449074, 2741803.791458773426712 ], [ 691350.706877072108909, 2742736.011221681721509 ], [ 690279.614441951387562, 2742721.212480525951833 ], [ 690093.611363490112126, 2741789.0124681587331 ], [ 687951.386298492085189, 2741759.703905048314482 ], [ 687765.389962279237807, 2740827.573553654365242 ], [ 690978.813250008970499, 2740871.601986639201641 ], [ 690792.955877595464699, 2739939.442787926644087 ], [ 691864.131901409593411, 2739954.265409885440022 ], [ 691306.996803689515218, 2737157.910131197422743 ], [ 690235.741550307604484, 2737143.146658955141902 ], [ 690421.420025622006506, 2738075.215141414199024 ], [ 688278.975063347374089, 2738045.897881736047566 ], [ 687907.572150108404458, 2736181.869725620839745 ], [ 691121.404355332022533, 2736225.852167275734246 ], [ 690935.871535950805992, 2735293.824405643157661 ], [ 688793.259734215098433, 2735264.459117825143039 ], [ 688422.267520834458992, 2733400.572663484606892 ], [ 689493.624036301975138, 2733415.174597181845456 ], [ 688937.662166639463976, 2730619.512028207536787 ], [ 691080.545984554104507, 2730648.846831629984081 ], [ 690895.397302544908598, 2729716.980315264314413 ], [ 691966.87193500995636, 2729731.752295826096088 ], [ 691596.806078057270497, 2727868.070315561722964 ], [ 687310.722663738531992, 2727809.635615461971611 ], [ 686940.685028568143025, 2725946.230244622565806 ], [ 688012.252106683095917, 2725960.675846370868385 ], [ 687827.349072064273059, 2725028.998669873457402 ], [ 688898.946639975882135, 2725043.507435918785632 ], [ 689083.823401130852289, 2725975.204112557694316 ], [ 690155.398935947101563, 2725989.815045167226344 ], [ 689601.026399502763525, 2723194.756445203442127 ], [ 688529.372082662419416, 2723180.204051059670746 ], [ 688344.67429070500657, 2722248.597308446653187 ], [ 687272.997960767941549, 2722234.146950397174805 ], [ 687088.333594849333167, 2721302.589589958544821 ], [ 689231.742948899744079, 2721331.53395496122539 ], [ 688678.265175505075604, 2718536.92474048351869 ], [ 689750.054841159144416, 2718551.462322094477713 ], [ 689934.461576558416709, 2719482.988262275233865 ], [ 691006.229310037684627, 2719497.627766258083284 ], [ 691190.669486941187643, 2720429.203121352475137 ], [ 692262.415308709139936, 2720443.944621257018298 ], [ 692078.001334695145488, 2719512.349746034480631 ], [ 693149.777674614451826, 2719527.154203616082668 ], [ 692781.180983200087212, 2717664.015246538445354 ], [ 693853.01402692485135, 2717678.863077440299094 ], [ 693668.831281518330798, 2716747.318979242816567 ], [ 695812.562791397678666, 2716777.222775402944535 ], [ 695628.491967599838972, 2715845.669496053364128 ], [ 696700.390463170711882, 2715860.72539646923542 ], [ 696332.479878725600429, 2713997.669507496990263 ], [ 697404.43506045488175, 2714012.768575115129352 ], [ 696853.094449778669514, 2711218.350456579588354 ], [ 697925.132385095115751, 2711233.47306379629299 ], [ 697741.497440375271253, 2710302.040599693544209 ], [ 696669.433420547749847, 2710286.937555788550526 ], [ 696302.29013615171425, 2708424.20135944802314 ], [ 695230.178400123259053, 2708409.219549135770649 ], [ 695964.807662216131575, 2712134.733328074216843 ], [ 693820.806062141316943, 2712104.860274608712643 ], [ 694004.664596318965778, 2713036.274361766409129 ], [ 691860.732684584916569, 2713006.691409829538316 ], [ 692044.703086791327223, 2713938.096410817932338 ], [ 690972.769751925603487, 2713923.408919915091246 ], [ 691156.825926513760351, 2714854.824330867733806 ], [ 689013.02441585296765, 2714825.657447001896799 ], [ 689197.192540550953709, 2715757.063867219723761 ], [ 688125.324335396056995, 2715742.584539180621505 ], [ 688493.89190009154845, 2717605.448139228858054 ], [ 685278.469659399008378, 2717562.388179977424443 ], [ 685462.921521866694093, 2718493.806650077458471 ], [ 684391.148671460803598, 2718479.598831536248326 ], [ 684206.670607151230797, 2717548.199682333972305 ], [ 683134.875695400056429, 2717534.093592503108084 ], [ 682397.455738391843624, 2713808.871960198041052 ], [ 681325.560208010021597, 2713794.925181808881462 ], [ 681509.851794307585806, 2714726.16675171488896 ], [ 680437.986516110715456, 2714712.283089711796492 ], [ 680253.668757506529801, 2713781.060695125255734 ], [ 679181.78136275766883, 2713767.278498251922429 ], [ 679366.125296784448437, 2714698.481745580211282 ], [ 678294.26811221241951, 2714684.762717434205115 ], [ 678663.18760018015746, 2716547.220042169559747 ], [ 676519.590029987040907, 2716519.95252589462325 ], [ 675966.143271813285537, 2713726.425627707503736 ], [ 674894.271858856780455, 2713712.972571345046163 ], [ 674709.8829779853113, 2712781.875253273639828 ], [ 670422.331691777566448, 2712728.961613025516272 ], [ 670237.897893284214661, 2711797.969635882414877 ], [ 668094.092987613752484, 2711772.043994625564665 ], [ 668278.579158052918501, 2712702.99827142059803 ], [ 666134.841773213236593, 2712677.36389650311321 ], [ 666319.440194063005038, 2713608.310066367965192 ], [ 665247.603328998549841, 2713595.597469658590853 ], [ 665617.032202334376052, 2715457.540740471333265 ], [ 664545.251504476647824, 2715444.872883588075638 ], [ 664730.081985127762891, 2716375.870000568218529 ], [ 659371.364762960118242, 2716313.671957478392869 ], [ 659186.403038427582942, 2715382.768346624914557 ], [ 657042.888879530597478, 2715358.502715680282563 ], [ 657227.903124298434705, 2716289.369120202492923 ], [ 654012.737117612501606, 2716253.532372588757426 ], [ 653827.644068021909334, 2715322.721567494329065 ], [ 651684.16486367455218, 2715299.278981841169298 ], [ 652054.516061782604083, 2717160.856074176263064 ], [ 653126.201380457147025, 2717172.57313035055995 ], [ 653311.440669578849338, 2718103.424175233114511 ], [ 654383.103135836892761, 2718115.242095665540546 ], [ 654568.376100397785194, 2719046.141047512646765 ], [ 653496.739937999751419, 2719034.304603967815638 ], [ 653682.099183684564196, 2719965.214433494023979 ], [ 654753.709032541140914, 2719977.069415489211679 ], [ 654939.10193022643216, 2720908.027216549497098 ], [ 658153.873477169079706, 2720944.142651160713285 ], [ 658339.247359246015549, 2721875.185777773614973 ], [ 660482.393469769041985, 2721899.71249709604308 ], [ 660667.774628396495245, 2722830.822557949461043 ], [ 661739.326752364169806, 2722843.228428992908448 ], [ 661924.741489195032045, 2723774.386818654369563 ], [ 662996.27091346133966, 2723786.894021826330572 ], [ 662810.882506153662689, 2722855.716836166102439 ], [ 664954.004999408032745, 2722880.941265739034861 ], [ 665139.340757333440706, 2723812.156127477996051 ], [ 666210.881225033081137, 2723824.911033409181982 ], [ 666581.679680304601789, 2725687.46749839419499 ], [ 665510.191881454084069, 2725674.674786136951298 ], [ 665695.707243523444049, 2726605.978617177344859 ], [ 664624.249508469365537, 2726593.249632083810866 ], [ 664809.851096351630986, 2727524.564240071922541 ], [ 662666.999408016446978, 2727499.316480055917054 ], [ 663224.321709527866915, 2730293.32511148089543 ], [ 662152.980519199045375, 2730280.768665705807507 ], [ 661967.120130496681668, 2729349.421641101595014 ], [ 659824.395809723180719, 2729324.594691205769777 ], [ 660196.28212308511138, 2731187.243071957491338 ], [ 659124.97817575535737, 2731174.916089918930084 ], [ 659311.037631013081409, 2732106.265974443405867 ], [ 661453.596256224205717, 2732131.040394869633019 ], [ 661825.789152201497927, 2733993.904675148893148 ], [ 660754.560926757054403, 2733981.438311871141195 ], [ 661127.046327532851137, 2735844.383783760946244 ], [ 660055.874626239063218, 2735831.962534693535417 ], [ 660242.23365826997906, 2736763.461015792563558 ], [ 658099.953935496858321, 2736738.829565704334527 ], [ 658286.425862533738837, 2737670.320071078836918 ], [ 657215.317812613910064, 2737658.109935313928872 ], [ 657401.87617368879728, 2738589.611350902356207 ], [ 656330.798148314235732, 2738577.465369296260178 ], [ 655957.6883505564183, 2736714.529901195783168 ], [ 654886.560799898346886, 2736702.504484384320676 ], [ 655073.112230135244317, 2737633.938580386806279 ], [ 654002.01464969269, 2737621.977357926778495 ], [ 654188.652552906423807, 2738553.422401796560735 ], [ 655259.723616032162681, 2738565.402386809233576 ], [ 655446.394955525640398, 2739496.895920757204294 ], [ 658659.549494095379487, 2739533.390369445085526 ], [ 658846.201194480294362, 2740464.970196695998311 ], [ 659917.233240157132968, 2740477.319977249950171 ], [ 660103.918327425257303, 2741408.948533833026886 ], [ 662245.940099732019007, 2741433.93520347867161 ], [ 662619.383825110504404, 2743297.357802060432732 ], [ 660477.468225423246622, 2743272.295186813920736 ], [ 660851.257740861386992, 2745135.761340705677867 ], [ 659780.358459564158693, 2745123.31679960899055 ], [ 659967.3696506844135, 2746055.075733705889434 ], [ 658896.500518386950716, 2746042.69542064005509 ], [ 659083.598212392884307, 2746974.465279857162386 ], [ 664437.846839274745435, 2747037.29434024868533 ], [ 664624.87145728780888, 2747969.189401240088046 ], [ 667837.384674310567789, 2748007.943472731392831 ], [ 667650.439812585012987, 2747075.990901907440275 ], [ 668721.311579806962982, 2747089.056287177372724 ], [ 668908.22986249695532, 2748021.028084048070014 ], [ 671049.931555851828307, 2748047.447198591660708 ], [ 670863.066421683179215, 2747115.436865458264947 ], [ 671933.949544090777636, 2747128.752062063664198 ] ], [ [ 686694.257285147439688, 2740813.063627879135311 ], [ 686508.294164733029902, 2739880.983138546813279 ], [ 687579.453283457667567, 2739895.473429121542722 ], [ 687765.389962279237807, 2740827.573553654365242 ], [ 686694.257285147439688, 2740813.063627879135311 ] ], [ [ 695260.529114620061591, 2713982.652759305201471 ], [ 695076.637089635594748, 2713051.189267579466105 ], [ 696148.613973428728059, 2713066.186462671030313 ], [ 696332.479878725600429, 2713997.669507496990263 ], [ 695260.529114620061591, 2713982.652759305201471 ] ], [ [ 668534.453124982537702, 2746157.114543115720153 ], [ 669605.355219495017081, 2746170.243958477862179 ], [ 669792.187108213314787, 2747102.204941096715629 ], [ 668721.311579806962982, 2747089.056287177372724 ], [ 668534.453124982537702, 2746157.114543115720153 ] ], [ [ 686181.455525684636086, 2743595.000698987394571 ], [ 686367.6837856490165, 2744527.182468460407108 ], [ 685296.665312127093785, 2744512.760281356982887 ], [ 685482.979737035930157, 2745444.952659313566983 ], [ 683341.008170354645699, 2745416.31869731284678 ], [ 683154.64074315445032, 2744484.165548408869654 ], [ 684225.650972595321946, 2744498.421308658085763 ], [ 684039.369736023363657, 2743566.278793337289244 ], [ 686181.455525684636086, 2743595.000698987394571 ] ] ], [ [ [ 660055.874626239063218, 2735831.962534693535417 ], [ 659869.575505431857891, 2734900.493807116523385 ], [ 658798.380911380867474, 2734888.17433604458347 ], [ 658984.706504061003216, 2735819.624207348562777 ], [ 660055.874626239063218, 2735831.962534693535417 ] ] ], [ [ [ 687997.66968936030753, 2747338.473941599950194 ], [ 686926.726567581063136, 2747323.909437190275639 ], [ 687486.306307944934815, 2750120.909261060412973 ], [ 689628.037556626368314, 2750150.240138842258602 ], [ 689441.504399494966492, 2749217.836964760441333 ], [ 688370.610135853523389, 2749203.149623075034469 ], [ 687997.66968936030753, 2747338.473941599950194 ] ] ], [ [ [ 672307.686469958978705, 2748992.84146551322192 ], [ 672681.66257352672983, 2750857.051405092235655 ], [ 671610.885787610663101, 2750843.658874244894832 ], [ 671797.990134270628914, 2751775.789715867023915 ], [ 675010.252236237400211, 2751816.275670846458524 ], [ 674075.72731122863479, 2747155.632279281038791 ], [ 673004.836499313707463, 2747142.150532729458064 ], [ 673378.52028276422061, 2749006.278628304135054 ], [ 672307.686469958978705, 2748992.84146551322192 ] ] ], [ [ [ 640994.167308666277677, 2757933.983250605408102 ], [ 640805.842617325833999, 2757002.212260605301708 ], [ 639735.360385477542877, 2756991.274004925973713 ], [ 639547.069003540556878, 2756059.551418225746602 ], [ 641688.090130015625618, 2756081.474238555878401 ], [ 641499.912350985920057, 2755149.744234521407634 ], [ 643640.999578465474769, 2755171.963770021684468 ], [ 643452.935352064552717, 2754240.226281822193414 ], [ 641311.794643935281783, 2754218.044018022250384 ], [ 641123.737010924727656, 2753286.373571899253875 ], [ 640053.144648389425129, 2753275.426191794686019 ], [ 640241.22901703894604, 2754207.078059636522084 ], [ 639170.66650983132422, 2754196.195548266172409 ], [ 638982.555402175756171, 2753264.562230710871518 ], [ 637911.969248457113281, 2753253.781687167473137 ], [ 638100.107098494889215, 2754185.396482428535819 ], [ 637029.550759212463163, 2754174.680860653053969 ], [ 637217.775467938394286, 2755106.306869705207646 ], [ 638288.30505173781421, 2755117.041001354344189 ], [ 638664.881259616930038, 2756980.419278760906309 ], [ 637594.405215948587283, 2756969.648080633953214 ], [ 638159.800633500912227, 2759764.883136291988194 ], [ 639230.196294032386504, 2759775.710051067173481 ], [ 639041.697855628561229, 2758843.916656585410237 ], [ 640112.123409211169928, 2758854.808567570056766 ], [ 639923.711854722350836, 2757923.026382317766547 ], [ 640994.167308666277677, 2757933.983250605408102 ] ] ], [ [ [ 726040.240692986990325, 2674518.452762274071574 ], [ 724967.010966902715154, 2674501.422869642265141 ], [ 725147.499667718890123, 2675432.324162963312119 ], [ 728367.127474148059264, 2675483.71718416037038 ], [ 728006.363037163042463, 2673621.824794724583626 ], [ 725859.836944522103295, 2673587.561295744031668 ], [ 726040.240692986990325, 2674518.452762274071574 ] ] ], [ [ [ 730874.471200839267112, 2677380.476850952021778 ], [ 731947.650062591419555, 2677397.972865890245885 ], [ 731767.196395777864382, 2676466.892109176609665 ], [ 729620.792687016306445, 2676432.021470668260008 ], [ 729981.861793574062176, 2678294.132585289422423 ], [ 727835.581473888014443, 2678259.506924365647137 ], [ 728196.990386104211211, 2680121.657246802002192 ], [ 729270.076649762107991, 2680138.969469908624887 ], [ 729089.368184986291453, 2679207.859365978743881 ], [ 731235.607655024155974, 2679242.687752834521234 ], [ 730874.471200839267112, 2677380.476850952021778 ] ] ], [ [ [ 686440.935697828885168, 2701789.092687085270882 ], [ 687513.199498934904113, 2701803.364755684509873 ], [ 686963.637461843201891, 2699010.514000897295773 ], [ 685891.29565430409275, 2698996.299444074742496 ], [ 686440.935697828885168, 2701789.092687085270882 ] ] ], [ [ [ 705559.546243941411376, 2701127.218430233653635 ], [ 706631.915902261971496, 2701142.946078204084188 ], [ 706449.196075565530919, 2700211.645959536079317 ], [ 704304.409501972491853, 2700180.311936988960952 ], [ 704487.181227355846204, 2701111.572731361724436 ], [ 703414.82082828367129, 2701096.008979446254671 ], [ 703780.594786322792061, 2702958.580821052659303 ], [ 704852.903248697519302, 2702974.18385871546343 ], [ 704670.01247696345672, 2702042.863366233184934 ], [ 705742.351533018401824, 2702058.528728456236422 ], [ 705559.546243941411376, 2701127.218430233653635 ] ] ], [ [ [ 701819.019884470384568, 2703858.912200931925327 ], [ 703963.57106099894736, 2703889.91152248904109 ], [ 703780.594786322792061, 2702958.580821052659303 ], [ 701635.991635056445375, 2702927.620746724773198 ], [ 701819.019884470384568, 2703858.912200931925327 ] ] ], [ [ [ 688828.915949057554826, 2713894.280863931868225 ], [ 690972.769751925603487, 2713923.408919915091246 ], [ 690604.836326538934372, 2712060.667632981669158 ], [ 688460.877997522940859, 2712031.617140774149448 ], [ 688828.915949057554826, 2713894.280863931868225 ] ] ], [ [ [ 687941.130050294101238, 2714811.197506119962782 ], [ 689013.02441585296765, 2714825.657447001896799 ], [ 688828.915949057554826, 2713894.280863931868225 ], [ 687756.995432806084864, 2713879.840294869150966 ], [ 687941.130050294101238, 2714811.197506119962782 ] ] ], [ [ [ 690488.039659010828473, 2722277.745688756462187 ], [ 690303.453987582004629, 2721346.129928431939334 ], [ 689231.742948899744079, 2721331.53395496122539 ], [ 689416.354848764953203, 2722263.130220570601523 ], [ 690488.039659010828473, 2722277.745688756462187 ] ] ], [ [ [ 709374.281372566940263, 2763458.253879629541188 ], [ 708626.872261839453131, 2759725.821689482312649 ], [ 707556.199540577013977, 2759709.576819772366434 ], [ 708303.71510627202224, 2763441.927265241276473 ], [ 709374.281372566940263, 2763458.253879629541188 ] ] ] ] } }
]
}
