{
"type": "FeatureCollection",
"name": "urban-1975",
"crs": { "type": "name", "properties": { "name": "urn:ogc:def:crs:EPSG::32638" } },
"features": [
{ "type": "Feature", "properties": { "year": 1975 }, "geometry": { "type": "MultiPolygon", "coordinates": [ [ [ [ 730693.991919004824013, 2676449.416163376066834 ], [ 730874.471200839267112, 2677380.476850952021778 ], [ 731947.650062591419555, 2677397.972865890245885 ], [ 731767.196395777864382, 2676466.892109176609665 ], [ 730693.991919004824013, 2676449.416163376066834 ] ] ], [ [ [ 677591.386818689876236, 2716533.545099854003638 ], [ 677960.597741198260337, 2718396.083006702829152 ], [ 680104.098464803071693, 2718423.59189697355032 ], [ 679734.992398560745642, 2716560.977354711387306 ], [ 677591.386818689876236, 2716533.545099854003638 ] ] ], [ [ [ 681729.883305793860927, 2721231.672813675832003 ], [ 681914.678890712093562, 2722163.133402574341744 ], [ 682986.334440983599052, 2722177.171019635628909 ], [ 682801.565106047899462, 2721245.69113257760182 ], [ 681729.883305793860927, 2721231.672813675832003 ] ] ], [ [ [ 681397.851301675895229, 2724943.681368439458311 ], [ 681582.912041706033051, 2725875.242133801802993 ], [ 682654.458398702205159, 2725889.274442724883556 ], [ 682469.423950635013171, 2724957.694345698691905 ], [ 681397.851301675895229, 2724943.681368439458311 ] ] ], [ [ [ 665225.602593082468957, 2734963.334601913113147 ], [ 665784.282608732115477, 2737758.114399806596339 ], [ 663642.019656677613966, 2737732.615399867296219 ], [ 663828.419021288864315, 2738664.230315598659217 ], [ 664899.522168523399159, 2738676.957338055130094 ], [ 665272.447517820983194, 2740540.314816837199032 ], [ 663130.350901206722483, 2740514.867686801124364 ], [ 664063.977205819799565, 2745173.594172939658165 ], [ 667276.729604052496143, 2745212.175854802597314 ], [ 667089.964261430432089, 2744280.313344031106681 ], [ 666019.016543274745345, 2744267.38872637366876 ], [ 665645.612314961384982, 2742403.791900421492755 ], [ 666716.613109930185601, 2742416.678261881228536 ], [ 666530.027305227587931, 2741484.905656065326184 ], [ 667601.058342131553218, 2741497.856011267751455 ], [ 667414.55889845197089, 2740566.094221975654364 ], [ 668485.620185082312673, 2740579.108532094862312 ], [ 668858.625887763104402, 2742442.700366423930973 ], [ 669929.637918448541313, 2742455.836113054305315 ], [ 670116.203989758272655, 2743387.696199289057404 ], [ 671187.193292718497105, 2743400.934310423675925 ], [ 671560.451812744606286, 2745264.783056426793337 ], [ 672631.391871395055205, 2745278.142897164449096 ], [ 672444.759246014175005, 2744346.184208682272583 ], [ 673515.72968897188548, 2744359.607949457596987 ], [ 673142.696864509489387, 2742495.74215190904215 ], [ 674213.724210900487378, 2742509.210437226574868 ], [ 674586.704003036138602, 2744373.114883758127689 ], [ 677799.650410848786123, 2744414.134866279084235 ], [ 677240.508936441037804, 2741618.148938884492964 ], [ 675098.381717124488205, 2741590.835407427512109 ], [ 674725.813578254310414, 2739727.072655368596315 ], [ 675796.92818250018172, 2739740.649195509962738 ], [ 675983.155888986540958, 2740672.534877504687756 ], [ 678125.343960606958717, 2740699.975872708018869 ], [ 678311.578470099368133, 2741631.930378788616508 ], [ 680453.729505014140159, 2741659.742616344708949 ], [ 680826.271794285392389, 2743523.819812742993236 ], [ 681897.300374371581711, 2743537.889625140931457 ], [ 681711.025858401553705, 2742605.816437285859138 ], [ 682782.08498395443894, 2742619.949888851493597 ], [ 682595.896656183293089, 2741687.887343559414148 ], [ 684738.080114961136132, 2741716.364575785119087 ], [ 684552.004415485309437, 2740784.293092268053442 ], [ 685623.128777524805628, 2740798.63680807268247 ], [ 685251.209326375159435, 2738934.545222144573927 ], [ 686322.390713578439318, 2738948.932843244634569 ], [ 685950.762827516067773, 2737084.922765511088073 ], [ 687022.001212512142956, 2737099.354243527632207 ], [ 686836.303184424061328, 2736167.374853315763175 ], [ 687907.572150108404458, 2736181.869725620839745 ], [ 687536.40786975924857, 2734317.962192821316421 ], [ 686465.086134267156012, 2734303.50647663557902 ], [ 686279.567116420133971, 2733371.617455619387329 ], [ 687350.915222201030701, 2733386.053616958204657 ], [ 687165.482239199918695, 2732454.175145092885941 ], [ 688236.860895311809145, 2732468.674624148756266 ], [ 688051.513926713028923, 2731536.806687012780458 ], [ 685908.708105727564543, 2731507.929661931470037 ], [ 685723.368117095902562, 2730576.130854764487594 ], [ 684651.945118526811711, 2730561.836064159870148 ], [ 684466.638476095278747, 2729630.08675873465836 ], [ 683395.19327565934509, 2729615.894201998598874 ], [ 683209.919997905497439, 2728684.194322131108493 ], [ 684281.391526112565771, 2728698.367457446176559 ], [ 683726.008851850870997, 2725903.389406335540116 ], [ 682654.458398702205159, 2725889.274442724883556 ], [ 682839.552557332091965, 2726820.884459685534239 ], [ 681768.032502022339031, 2726806.832803688943386 ], [ 681582.912041706033051, 2725875.242133801802993 ], [ 680511.369756827596575, 2725861.292477648705244 ], [ 680326.282721727853641, 2724929.75101587921381 ], [ 679254.718186747282743, 2724915.903286116197705 ], [ 679069.664595277048647, 2723984.410956429317594 ], [ 680141.255418721819296, 2723998.239426069427282 ], [ 679956.287849898450077, 2723066.757691070437431 ], [ 678884.670747705735266, 2723052.94846615800634 ], [ 678699.736646117176861, 2722121.515798169653863 ], [ 680843.027424185303971, 2722149.178327911999077 ], [ 680658.205586178926751, 2721217.737009102944285 ], [ 681729.883305793860927, 2721231.672813675832003 ], [ 681175.854885402368382, 2718437.469983512535691 ], [ 680104.098464803071693, 2718423.59189697355032 ], [ 680288.741104405955411, 2719354.943810748867691 ], [ 678145.292838055058382, 2719327.396556710358709 ], [ 678330.047689212718979, 2720258.739860557485372 ], [ 677258.355814369628206, 2720245.070758117828518 ], [ 677073.574720188276842, 2719313.746609425637871 ], [ 674930.150394662283361, 2719286.694064995739609 ], [ 675114.983984302030876, 2720217.979987548664212 ], [ 672971.627886557602324, 2720191.219117076136172 ], [ 672786.741788867977448, 2719259.97130845207721 ], [ 673858.444138838909566, 2719273.29146415553987 ], [ 673488.903836099547334, 2717410.846821171231568 ], [ 674560.662567709456198, 2717424.211326099000871 ], [ 674006.879239136702381, 2714630.709727357141674 ], [ 672935.041866593528539, 2714617.402251228224486 ], [ 672750.540814245818183, 2713686.31329829711467 ], [ 671678.681134347803891, 2713673.107077966444194 ], [ 671863.208384109893814, 2714604.177080000750721 ], [ 670791.37876757059712, 2714591.034211866557598 ], [ 670975.992040754528716, 2715522.114867568481714 ], [ 669904.192479494493455, 2715509.035390593111515 ], [ 669719.55299286020454, 2714577.973645028658211 ], [ 667575.912872470449656, 2714552.099408111535013 ], [ 667760.604795553721488, 2715483.123417511582375 ], [ 666688.81662465701811, 2715470.290917865000665 ], [ 666873.594630297855474, 2716401.325633466243744 ], [ 669017.12228255928494, 2716427.110667515080422 ], [ 669201.907664095051587, 2717358.21267375908792 ], [ 670273.650942120351829, 2717371.24763337476179 ], [ 670643.348710151854903, 2719233.578325187787414 ], [ 669571.657933246460743, 2719220.505494020879269 ], [ 669386.752881677355617, 2718289.34427691809833 ], [ 667243.330211992608383, 2718263.483729364350438 ], [ 667058.43249342800118, 2717332.389898296911269 ], [ 664914.972342648077756, 2717306.896636116318405 ], [ 665099.922574984724633, 2718237.952807227149606 ], [ 662956.529777958523482, 2718212.75149654969573 ], [ 663141.592429055715911, 2719143.7996416981332 ], [ 660998.266838207258843, 2719118.89046228164807 ], [ 660813.151628219289705, 2718187.879783559124917 ], [ 658669.787933078012429, 2718163.337654660921544 ], [ 658854.955714904121123, 2719094.31097903707996 ], [ 655640.01573520922102, 2719058.059905156958848 ], [ 655825.322357087628916, 2719989.006839592475444 ], [ 656896.939181394060142, 2720001.02670743316412 ], [ 657082.279442450031638, 2720932.021700112614781 ], [ 659225.471063048695214, 2720956.346077256835997 ], [ 659410.818625271786004, 2721887.40788506809622 ], [ 661553.971916796406731, 2721912.099615538027138 ], [ 661739.326752364169806, 2722843.228428992908448 ], [ 662810.882506153662689, 2722855.716836166102439 ], [ 662625.553990413900465, 2721924.569242086261511 ], [ 663697.139714680379257, 2721937.121378445066512 ], [ 663882.441913818009198, 2722868.287781176157296 ], [ 664954.004999408032745, 2722880.941265739034861 ], [ 665139.340757333440706, 2723812.156127477996051 ], [ 667282.425421968800947, 2723837.74851039564237 ], [ 667097.142300582258031, 2722906.495860447175801 ], [ 669240.29460209957324, 2722932.38063425431028 ], [ 669796.16558683256153, 2725726.341404975857586 ], [ 668724.666508960537612, 2725713.300806050188839 ], [ 669095.598993200110272, 2727576.051930647343397 ], [ 668024.156393918325193, 2727563.055982313118875 ], [ 668395.380942782037891, 2729425.888080720789731 ], [ 667323.994849665323272, 2729412.936831734608859 ], [ 667509.723267191555351, 2730344.378515463322401 ], [ 663224.321709527866915, 2730293.32511148089543 ], [ 663410.215582342352718, 2731224.720724508631974 ], [ 665552.856142815202475, 2731250.119765317533165 ], [ 665924.717854045913555, 2733113.076023294124752 ], [ 662710.921043965267017, 2733074.987991340458393 ], [ 662897.020998217980377, 2734006.453907486051321 ], [ 663968.256488776998594, 2734019.086010592989624 ], [ 664154.389880019007251, 2734950.600645331200212 ], [ 665225.602593082468957, 2734963.334601913113147 ] ], [ [ 681953.212680532364175, 2727738.453395269811153 ], [ 680881.72301496041473, 2727724.465085697360337 ], [ 680696.516521935351193, 2726792.863828534260392 ], [ 681768.032502022339031, 2726806.832803688943386 ], [ 681953.212680532364175, 2727738.453395269811153 ] ], [ [ 681252.315176400123164, 2729587.757387573365122 ], [ 679109.453319237451069, 2729559.951625758316368 ], [ 679294.891680187312886, 2730491.604027650784701 ], [ 678223.493135412223637, 2730477.805990229826421 ], [ 677667.278247992275283, 2727682.996391430962831 ], [ 680881.72301496041473, 2727724.465085697360337 ], [ 681252.315176400123164, 2729587.757387573365122 ] ], [ [ 666025.571786978514865, 2722893.677291583269835 ], [ 665840.322211396880448, 2721962.473187458701432 ], [ 666911.919031967176124, 2721975.27286357851699 ], [ 667097.142300582258031, 2722906.495860447175801 ], [ 666025.571786978514865, 2722893.677291583269835 ] ], [ [ 668067.267587065929547, 2733138.882281383965164 ], [ 668253.235375870019197, 2734070.443165371660143 ], [ 666110.738499409984797, 2734044.598836025223136 ], [ 665924.717854045913555, 2733113.076023294124752 ], [ 668067.267587065929547, 2733138.882281383965164 ] ], [ [ 672910.178115317597985, 2735986.490849950816482 ], [ 671838.965462536551058, 2735973.157347601372749 ], [ 671467.008983492269181, 2734109.831260134000331 ], [ 673609.543863535975106, 2734136.504411371424794 ], [ 673423.708160414826125, 2733204.847858402412385 ], [ 674495.007822482497431, 2733218.289547923952341 ], [ 674309.258308368851431, 2732286.64369546668604 ], [ 675380.588270282954909, 2732300.149016714189202 ], [ 675752.094280626624823, 2734163.509116686880589 ], [ 674680.817117964150384, 2734149.965318852569908 ], [ 674866.686192725086585, 2735081.671025443822145 ], [ 677009.191624961560592, 2735108.880064339376986 ], [ 677381.003394974046387, 2736972.458548180758953 ], [ 676309.801562532782555, 2736958.773943095467985 ], [ 676495.823519165976904, 2737890.588867791928351 ], [ 675424.652071770047769, 2737876.967931196559221 ], [ 675610.760242728516459, 2738808.793552487622947 ], [ 674539.619172449922189, 2738795.236323167569935 ], [ 674167.409698584349826, 2736931.653660255949944 ], [ 673096.219619173323736, 2736918.217978801112622 ], [ 672910.178115317597985, 2735986.490849950816482 ] ], [ [ 672455.051600955892354, 2722971.82691175956279 ], [ 671383.462096387520432, 2722958.595601302105933 ], [ 671198.34402372315526, 2722027.296753065660596 ], [ 672269.959819333511405, 2722040.509030573070049 ], [ 672455.051600955892354, 2722971.82691175956279 ] ] ], [ [ [ 663083.180838687578216, 2734937.949589281808585 ], [ 662897.020998217980377, 2734006.453907486051321 ], [ 661825.789152201497927, 2733993.904675148893148 ], [ 662011.975445121293887, 2734925.381432037334889 ], [ 663083.180838687578216, 2734937.949589281808585 ] ] ], [ [ [ 662384.527710474911146, 2736788.424264900386333 ], [ 662198.221631901804358, 2735856.887956246268004 ], [ 661127.046327532851137, 2735844.383783760946244 ], [ 661499.771334338467568, 2737707.448331595398486 ], [ 663642.019656677613966, 2737732.615399867296219 ], [ 663455.680169990402646, 2736801.030318336095661 ], [ 662384.527710474911146, 2736788.424264900386333 ] ] ], [ [ [ 679941.634476385661401, 2744441.897522979415953 ], [ 681012.632518948870711, 2744455.903657496441156 ], [ 680826.271794285392389, 2743523.819812742993236 ], [ 679755.247249483596534, 2743509.833178916480392 ], [ 679941.634476385661401, 2744441.897522979415953 ] ] ], [ [ [ 639735.360385477542877, 2756991.274004925973713 ], [ 637594.405215948587283, 2756969.648080633953214 ], [ 637971.275390990194865, 2758833.108329625800252 ], [ 639041.697855628561229, 2758843.916656585410237 ], [ 638853.25951013690792, 2757912.153071540873498 ], [ 639923.711854722350836, 2757923.026382317766547 ], [ 639735.360385477542877, 2756991.274004925973713 ] ] ] ] } }
]
}
