{
"type": "FeatureCollection",
"name": "urban-1995",
"crs": { "type": "name", "properties": { "name": "urn:ogc:def:crs:EPSG::32640" } },
"features": [
{ "type": "Feature", "properties": { "year": 1995 }, "geometry": { "type": "MultiPolygon", "coordinates": [ [ [ [ 317473.973816293757409, 2781682.429673353675753 ], [ 318224.255214923759922, 2784464.489052853547037 ], [ 319294.076556299813092, 2784450.206094237044454 ], [ 319794.603175718686543, 2786305.074047840666026 ], [ 320864.363344284123741, 2786290.904924492351711 ], [ 321615.661646631313488, 2789073.45015619834885 ], [ 322685.332038019259926, 2789059.409868502058089 ], [ 323437.257364910212345, 2791842.239086961373687 ], [ 324506.837961139332037, 2791828.32797462400049 ], [ 324757.609490832721349, 2792756.005967172794044 ], [ 323688.057542339665815, 2792769.90215899143368 ], [ 323938.936917142826132, 2793697.591928522568196 ], [ 325008.460208897595294, 2793683.710677000228316 ], [ 325259.390113216242753, 2794611.442122870124876 ], [ 326328.880896203452721, 2794597.660525867715478 ], [ 326579.861316471418831, 2795525.433733758982271 ], [ 327649.319618319277652, 2795511.751863854005933 ], [ 327900.350540954386815, 2796439.566919486038387 ], [ 326830.920909751439467, 2796453.233735056594014 ], [ 327082.059673920564819, 2797381.060548570472747 ], [ 330290.251223029161338, 2797340.359640564303845 ], [ 330792.594135795719922, 2799196.18456680001691 ], [ 331861.926481681875885, 2799182.817509745247662 ], [ 332364.528561227023602, 2801038.780599980615079 ], [ 335572.331464662100188, 2800999.280034469906241 ], [ 335823.665115575655364, 2801927.347978970967233 ], [ 334754.429807318374515, 2801940.414623179938644 ], [ 335005.871247865899932, 2802868.494274791330099 ], [ 333936.661014393146615, 2802881.630489457398653 ], [ 334188.210266980167944, 2803809.721854726783931 ], [ 335257.391790337336715, 2803796.600989819969982 ], [ 335508.991432596987579, 2804724.734787217807025 ], [ 334439.838628374563996, 2804737.840282486751676 ], [ 334943.332669046940282, 2806594.158401302993298 ], [ 336012.428007940412499, 2806581.08370498334989 ], [ 336264.26493675110396, 2807509.29886331083253 ], [ 337333.327942133764736, 2807496.324660753365606 ], [ 337585.21521346597001, 2808424.582453965675086 ], [ 338654.245912727899849, 2808411.708818029612303 ], [ 338906.183512883842923, 2809340.009332331828773 ], [ 339975.181933389976621, 2809327.23633590573445 ], [ 340227.16984865849372, 2810255.579657546244562 ], [ 341296.136017746117432, 2810242.90737354522571 ], [ 341800.291497628204525, 2812099.70711827557534 ], [ 342869.196683696762193, 2812087.151285407599062 ], [ 343121.364223394426517, 2813015.607833876274526 ], [ 344190.237210077932104, 2813003.15290667489171 ], [ 344442.45501249236986, 2813931.652560548856854 ], [ 345511.29582704429049, 2813919.298612028826028 ], [ 345259.10678870457923, 2812990.783197733107954 ], [ 347396.835815320373513, 2812966.299427936319262 ], [ 347144.783282917458564, 2812037.779862903989851 ], [ 348213.671513402019627, 2812025.649976160377264 ], [ 348465.695310071459971, 2812954.185363766271621 ], [ 349534.551490293582901, 2812942.156511223409325 ], [ 349786.625536682608072, 2813870.735240937676281 ], [ 350855.449693821894471, 2813858.807495693210512 ], [ 350099.550662601774093, 2811073.1061318712309 ], [ 351168.45770785183413, 2811061.215908248443156 ], [ 350916.678008263348602, 2810132.687895335722715 ], [ 351985.610488340607844, 2810120.86693154508248 ], [ 351733.93843915022444, 2809192.35052100662142 ], [ 350664.977276096760761, 2809204.187357027083635 ], [ 350413.355513505171984, 2808275.714274183381349 ], [ 351482.345350497635081, 2808263.861585871316493 ], [ 351230.831224537570961, 2807335.400107002817094 ], [ 349092.790937941521406, 2807359.222190828993917 ], [ 348589.88496447307989, 2805502.444680568296462 ], [ 347520.802545200567693, 2805514.51478327345103 ], [ 347018.15522833832074, 2803657.878125314135104 ], [ 345949.012161506805569, 2803670.064580086153001 ], [ 344944.551049465429969, 2799957.181208623107523 ], [ 343875.290076310106087, 2799969.514975390862674 ], [ 343373.476410838600714, 2798113.267664459999651 ], [ 344442.794593617320061, 2798100.90282979561016 ], [ 344192.034898223355412, 2797172.804400647990406 ], [ 345261.378248462162446, 2797160.508808104321361 ], [ 345010.726153424009681, 2796232.422015457879752 ], [ 342871.978871049592271, 2796257.128942938987166 ], [ 342621.348653624125291, 2795329.100255832076073 ], [ 344760.153076036076527, 2795304.362371911294758 ], [ 344509.659018432896119, 2794376.329858514014632 ], [ 345579.084649461670779, 2794364.072452794294804 ], [ 345328.698156108381227, 2793436.051570966374129 ], [ 346398.148926950641908, 2793423.863319107796997 ], [ 345897.6700322223478, 2791567.871918168384582 ], [ 343758.650985676853452, 2791592.394909954164177 ], [ 343258.374101868073922, 2789736.573581530712545 ], [ 341119.227217994630337, 2789761.496372502762824 ], [ 340869.150310090160929, 2788833.656922210939229 ], [ 341938.753999817185104, 2788821.137937005609274 ], [ 340689.697709178552032, 2784182.268350345548242 ], [ 342829.179401044384576, 2784157.330800170078874 ], [ 342579.662190211704001, 2783229.607112796977162 ], [ 341509.894646320550237, 2783242.048969426658005 ], [ 341260.428039772727061, 2782314.36742930393666 ], [ 340190.628558430122212, 2782326.908835381735116 ], [ 340440.123605575179681, 2783254.575160252396017 ], [ 338300.570939096738584, 2783279.880551305599511 ], [ 338799.912055788736325, 2785135.233000359497964 ], [ 337730.187329795036931, 2785147.981878513004631 ], [ 337230.789266150328331, 2783292.659754970110953 ], [ 336161.004001925874036, 2783305.523299703840166 ], [ 336410.691968508413993, 2784233.155823494773358 ], [ 334271.167542115726974, 2784259.105774110648781 ], [ 333771.756778803479392, 2782403.927811634261161 ], [ 332701.932113212940749, 2782417.059413912240416 ], [ 333201.399857307318598, 2784272.207309064920992 ], [ 332131.628493290045299, 2784285.393219486810267 ], [ 332381.509552865114529, 2785212.992240835912526 ], [ 331311.763002936844714, 2785226.247519970405847 ], [ 331561.751712683588266, 2786153.858258090913296 ], [ 332631.469736711704172, 2786140.618007219862193 ], [ 332881.509042714256793, 2787068.270537379197776 ], [ 336090.55550460156519, 2787029.101677265483886 ], [ 336590.700262082042173, 2788884.577897627837956 ], [ 335521.078809982864186, 2788897.519408771302551 ], [ 335771.298365392663982, 2789825.282639298122376 ], [ 332562.497842100798152, 2789864.568838602397591 ], [ 332312.192620416986756, 2788936.851011753547937 ], [ 331242.556534255971201, 2788950.13057519774884 ], [ 331492.890324368141592, 2789877.833322169724852 ], [ 328284.045411444967613, 2789918.134049479383975 ], [ 327282.842246829881333, 2786207.663617068435997 ], [ 325143.364761846256442, 2786235.072935461066663 ], [ 324893.204759745509364, 2785307.551792902871966 ], [ 325962.973982961731963, 2785293.790047989226878 ], [ 325712.921724205021746, 2784366.280667895451188 ], [ 326782.715659076697193, 2784352.588466668035835 ], [ 326282.905756890249904, 2782497.619827316142619 ], [ 325213.054749973118305, 2782511.341713193338364 ], [ 324713.5045141762821, 2780656.509041393641382 ], [ 323643.592600601026788, 2780670.344812103547156 ], [ 323144.302106919407379, 2778815.647746622562408 ], [ 322074.329272822593339, 2778829.597216061316431 ], [ 321575.29859692521859, 2776975.035396052524447 ], [ 322645.328421342070214, 2776961.056587337516248 ], [ 321648.331541762105189, 2773252.191392779350281 ], [ 320578.187844585860148, 2773266.228644423186779 ], [ 320329.108210297068581, 2772339.092866742517799 ], [ 318188.751969942473806, 2772367.448605944868177 ], [ 318437.888515384169295, 2773294.555342182982713 ], [ 319508.040177021175623, 2773280.349960250314325 ], [ 319757.227496200357564, 2774207.497529504820704 ], [ 320827.346702489943709, 2774193.390767662785947 ], [ 321076.584781913843472, 2775120.579254987183958 ], [ 317866.30060739495093, 2775163.108183828182518 ], [ 318115.70336372370366, 2776090.279356038197875 ], [ 315975.550816754577681, 2776119.023599753621966 ], [ 315726.091055840603076, 2775191.881422818172723 ], [ 314655.980178486497607, 2775206.394234091974795 ], [ 314905.468451591965277, 2776133.521954347379506 ], [ 313835.381993757211603, 2776148.104466723743826 ], [ 313336.427692268625833, 2774293.904130233917385 ], [ 317616.977097450988367, 2774235.963335370179266 ], [ 317118.567825097125024, 2772381.752535668667406 ], [ 316048.379632217925973, 2772396.140508064534515 ], [ 315799.265410942607559, 2771469.088952680584043 ], [ 314729.044676683901343, 2771483.575375250075012 ], [ 313982.09224862291012, 2768702.621115481480956 ], [ 312911.782037453376688, 2768717.234574577771127 ], [ 313409.727954923582729, 2770571.149236519820988 ], [ 312339.470519026333932, 2770585.818031013943255 ], [ 312090.429452439304441, 2769658.861934755463153 ], [ 309949.845139121054672, 2769688.480055323801935 ], [ 309700.826435671828222, 2768761.578596140723675 ], [ 307560.168323713820428, 2768791.561000880319625 ], [ 307311.171994858887047, 2767864.713972942903638 ], [ 309451.887047133641317, 2767834.703213974367827 ], [ 309203.026975587825291, 2766907.853890442289412 ], [ 315625.242139020585455, 2766819.749983619898558 ], [ 315128.101009737118147, 2764965.958589967340231 ], [ 316198.512554782791995, 2764951.539527061861008 ], [ 316447.015092183137313, 2765878.436477512121201 ], [ 318587.769207490608096, 2765849.878544872626662 ], [ 318339.323437513550743, 2764922.95286611886695 ], [ 320480.118202082172502, 2764894.70147871831432 ], [ 319983.577819911763072, 2763040.871082957834005 ], [ 318913.125732915825211, 2763054.983674680348486 ], [ 318416.845593700476456, 2761201.28673341171816 ], [ 317346.332802940392867, 2761215.511760521214455 ], [ 317594.46159061032813, 2762142.332832303829491 ], [ 314382.983841410372406, 2762185.467359124682844 ], [ 314631.276957993162796, 2763112.271679298020899 ], [ 312490.327981708920561, 2763141.418291570618749 ], [ 312241.978112008422613, 2762214.642418730072677 ], [ 309030.438197620096616, 2762259.033110436983407 ], [ 308782.082469144079369, 2761332.325671957340091 ], [ 307711.532319814839866, 2761347.304152521304786 ], [ 307215.002064861590043, 2759493.995210753753781 ], [ 305073.775357371428981, 2759524.259399871807545 ], [ 304825.572471558582038, 2758597.671742554754019 ], [ 302684.271653777686879, 2758628.298492998816073 ], [ 302932.531327084754594, 2759554.858295565471053 ], [ 304003.155519473017193, 2759539.51700836000964 ], [ 304251.466158322582487, 2760466.116559917572886 ], [ 303180.870371981640346, 2760481.44391390774399 ], [ 303677.786568241193891, 2762334.692670922260731 ], [ 302607.243262625765055, 2762350.075862651690841 ], [ 302855.848849461704958, 2763276.725073430687189 ], [ 301785.329608096508309, 2763292.17809275072068 ], [ 303278.800739974656608, 2768852.533220753073692 ], [ 304349.149115192238241, 2768837.16423432296142 ], [ 304100.067325972719118, 2767910.359533078968525 ], [ 305170.439859302772675, 2767895.060420726891607 ], [ 305668.625801655405667, 2769748.723985215649009 ], [ 306738.937034161994234, 2769733.537036547902972 ], [ 307237.383352982869837, 2771587.332985217217356 ], [ 308307.633299115230329, 2771572.25838558236137 ], [ 308806.339919225254562, 2773426.18707672925666 ], [ 309876.528593377675861, 2773411.225011570844799 ], [ 310125.972360776737332, 2774338.242823750711977 ], [ 311196.128306976170279, 2774323.379150743596256 ], [ 311695.19670541404048, 2776177.521972762420774 ], [ 312765.291419586923439, 2776162.771138864103705 ], [ 313014.91602612438146, 2777089.896271797362715 ], [ 314084.978065893403254, 2777075.24402136169374 ], [ 314584.408042477851268, 2778929.601995947770774 ], [ 317794.398390133399516, 2778886.237393737304956 ], [ 318044.146645967382938, 2779813.499456461984664 ], [ 315904.214235508930869, 2779842.295854434370995 ], [ 316404.062713003950194, 2781696.840875376947224 ], [ 317473.973816293757409, 2781682.429673353675753 ] ], [ [ 347772.244699062721338, 2806442.874111535958946 ], [ 346703.187603379017673, 2806455.013494829647243 ], [ 346451.716783438110724, 2805526.669876961037517 ], [ 347520.802545200567693, 2805514.51478327345103 ], [ 347772.244699062721338, 2806442.874111535958946 ] ], [ [ 343122.68812416610308, 2797185.184739501215518 ], [ 342053.337902787025087, 2797197.649826343171299 ], [ 342304.154787181527354, 2798125.717274477705359 ], [ 341234.829699152614921, 2798138.251661534886807 ], [ 340733.217773616372142, 2796282.174752931576222 ], [ 342871.978871049592271, 2796257.128942938987166 ], [ 343122.68812416610308, 2797185.184739501215518 ] ], [ [ 339869.633227033191361, 2785122.568516243249178 ], [ 340119.393911264953203, 2786050.300246102269739 ], [ 339049.701220547489356, 2786062.949510531499982 ], [ 338799.912055788736325, 2785135.233000359497964 ], [ 339869.633227033191361, 2785122.568516243249178 ] ], [ [ 339299.569453420815989, 2786990.692902850452811 ], [ 337160.230402000015602, 2787016.214300831314176 ], [ 336910.305170664854813, 2786088.501305289100856 ], [ 339049.701220547489356, 2786062.949510531499982 ], [ 339299.569453420815989, 2786990.692902850452811 ] ], [ [ 315227.409329176531173, 2773337.675903976894915 ], [ 314157.241454391507432, 2773352.217569754924625 ], [ 313907.991007586824708, 2772425.168588706757873 ], [ 311767.585906505235471, 2772454.532863661181182 ], [ 312016.893343631236348, 2773381.553130928426981 ], [ 310946.71306028397521, 2773396.34703031135723 ], [ 310448.120482403319329, 2771542.361278335098177 ], [ 309377.879001021850854, 2771557.267817301210016 ], [ 309128.67318024369888, 2770630.328398354817182 ], [ 311269.208927086321637, 2770600.570821478031576 ], [ 311518.357766960631125, 2771527.538766657467932 ], [ 314729.044676683901343, 2771483.575375250075012 ], [ 315227.409329176531173, 2773337.675903976894915 ] ], [ [ 305322.057596837170422, 2760450.872911925893277 ], [ 305570.419187878549565, 2761377.512296980246902 ], [ 304499.856157717527822, 2761392.741964987944812 ], [ 304251.466158322582487, 2760466.116559917572886 ], [ 305322.057596837170422, 2760450.872911925893277 ] ], [ [ 319114.106810925179161, 2779799.227653079200536 ], [ 319363.905767700867727, 2780726.530722158960998 ], [ 318293.974146679916885, 2780740.787916018161923 ], [ 318044.146645967382938, 2779813.499456461984664 ], [ 319114.106810925179161, 2779799.227653079200536 ] ], [ [ 339730.942584334581625, 2792570.345622272230685 ], [ 338661.442479927150998, 2792583.057023442350328 ], [ 338411.042776377114933, 2791655.182576828170568 ], [ 339480.571437316306401, 2791642.455872396472842 ], [ 339730.942584334581625, 2792570.345622272230685 ] ], [ [ 320933.611911107553169, 2782567.072611438576132 ], [ 319863.741380515275523, 2782581.216184146236628 ], [ 319613.783958265790716, 2781653.860226318705827 ], [ 320683.683044194360264, 2781639.701977423392236 ], [ 320933.611911107553169, 2782567.072611438576132 ] ], [ [ 322573.676792794198263, 2780684.264863638672978 ], [ 321503.757067127851769, 2780698.269197889138013 ], [ 321254.015178480418399, 2779770.936827823519707 ], [ 322323.963428351446055, 2779756.91780210705474 ], [ 322573.676792794198263, 2780684.264863638672978 ] ], [ [ 310597.848318136646412, 2764097.673538859467953 ], [ 309527.387614021776244, 2764112.525909959804267 ], [ 309278.873246606206521, 2763185.766516997013241 ], [ 310349.362359412829392, 2763170.899998247623444 ], [ 310597.848318136646412, 2764097.673538859467953 ] ] ], [ [ [ 353247.829149973462336, 2798933.286640296690166 ], [ 352997.219003510661423, 2798005.035866356920451 ], [ 349789.33471663488308, 2798040.350228469353169 ], [ 349538.717881235177629, 2797112.173867841251194 ], [ 346330.718198381655384, 2797148.29796020174399 ], [ 346832.20226700999774, 2799004.584206315688789 ], [ 347901.481687102816068, 2798992.489293826278299 ], [ 347650.728731628740206, 2798064.316961203236133 ], [ 348720.033385836170055, 2798052.291211294941604 ], [ 348970.757766707974952, 2798980.479177424684167 ], [ 350040.030529311276041, 2798968.553855482023209 ], [ 350792.591809574863873, 2801753.328525030985475 ], [ 351861.775539104477502, 2801741.535179846454412 ], [ 351109.299998398462776, 2798956.713326381519437 ], [ 353247.829149973462336, 2798933.286640296690166 ] ] ], [ [ [ 350855.449693821894471, 2813858.807495693210512 ], [ 351107.573976113344543, 2814787.429654017556459 ], [ 352176.36613732232945, 2814775.603089198470116 ], [ 351924.270589599967934, 2813846.964986212551594 ], [ 350855.449693821894471, 2813858.807495693210512 ] ] ], [ [ [ 350291.010557936970145, 2815727.975253547541797 ], [ 349222.240619877760764, 2815739.956436390988529 ], [ 348969.979865463799797, 2814811.338574710767716 ], [ 346832.372548060899135, 2814835.588560950942338 ], [ 347589.564404533011839, 2817621.429421484470367 ], [ 346520.84208910446614, 2817633.634775042999536 ], [ 346773.426171021303162, 2818562.287538103293628 ], [ 348910.809873546240851, 2818537.993985662702471 ], [ 349163.415340426261537, 2819466.706118941772729 ], [ 350232.073431976197753, 2819454.703372365795076 ], [ 349726.999071354977787, 2817597.27476810850203 ], [ 350795.711469441303052, 2817585.325465021654963 ], [ 350291.010557936970145, 2815727.975253547541797 ] ] ], [ [ [ 354195.972776617622003, 2822205.702066145837307 ], [ 358470.189041858655401, 2822159.76370786735788 ], [ 357965.04399421135895, 2820301.94369600340724 ], [ 353690.597437483316753, 2820348.01136028720066 ], [ 354195.972776617622003, 2822205.702066145837307 ] ] ], [ [ [ 356220.631532909115776, 2829637.575417171232402 ], [ 355460.792524832650088, 2826850.414348222780973 ], [ 356529.207165110856295, 2826838.882503463421017 ], [ 356276.114195601432584, 2825909.868249509949237 ], [ 355207.670709538331721, 2825921.416326803620905 ], [ 354701.663873086101376, 2824063.503670144826174 ], [ 352564.652045883180108, 2824086.921242259908468 ], [ 352817.673672228120267, 2825015.831376782618463 ], [ 351749.191795772290789, 2825027.652359763160348 ], [ 352255.529619953013025, 2826885.523594536352903 ], [ 353323.953775529167615, 2826873.734892182983458 ], [ 354083.966024449444376, 2829660.798571282532066 ], [ 355152.300354975799564, 2829649.144143538549542 ], [ 355405.76675953832455, 2830578.23728045867756 ], [ 356474.069049083744176, 2830566.684839657042176 ], [ 356727.585485038929619, 2831495.822160894982517 ], [ 357795.855760564911179, 2831484.37178039457649 ], [ 357288.959581505681854, 2829626.092390615493059 ], [ 356220.631532909115776, 2829637.575417171232402 ] ] ], [ [ [ 349538.717881235177629, 2797112.173867841251194 ], [ 350608.044464886421338, 2797100.301982060540468 ], [ 350357.535152646712959, 2796172.137220230419189 ], [ 349288.180025253794156, 2796184.024754597339779 ], [ 349538.717881235177629, 2797112.173867841251194 ] ] ], [ [ [ 394963.027839638467412, 2846050.61160481441766 ], [ 396030.750367771135643, 2846042.18274308508262 ], [ 395776.92638624337269, 2845112.032248539850116 ], [ 394709.175021905975882, 2845120.478644949384034 ], [ 394963.027839638467412, 2846050.61160481441766 ] ] ], [ [ [ 388810.748704591067508, 2847033.051064022816718 ], [ 389878.456345146987587, 2847024.122671623714268 ], [ 389624.380616977578029, 2846094.048194817267358 ], [ 388556.644094185438007, 2846102.993977295234799 ], [ 388810.748704591067508, 2847033.051064022816718 ] ] ], [ [ [ 394149.263297738158144, 2846989.270929001271725 ], [ 395216.95924905751599, 2846980.773444211110473 ], [ 394963.027839638467412, 2846050.61160481441766 ], [ 393895.303036869561765, 2846059.126617090776563 ], [ 394149.263297738158144, 2846989.270929001271725 ] ] ], [ [ [ 391963.135246590769384, 2850735.936421534977853 ], [ 390895.545585430867504, 2850744.708756756037474 ], [ 391150.014466261782218, 2851674.927421927917749 ], [ 392217.575205822649878, 2851666.17260584095493 ], [ 392726.690966248570476, 2853526.731747500132769 ], [ 393794.191517433733679, 2853518.098405779339373 ], [ 394048.838371381512843, 2854448.439010679256171 ], [ 395116.307691156805959, 2854439.90967801772058 ], [ 395371.004198270500638, 2855370.296936352271587 ], [ 396438.442312868544832, 2855361.871686948463321 ], [ 395929.185758533130866, 2853501.090842898003757 ], [ 394861.689773839665577, 2853509.551437962800264 ], [ 394098.307583046436775, 2850718.650627770461142 ], [ 396233.470758932060562, 2850701.709995157085359 ], [ 395725.057834019826259, 2848841.18384118238464 ], [ 394657.419612929981668, 2848849.646210084669292 ], [ 394911.615662790660281, 2849779.877219064626843 ], [ 393844.004047288093716, 2849788.408261195290834 ], [ 393335.632780934567563, 2847928.010263704694808 ], [ 394403.302157168276608, 2847919.444120034109801 ], [ 394149.263297738158144, 2846989.270929001271725 ], [ 389878.456345146987587, 2847024.122671623714268 ], [ 390641.155330674140714, 2849814.518969034776092 ], [ 391708.773904324683826, 2849805.729135012254119 ], [ 391963.135246590769384, 2850735.936421534977853 ] ] ] ] } }
]
}
