{
"type": "FeatureCollection",
"name": "urban-1980",
"crs": { "type": "name", "properties": { "name": "urn:ogc:def:crs:EPSG::32640" } },
"features": [
{ "type": "Feature", "properties": { "year": 1980 }, "geometry": { "type": "MultiPolygon", "coordinates": [ [ [ [ 304003.155519473017193, 2759539.51700836000964 ], [ 305073.775357371428981, 2759524.259399871807545 ], [ 304825.572471558582038, 2758597.671742554754019 ], [ 303754.924243244808167, 2758612.943292057141662 ], [ 304003.155519473017193, 2759539.51700836000964 ] ] ], [ [ [ 312490.327981708920561, 2763141.418291570618749 ], [ 312241.978112008422613, 2762214.642418730072677 ], [ 311171.469007019535638, 2762229.355566990096122 ], [ 311419.847263193340041, 2763156.117257109843194 ], [ 312490.327981708920561, 2763141.418291570618749 ] ] ], [ [ [ 307635.104042564402334, 2765069.239220194518566 ], [ 307386.453503562777769, 2764142.482074968051165 ], [ 306315.980049707228318, 2764157.585872952826321 ], [ 305818.860128422791604, 2762304.177573309279978 ], [ 306889.390430527739227, 2762289.04566327156499 ], [ 307137.882298857613932, 2763215.750895432196558 ], [ 309278.873246606206521, 2763185.766516997013241 ], [ 309030.438197620096616, 2762259.033110436983407 ], [ 307959.916445670358371, 2762273.997509663924575 ], [ 307463.227525520371273, 2760420.636725647840649 ], [ 306392.644711307541002, 2760435.712967857252806 ], [ 306144.390864569810219, 2759509.08546802541241 ], [ 305073.775357371428981, 2759524.259399871807545 ], [ 305570.419187878549565, 2761377.512296980246902 ], [ 303429.288786390854511, 2761408.055366273969412 ], [ 303677.786568241193891, 2762334.692670922260731 ], [ 302607.243262625765055, 2762350.075862651690841 ], [ 302855.848849461704958, 2763276.725073430687189 ], [ 301785.329608096508309, 2763292.17809275072068 ], [ 302780.659532133722678, 2766998.977868249639869 ], [ 304921.465916424873285, 2766968.267618290148675 ], [ 305170.439859302772675, 2767895.060420726891607 ], [ 307311.171994858887047, 2767864.713972942903638 ], [ 306813.417344065092038, 2766011.09795729117468 ], [ 310024.654295821092092, 2765966.122728437650949 ], [ 310273.406606040196493, 2766892.960190657991916 ], [ 312414.153271883493289, 2766863.424455475993454 ], [ 312165.457826277823187, 2765936.558553477749228 ], [ 315376.63194072956685, 2765892.841217223089188 ], [ 315128.101009737118147, 2764965.958589967340231 ], [ 317268.920022791891824, 2764937.204286429099739 ], [ 317517.394173189415596, 2765864.115587377920747 ], [ 318587.769207490608096, 2765849.878544872626662 ], [ 318339.323437513550743, 2764922.95286611886695 ], [ 319409.722822694689967, 2764908.785264190286398 ], [ 318664.946043443866074, 2762128.122132215183228 ], [ 314382.983841410372406, 2762185.467359124682844 ], [ 314631.276957993162796, 2763112.271679298020899 ], [ 312490.327981708920561, 2763141.418291570618749 ], [ 312738.757142915739678, 2764068.220209360122681 ], [ 310597.848318136646412, 2764097.673538859467953 ], [ 310846.413584235007875, 2765024.473103729076684 ], [ 307635.104042564402334, 2765069.239220194518566 ] ] ], [ [ [ 320683.683044194360264, 2781639.701977423392236 ], [ 321753.578171580797061, 2781625.628042376600206 ], [ 321254.015178480418399, 2779770.936827823519707 ], [ 320184.062980550923385, 2779785.040110842324793 ], [ 320683.683044194360264, 2781639.701977423392236 ] ] ], [ [ [ 316404.062713003950194, 2781696.840875376947224 ], [ 317473.973816293757409, 2781682.429673353675753 ], [ 317224.038513282779604, 2780755.129400272853673 ], [ 316154.098843877145555, 2780769.555176870897412 ], [ 316404.062713003950194, 2781696.840875376947224 ] ] ], [ [ [ 333201.399857307318598, 2784272.207309064920992 ], [ 332131.628493290045299, 2784285.393219486810267 ], [ 332381.509552865114529, 2785212.992240835912526 ], [ 331311.763002936844714, 2785226.247519970405847 ], [ 331561.751712683588266, 2786153.858258090913296 ], [ 332631.469736711704172, 2786140.618007219862193 ], [ 332881.509042714256793, 2787068.270537379197776 ], [ 336090.55550460156519, 2787029.101677265483886 ], [ 335590.727119194227271, 2785173.732823869213462 ], [ 333451.252406488754787, 2785199.821366298478097 ], [ 333201.399857307318598, 2784272.207309064920992 ] ] ], [ [ [ 327214.422908700420521, 2789931.736723529640585 ], [ 326963.974779668496922, 2789004.094022705685347 ], [ 328033.625876938342117, 2788990.476378118153661 ], [ 327783.285503257007804, 2788062.845428084488958 ], [ 326713.605820465600118, 2788076.478023462928832 ], [ 326463.316033204027917, 2787148.888707072474062 ], [ 325393.603949115320574, 2787162.620703724678606 ], [ 325143.364761846256442, 2786235.072935461066663 ], [ 324073.620248785591684, 2786248.904260866343975 ], [ 323823.431675068335608, 2785321.397955254185945 ], [ 324893.204759745509364, 2785307.551792902871966 ], [ 324643.123944922932424, 2784380.057257364969701 ], [ 325712.921724205021746, 2784366.280667895451188 ], [ 325213.054749973118305, 2782511.341713193338364 ], [ 323073.341140010161325, 2782539.038487601093948 ], [ 322823.469364049378783, 2781611.638419264927506 ], [ 321753.578171580797061, 2781625.628042376600206 ], [ 322503.516758719459176, 2784407.863608526531607 ], [ 321433.70730459690094, 2784421.893373995553702 ], [ 320933.611911107553169, 2782567.072611438576132 ], [ 318793.866874341736548, 2782595.444099938496947 ], [ 318543.880890172556974, 2781668.102790982928127 ], [ 317473.973816293757409, 2781682.429673353675753 ], [ 317974.082169217290357, 2783537.109481046907604 ], [ 319043.93209708633367, 2783522.811861486639827 ], [ 319794.603175718686543, 2786305.074047840666026 ], [ 320864.363344284123741, 2786290.904924492351711 ], [ 321365.149661540752277, 2788145.908501023426652 ], [ 322434.848671232233755, 2788131.853399157058448 ], [ 323186.536386971594766, 2790914.60269368859008 ], [ 324256.145621935778763, 2790900.676680603064597 ], [ 325008.460208897595294, 2793683.710677000228316 ], [ 326077.979651068220846, 2793669.914092588704079 ], [ 326579.861316471418831, 2795525.433733758982271 ], [ 327649.319618319277652, 2795511.751863854005933 ], [ 327900.350540954386815, 2796439.566919486038387 ], [ 328969.776389265491161, 2796425.984849286731333 ], [ 329220.857800673460588, 2797353.841838422697037 ], [ 330290.251223029161338, 2797340.359640564303845 ], [ 330541.383109604066703, 2798268.2586490069516 ], [ 331610.744133559172042, 2798254.876396153122187 ], [ 332113.187958280206658, 2800110.785571391694248 ], [ 333182.487930801231414, 2800097.518579210620373 ], [ 332931.255134765990078, 2799169.535274586174637 ], [ 334000.58011853788048, 2799156.337859523482621 ], [ 333749.455107002868317, 2798228.366272312123328 ], [ 334818.805103481572587, 2798215.238397730048746 ], [ 334567.787854042951949, 2797287.278521365951747 ], [ 335637.162864706944674, 2797274.220150624867529 ], [ 336139.219172095530666, 2799130.197482538409531 ], [ 335069.901456484571099, 2799143.225262767169625 ], [ 335321.076910921547096, 2800071.239135376177728 ], [ 336390.365965482778847, 2800058.226680160034448 ], [ 336641.59184915717924, 2800986.282924115192145 ], [ 335572.331464662100188, 2800999.280034469906241 ], [ 335823.665115575655364, 2801927.347978970967233 ], [ 334754.429807318374515, 2801940.414623179938644 ], [ 336264.26493675110396, 2807509.29886331083253 ], [ 338402.387383626832161, 2807483.435520873870701 ], [ 338654.245912727899849, 2808411.708818029612303 ], [ 339723.273078007041477, 2808398.920270380564034 ], [ 339975.181933389976621, 2809327.23633590573445 ], [ 341044.176849803538062, 2809314.548453391995281 ], [ 341800.291497628204525, 2812099.70711827557534 ], [ 343938.098431871563662, 2812074.680645120330155 ], [ 344190.237210077932104, 2813003.15290667489171 ], [ 347396.835815320373513, 2812966.299427936319262 ], [ 346137.363167400704697, 2808323.975742284208536 ], [ 347206.366250479244627, 2808311.782764773350209 ], [ 346703.187603379017673, 2806455.013494829647243 ], [ 345634.127148196159396, 2806467.237898125313222 ], [ 345885.70565279625589, 2807395.593151435721666 ], [ 344816.670502652763389, 2807407.886900827754289 ], [ 344313.535138692590408, 2805551.235043882392347 ], [ 345382.627655748394318, 2805538.909963277634233 ], [ 345131.207177598553244, 2804610.60932783363387 ], [ 344062.085990628460422, 2804622.950044188182801 ], [ 343810.715868032653816, 2803694.69230495300144 ], [ 345949.012161506805569, 2803670.064580086153001 ], [ 345446.623577803024091, 2801813.568408044986427 ], [ 344377.419850366190076, 2801825.871027498971671 ], [ 344126.315450833935756, 2800897.679399304557592 ], [ 341987.840453081182204, 2800922.57037941319868 ], [ 341485.754237181507051, 2799066.330767882522196 ], [ 339347.150819789501838, 2799091.623023410327733 ], [ 338343.698098166380078, 2795379.592356464825571 ], [ 341551.941263861604966, 2795341.596236844547093 ], [ 341802.60006096935831, 2796269.609486775938421 ], [ 342871.978871049592271, 2796257.128942938987166 ], [ 342370.797474022663664, 2794401.098659249022603 ], [ 341301.361513595969882, 2794413.610057624056935 ], [ 340800.439162122434936, 2792557.718835695181042 ], [ 338661.442479927150998, 2792583.057023442350328 ], [ 338911.92125474056229, 2793510.958444501738995 ], [ 337842.446172188210767, 2793523.739166297018528 ], [ 338093.032597165380139, 2794451.652265183627605 ], [ 334884.671634035767056, 2794490.45652764197439 ], [ 334633.999427101109177, 2793562.589211114682257 ], [ 336772.967522417893633, 2793536.604533498641104 ], [ 336522.431597101443913, 2792608.733676475472748 ], [ 337591.938825360964984, 2792595.853040932212025 ], [ 337341.510558811365627, 2791667.99387022620067 ], [ 339480.571437316306401, 2791642.455872396472842 ], [ 338980.066338539938442, 2789786.757279890123755 ], [ 335771.298365392663982, 2789825.282639298122376 ], [ 336021.597016464686021, 2790753.072748210746795 ], [ 334952.029048066702671, 2790766.06842619786039 ], [ 334701.701839055516757, 2789838.293498949613422 ], [ 333632.101672477379907, 2789851.388898124918342 ], [ 334132.892330917879008, 2791706.935301653109491 ], [ 333063.345651408017147, 2791720.084968411829323 ], [ 332812.882186471892055, 2790792.31348455697298 ], [ 331743.303246174007654, 2790805.56286848988384 ], [ 331492.890324368141592, 2789877.833322169724852 ], [ 327214.422908700420521, 2789931.736723529640585 ] ], [ [ 335135.422944033634849, 2795418.35077716037631 ], [ 334065.990674373460934, 2795431.439659116789699 ], [ 333815.210748396813869, 2794503.560635489877313 ], [ 334884.671634035767056, 2794490.45652764197439 ], [ 335135.422944033634849, 2795418.35077716037631 ] ], [ [ 333313.888234790181741, 2792647.883308972697705 ], [ 332244.366476386436261, 2792661.102434329222888 ], [ 331993.795297553529963, 2791733.319232944399118 ], [ 333063.345651408017147, 2791720.084968411829323 ], [ 333313.888234790181741, 2792647.883308972697705 ] ], [ [ 332495.016780550708063, 2793588.912491453811526 ], [ 331425.51994173694402, 2793602.201112101320177 ], [ 331174.841026602836791, 2792674.406186595093459 ], [ 332244.366476386436261, 2792661.102434329222888 ], [ 332495.016780550708063, 2793588.912491453811526 ] ], [ [ 336578.14063000731403, 2804711.714274334721267 ], [ 336326.569700382300653, 2803783.565079950261861 ], [ 337395.744020570011344, 2803770.614123351871967 ], [ 337647.286244053393602, 2804698.778742073569447 ], [ 336578.14063000731403, 2804711.714274334721267 ] ], [ [ 339031.349517136579379, 2801888.65743074612692 ], [ 338780.101884016068652, 2800960.543310036417097 ], [ 339849.351581327267922, 2800947.800802824087441 ], [ 340100.570554808946326, 2801875.930370311252773 ], [ 339031.349517136579379, 2801888.65743074612692 ] ], [ [ 327715.556667783879675, 2791787.102304894477129 ], [ 327464.950205445289612, 2790859.40614467440173 ], [ 328534.54410466121044, 2790845.818460918497294 ], [ 328785.121954467962496, 2791773.5296311955899 ], [ 327715.556667783879675, 2791787.102304894477129 ] ] ], [ [ [ 333433.799844171153381, 2801025.528870623093098 ], [ 334503.067470825277269, 2801012.362016048282385 ], [ 334251.784240521490574, 2800084.336434467695653 ], [ 333182.487930801231414, 2800097.518579210620373 ], [ 333433.799844171153381, 2801025.528870623093098 ] ] ], [ [ [ 347458.074073344352655, 2809240.208455022424459 ], [ 348527.045116603840142, 2809228.116322414018214 ], [ 348275.365986912627704, 2808299.674862011801451 ], [ 347206.366250479244627, 2808311.782764773350209 ], [ 347458.074073344352655, 2809240.208455022424459 ] ] ], [ [ [ 349847.742264597851317, 2810144.593983752187341 ], [ 349596.012843051692471, 2809216.109290291555226 ], [ 348527.045116603840142, 2809228.116322414018214 ], [ 348778.803233939164784, 2810156.585198406595737 ], [ 349847.742264597851317, 2810144.593983752187341 ] ] ], [ [ [ 349847.742264597851317, 2810144.593983752187341 ], [ 350099.550662601774093, 2811073.1061318712309 ], [ 351168.45770785183413, 2811061.215908248443156 ], [ 350916.678008263348602, 2810132.687895335722715 ], [ 349847.742264597851317, 2810144.593983752187341 ] ] ], [ [ [ 347589.564404533011839, 2817621.429421484470367 ], [ 349726.999071354977787, 2817597.27476810850203 ], [ 348969.979865463799797, 2814811.338574710767716 ], [ 346832.372548060899135, 2814835.588560950942338 ], [ 347589.564404533011839, 2817621.429421484470367 ] ] ], [ [ [ 352817.673672228120267, 2825015.831376782618463 ], [ 351749.191795772290789, 2825027.652359763160348 ], [ 352255.529619953013025, 2826885.523594536352903 ], [ 353323.953775529167615, 2826873.734892182983458 ], [ 353830.549665176484268, 2828731.749531640205532 ], [ 355967.272938692069147, 2828708.493874031119049 ], [ 354701.663873086101376, 2824063.503670144826174 ], [ 352564.652045883180108, 2824086.921242259908468 ], [ 352817.673672228120267, 2825015.831376782618463 ] ] ], [ [ [ 395165.890304517117329, 2850710.137166894972324 ], [ 396233.470758932060562, 2850701.709995157085359 ], [ 395979.22500509978272, 2849771.432438581250608 ], [ 394911.615662790660281, 2849779.877219064626843 ], [ 395165.890304517117329, 2850710.137166894972324 ] ] ], [ [ [ 393589.779112506366801, 2848858.194813144393265 ], [ 391454.49118125444511, 2848875.550726362504065 ], [ 392726.690966248570476, 2853526.731747500132769 ], [ 393794.191517433733679, 2853518.098405779339373 ], [ 394048.838371381512843, 2854448.439010679256171 ], [ 395116.307691156805959, 2854439.90967801772058 ], [ 395371.004198270500638, 2855370.296936352271587 ], [ 396438.442312868544832, 2855361.871686948463321 ], [ 395929.185758533130866, 2853501.090842898003757 ], [ 394861.689773839665577, 2853509.551437962800264 ], [ 393589.779112506366801, 2848858.194813144393265 ] ] ] ] } }
]
}
