{
"type": "FeatureCollection",
"name": "urban-2020",
"crs": { "type": "name", "properties": { "name": "urn:ogc:def:crs:EPSG::32640" } },
"features": [
{ "type": "Feature", "properties": { "year": 2020 }, "geometry": { "type": "MultiPolygon", "coordinates": [ [ [ [ 307208.203469085739926, 2747404.693054671864957 ], [ 309350.123332144168671, 2747374.901515969540924 ], [ 308856.255914105684496, 2745522.227680081501603 ], [ 307785.241673779324628, 2745537.109534172341228 ], [ 307538.398737177543808, 2744610.825042560230941 ], [ 306467.3519935188815, 2744625.803965154569596 ], [ 306714.223146201111376, 2745552.074643324129283 ], [ 305643.200307479070034, 2745567.123009576927871 ], [ 305890.1790316956467, 2746493.405561183113605 ], [ 304819.180096246767789, 2746508.523408349137753 ], [ 305066.266414496058132, 2747434.817840066272765 ], [ 303995.291380675858818, 2747450.00520539842546 ], [ 304242.48531545966398, 2748376.311523885000497 ], [ 303171.53418164519826, 2748391.568444636650383 ], [ 303418.835755473875906, 2749317.886656543239951 ], [ 302347.908520059310831, 2749333.213169964961708 ], [ 302842.806365183321759, 2751185.899066605605185 ], [ 303913.677003419026732, 2751170.600120440591127 ], [ 304161.21667340490967, 2752096.995408738031983 ], [ 306302.888269286777359, 2752066.675508771557361 ], [ 305808.001482924155425, 2750213.855266650207341 ], [ 307949.768966237432323, 2750183.813581371679902 ], [ 307208.203469085739926, 2747404.693054671864957 ] ] ], [ [ [ 314293.412425421120133, 2753816.303885575383902 ], [ 313798.604265176400077, 2751963.1844961210154 ], [ 312727.800321638234891, 2751977.718596280086786 ], [ 312975.193023877684027, 2752904.251252517104149 ], [ 311904.413178935530595, 2752918.854742291849107 ], [ 311656.992208739859052, 2751992.336136506870389 ], [ 310586.179902637610212, 2752007.037118793930858 ], [ 310833.629147395375185, 2752933.541701420675963 ], [ 309762.840905419434421, 2752948.312131906393915 ], [ 310010.397745706199203, 2753874.828562434762716 ], [ 312151.913445549434982, 2753845.399230699986219 ], [ 312399.493006508564577, 2754771.969619981013238 ], [ 313470.216288629919291, 2754757.394289406016469 ], [ 313222.665013566846028, 2753830.80981080699712 ], [ 314293.412425421120133, 2753816.303885575383902 ] ] ], [ [ [ 311001.418208941933699, 2757581.153087024576962 ], [ 310010.397745706199203, 2753874.828562434762716 ], [ 308939.633566216914915, 2753889.668478284962475 ], [ 309435.041801993385889, 2755742.750909260474145 ], [ 308364.330004694173113, 2755757.646348050329834 ], [ 308860.112178439972922, 2757610.804237671662122 ], [ 311001.418208941933699, 2757581.153087024576962 ] ] ], [ [ [ 300141.897991167963482, 2765176.627928829751909 ], [ 301212.369108328479342, 2765161.03514289110899 ], [ 300963.547843902837485, 2764234.362100253812969 ], [ 299893.048249140498228, 2764249.968807817436755 ], [ 300141.897991167963482, 2765176.627928829751909 ] ] ], [ [ [ 327150.626649337704293, 2765739.000489419326186 ], [ 327398.924780568049755, 2766666.06852805474773 ], [ 326328.609602260694373, 2766679.620242419652641 ], [ 326577.015245867660269, 2767606.700018246658146 ], [ 327647.30207818915369, 2767593.162939322646707 ], [ 327895.758540101349354, 2768520.28374173399061 ], [ 328966.01320395845687, 2768506.845230402424932 ], [ 328717.585090501990635, 2767579.709745658561587 ], [ 329787.864306532195769, 2767566.340435424353927 ], [ 329291.302204551175237, 2765712.119318904355168 ], [ 327150.626649337704293, 2765739.000489419326186 ] ] ], [ [ [ 336057.450344935641624, 2774932.120244243182242 ], [ 335808.610162719036452, 2774004.724857461173087 ], [ 334738.544295269530267, 2774017.654507633764297 ], [ 334987.4128564306302, 2774945.034938210621476 ], [ 336057.450344935641624, 2774932.120244243182242 ] ] ], [ [ [ 333668.474771802139003, 2774030.668225415516645 ], [ 332598.40156864002347, 2774043.766012574546039 ], [ 333096.331366117578, 2775898.493811483960599 ], [ 335236.360520094865933, 2775872.442006577271968 ], [ 334987.4128564306302, 2774945.034938210621476 ], [ 333917.371718385256827, 2774958.033727128989995 ], [ 333668.474771802139003, 2774030.668225415516645 ] ] ], [ [ [ 333594.577637155773118, 2777753.328079066239297 ], [ 333345.414943495416082, 2776825.897627366706729 ], [ 331205.42786724306643, 2776852.256136062089354 ], [ 331454.647418180946261, 2777779.656748900189996 ], [ 333594.577637155773118, 2777753.328079066239297 ] ] ], [ [ [ 325533.784725970530417, 2779715.366249778307974 ], [ 325284.236076721805148, 2778788.001484411768615 ], [ 324214.271033670869656, 2778801.782503367867321 ], [ 324463.848178460204508, 2779729.132514971774071 ], [ 325533.784725970530417, 2779715.366249778307974 ] ] ], [ [ [ 343649.426260852313135, 2783217.249588673003018 ], [ 343898.915034955367446, 2784144.988565725274384 ], [ 346038.375996729359031, 2784120.55716974241659 ], [ 345539.591168295242824, 2782265.04485650639981 ], [ 344469.805558466352522, 2782277.249045339412987 ], [ 344719.186881850007921, 2783204.976395376492292 ], [ 343649.426260852313135, 2783217.249588673003018 ] ] ], [ [ [ 342829.179401044384576, 2784157.330800170078874 ], [ 343078.775648195820395, 2785085.081410980783403 ], [ 344148.482836365466937, 2785072.754485932644457 ], [ 343898.915034955367446, 2784144.988565725274384 ], [ 342829.179401044384576, 2784157.330800170078874 ] ] ], [ [ [ 330992.301877957419492, 2788022.454608799889684 ], [ 331242.556534255971201, 2788950.13057519774884 ], [ 330172.916730665834621, 2788963.49465619539842 ], [ 329922.633508430211805, 2788035.833722586743534 ], [ 328852.961391388264019, 2788049.297328405547887 ], [ 328352.575265927938744, 2786194.085620358586311 ], [ 330492.029975268291309, 2786167.182942696847022 ], [ 330242.012733110925183, 2785239.587205500807613 ], [ 327032.739368312992156, 2785280.11271864362061 ], [ 326033.119568160967901, 2781570.175402594264597 ], [ 324963.240038716467097, 2781583.912101257126778 ], [ 324463.848178460204508, 2779729.132514971774071 ], [ 323393.907753799576312, 2779742.983031787443906 ], [ 322645.328421342070214, 2776961.056587337516248 ], [ 324785.376332450192422, 2776933.351482654456049 ], [ 324286.833341167075559, 2775078.807395537383854 ], [ 323216.754405882616993, 2775092.647233039606363 ], [ 322967.573247286782134, 2774165.429516566451639 ], [ 324037.680633151088841, 2774151.575023512821645 ], [ 323539.61280287464615, 2772297.189529721159488 ], [ 325679.929629025340546, 2772269.674130737781525 ], [ 325928.867100276576821, 2773196.882990052457899 ], [ 328069.11167300271336, 2773169.733124717604369 ], [ 328318.071485516265966, 2774096.997890772297978 ], [ 330458.244028526067268, 2774070.213802160695195 ], [ 330209.341027339920402, 2773142.919463655445725 ], [ 329139.228240628144704, 2773156.284269568044692 ], [ 328890.3759887276683, 2772229.031233397312462 ], [ 327820.23102117551025, 2772242.494841493200511 ], [ 327322.707207988598384, 2770388.097649263218045 ], [ 328392.908948419149965, 2770374.604594078380615 ], [ 327895.758540101349354, 2768520.28374173399061 ], [ 326825.500062754494138, 2768533.806165652815253 ], [ 326577.015245867660269, 2767606.700018246658146 ], [ 325506.724569813290145, 2767620.320984272751957 ], [ 325258.290573695208877, 2766693.255816561169922 ], [ 324187.967671137535945, 2766706.975252334494144 ], [ 323939.584509326668922, 2765779.950979382265359 ], [ 322869.22935244825203, 2765793.768812570720911 ], [ 323614.70151258574333, 2768574.876931388862431 ], [ 322544.427544089383446, 2768588.735024167690426 ], [ 323041.861767595575657, 2770442.909579329192638 ], [ 321971.640669304644689, 2770456.822498494759202 ], [ 321722.855549393570982, 2769529.736613308079541 ], [ 320652.602096220012754, 2769543.748041128739715 ], [ 320403.867787124007009, 2768616.702977316919714 ], [ 319333.58195121557219, 2768630.812841491773725 ], [ 319084.898466432117857, 2767703.808514120057225 ], [ 316944.25793985510245, 2767732.308872877620161 ], [ 317192.998245948692784, 2768659.284354638773948 ], [ 316122.700329149898607, 2768673.646007482893765 ], [ 315625.242139020585455, 2766819.749983619898558 ], [ 316695.596887903055176, 2766805.359586644917727 ], [ 316447.015092183137313, 2765878.436477512121201 ], [ 319658.140218827291392, 2765835.725348059553653 ], [ 319409.722822694689967, 2764908.785264190286398 ], [ 320480.118202082172502, 2764894.70147871831432 ], [ 319487.354352385387756, 2761187.145413518883288 ], [ 317346.332802940392867, 2761215.511760521214455 ], [ 317594.46159061032813, 2762142.332832303829491 ], [ 315453.480513362679631, 2762171.005443807691336 ], [ 315205.295030099456199, 2761244.212944147642702 ], [ 310923.170053408364765, 2761302.619883964303881 ], [ 310178.749028752208687, 2758522.568694234825671 ], [ 309108.122249237727374, 2758537.422017510514706 ], [ 308860.112178439972922, 2757610.804237671662122 ], [ 307789.45280190021731, 2757625.75523278163746 ], [ 308037.49122755927965, 2758552.358981939963996 ], [ 306966.855939917964861, 2758567.379589558113366 ], [ 307215.002064861590043, 2759493.995210753753781 ], [ 305073.775357371428981, 2759524.259399871807545 ], [ 304577.448941470589489, 2757671.109921719878912 ], [ 305648.121207219723146, 2757655.908072752412409 ], [ 305152.168945193348918, 2755802.834028319921345 ], [ 304081.439956764283124, 2755818.063716548494995 ], [ 304329.404769181855954, 2756744.573919128160924 ], [ 303258.699786938435864, 2756759.873292251955718 ], [ 303506.772331708925776, 2757686.395392765291035 ], [ 302436.091354128904641, 2757701.764487970620394 ], [ 302684.271653777686879, 2758628.298492998816073 ], [ 301613.614679359365255, 2758643.737347469199449 ], [ 301861.902756416471675, 2759570.28326357761398 ], [ 302932.531327084754594, 2759554.858295565471053 ], [ 303429.288786390854511, 2761408.055366273969412 ], [ 302358.717050123144872, 2761423.452502924483269 ], [ 302607.243262625765055, 2762350.075862651690841 ], [ 301536.695574964978732, 2762365.542819118592888 ], [ 302282.83581596671138, 2765145.526207732968032 ], [ 301212.369108328479342, 2765161.03514289110899 ], [ 301710.249793234630488, 2767014.458847019821405 ], [ 302780.659532133722678, 2766998.977868249639869 ], [ 303029.690450635389425, 2767925.742573841940612 ], [ 301959.30920956202317, 2767941.209545109421015 ], [ 302706.963729088078253, 2770721.617243301589042 ], [ 303777.25942285079509, 2770706.192411880940199 ], [ 303527.990398073976394, 2769779.349827317055315 ], [ 306738.937034161994234, 2769733.537036547902972 ], [ 307237.383352982869837, 2771587.332985217217356 ], [ 308307.633299115230329, 2771572.25838558236137 ], [ 308806.339919225254562, 2773426.18707672925666 ], [ 309876.528593377675861, 2773411.225011570844799 ], [ 310125.972360776737332, 2774338.242823750711977 ], [ 309055.812213970872108, 2774353.190607949160039 ], [ 309305.363829059060663, 2775280.220287510193884 ], [ 310375.495439539197832, 2775265.286803881637752 ], [ 310874.779522786964662, 2777119.453341843094677 ], [ 309804.705011903424747, 2777134.358165469486266 ], [ 310304.363451027311385, 2778988.600858335383236 ], [ 311374.380826384527609, 2778973.724773248191923 ], [ 311874.299333579081576, 2780828.10124607430771 ], [ 312944.255383316136431, 2780813.338280385825783 ], [ 313194.304990446777083, 2781740.580418993718922 ], [ 314264.228323704679497, 2781725.916246221400797 ], [ 314014.207302524650004, 2780798.659614950418472 ], [ 315084.155114833964035, 2780784.065247773658484 ], [ 314584.408042477851268, 2778929.601995947770774 ], [ 315654.408889997226652, 2778915.062889505643398 ], [ 316654.10584078845568, 2782624.152968517038971 ], [ 317723.98836897185538, 2782609.756360746920109 ], [ 318224.255214923759922, 2784464.489052853547037 ], [ 319294.076556299813092, 2784450.206094237044454 ], [ 319794.603175718686543, 2786305.074047840666026 ], [ 320864.363344284123741, 2786290.904924492351711 ], [ 321114.716893388307653, 2787218.393430014606565 ], [ 320044.985331711184699, 2787232.547805974725634 ], [ 320295.446715748286806, 2788160.048109866678715 ], [ 321365.149661540752277, 2788145.908501023426652 ], [ 321866.252846551942639, 2790001.018414224497974 ], [ 320796.607159521081485, 2790015.128429619129747 ], [ 321047.306215036311187, 2790942.708482850342989 ], [ 323186.536386971594766, 2790914.60269368859008 ], [ 323938.936917142826132, 2793697.591928522568196 ], [ 325008.460208897595294, 2793683.710677000228316 ], [ 325259.390113216242753, 2794611.442122870124876 ], [ 323120.396994640119374, 2794639.259402071125805 ], [ 323622.609083693590946, 2796494.742672596126795 ], [ 326830.920909751439467, 2796453.233735056594014 ], [ 327082.059673920564819, 2797381.060548570472747 ], [ 329220.857800673460588, 2797353.841838422697037 ], [ 329472.01836283277953, 2798281.725698233582079 ], [ 330541.383109604066703, 2798268.2586490069516 ], [ 330792.594135795719922, 2799196.18456680001691 ], [ 331861.926481681875885, 2799182.817509745247662 ], [ 332364.528561227023602, 2801038.780599980615079 ], [ 333433.799844171153381, 2801025.528870623093098 ], [ 334188.210266980167944, 2803809.721854726783931 ], [ 335257.391790337336715, 2803796.600989819969982 ], [ 335508.991432596987579, 2804724.734787217807025 ], [ 334439.838628374563996, 2804737.840282486751676 ], [ 334943.332669046940282, 2806594.158401302993298 ], [ 336012.428007940412499, 2806581.08370498334989 ], [ 336264.26493675110396, 2807509.29886331083253 ], [ 337333.327942133764736, 2807496.324660753365606 ], [ 337585.21521346597001, 2808424.582453965675086 ], [ 338654.245912727899849, 2808411.708818029612303 ], [ 338906.183512883842923, 2809340.009332331828773 ], [ 339975.181933389976621, 2809327.23633590573445 ], [ 340227.16984865849372, 2810255.579657546244562 ], [ 341296.136017746117432, 2810242.90737354522571 ], [ 341800.291497628204525, 2812099.70711827557534 ], [ 342869.196683696762193, 2812087.151285407599062 ], [ 343121.364223394426517, 2813015.607833876274526 ], [ 347396.835815320373513, 2812966.299427936319262 ], [ 347648.967344829230569, 2813894.846445189788938 ], [ 349786.625536682608072, 2813870.735240937676281 ], [ 350038.778559948783368, 2814799.341481983661652 ], [ 345763.56387840770185, 2814847.841457749716938 ], [ 346773.426171021303162, 2818562.287538103293628 ], [ 347842.119683632161468, 2818550.098072297405452 ], [ 348094.753955940832384, 2819478.794270430225879 ], [ 349163.415340426261537, 2819466.706118941772729 ], [ 349416.09978931362275, 2820395.445838787127286 ], [ 350484.72907281469088, 2820383.459074764046818 ], [ 350232.073431976197753, 2819454.703372365795076 ], [ 351300.728253922890872, 2819442.786029077135026 ], [ 350291.010557936970145, 2815727.975253547541797 ], [ 351359.77722408605041, 2815716.079362845048308 ], [ 351107.573976113344543, 2814787.429654017556459 ], [ 353245.155066945531871, 2814763.861785924993455 ], [ 353497.300834096793551, 2815692.543451435863972 ], [ 357772.309819040412549, 2815646.495064231567085 ], [ 357520.278936900955159, 2814717.749156673438847 ], [ 358589.05205908883363, 2814706.434137517120689 ], [ 358337.128784655767959, 2813777.699791388586164 ], [ 356199.522026596707292, 2813800.447274034842849 ], [ 355947.620275864377618, 2812871.772749739699066 ], [ 354878.783491812297143, 2812883.29036631854251 ], [ 354626.931974940293003, 2811954.659468275494874 ], [ 355695.797449923004024, 2811943.125837435014546 ], [ 355192.388581053353846, 2810085.914771972689778 ], [ 356261.308240792364813, 2810074.434290788136423 ], [ 356009.750859613995999, 2809145.854117463342845 ], [ 352802.896355619304813, 2809180.598780625965446 ], [ 352551.331934510031715, 2808252.093965815845877 ], [ 351482.345350497635081, 2808263.861585871316493 ], [ 351230.831224537570961, 2807335.400107002817094 ], [ 350161.812722640344873, 2807347.268627675250173 ], [ 349910.348905652877875, 2806418.85039838636294 ], [ 348841.298458677367307, 2806430.819746599532664 ], [ 348589.88496447307989, 2805502.444680568296462 ], [ 347520.802545200567693, 2805514.51478327345103 ], [ 347269.439387577120215, 2804586.182794220745564 ], [ 349407.658201908576302, 2804562.096115053631365 ], [ 348905.283419459476136, 2802705.451271489728242 ], [ 351043.603509926353581, 2802681.641407846473157 ], [ 350792.591809574863873, 2801753.328525030985475 ], [ 351861.775539104477502, 2801741.535179846454412 ], [ 351610.871396335831378, 2800813.233891710173339 ], [ 353749.286284894798882, 2800789.870242079719901 ], [ 353498.518244482576847, 2799861.56475918693468 ], [ 355636.977406863123178, 2799838.508833264466375 ], [ 355386.345409319037572, 2798910.199106463696808 ], [ 354317.088879431423265, 2798921.700480135157704 ], [ 354066.507275606156327, 2797993.433935786131769 ], [ 352997.219003510661423, 2798005.035866356920451 ], [ 352746.687807241920382, 2797076.812418328598142 ], [ 351677.367765721748583, 2797088.514832755550742 ], [ 351176.485179443261586, 2795232.181225209031254 ], [ 352245.862273855076637, 2795220.447423915844411 ], [ 351995.567941021348815, 2794292.305839510634542 ], [ 353064.970293378690258, 2794280.641025658231229 ], [ 352814.783416805439629, 2793352.51101985713467 ], [ 354953.635426596913021, 2793329.403914561029524 ], [ 354703.584459718549624, 2792401.269774368498474 ], [ 350425.753547722531948, 2792447.885134323965758 ], [ 350175.667611756420229, 2791519.840846914798021 ], [ 352314.646521421789657, 2791496.332741376478225 ], [ 352064.696506890992168, 2790568.284430757630616 ], [ 350995.18021869007498, 2790580.011810915078968 ], [ 350745.280701045703609, 2789652.006286213640124 ], [ 349675.732664556941018, 2789663.833772722631693 ], [ 349425.883657592057716, 2788735.870948079507798 ], [ 348356.303845498128794, 2788747.798468019813299 ], [ 349106.173222211073153, 2791531.72175478329882 ], [ 345897.6700322223478, 2791567.871918168384582 ], [ 345647.549099213792942, 2790639.91686823265627 ], [ 343508.473028550040908, 2790664.470727942883968 ], [ 342758.413348361209501, 2787880.860320017207414 ], [ 343828.038586315466091, 2787868.494972228538245 ], [ 343078.775648195820395, 2785085.081410980783403 ], [ 342009.064999644760974, 2785097.492723256349564 ], [ 341759.440300318179652, 2784169.757394480984658 ], [ 342829.179401044384576, 2784157.330800170078874 ], [ 342579.662190211704001, 2783229.607112796977162 ], [ 343649.426260852313135, 2783217.249588673003018 ], [ 343400.016516177915037, 2782289.537535968236625 ], [ 342330.224017817992717, 2782301.910330063197762 ], [ 342080.86488598753931, 2781374.24043317977339 ], [ 341011.040482796379365, 2781386.71275532990694 ], [ 341260.428039772727061, 2782314.36742930393666 ], [ 339120.825550178182311, 2782339.534550001379102 ], [ 338871.381123574450612, 2781411.910239778459072 ], [ 337801.546120301936753, 2781424.635405499488115 ], [ 337552.152327912161127, 2780497.053024427965283 ], [ 341831.584796839859337, 2780446.597403365653008 ], [ 341582.383752495108638, 2779518.981221860274673 ], [ 339442.617776948609389, 2779544.070864434354007 ], [ 339193.438976830802858, 2778616.51181284384802 ], [ 338123.522270458342973, 2778629.198082143440843 ], [ 337376.375101815909147, 2775846.726690865587443 ], [ 335236.360520094865933, 2775872.442006577271968 ], [ 335485.387284150870983, 2776799.875731389038265 ], [ 336555.367987768608145, 2776786.991008741781116 ], [ 336804.445444164332002, 2777714.466423794161528 ], [ 333594.577637155773118, 2777753.328079066239297 ], [ 333843.819444987399038, 2778680.785185241606086 ], [ 332773.884620418190025, 2778693.89247625367716 ], [ 333771.756778803479392, 2782403.927811634261161 ], [ 331632.10375541774556, 2782430.275336976628751 ], [ 331382.460081348428503, 2781502.756438390817493 ], [ 327102.995257173897699, 2781556.52300833305344 ], [ 327852.505773137847427, 2784338.980651823803782 ], [ 329992.074633231328335, 2784312.018173903692514 ], [ 329742.215677744359709, 2783384.475829189177603 ], [ 330812.022985383518972, 2783371.106200952548534 ], [ 331811.819553591136355, 2787081.495740262325853 ], [ 332881.509042714256793, 2787068.270537379197776 ], [ 333131.627468755235896, 2787995.949850070290267 ], [ 330992.301877957419492, 2788022.454608799889684 ] ], [ [ 350107.104812939302064, 2795243.999706618487835 ], [ 349856.753447903261986, 2794315.889422235544771 ], [ 350926.162333703483455, 2794304.055304505396634 ], [ 351176.485179443261586, 2795232.181225209031254 ], [ 350107.104812939302064, 2795243.999706618487835 ] ], [ [ 338051.018991402292158, 2782352.244574875570834 ], [ 336981.20885849010665, 2782365.03891173331067 ], [ 336731.707536429632455, 2781437.444855852052569 ], [ 337801.546120301936753, 2781424.635405499488115 ], [ 338051.018991402292158, 2782352.244574875570834 ] ], [ [ 335911.395127829164267, 2782377.917562310583889 ], [ 336161.004001925874036, 2783305.523299703840166 ], [ 334021.422605212486815, 2783331.503419377375394 ], [ 333771.756778803479392, 2782403.927811634261161 ], [ 335911.395127829164267, 2782377.917562310583889 ] ], [ [ 328672.404613577527925, 2783397.929810963571072 ], [ 328422.596292668953538, 2782470.429048893041909 ], [ 329492.435868760338053, 2782456.960152654908597 ], [ 329742.215677744359709, 2783384.475829189177603 ], [ 328672.404613577527925, 2783397.929810963571072 ] ], [ [ 346264.776762370369397, 2800873.127849 ], [ 347334.002344489796087, 2800860.979355856310576 ], [ 347585.020881197706331, 2801789.217816922813654 ], [ 346515.823913591797464, 2801801.350671738851815 ], [ 346264.776762370369397, 2800873.127849 ] ], [ [ 312241.978112008422613, 2762214.642418730072677 ], [ 313312.483048881869763, 2762200.013016772456467 ], [ 313560.804538720520213, 2763126.803099629934877 ], [ 312490.327981708920561, 2763141.418291570618749 ], [ 312241.978112008422613, 2762214.642418730072677 ] ] ], [ [ [ 349658.964064692496322, 2805490.459567210171372 ], [ 350728.039869297528639, 2805478.559441574383527 ], [ 350476.762644317874219, 2804550.180216799955815 ], [ 349407.658201908576302, 2804562.096115053631365 ], [ 349658.964064692496322, 2805490.459567210171372 ] ] ], [ [ [ 355967.272938692069147, 2828708.493874031119049 ], [ 357035.629860237473622, 2828696.994554631412029 ], [ 356023.10014769458212, 2824980.881817486137152 ], [ 354954.627824899682309, 2824992.446107225958258 ], [ 354701.663873086101376, 2824063.503670144826174 ], [ 351496.141322561074048, 2824098.758335434831679 ], [ 352255.529619953013025, 2826885.523594536352903 ], [ 353323.953775529167615, 2826873.734892182983458 ], [ 354337.461323790776078, 2830589.875450031366199 ], [ 355405.76675953832455, 2830578.23728045867756 ], [ 355659.312092939275317, 2831507.358296003192663 ], [ 356727.585485038929619, 2831495.822160894982517 ], [ 356981.180838597123511, 2832424.987400303594768 ], [ 358049.422214000253007, 2832413.553373031318188 ], [ 357288.959581505681854, 2829626.092390615493059 ], [ 356220.631532909115776, 2829637.575417171232402 ], [ 355967.272938692069147, 2828708.493874031119049 ] ] ], [ [ [ 349460.059095895150676, 2760825.166084070689976 ], [ 348965.733080874662846, 2758970.720598151907325 ], [ 350036.19151152233826, 2758958.975760651752353 ], [ 349789.175097786355764, 2758031.777919228654355 ], [ 350859.658307251520455, 2758020.10156536847353 ], [ 350612.74897340987809, 2757092.915282255038619 ], [ 348471.723007250286173, 2757116.381728013977408 ], [ 348224.836453723604791, 2756189.252227411605418 ], [ 347154.290325134003069, 2756201.125791628379375 ], [ 347648.198641108523589, 2758055.381345492787659 ], [ 346577.705346311733592, 2758067.308421109803021 ], [ 346330.68356848845724, 2757140.182359969709069 ], [ 344189.630466736503877, 2757164.317191082052886 ], [ 344931.101649278192781, 2759945.68522480269894 ], [ 343860.654361492604949, 2759957.833113587927073 ], [ 344355.419925301917829, 2761812.181409677490592 ], [ 346496.198384629795328, 2761788.029324474278837 ], [ 346743.64334057806991, 2762715.273468590341508 ], [ 347813.999275053618476, 2762703.338043806143105 ], [ 347566.582491037319414, 2761776.078815052751452 ], [ 348636.963213627808727, 2761764.211992247030139 ], [ 348389.653583187726326, 2760836.964341721031815 ], [ 349460.059095895150676, 2760825.166084070689976 ] ], [ [ 346824.806129581527784, 2758994.46107861539349 ], [ 347895.271294822799973, 2758982.549036936368793 ], [ 348142.422942885255907, 2759909.743362816981971 ], [ 347071.985916196135804, 2759921.640351053327322 ], [ 346824.806129581527784, 2758994.46107861539349 ] ] ], [ [ [ 352634.603287105681375, 2788700.595312659163028 ], [ 352384.918590829300229, 2787772.612946695182472 ], [ 350245.718576235580258, 2787796.076683179009706 ], [ 350745.280701045703609, 2789652.006286213640124 ], [ 351814.825450648437254, 2789640.263313945382833 ], [ 352064.696506890992168, 2790568.284430757630616 ], [ 353134.209538141672965, 2790556.64159062737599 ], [ 352884.366936921724118, 2789628.604854324832559 ], [ 353953.905183420749381, 2789617.030905769206583 ], [ 353704.169973230571486, 2788689.005737000610679 ], [ 352634.603287105681375, 2788700.595312659163028 ] ] ], [ [ [ 364078.803158397902735, 2791373.08439807780087 ], [ 363829.165899065323174, 2790444.862548990640789 ], [ 364898.644658057950437, 2790434.149547423236072 ], [ 364649.114643014152534, 2789505.939188917167485 ], [ 362510.097350193653256, 2789527.48152959253639 ], [ 362260.589428397244774, 2788599.330357952974737 ], [ 361191.047863210027572, 2788610.244119815994054 ], [ 361690.199363770778291, 2790466.542123432271183 ], [ 360620.711540375545155, 2790477.508699247147888 ], [ 360870.434020564076491, 2791405.682890908792615 ], [ 357662.037322568939999, 2791439.042379800230265 ], [ 358161.889569398364983, 2793295.377895577810705 ], [ 361370.115630597458221, 2793262.113406488671899 ], [ 361120.235384686617181, 2792333.884453645907342 ], [ 362189.66637251956854, 2792322.949614435434341 ], [ 361939.893430693482514, 2791394.732173499185592 ], [ 364078.803158397902735, 2791373.08439807780087 ] ] ], [ [ [ 388104.325832441158127, 2793014.519170422106981 ], [ 388353.575826851767488, 2793943.181704265531152 ], [ 390492.184750889078714, 2793925.691224203910679 ], [ 389993.876523717364762, 2792068.327631390653551 ], [ 388924.516729678667616, 2792077.063812447246164 ], [ 389173.659794983046595, 2793005.71502548083663 ], [ 388104.325832441158127, 2793014.519170422106981 ] ] ], [ [ [ 356273.158055897511076, 2794246.154475186485797 ], [ 356023.056633587519173, 2793317.977291255723685 ], [ 354953.635426596913021, 2793329.403914561029524 ], [ 355203.765327296685427, 2794257.565345061477274 ], [ 356273.158055897511076, 2794246.154475186485797 ] ] ], [ [ [ 390420.554745251836721, 2797649.390342504251748 ], [ 390171.018479278835002, 2796720.59931456996128 ], [ 389101.797709589474835, 2796729.336926009971648 ], [ 388353.575826851767488, 2793943.181704265531152 ], [ 386214.95708157075569, 2793961.010599486064166 ], [ 386464.342333156149834, 2794889.667892665602267 ], [ 384325.770208932692185, 2794907.802158025559038 ], [ 385324.324569505406544, 2798622.577942073810846 ], [ 387462.669990840484388, 2798604.576292478013784 ], [ 387712.448557230061851, 2799533.37329562427476 ], [ 388781.589197541179601, 2799524.516254500951618 ], [ 388531.838982423418202, 2798595.70258352952078 ], [ 389601.005525925895199, 2798586.913616871461272 ], [ 389351.362296422827058, 2797658.111270938068628 ], [ 390420.554745251836721, 2797649.390342504251748 ] ], [ [ 385894.120685254863929, 2796756.057882159482688 ], [ 386963.348836074233986, 2796747.066208602394909 ], [ 387212.970083062769845, 2797675.807269905228168 ], [ 386143.770271551446058, 2797684.782342838589102 ], [ 385894.120685254863929, 2796756.057882159482688 ] ] ], [ [ [ 356640.294653932913207, 2803552.021968550048769 ], [ 353432.943988102022558, 2803586.543000620324165 ], [ 354186.518035777262412, 2806371.823140507563949 ], [ 360600.676334925112315, 2806303.832484962418675 ], [ 360349.577675185864791, 2805375.282496099360287 ], [ 361418.621812674799003, 2805364.232160900253803 ], [ 361669.69188925914932, 2806292.798216205555946 ], [ 364876.720457089715637, 2806260.20539214881137 ], [ 364625.736092020233627, 2805331.590973079670221 ], [ 363556.700997655338142, 2805342.386400870513171 ], [ 363305.766929081641138, 2804413.815768315456808 ], [ 364374.830578589870129, 2804403.004211776889861 ], [ 363873.256115285272244, 2802545.913585701026022 ], [ 366011.488644768367521, 2802524.480727494228631 ], [ 365510.343670048634522, 2800667.436101387254894 ], [ 364441.171865041716956, 2800678.142317095305771 ], [ 364190.689145811833441, 2799749.677500219549984 ], [ 363121.485861595894676, 2799760.484600315801799 ], [ 362120.229637587442994, 2796046.964796124491841 ], [ 361050.909398636722472, 2796057.920616569463164 ], [ 361551.43672946235165, 2797914.593589992262423 ], [ 359412.901016795658506, 2797936.69563839957118 ], [ 359663.340002871584147, 2798865.041445651557297 ], [ 358594.096036411705427, 2798876.203688845969737 ], [ 358343.628539487835951, 2797947.873788962606341 ], [ 356205.074225462856703, 2797970.484350389335304 ], [ 356706.20222173264483, 2799827.108089562505484 ], [ 358844.642436221183743, 2799804.56103294622153 ], [ 359345.971935896086507, 2801661.35813018027693 ], [ 358276.810469592164736, 2801672.557394616771489 ], [ 358527.622118486557156, 2802600.981226530391723 ], [ 356389.34695793222636, 2802623.602512335404754 ], [ 356640.294653932913207, 2803552.021968550048769 ] ], [ [ 360415.130315597576555, 2801650.243728258647025 ], [ 361167.630614858935587, 2804435.693703618831933 ], [ 360098.557903256383725, 2804446.760085347574204 ], [ 359345.971935896086507, 2801661.35813018027693 ], [ 360415.130315597576555, 2801650.243728258647025 ] ] ], [ [ [ 358722.879921465471853, 2823088.715411262121052 ], [ 358470.189041858655401, 2822159.76370786735788 ], [ 359538.735331916192081, 2822148.492808255366981 ], [ 359033.647825289401226, 2820290.640332901850343 ], [ 361170.846280986559577, 2820268.28985951282084 ], [ 360413.979194717656355, 2817481.622157779056579 ], [ 358276.608308927854523, 2817504.069967688526958 ], [ 358528.875912344781682, 2818432.899002132937312 ], [ 356391.550127910741139, 2818455.65585983870551 ], [ 356896.437063216348179, 2820313.332478746306151 ], [ 353690.597437483316753, 2820348.01136028720066 ], [ 354448.778856269433163, 2823134.588996225502342 ], [ 355517.308825373009313, 2823122.992341820616275 ], [ 355264.531555300287437, 2822194.089259505737573 ], [ 357401.639664610032924, 2822171.120081919711083 ], [ 357654.359334668028168, 2823100.055550890043378 ], [ 358722.879921465471853, 2823088.715411262121052 ] ] ], [ [ [ 364823.551302345469594, 2825820.564694394823164 ], [ 365076.413734630565159, 2826749.709795110393316 ], [ 367213.185521322884597, 2826728.272687788121402 ], [ 367466.069211502792314, 2827657.478816594928503 ], [ 368534.421969434595667, 2827646.905219450592995 ], [ 367776.093715594382957, 2824859.321338340640068 ], [ 365639.212638616620097, 2824880.653283101506531 ], [ 365891.967442192253657, 2825809.786860265769064 ], [ 364823.551302345469594, 2825820.564694394823164 ] ] ], [ [ [ 396391.474376501224469, 2839514.890576964709908 ], [ 396138.258061932516284, 2838584.906956835184246 ], [ 395070.30967711150879, 2838593.303670587949455 ], [ 395323.554751883493736, 2839523.269842893816531 ], [ 396391.474376501224469, 2839514.890576964709908 ] ] ], [ [ [ 381947.859666640986688, 2841499.591986013576388 ], [ 382201.715299815230537, 2842429.419450464192778 ], [ 380065.978849602979608, 2842448.5683957291767 ], [ 379812.065462311671581, 2841518.775151680689305 ], [ 380879.963856096146628, 2841509.140554938931018 ], [ 380626.158060955815017, 2840579.35875169467181 ], [ 381694.082736355252564, 2840569.793079083785415 ], [ 381440.384511172655039, 2839640.022709948942065 ], [ 380372.430980008444749, 2839649.605466010048985 ], [ 379865.212969524494838, 2837790.18436850560829 ], [ 378797.199145937222056, 2837799.8871487993747 ], [ 378543.679386082221754, 2836870.23629294661805 ], [ 376407.586133491364308, 2836889.933521140832454 ], [ 377422.368405288783833, 2840608.57177692418918 ], [ 376354.433233021060005, 2840618.481458849273622 ], [ 377116.433426532777958, 2843407.707836562301964 ], [ 378184.281902114395052, 2843397.849197009112686 ], [ 378438.41054032347165, 2844327.665342706255615 ], [ 379506.227464857278392, 2844317.909871880430728 ], [ 379760.405915767885745, 2845247.771655630320311 ], [ 386167.080056453472935, 2845191.150344526395202 ], [ 385659.148601089022122, 2843331.249073314946145 ], [ 383523.485139589873143, 2843349.847272804472595 ], [ 383015.752917106787208, 2841490.129443616140634 ], [ 381947.859666640986688, 2841499.591986013576388 ] ] ], [ [ [ 380014.663087988388725, 2846177.662015105597675 ], [ 379760.405915767885745, 2845247.771655630320311 ], [ 378692.617911149864085, 2845257.510024113580585 ], [ 378946.904012377257459, 2846187.383260972332209 ], [ 380014.663087988388725, 2846177.662015105597675 ] ] ], [ [ [ 387287.300781357800588, 2841453.13951392704621 ], [ 387794.802149763738271, 2843312.995184482075274 ], [ 388862.625264652539045, 2843303.997353474609554 ], [ 389370.383526024350431, 2845164.002496081870049 ], [ 388302.618130099028349, 2845172.965648347977549 ], [ 388810.748704591067508, 2847033.051064022816718 ], [ 387743.038656837888993, 2847042.065641511231661 ], [ 387997.250808851153124, 2847972.134122960735112 ], [ 389064.931959086970892, 2847963.13692837394774 ], [ 389573.534391452092677, 2849823.395069376099855 ], [ 390641.155330674140714, 2849814.518969034776092 ], [ 391150.014466261782218, 2851674.927421927917749 ], [ 392217.575205822649878, 2851666.17260584095493 ], [ 392726.690966248570476, 2853526.731747500132769 ], [ 393794.191517433733679, 2853518.098405779339373 ], [ 394303.563824241398834, 2855378.808613491710275 ], [ 396438.442312868544832, 2855361.871686948463321 ], [ 395420.243535873247311, 2851640.426073511596769 ], [ 396487.795093281194568, 2851632.01653085462749 ], [ 395216.95924905751599, 2846980.773444211110473 ], [ 396284.652931875782087, 2846972.362137457821518 ], [ 395269.514179832476657, 2843251.817879380192608 ], [ 396337.320919352117926, 2843243.422541399486363 ], [ 395830.280666392412968, 2841383.288550626952201 ], [ 393694.549712391628418, 2841400.235203364863992 ], [ 394201.705170408647973, 2843260.299284299835563 ], [ 393133.893867934355512, 2843268.866757304873317 ], [ 393387.618319739645813, 2844198.924551108852029 ], [ 392319.833531346172094, 2844207.560654209461063 ], [ 391812.405583762796596, 2842347.508724280167371 ], [ 389676.713644453673624, 2842365.10877649532631 ], [ 389423.059955142962281, 2841435.160675585269928 ], [ 387287.300781357800588, 2841453.13951392704621 ] ], [ [ 394455.400798085320275, 2844190.374544733203948 ], [ 394709.175021905975882, 2845120.478644949384034 ], [ 393641.42137679544976, 2845129.011164417956024 ], [ 393387.618319739645813, 2844198.924551108852029 ], [ 394455.400798085320275, 2844190.374544733203948 ] ] ] ] } }
]
}
