{
"type": "FeatureCollection",
"name": "urban-2015",
"crs": { "type": "name", "properties": { "name": "urn:ogc:def:crs:EPSG::32640" } },
"features": [
{ "type": "Feature", "properties": { "year": 2015 }, "geometry": { "type": "MultiPolygon", "coordinates": [ [ [ [ 307702.501134898513556, 2749257.414326970931143 ], [ 305560.677109899697825, 2749287.483751072082669 ], [ 305313.432086401502602, 2748361.137948259245604 ], [ 307455.312635158479679, 2748331.040824125520885 ], [ 307208.203469085739926, 2747404.693054671864957 ], [ 308279.165537616354413, 2747389.755630503408611 ], [ 307538.398737177543808, 2744610.825042560230941 ], [ 306467.3519935188815, 2744625.803965154569596 ], [ 306714.223146201111376, 2745552.074643324129283 ], [ 305643.200307479070034, 2745567.123009576927871 ], [ 305890.1790316956467, 2746493.405561183113605 ], [ 304819.180096246767789, 2746508.523408349137753 ], [ 305066.266414496058132, 2747434.817840066272765 ], [ 303995.291380675858818, 2747450.00520539842546 ], [ 304242.48531545966398, 2748376.311523885000497 ], [ 303171.53418164519826, 2748391.568444636650383 ], [ 303418.835755473875906, 2749317.886656543239951 ], [ 302347.908520059310831, 2749333.213169964961708 ], [ 302842.806365183321759, 2751185.899066605605185 ], [ 303913.677003419026732, 2751170.600120440591127 ], [ 304161.21667340490967, 2752096.995408738031983 ], [ 305232.054639484500512, 2752081.793731630314142 ], [ 304737.111264625680633, 2750229.001204696018249 ], [ 307949.768966237432323, 2750183.813581371679902 ], [ 307702.501134898513556, 2749257.414326970931143 ] ] ], [ [ [ 300141.897991167963482, 2765176.627928829751909 ], [ 301212.369108328479342, 2765161.03514289110899 ], [ 300963.547843902837485, 2764234.362100253812969 ], [ 299893.048249140498228, 2764249.968807817436755 ], [ 300141.897991167963482, 2765176.627928829751909 ] ] ], [ [ [ 331454.647418180946261, 2777779.656748900189996 ], [ 333594.577637155773118, 2777753.328079066239297 ], [ 333345.414943495416082, 2776825.897627366706729 ], [ 331205.42786724306643, 2776852.256136062089354 ], [ 331454.647418180946261, 2777779.656748900189996 ] ] ], [ [ [ 333023.233983702491969, 2779621.361283159349114 ], [ 334093.140364881372079, 2779608.268964566290379 ], [ 333843.819444987399038, 2778680.785185241606086 ], [ 332773.884620418190025, 2778693.89247625367716 ], [ 333023.233983702491969, 2779621.361283159349114 ] ] ], [ [ [ 337552.152327912161127, 2780497.053024427965283 ], [ 341831.584796839859337, 2780446.597403365653008 ], [ 341582.383752495108638, 2779518.981221860274673 ], [ 339442.617776948609389, 2779544.070864434354007 ], [ 339193.438976830802858, 2778616.51181284384802 ], [ 338123.522270458342973, 2778629.198082143440843 ], [ 337376.375101815909147, 2775846.726690865587443 ], [ 336306.369620656245388, 2775859.54228845005855 ], [ 336804.445444164332002, 2777714.466423794161528 ], [ 333594.577637155773118, 2777753.328079066239297 ], [ 333843.819444987399038, 2778680.785185241606086 ], [ 334913.750598634243943, 2778667.76210208889097 ], [ 335163.043081626063213, 2779595.260881174355745 ], [ 334093.140364881372079, 2779608.268964566290379 ], [ 334342.540394723182544, 2780535.779435728210956 ], [ 333272.662465935456567, 2780548.856762230861932 ], [ 333771.756778803479392, 2782403.927811634261161 ], [ 335911.395127829164267, 2782377.917562310583889 ], [ 335661.865348337334581, 2781450.338592575863004 ], [ 337801.546120301936753, 2781424.635405499488115 ], [ 337552.152327912161127, 2780497.053024427965283 ] ] ], [ [ [ 328172.867129377671517, 2781542.954916620627046 ], [ 327102.995257173897699, 2781556.52300833305344 ], [ 327852.505773137847427, 2784338.980651823803782 ], [ 329992.074633231328335, 2784312.018173903692514 ], [ 329742.215677744359709, 2783384.475829189177603 ], [ 328672.404613577527925, 2783397.929810963571072 ], [ 328172.867129377671517, 2781542.954916620627046 ] ] ], [ [ [ 350291.010557936970145, 2815727.975253547541797 ], [ 351359.77722408605041, 2815716.079362845048308 ], [ 351107.573976113344543, 2814787.429654017556459 ], [ 353245.155066945531871, 2814763.861785924993455 ], [ 353497.300834096793551, 2815692.543451435863972 ], [ 355634.811636788886972, 2815669.348689417820424 ], [ 355382.72332489665132, 2814740.634957669768482 ], [ 356451.502699959324673, 2814729.149429542943835 ], [ 356703.562293790047988, 2815657.879235498141497 ], [ 357772.309819040412549, 2815646.495064231567085 ], [ 357268.326966185530182, 2813789.030919553246349 ], [ 356199.522026596707292, 2813800.447274034842849 ], [ 355947.620275864377618, 2812871.772749739699066 ], [ 353809.943533517536707, 2812894.893184924032539 ], [ 353558.063319335517008, 2811966.278273751959205 ], [ 355695.797449923004024, 2811943.125837435014546 ], [ 355192.388581053353846, 2810085.914771972689778 ], [ 356261.308240792364813, 2810074.434290788136423 ], [ 356009.750859613995999, 2809145.854117463342845 ], [ 351733.93843915022444, 2809192.35052100662142 ], [ 351230.831224537570961, 2807335.400107002817094 ], [ 350161.812722640344873, 2807347.268627675250173 ], [ 349910.348905652877875, 2806418.85039838636294 ], [ 348841.298458677367307, 2806430.819746599532664 ], [ 348589.88496447307989, 2805502.444680568296462 ], [ 347520.802545200567693, 2805514.51478327345103 ], [ 347269.439387577120215, 2804586.182794220745564 ], [ 348338.550457477162126, 2804574.096973652020097 ], [ 348087.294939835206605, 2803645.7766067776829 ], [ 349156.431319448398426, 2803633.760022836271673 ], [ 348905.283419459476136, 2802705.451271489728242 ], [ 351043.603509926353581, 2802681.641407846473157 ], [ 350792.591809574863873, 2801753.328525030985475 ], [ 351861.775539104477502, 2801741.535179846454412 ], [ 351610.871396335831378, 2800813.233891710173339 ], [ 353749.286284894798882, 2800789.870242079719901 ], [ 353498.518244482576847, 2799861.56475918693468 ], [ 355636.977406863123178, 2799838.508833264466375 ], [ 355386.345409319037572, 2798910.199106463696808 ], [ 354317.088879431423265, 2798921.700480135157704 ], [ 354066.507275606156327, 2797993.433935786131769 ], [ 351927.927501978527289, 2798016.722557602450252 ], [ 351176.485179443261586, 2795232.181225209031254 ], [ 350107.104812939302064, 2795243.999706618487835 ], [ 349856.753447903261986, 2794315.889422235544771 ], [ 353064.970293378690258, 2794280.641025658231229 ], [ 352814.783416805439629, 2793352.51101985713467 ], [ 353884.211028845282272, 2793340.91515690786764 ], [ 353634.131586241419427, 2792412.796722953673452 ], [ 351495.216153778659645, 2792436.104401350021362 ], [ 351745.352566950256005, 2793364.191504981834441 ], [ 350675.918455750623252, 2793375.956613867077976 ], [ 350425.753547722531948, 2792447.885134323965758 ], [ 348286.818438285496086, 2792471.700395816005766 ], [ 348036.675511469715275, 2791543.6872348645702 ], [ 345897.6700322223478, 2791567.871918168384582 ], [ 345647.549099213792942, 2790639.91686823265627 ], [ 343508.473028550040908, 2790664.470727942883968 ], [ 342758.413348361209501, 2787880.860320017207414 ], [ 343828.038586315466091, 2787868.494972228538245 ], [ 343078.775648195820395, 2785085.081410980783403 ], [ 342009.064999644760974, 2785097.492723256349564 ], [ 341759.440300318179652, 2784169.757394480984658 ], [ 342829.179401044384576, 2784157.330800170078874 ], [ 342579.662190211704001, 2783229.607112796977162 ], [ 343649.426260852313135, 2783217.249588673003018 ], [ 343400.016516177915037, 2782289.537535968236625 ], [ 342330.224017817992717, 2782301.910330063197762 ], [ 342080.86488598753931, 2781374.24043317977339 ], [ 341011.040482796379365, 2781386.71275532990694 ], [ 341260.428039772727061, 2782314.36742930393666 ], [ 335911.395127829164267, 2782377.917562310583889 ], [ 336161.004001925874036, 2783305.523299703840166 ], [ 334021.422605212486815, 2783331.503419377375394 ], [ 333771.756778803479392, 2782403.927811634261161 ], [ 331632.10375541774556, 2782430.275336976628751 ], [ 331382.460081348428503, 2781502.756438390817493 ], [ 329242.735208393773064, 2781529.471125611104071 ], [ 329742.215677744359709, 2783384.475829189177603 ], [ 330812.022985383518972, 2783371.106200952548534 ], [ 331811.819553591136355, 2787081.495740262325853 ], [ 332881.509042714256793, 2787068.270537379197776 ], [ 333131.627468755235896, 2787995.949850070290267 ], [ 330992.301877957419492, 2788022.454608799889684 ], [ 331242.556534255971201, 2788950.13057519774884 ], [ 330172.916730665834621, 2788963.49465619539842 ], [ 329922.633508430211805, 2788035.833722586743534 ], [ 328852.961391388264019, 2788049.297328405547887 ], [ 328352.575265927938744, 2786194.085620358586311 ], [ 327282.842246829881333, 2786207.663617068435997 ], [ 326282.905756890249904, 2782497.619827316142619 ], [ 325213.054749973118305, 2782511.341713193338364 ], [ 324463.848178460204508, 2779729.132514971774071 ], [ 323393.907753799576312, 2779742.983031787443906 ], [ 322645.328421342070214, 2776961.056587337516248 ], [ 323715.354325297521427, 2776947.161950167734176 ], [ 322469.448542820406146, 2772311.073275034315884 ], [ 325679.929629025340546, 2772269.674130737781525 ], [ 325928.867100276576821, 2773196.882990052457899 ], [ 328069.11167300271336, 2773169.733124717604369 ], [ 328318.071485516265966, 2774096.997890772297978 ], [ 330458.244028526067268, 2774070.213802160695195 ], [ 330209.341027339920402, 2773142.919463655445725 ], [ 329139.228240628144704, 2773156.284269568044692 ], [ 328890.3759887276683, 2772229.031233397312462 ], [ 327820.23102117551025, 2772242.494841493200511 ], [ 327571.429532137117349, 2771315.283022528514266 ], [ 326501.25235601037275, 2771328.845360375475138 ], [ 326252.501643395924475, 2770401.674673528410494 ], [ 327322.707207988598384, 2770388.097649263218045 ], [ 327074.064050827990286, 2769460.938703150022775 ], [ 328144.294164212013129, 2769447.430953808128834 ], [ 327895.758540101349354, 2768520.28374173399061 ], [ 324684.971572715207003, 2768561.102758624590933 ], [ 324933.592308293271344, 2769488.206028944347054 ], [ 322793.105053322855383, 2769515.809136598370969 ], [ 323041.861767595575657, 2770442.909579329192638 ], [ 321971.640669304644689, 2770456.822498494759202 ], [ 321722.855549393570982, 2769529.736613308079541 ], [ 319582.34467008698266, 2769557.843421965837479 ], [ 319084.898466432117857, 2767703.808514120057225 ], [ 316944.25793985510245, 2767732.308872877620161 ], [ 317192.998245948692784, 2768659.284354638773948 ], [ 316122.700329149898607, 2768673.646007482893765 ], [ 316371.548316811327823, 2769600.633301801979542 ], [ 315301.27476171660237, 2769615.064513989258558 ], [ 315052.398337948252447, 2768688.091593775432557 ], [ 313982.09224862291012, 2768702.621115481480956 ], [ 313733.266661143570673, 2767775.688697342760861 ], [ 315873.931602524011396, 2767746.684907565359026 ], [ 315625.242139020585455, 2766819.749983619898558 ], [ 316695.596887903055176, 2766805.359586644917727 ], [ 316447.015092183137313, 2765878.436477512121201 ], [ 319658.140218827291392, 2765835.725348059553653 ], [ 319409.722822694689967, 2764908.785264190286398 ], [ 320480.118202082172502, 2764894.70147871831432 ], [ 319487.354352385387756, 2761187.145413518883288 ], [ 317346.332802940392867, 2761215.511760521214455 ], [ 317594.46159061032813, 2762142.332832303829491 ], [ 313312.483048881869763, 2762200.013016772456467 ], [ 313560.804538720520213, 2763126.803099629934877 ], [ 312490.327981708920561, 2763141.418291570618749 ], [ 311993.707535896508489, 2761287.892572491895407 ], [ 309852.628372416365892, 2761317.43091644719243 ], [ 309604.380348302889615, 2760390.735338606871665 ], [ 310674.950404441682622, 2760375.910189704038203 ], [ 310178.749028752208687, 2758522.568694234825671 ], [ 306966.855939917964861, 2758567.379589558113366 ], [ 307215.002064861590043, 2759493.995210753753781 ], [ 305073.775357371428981, 2759524.259399871807545 ], [ 304577.448941470589489, 2757671.109921719878912 ], [ 305648.121207219723146, 2757655.908072752412409 ], [ 305400.105400754837319, 2756729.358140801545233 ], [ 303258.699786938435864, 2756759.873292251955718 ], [ 303754.924243244808167, 2758612.943292057141662 ], [ 302684.271653777686879, 2758628.298492998816073 ], [ 303429.288786390854511, 2761408.055366273969412 ], [ 302358.717050123144872, 2761423.452502924483269 ], [ 302607.243262625765055, 2762350.075862651690841 ], [ 301536.695574964978732, 2762365.542819118592888 ], [ 302282.83581596671138, 2765145.526207732968032 ], [ 301212.369108328479342, 2765161.03514289110899 ], [ 301710.249793234630488, 2767014.458847019821405 ], [ 302780.659532133722678, 2766998.977868249639869 ], [ 303029.690450635389425, 2767925.742573841940612 ], [ 301959.30920956202317, 2767941.209545109421015 ], [ 302208.448005699319765, 2768867.986164966132492 ], [ 303278.800739974656608, 2768852.533220753073692 ], [ 303527.990398073976394, 2769779.349827317055315 ], [ 306738.937034161994234, 2769733.537036547902972 ], [ 307237.383352982869837, 2771587.332985217217356 ], [ 308307.633299115230329, 2771572.25838558236137 ], [ 308806.339919225254562, 2773426.18707672925666 ], [ 309876.528593377675861, 2773411.225011570844799 ], [ 310874.779522786964662, 2777119.453341843094677 ], [ 309804.705011903424747, 2777134.358165469486266 ], [ 310304.363451027311385, 2778988.600858335383236 ], [ 311374.380826384527609, 2778973.724773248191923 ], [ 311874.299333579081576, 2780828.10124607430771 ], [ 312944.255383316136431, 2780813.338280385825783 ], [ 313194.304990446777083, 2781740.580418993718922 ], [ 314264.228323704679497, 2781725.916246221400797 ], [ 314014.207302524650004, 2780798.659614950418472 ], [ 315084.155114833964035, 2780784.065247773658484 ], [ 314584.408042477851268, 2778929.601995947770774 ], [ 315654.408889997226652, 2778915.062889505643398 ], [ 316654.10584078845568, 2782624.152968517038971 ], [ 317723.98836897185538, 2782609.756360746920109 ], [ 318224.255214923759922, 2784464.489052853547037 ], [ 319294.076556299813092, 2784450.206094237044454 ], [ 319794.603175718686543, 2786305.074047840666026 ], [ 320864.363344284123741, 2786290.904924492351711 ], [ 322116.923259189527016, 2790928.613293804228306 ], [ 323186.536386971594766, 2790914.60269368859008 ], [ 323938.936917142826132, 2793697.591928522568196 ], [ 325008.460208897595294, 2793683.710677000228316 ], [ 325259.390113216242753, 2794611.442122870124876 ], [ 324189.895487203495577, 2794625.308414311613888 ], [ 324440.933250406756997, 2795553.051635125186294 ], [ 323371.463439153973013, 2795566.98767033405602 ], [ 323622.609083693590946, 2796494.742672596126795 ], [ 326830.920909751439467, 2796453.233735056594014 ], [ 327082.059673920564819, 2797381.060548570472747 ], [ 330290.251223029161338, 2797340.359640564303845 ], [ 330792.594135795719922, 2799196.18456680001691 ], [ 331861.926481681875885, 2799182.817509745247662 ], [ 332364.528561227023602, 2801038.780599980615079 ], [ 333433.799844171153381, 2801025.528870623093098 ], [ 334188.210266980167944, 2803809.721854726783931 ], [ 335257.391790337336715, 2803796.600989819969982 ], [ 335508.991432596987579, 2804724.734787217807025 ], [ 334439.838628374563996, 2804737.840282486751676 ], [ 334943.332669046940282, 2806594.158401302993298 ], [ 336012.428007940412499, 2806581.08370498334989 ], [ 336264.26493675110396, 2807509.29886331083253 ], [ 337333.327942133764736, 2807496.324660753365606 ], [ 337585.21521346597001, 2808424.582453965675086 ], [ 338654.245912727899849, 2808411.708818029612303 ], [ 338906.183512883842923, 2809340.009332331828773 ], [ 339975.181933389976621, 2809327.23633590573445 ], [ 340227.16984865849372, 2810255.579657546244562 ], [ 341296.136017746117432, 2810242.90737354522571 ], [ 341800.291497628204525, 2812099.70711827557534 ], [ 342869.196683696762193, 2812087.151285407599062 ], [ 343121.364223394426517, 2813015.607833876274526 ], [ 347396.835815320373513, 2812966.299427936319262 ], [ 347648.967344829230569, 2813894.846445189788938 ], [ 349786.625536682608072, 2813870.735240937676281 ], [ 350038.778559948783368, 2814799.341481983661652 ], [ 345763.56387840770185, 2814847.841457749716938 ], [ 346015.910940642235801, 2815776.411754047498107 ], [ 347084.69083459104877, 2815764.174685001838952 ], [ 347589.564404533011839, 2817621.429421484470367 ], [ 346520.84208910446614, 2817633.634775042999536 ], [ 346773.426171021303162, 2818562.287538103293628 ], [ 347842.119683632161468, 2818550.098072297405452 ], [ 348094.753955940832384, 2819478.794270430225879 ], [ 350232.073431976197753, 2819454.703372365795076 ], [ 349979.496764102193993, 2818525.975276559591293 ], [ 351048.180378640186973, 2818514.041943362448364 ], [ 350291.010557936970145, 2815727.975253547541797 ] ], [ [ 348403.224575472879224, 2800848.915715185459703 ], [ 348654.214504085830413, 2801777.169841954018921 ], [ 346515.823913591797464, 2801801.350671738851815 ], [ 345762.919482941564638, 2799016.76391653297469 ], [ 346832.20226700999774, 2799004.584206315688789 ], [ 347334.002344489796087, 2800860.979355856310576 ], [ 348403.224575472879224, 2800848.915715185459703 ] ], [ [ 345261.378248462162446, 2797160.508808104321361 ], [ 345010.726153424009681, 2796232.422015457879752 ], [ 346080.094672735489439, 2796220.195628463756293 ], [ 346330.718198381655384, 2797148.29796020174399 ], [ 345261.378248462162446, 2797160.508808104321361 ] ], [ [ 312194.582296640903223, 2778031.769692812580615 ], [ 311944.849852974410169, 2777104.632711290381849 ], [ 313014.91602612438146, 2777089.896271797362715 ], [ 313264.619919782853685, 2778017.04766736086458 ], [ 312194.582296640903223, 2778031.769692812580615 ] ], [ [ 320578.187844585860148, 2773266.228644423186779 ], [ 320329.108210297068581, 2772339.092866742517799 ], [ 321399.28035319247283, 2772325.04105340782553 ], [ 321648.331541762105189, 2773252.191392779350281 ], [ 320578.187844585860148, 2773266.228644423186779 ] ] ], [ [ [ 357654.359334668028168, 2823100.055550890043378 ], [ 358722.879921465471853, 2823088.715411262121052 ], [ 358470.189041858655401, 2822159.76370786735788 ], [ 359538.735331916192081, 2822148.492808255366981 ], [ 359033.647825289401226, 2820290.640332901850343 ], [ 361170.846280986559577, 2820268.28985951282084 ], [ 360413.979194717656355, 2817481.622157779056579 ], [ 358276.608308927854523, 2817504.069967688526958 ], [ 358528.875912344781682, 2818432.899002132937312 ], [ 356391.550127910741139, 2818455.65585983870551 ], [ 356896.437063216348179, 2820313.332478746306151 ], [ 353690.597437483316753, 2820348.01136028720066 ], [ 354195.972776617622003, 2822205.702066145837307 ], [ 353127.410817503696308, 2822217.40035344241187 ], [ 353380.245713124633767, 2823146.271158678922802 ], [ 355517.308825373009313, 2823122.992341820616275 ], [ 355264.531555300287437, 2822194.089259505737573 ], [ 357401.639664610032924, 2822171.120081919711083 ], [ 357654.359334668028168, 2823100.055550890043378 ] ] ], [ [ [ 355967.272938692069147, 2828708.493874031119049 ], [ 357035.629860237473622, 2828696.994554631412029 ], [ 355770.165023560868576, 2824051.923188037704676 ], [ 351496.141322561074048, 2824098.758335434831679 ], [ 352255.529619953013025, 2826885.523594536352903 ], [ 353323.953775529167615, 2826873.734892182983458 ], [ 354337.461323790776078, 2830589.875450031366199 ], [ 356474.069049083744176, 2830566.684839657042176 ], [ 356981.180838597123511, 2832424.987400303594768 ], [ 358049.422214000253007, 2832413.553373031318188 ], [ 357288.959581505681854, 2829626.092390615493059 ], [ 356220.631532909115776, 2829637.575417171232402 ], [ 355967.272938692069147, 2828708.493874031119049 ] ] ], [ [ [ 389173.659794983046595, 2793005.71502548083663 ], [ 390242.99131959193619, 2792996.995455671101809 ], [ 389993.876523717364762, 2792068.327631390653551 ], [ 388924.516729678667616, 2792077.063812447246164 ], [ 389173.659794983046595, 2793005.71502548083663 ] ] ], [ [ [ 388353.575826851767488, 2793943.181704265531152 ], [ 389422.88150476757437, 2793934.39416293753311 ], [ 389173.659794983046595, 2793005.71502548083663 ], [ 388104.325832441158127, 2793014.519170422106981 ], [ 388353.575826851767488, 2793943.181704265531152 ] ] ], [ [ [ 385324.324569505406544, 2798622.577942073810846 ], [ 387462.669990840484388, 2798604.576292478013784 ], [ 387962.305780055990908, 2800462.198298656847328 ], [ 389031.418060034862719, 2800453.357945241965353 ], [ 388531.838982423418202, 2798595.70258352952078 ], [ 389601.005525925895199, 2798586.913616871461272 ], [ 389351.362296422827058, 2797658.111270938068628 ], [ 390420.554745251836721, 2797649.390342504251748 ], [ 390171.018479278835002, 2796720.59931456996128 ], [ 389101.797709589474835, 2796729.336926009971648 ], [ 388852.311767599894665, 2795800.590562782716006 ], [ 387783.060243087238632, 2795809.42949607828632 ], [ 387533.624639231537003, 2794880.727711089886725 ], [ 388602.904472629481461, 2794871.872161962557584 ], [ 388353.575826851767488, 2793943.181704265531152 ], [ 386214.95708157075569, 2793961.010599486064166 ], [ 386464.342333156149834, 2794889.667892665602267 ], [ 384325.770208932692185, 2794907.802158025559038 ], [ 385324.324569505406544, 2798622.577942073810846 ] ], [ [ 386143.770271551446058, 2797684.782342838589102 ], [ 385894.120685254863929, 2796756.057882159482688 ], [ 386963.348836074233986, 2796747.066208602394909 ], [ 387212.970083062769845, 2797675.807269905228168 ], [ 386143.770271551446058, 2797684.782342838589102 ] ] ], [ [ [ 363054.911723350640386, 2803485.272754424717277 ], [ 364124.003918958303984, 2803474.445089044980705 ], [ 363873.256115285272244, 2802545.913585701026022 ], [ 366011.488644768367521, 2802524.480727494228631 ], [ 365510.343670048634522, 2800667.436101387254894 ], [ 364441.171865041716956, 2800678.142317095305771 ], [ 364190.689145811833441, 2799749.677500219549984 ], [ 363121.485861595894676, 2799760.484600315801799 ], [ 362620.700011806213297, 2797903.669689150992781 ], [ 359412.901016795658506, 2797936.69563839957118 ], [ 359663.340002871584147, 2798865.041445651557297 ], [ 358594.096036411705427, 2798876.203688845969737 ], [ 358343.628539487835951, 2797947.873788962606341 ], [ 357274.352950207481626, 2797959.136692450381815 ], [ 357524.848964323115069, 2798887.450712361373007 ], [ 356455.59876312117558, 2798898.782517721410841 ], [ 356706.20222173264483, 2799827.108089562505484 ], [ 358844.642436221183743, 2799804.56103294622153 ], [ 359345.971935896086507, 2801661.35813018027693 ], [ 360415.130315597576555, 2801650.243728258647025 ], [ 361167.630614858935587, 2804435.693703618831933 ], [ 360098.557903256383725, 2804446.760085347574204 ], [ 359596.755031456588767, 2802589.797921534627676 ], [ 356389.34695793222636, 2802623.602512335404754 ], [ 356640.294653932913207, 2803552.021968550048769 ], [ 353432.943988102022558, 2803586.543000620324165 ], [ 353935.247743793996051, 2805443.368974935263395 ], [ 355004.31060031108791, 2805431.808784178923815 ], [ 355255.552271014661528, 2806360.278851815965027 ], [ 356324.583334193448536, 2806348.819570289924741 ], [ 356073.370278398040682, 2805420.333573198411614 ], [ 363556.700997655338142, 2805342.386400870513171 ], [ 363054.911723350640386, 2803485.272754424717277 ] ] ], [ [ [ 395323.554751883493736, 2839523.269842893816531 ], [ 396391.474376501224469, 2839514.890576964709908 ], [ 396138.258061932516284, 2838584.906956835184246 ], [ 395070.30967711150879, 2838593.303670587949455 ], [ 395323.554751883493736, 2839523.269842893816531 ] ] ], [ [ [ 382709.662665981973987, 2844289.160130900796503 ], [ 383777.469285991974175, 2844279.749103428795934 ], [ 384031.53211954748258, 2845209.679571100510657 ], [ 386167.080056453472935, 2845191.150344526395202 ], [ 385659.148601089022122, 2843331.249073314946145 ], [ 383523.485139589873143, 2843349.847272804472595 ], [ 383269.579682555515319, 2842419.974059452768415 ], [ 381133.848363215569407, 2842438.950895459856838 ], [ 381387.811580105219036, 2843368.789792992640287 ], [ 380319.970955755212344, 2843378.390176537912339 ], [ 379812.065462311671581, 2841518.775151680689305 ], [ 380879.963856096146628, 2841509.140554938931018 ], [ 380626.158060955815017, 2840579.35875169467181 ], [ 381694.082736355252564, 2840569.793079083785415 ], [ 381440.384511172655039, 2839640.022709948942065 ], [ 380372.430980008444749, 2839649.605466010048985 ], [ 379865.212969524494838, 2837790.18436850560829 ], [ 378797.199145937222056, 2837799.8871487993747 ], [ 378543.679386082221754, 2836870.23629294661805 ], [ 376407.586133491364308, 2836889.933521140832454 ], [ 377422.368405288783833, 2840608.57177692418918 ], [ 376354.433233021060005, 2840618.481458849273622 ], [ 377116.433426532777958, 2843407.707836562301964 ], [ 378184.281902114395052, 2843397.849197009112686 ], [ 378946.904012377257459, 2846187.383260972332209 ], [ 380014.663087988388725, 2846177.662015105597675 ], [ 379760.405915767885745, 2845247.771655630320311 ], [ 382963.754394544870593, 2845219.073386404663324 ], [ 382709.662665981973987, 2844289.160130900796503 ] ] ], [ [ [ 388355.1815788121894, 2841444.107085238210857 ], [ 387287.300781357800588, 2841453.13951392704621 ], [ 387541.012137958838139, 2842383.053009937983006 ], [ 388608.864098679274321, 2842374.03786996146664 ], [ 388355.1815788121894, 2841444.107085238210857 ] ] ], [ [ [ 387997.250808851153124, 2847972.134122960735112 ], [ 389064.931959086970892, 2847963.13692837394774 ], [ 389573.534391452092677, 2849823.395069376099855 ], [ 390641.155330674140714, 2849814.518969034776092 ], [ 391150.014466261782218, 2851674.927421927917749 ], [ 392217.575205822649878, 2851666.17260584095493 ], [ 392726.690966248570476, 2853526.731747500132769 ], [ 393794.191517433733679, 2853518.098405779339373 ], [ 394303.563824241398834, 2855378.808613491710275 ], [ 396438.442312868544832, 2855361.871686948463321 ], [ 395420.243535873247311, 2851640.426073511596769 ], [ 396487.795093281194568, 2851632.01653085462749 ], [ 395216.95924905751599, 2846980.773444211110473 ], [ 396284.652931875782087, 2846972.362137457821518 ], [ 395269.514179832476657, 2843251.817879380192608 ], [ 396337.320919352117926, 2843243.422541399486363 ], [ 395830.280666392412968, 2841383.288550626952201 ], [ 393694.549712391628418, 2841400.235203364863992 ], [ 394709.175021905975882, 2845120.478644949384034 ], [ 392573.665427781641483, 2845137.62980809668079 ], [ 391812.405583762796596, 2842347.508724280167371 ], [ 390744.560798431164585, 2842356.26572833256796 ], [ 390998.264291259692982, 2843286.259912206791341 ], [ 389930.445970769855194, 2843295.085596450604498 ], [ 389676.713644453673624, 2842365.10877649532631 ], [ 388608.864098679274321, 2842374.03786996146664 ], [ 389370.383526024350431, 2845164.002496081870049 ], [ 388302.618130099028349, 2845172.965648347977549 ], [ 388810.748704591067508, 2847033.051064022816718 ], [ 387743.038656837888993, 2847042.065641511231661 ], [ 387997.250808851153124, 2847972.134122960735112 ] ] ] ] } }
]
}
