{
"type": "FeatureCollection",
"name": "urban-1975",
"crs": { "type": "name", "properties": { "name": "urn:ogc:def:crs:EPSG::32640" } },
"features": [
{ "type": "Feature", "properties": { "year": 1975 }, "geometry": { "type": "MultiPolygon", "coordinates": [ [ [ [ 315128.101009737118147, 2764965.958589967340231 ], [ 316198.512554782791995, 2764951.539527061861008 ], [ 315701.745263287331909, 2763097.82402859814465 ], [ 316772.209478363627568, 2763083.460145563352853 ], [ 317268.920022791891824, 2764937.204286429099739 ], [ 319409.722822694689967, 2764908.785264190286398 ], [ 318664.946043443866074, 2762128.122132215183228 ], [ 314382.983841410372406, 2762185.467359124682844 ], [ 314631.276957993162796, 2763112.271679298020899 ], [ 313560.804538720520213, 2763126.803099629934877 ], [ 313809.205311090219766, 2764053.619246953167021 ], [ 310597.848318136646412, 2764097.673538859467953 ], [ 310846.413584235007875, 2765024.473103729076684 ], [ 307635.104042564402334, 2765069.239220194518566 ], [ 307386.453503562777769, 2764142.482074968051165 ], [ 302034.043022455647588, 2764218.839216196443886 ], [ 302780.659532133722678, 2766998.977868249639869 ], [ 304921.465916424873285, 2766968.267618290148675 ], [ 305170.439859302772675, 2767895.060420726891607 ], [ 307311.171994858887047, 2767864.713972942903638 ], [ 306813.417344065092038, 2766011.09795729117468 ], [ 315376.63194072956685, 2765892.841217223089188 ], [ 315128.101009737118147, 2764965.958589967340231 ] ], [ [ 305742.996490225952584, 2766026.257432767190039 ], [ 305494.209719244274311, 2765099.502485899720341 ], [ 306564.659026291512419, 2765084.328932876233011 ], [ 306813.417344065092038, 2766011.09795729117468 ], [ 305742.996490225952584, 2766026.257432767190039 ] ] ], [ [ [ 328534.54410466121044, 2790845.818460918497294 ], [ 328785.121954467962496, 2791773.5296311955899 ], [ 327715.556667783879675, 2791787.102304894477129 ], [ 327214.422908700420521, 2789931.736723529640585 ], [ 326144.79660080751637, 2789945.423949786927551 ], [ 325894.31987070874311, 2789017.796192171983421 ], [ 328033.625876938342117, 2788990.476378118153661 ], [ 327783.285503257007804, 2788062.845428084488958 ], [ 326713.605820465600118, 2788076.478023462928832 ], [ 326463.316033204027917, 2787148.888707072474062 ], [ 324323.888016669079661, 2787176.437172462232411 ], [ 323823.431675068335608, 2785321.397955254185945 ], [ 324893.204759745509364, 2785307.551792902871966 ], [ 324643.123944922932424, 2784380.057257364969701 ], [ 325712.921724205021746, 2784366.280667895451188 ], [ 325462.948645839816891, 2783438.797895853407681 ], [ 323323.292118572746404, 2783466.465087281540036 ], [ 323073.341140010161325, 2782539.038487601093948 ], [ 322003.478489733650349, 2782553.013379893265665 ], [ 322503.516758719459176, 2784407.863608526531607 ], [ 320363.893911657622084, 2784436.007535260636359 ], [ 319863.741380515275523, 2782581.216184146236628 ], [ 317723.98836897185538, 2782609.756360746920109 ], [ 317974.082169217290357, 2783537.109481046907604 ], [ 319043.93209708633367, 2783522.811861486639827 ], [ 319544.300249879888725, 2785377.626816810574383 ], [ 320614.08901633892674, 2785363.442965791560709 ], [ 321114.716893388307653, 2787218.393430014606565 ], [ 322184.444512386224233, 2787204.323533714283258 ], [ 323186.536386971594766, 2790914.60269368859008 ], [ 324256.145621935778763, 2790900.676680603064597 ], [ 325008.460208897595294, 2793683.710677000228316 ], [ 326077.979651068220846, 2793669.914092588704079 ], [ 326579.861316471418831, 2795525.433733758982271 ], [ 327649.319618319277652, 2795511.751863854005933 ], [ 327900.350540954386815, 2796439.566919486038387 ], [ 328969.776389265491161, 2796425.984849286731333 ], [ 329220.857800673460588, 2797353.841838422697037 ], [ 330290.251223029161338, 2797340.359640564303845 ], [ 330541.383109604066703, 2798268.2586490069516 ], [ 331610.744133559172042, 2798254.876396153122187 ], [ 331861.926481681875885, 2799182.817509745247662 ], [ 334000.58011853788048, 2799156.337859523482621 ], [ 333749.455107002868317, 2798228.366272312123328 ], [ 334818.805103481572587, 2798215.238397730048746 ], [ 334567.787854042951949, 2797287.278521365951747 ], [ 336706.534263538662344, 2797261.246539948973805 ], [ 336957.494233431643806, 2798189.237014340702444 ], [ 338026.833413891610689, 2798176.363502007443458 ], [ 337775.902074040146545, 2797248.357687576673925 ], [ 338845.266319715010468, 2797235.553591760806739 ], [ 338343.698098166380078, 2795379.592356464825571 ], [ 341551.941263861604966, 2795341.596236844547093 ], [ 340800.439162122434936, 2792557.718835695181042 ], [ 339730.942584334581625, 2792570.345622272230685 ], [ 340231.922062992234714, 2794426.206123596988618 ], [ 335954.128888361621648, 2794477.437097816728055 ], [ 336204.851588874938898, 2795405.346600573975593 ], [ 334065.990674373460934, 2795431.439659116789699 ], [ 333815.210748396813869, 2794503.560635489877313 ], [ 334884.671634035767056, 2794490.45652764197439 ], [ 334633.999427101109177, 2793562.589211114682257 ], [ 336772.967522417893633, 2793536.604533498641104 ], [ 336271.974761074932758, 2791680.88975432747975 ], [ 339480.571437316306401, 2791642.455872396472842 ], [ 338980.066338539938442, 2789786.757279890123755 ], [ 335771.298365392663982, 2789825.282639298122376 ], [ 336021.597016464686021, 2790753.072748210746795 ], [ 334952.029048066702671, 2790766.06842619786039 ], [ 334701.701839055516757, 2789838.293498949613422 ], [ 333632.101672477379907, 2789851.388898124918342 ], [ 334132.892330917879008, 2791706.935301653109491 ], [ 333063.345651408017147, 2791720.084968411829323 ], [ 332812.882186471892055, 2790792.31348455697298 ], [ 328534.54410466121044, 2790845.818460918497294 ] ], [ [ 334316.849710298236459, 2796359.345614786725491 ], [ 333247.44242379697971, 2796372.503985533025116 ], [ 332996.554756380035542, 2795444.613248218316585 ], [ 334065.990674373460934, 2795431.439659116789699 ], [ 334316.849710298236459, 2796359.345614786725491 ] ], [ [ 333313.888234790181741, 2792647.883308972697705 ], [ 332244.366476386436261, 2792661.102434329222888 ], [ 331993.795297553529963, 2791733.319232944399118 ], [ 333063.345651408017147, 2791720.084968411829323 ], [ 333313.888234790181741, 2792647.883308972697705 ] ], [ [ 332495.016780550708063, 2793588.912491453811526 ], [ 331425.51994173694402, 2793602.201112101320177 ], [ 331174.841026602836791, 2792674.406186595093459 ], [ 332244.366476386436261, 2792661.102434329222888 ], [ 332495.016780550708063, 2793588.912491453811526 ] ] ], [ [ [ 338780.101884016068652, 2800960.543310036417097 ], [ 338277.843830259866081, 2799104.396364609710872 ], [ 336139.219172095530666, 2799130.197482538409531 ], [ 336641.59184915717924, 2800986.282924115192145 ], [ 335572.331464662100188, 2800999.280034469906241 ], [ 336075.077861526689958, 2802855.442987816408277 ], [ 335005.871247865899932, 2802868.494274791330099 ], [ 336012.428007940412499, 2806581.08370498334989 ], [ 337081.519753020722419, 2806568.094045748002827 ], [ 337333.327942133764736, 2807496.324660753365606 ], [ 338402.387383626832161, 2807483.435520873870701 ], [ 338654.245912727899849, 2808411.708818029612303 ], [ 339723.273078007041477, 2808398.920270380564034 ], [ 339975.181933389976621, 2809327.23633590573445 ], [ 341044.176849803538062, 2809314.548453391995281 ], [ 341548.174234403355513, 2811171.293588812928647 ], [ 342617.108179390081204, 2811158.7220901818946 ], [ 342869.196683696762193, 2812087.151285407599062 ], [ 345006.996765540214255, 2812062.295195723883808 ], [ 344754.965759701735806, 2811133.834586872253567 ], [ 345823.889441819861531, 2811121.518578822724521 ], [ 346075.891708092414774, 2812049.994935539551079 ], [ 347144.783282917458564, 2812037.779862903989851 ], [ 346640.915218038600869, 2810180.823012939188629 ], [ 345571.966185989615042, 2810193.06961609935388 ], [ 345320.121942753146868, 2809264.648028256371617 ], [ 346389.099689864495303, 2809252.385689753107727 ], [ 346137.363167400704697, 2808323.975742284208536 ], [ 347206.366250479244627, 2808311.782764773350209 ], [ 346954.737426442094147, 2807383.38445107312873 ], [ 343747.631952589610592, 2807420.265700913965702 ], [ 342992.961384412599728, 2804635.375729132909328 ], [ 344062.085990628460422, 2804622.950044188182801 ], [ 343810.715868032653816, 2803694.69230495300144 ], [ 344879.865715889493003, 2803682.335972744505852 ], [ 344628.603272764536086, 2802754.089878975879401 ], [ 345697.778363804565743, 2802741.802862980868667 ], [ 345446.623577803024091, 2801813.568408044986427 ], [ 344377.419850366190076, 2801825.871027498971671 ], [ 344126.315450833935756, 2800897.679399304557592 ], [ 343057.07967447116971, 2800910.082459794357419 ], [ 343308.212707814062014, 2801838.258531766943634 ], [ 341169.788083501742221, 2801863.288201475981623 ], [ 341421.057453750341665, 2802791.460406773723662 ], [ 339282.676218237320427, 2802816.798675396945328 ], [ 339031.349517136579379, 2801888.65743074612692 ], [ 337962.124947018572129, 2801901.469384508673102 ], [ 337710.848647784558125, 2800973.370683220680803 ], [ 338780.101884016068652, 2800960.543310036417097 ] ], [ [ 338213.480323253199458, 2802829.595189871266484 ], [ 337144.280878835590556, 2802842.476626762188971 ], [ 336892.89682098699268, 2801914.366233333945274 ], [ 337962.124947018572129, 2801901.469384508673102 ], [ 338213.480323253199458, 2802829.595189871266484 ] ], [ [ 337395.744020570011344, 2803770.614123351871967 ], [ 337647.286244053393602, 2804698.778742073569447 ], [ 336578.14063000731403, 2804711.714274334721267 ], [ 336326.569700382300653, 2803783.565079950261861 ], [ 337395.744020570011344, 2803770.614123351871967 ] ] ], [ [ [ 395929.185758533130866, 2853501.090842898003757 ], [ 394861.689773839665577, 2853509.551437962800264 ], [ 394352.689717547385953, 2851648.921932795550674 ], [ 393285.133615224796813, 2851657.504109852481633 ], [ 393030.722571433871053, 2850727.250378930475563 ], [ 394098.307583046436775, 2850718.650627770461142 ], [ 393844.004047288093716, 2849788.408261195290834 ], [ 391708.773904324683826, 2849805.729135012254119 ], [ 392472.09377978683915, 2852596.437707851175219 ], [ 393539.623264636611566, 2852587.786778822075576 ], [ 394048.838371381512843, 2854448.439010679256171 ], [ 395116.307691156805959, 2854439.90967801772058 ], [ 395371.004198270500638, 2855370.296936352271587 ], [ 396438.442312868544832, 2855361.871686948463321 ], [ 395929.185758533130866, 2853501.090842898003757 ] ] ] ] } }
]
}
