{
"type": "FeatureCollection",
"name": "urban-2075",
"crs": { "type": "name", "properties": { "name": "urn:ogc:def:crs:EPSG::32640" } },
"features": [
{ "type": "Feature", "properties": { "year": 2075 }, "geometry": { "type": "MultiPolygon", "coordinates": [ [ [ [ 302924.311977332283277, 2747465.275888577569276 ], [ 300782.339966550469398, 2747496.067216815426946 ], [ 301029.618729899986647, 2748422.332329847384244 ], [ 303171.53418164519826, 2748391.568444636650383 ], [ 302924.311977332283277, 2747465.275888577569276 ] ] ], [ [ [ 301029.618729899986647, 2748422.332329847384244 ], [ 299958.654364221845753, 2748437.839298501145095 ], [ 300206.040813489991706, 2749364.116328626405448 ], [ 301276.976880686706863, 2749348.623059959616512 ], [ 301029.618729899986647, 2748422.332329847384244 ] ] ], [ [ [ 306055.405203408794478, 2751140.252513158135116 ], [ 307126.262812867644243, 2751125.203847905620933 ], [ 306878.887375507678371, 2750198.79272622615099 ], [ 307949.768966237432323, 2750183.813581371679902 ], [ 307455.312635158479679, 2748331.040824125520885 ], [ 308526.246460721711628, 2748316.117271514609456 ], [ 308279.165537616354413, 2747389.755630503408611 ], [ 309350.123332144168671, 2747374.901515969540924 ], [ 308856.255914105684496, 2745522.227680081501603 ], [ 307785.241673779324628, 2745537.109534172341228 ], [ 307538.398737177543808, 2744610.825042560230941 ], [ 306467.3519935188815, 2744625.803965154569596 ], [ 306714.223146201111376, 2745552.074643324129283 ], [ 305643.200307479070034, 2745567.123009576927871 ], [ 305890.1790316956467, 2746493.405561183113605 ], [ 304819.180096246767789, 2746508.523408349137753 ], [ 305066.266414496058132, 2747434.817840066272765 ], [ 303995.291380675858818, 2747450.00520539842546 ], [ 304242.48531545966398, 2748376.311523885000497 ], [ 303171.53418164519826, 2748391.568444636650383 ], [ 303418.835755473875906, 2749317.886656543239951 ], [ 302347.908520059310831, 2749333.213169964961708 ], [ 302842.806365183321759, 2751185.899066605605185 ], [ 301771.931336315814406, 2751201.281443896237761 ], [ 302019.527637029881589, 2752127.649133996106684 ], [ 300948.676519040483981, 2752143.101186322513968 ], [ 301196.380533259245567, 2753069.480788440443575 ], [ 303338.021699438453652, 2753038.687726760748774 ], [ 303090.374347203003708, 2752112.280542165972292 ], [ 305232.054639484500512, 2752081.793731630314142 ], [ 305479.645356381312013, 2753008.228607814759016 ], [ 306550.450678488414269, 2752993.124271672219038 ], [ 306055.405203408794478, 2751140.252513158135116 ] ] ], [ [ [ 305975.064838765771128, 2754861.175676561892033 ], [ 305479.645356381312013, 2753008.228607814759016 ], [ 304408.835704644210637, 2753023.416425487492234 ], [ 304904.311842607450671, 2754876.335717082023621 ], [ 305975.064838765771128, 2754861.175676561892033 ] ] ], [ [ [ 301939.968884098285343, 2755848.773797641973943 ], [ 300869.226752224727534, 2755864.254194691311568 ], [ 301117.276675192057155, 2756790.722831237595528 ], [ 302187.990430212579668, 2756775.256262256763875 ], [ 301939.968884098285343, 2755848.773797641973943 ] ] ], [ [ [ 298975.835875018150546, 2756821.906774564646184 ], [ 296834.377195915672928, 2756853.425139222759753 ], [ 297330.942456195421983, 2758706.329342865385115 ], [ 299472.28748047206318, 2758674.866025419905782 ], [ 299224.021976431889925, 2757748.373539529275149 ], [ 300294.716200295952149, 2757732.753559242002666 ], [ 299798.480191564769484, 2755879.818165549077094 ], [ 298727.729178298613988, 2755895.465712335892022 ], [ 298975.835875018150546, 2756821.906774564646184 ] ] ], [ [ [ 294941.200212519965135, 2757811.68980812234804 ], [ 295189.579416134860367, 2758738.127316943369806 ], [ 294118.891080687346403, 2758754.151805626228452 ], [ 294367.378171347663738, 2759680.601280124858022 ], [ 297579.344215094693936, 2759632.819985874928534 ], [ 297330.942456195421983, 2758706.329342865385115 ], [ 296260.263200037064962, 2758722.186496747191995 ], [ 296011.912431378150359, 2757795.735284557100385 ], [ 294941.200212519965135, 2757811.68980812234804 ] ] ], [ [ [ 312567.994295373209752, 2759419.798971500713378 ], [ 314709.161871887976304, 2759390.70612678816542 ], [ 314461.214201103546657, 2758463.991772405803204 ], [ 315531.820126748643816, 2758449.556624796241522 ], [ 315283.980046138400212, 2757522.854087725281715 ], [ 312072.06491051055491, 2757566.452927448321134 ], [ 312567.994295373209752, 2759419.798971500713378 ] ] ], [ [ [ 311745.516255455440842, 2760361.168734519742429 ], [ 312816.077925127872732, 2760346.510971045121551 ], [ 312567.994295373209752, 2759419.798971500713378 ], [ 311497.404272762476467, 2759434.47088649077341 ], [ 311745.516255455440842, 2760361.168734519742429 ] ] ], [ [ [ 298325.025982005288824, 2762412.44629805162549 ], [ 297254.46052845538361, 2762428.248334635514766 ], [ 297503.208413657033816, 2763354.828132417052984 ], [ 298573.745394142984878, 2763339.03992389049381 ], [ 298325.025982005288824, 2762412.44629805162549 ] ] ], [ [ [ 296930.457945043686777, 2765223.909412612207234 ], [ 298000.942433275631629, 2765208.065061551053077 ], [ 297503.208413657033816, 2763354.828132417052984 ], [ 296432.666938980226405, 2763370.700143589638174 ], [ 296930.457945043686777, 2765223.909412612207234 ] ] ], [ [ [ 298748.139054633677006, 2767988.114063036628067 ], [ 298997.363411297963466, 2768914.848765383008868 ], [ 300067.729365083971061, 2768899.14393516164273 ], [ 299818.533535291440785, 2767972.395287584979087 ], [ 298748.139054633677006, 2767988.114063036628067 ] ] ], [ [ [ 301387.33758496621158, 2769810.311609679833055 ], [ 301138.090888643229846, 2768883.523069064598531 ], [ 300067.729365083971061, 2768899.14393516164273 ], [ 300317.004590551077854, 2769825.918483717367053 ], [ 301387.33758496621158, 2769810.311609679833055 ] ] ], [ [ [ 300566.359209613641724, 2770752.718951574061066 ], [ 300317.004590551077854, 2769825.918483717367053 ], [ 299246.667172608198598, 2769841.609349151607603 ], [ 299496.050336483400315, 2770768.395832655951381 ], [ 300566.359209613641724, 2770752.718951574061066 ] ] ], [ [ [ 302457.666179568273947, 2769794.788724917452782 ], [ 301387.33758496621158, 2769810.311609679833055 ], [ 301636.66366591269616, 2770737.126089162193239 ], [ 302706.963729088078253, 2770721.617243301589042 ], [ 302457.666179568273947, 2769794.788724917452782 ] ] ], [ [ [ 327333.277606858755462, 2798308.914193119388074 ], [ 326263.901550663635135, 2798322.635642466135323 ], [ 326515.227354464121163, 2799250.501050418242812 ], [ 327584.574706442828756, 2799236.794687532819808 ], [ 327333.277606858755462, 2798308.914193119388074 ] ] ], [ [ [ 329723.258073619683273, 2799209.636447564698756 ], [ 328653.918271665694192, 2799223.173153863754123 ], [ 328905.265829091076739, 2800151.095650612842292 ], [ 329974.576930906157941, 2800137.574105276260525 ], [ 329723.258073619683273, 2799209.636447564698756 ] ] ], [ [ [ 328087.406397050071973, 2801092.636301337741315 ], [ 329156.692539903509896, 2801079.045054770074785 ], [ 328905.265829091076739, 2800151.095650612842292 ], [ 327835.95097054814687, 2800164.70205065375194 ], [ 328087.406397050071973, 2801092.636301337741315 ] ] ], [ [ [ 316212.172151594888419, 2728691.828459098003805 ], [ 315140.698399107903242, 2728706.046221235767007 ], [ 315385.884129673941061, 2729632.046746967826039 ], [ 312171.521915034099948, 2729675.155217544641346 ], [ 312416.87093319860287, 2730601.140013741794974 ], [ 313488.301167297642678, 2730586.701501377858222 ], [ 313733.701455369242467, 2731512.725630618166178 ], [ 314805.099496470065787, 2731498.383715479169041 ], [ 314559.727224098111037, 2730572.345789419021457 ], [ 315631.149127603333909, 2730558.072875904385 ], [ 315876.493390840594657, 2731484.124626082833856 ], [ 316947.88316247559851, 2731469.948360483162105 ], [ 316212.172151594888419, 2728691.828459098003805 ] ] ], [ [ [ 334143.118726738379337, 2751702.887640594970435 ], [ 338425.99906432221178, 2751651.925240931101143 ], [ 338672.71529941924382, 2752578.803301842417568 ], [ 339743.398226332501508, 2752566.285928951110691 ], [ 339250.10103132983204, 2750712.526709655299783 ], [ 336037.872812682995573, 2750750.417277762666345 ], [ 335791.25853433762677, 2749823.621205850038677 ], [ 333649.698619414004497, 2749849.327638543210924 ], [ 334143.118726738379337, 2751702.887640594970435 ] ] ], [ [ [ 349954.701035460224375, 2762679.718334573786706 ], [ 349460.059095895150676, 2760825.166084070689976 ], [ 350530.461265940335579, 2760813.451482445001602 ], [ 350036.19151152233826, 2758958.975760651752353 ], [ 351106.646610550349578, 2758947.314522837288678 ], [ 350612.74897340987809, 2757092.915282255038619 ], [ 351683.256963759253267, 2757081.307375198230147 ], [ 350943.08703128201887, 2754299.86313131917268 ], [ 349872.49480968323769, 2754311.516293224878609 ], [ 350119.167222521384247, 2755238.622664752416313 ], [ 349048.599735732830595, 2755250.344249792397022 ], [ 349295.379207787103951, 2756177.462182373274118 ], [ 348224.836453723604791, 2756189.252227411605418 ], [ 347978.028891857131384, 2755262.14932503644377 ], [ 346907.454667080193758, 2755274.037892091087997 ], [ 347648.198641108523589, 2758055.381345492787659 ], [ 346577.705346311733592, 2758067.308421109803021 ], [ 346083.740798214857932, 2756213.082876638974994 ], [ 340730.941355469636619, 2756274.121170990169048 ], [ 340978.024779522558674, 2757201.146089970134199 ], [ 343119.098732742597349, 2757176.509935421869159 ], [ 343860.654361492604949, 2759957.833113587927073 ], [ 342790.203605785558466, 2759970.064639179967344 ], [ 343037.575047758989967, 2760897.210526951123029 ], [ 341967.148979894642252, 2760909.510754871647805 ], [ 342462.185353177308571, 2762763.852340205106884 ], [ 340321.435477174003609, 2762788.644102674908936 ], [ 340569.128657053806819, 2763715.824866143986583 ], [ 341639.477135672874283, 2763703.402062969282269 ], [ 341887.221142982481979, 2764630.624357130844146 ], [ 342957.537886100588366, 2764618.30029211519286 ], [ 342709.822100735851564, 2763691.063011048361659 ], [ 343780.163575993734412, 2763678.807708700653166 ], [ 343532.555034967022948, 2762751.582043136004359 ], [ 349954.701035460224375, 2762679.718334573786706 ] ] ], [ [ [ 339331.4533576729591, 2759080.186389047186822 ], [ 336119.963389073032886, 2759118.180016949772835 ], [ 336614.965529247419909, 2760972.266940908506513 ], [ 339826.286293217446655, 2760934.362214908003807 ], [ 339331.4533576729591, 2759080.186389047186822 ] ] ], [ [ [ 337110.284025734406896, 2762826.459692594595253 ], [ 336039.893010238884017, 2762839.232348407618701 ], [ 336287.699131992063485, 2763766.353625347372144 ], [ 337358.061902348999865, 2763753.595800144132227 ], [ 337110.284025734406896, 2762826.459692594595253 ] ] ], [ [ [ 330113.500274137419183, 2764771.71883750660345 ], [ 329043.139878277317621, 2764785.048359750304371 ], [ 329291.302204551175237, 2765712.119318904355168 ], [ 330361.63429193792399, 2765698.804474981036037 ], [ 330113.500274137419183, 2764771.71883750660345 ] ] ], [ [ [ 337605.918861743411981, 2764680.758420219644904 ], [ 336535.584345519077033, 2764693.501395273953676 ], [ 336287.699131992063485, 2763766.353625347372144 ], [ 335217.332729322486557, 2763779.1952103683725 ], [ 335465.246203439543024, 2764706.328157491516322 ], [ 334394.904411761206575, 2764719.238708617165685 ], [ 334891.025214978144504, 2766573.554447820875794 ], [ 335961.310445569339208, 2766560.67354625929147 ], [ 336209.461209380708169, 2767487.886025017593056 ], [ 337279.71451572974911, 2767475.103848515544087 ], [ 337031.592039489478339, 2766547.876488293055445 ], [ 339172.144412237044889, 2766522.533896196167916 ], [ 338428.421064142952673, 2763740.921733024064451 ], [ 337358.061902348999865, 2763753.595800144132227 ], [ 337605.918861743411981, 2764680.758420219644904 ] ] ], [ [ [ 333820.736323982360773, 2766586.519194730557501 ], [ 331680.147465855348855, 2766612.70023165922612 ], [ 332176.754551769350655, 2768467.033153715543449 ], [ 333246.994198846223298, 2768453.930274573154747 ], [ 333495.388100754178595, 2769381.151269503869116 ], [ 337776.196716200327501, 2769329.638289296999574 ], [ 337527.91607533430215, 2768402.357775985728949 ], [ 336457.691065550141502, 2768415.125051453709602 ], [ 336209.461209380708169, 2767487.886025017593056 ], [ 334068.943682329612784, 2767513.701992591843009 ], [ 333820.736323982360773, 2766586.519194730557501 ] ] ], [ [ [ 342056.947834433056414, 2769279.468091674614698 ], [ 340986.765362253179774, 2769291.884761232882738 ], [ 340738.569599372742232, 2768364.559321988373995 ], [ 339668.355318528308999, 2768377.074912972282618 ], [ 340413.264647195814177, 2771159.086172212380916 ], [ 342553.519927993183956, 2771134.229097237810493 ], [ 342305.194360687979497, 2770206.835243731737137 ], [ 343375.345051771670114, 2770194.517568212002516 ], [ 342878.987598140607588, 2768339.779812555294484 ], [ 341808.780351338617038, 2768352.127622412983328 ], [ 342056.947834433056414, 2769279.468091674614698 ] ] ], [ [ [ 341980.338914284249768, 2773001.453336767386645 ], [ 341731.82695541891735, 2772074.021132793743163 ], [ 339591.621264640125446, 2772099.016060865949839 ], [ 339840.189874382223934, 2773026.418130069505423 ], [ 341980.338914284249768, 2773001.453336767386645 ] ] ], [ [ [ 335559.84907611424569, 2773077.356109449174255 ], [ 335808.610162719036452, 2774004.724857461173087 ], [ 336878.672397825168446, 2773991.879273138940334 ], [ 336629.939674695720896, 2773064.495561200659722 ], [ 335559.84907611424569, 2773077.356109449174255 ] ] ], [ [ [ 309930.767306186025962, 2757595.936856427695602 ], [ 311001.418208941933699, 2757581.153087024576962 ], [ 310753.544131968170404, 2756654.5330989966169 ], [ 311824.219159559113905, 2756639.818846334703267 ], [ 311328.765550998039544, 2754786.628474501427263 ], [ 314540.935421186732128, 2754742.902480790857226 ], [ 314293.412425421120133, 2753816.303885575383902 ], [ 315364.155704945325851, 2753801.881453029811382 ], [ 315116.740249319933355, 2752875.294673083815724 ], [ 317258.271014423517045, 2752846.671947343274951 ], [ 317010.99131808639504, 2751920.08281631115824 ], [ 314869.404063201625831, 2751948.733834051061422 ], [ 314622.1471486663213, 2751022.198917669244111 ], [ 313551.319104846101254, 2751036.663665364030749 ], [ 313304.113227142835967, 2750110.168719596229494 ], [ 311162.388165892800316, 2750139.376499869860709 ], [ 311656.992208739859052, 2751992.336136506870389 ], [ 310586.179902637610212, 2752007.037118793930858 ], [ 310833.629147395375185, 2752933.541701420675963 ], [ 309762.840905419434421, 2752948.312131906393915 ], [ 310010.397745706199203, 2753874.828562434762716 ], [ 308939.633566216914915, 2753889.668478284962475 ], [ 309187.298024516552687, 2754816.196763374842703 ], [ 307045.813518586335704, 2754846.099172138143331 ], [ 307541.493707136192825, 2756699.177360262721777 ], [ 306470.801705469086301, 2756714.225955199915916 ], [ 306222.893600112642162, 2755787.687905534170568 ], [ 305152.168945193348918, 2755802.834028319921345 ], [ 304904.311842607450671, 2754876.335717082023621 ], [ 302762.792805979028344, 2754906.906414682976902 ], [ 303010.706611004949082, 2755833.376972293946892 ], [ 304081.439956764283124, 2755818.063716548494995 ], [ 304329.404769181855954, 2756744.573919128160924 ], [ 302187.990430212579668, 2756775.256262256763875 ], [ 302436.091354128904641, 2757701.764487970620394 ], [ 300294.716200295952149, 2757732.753559242002666 ], [ 300542.953296189836692, 2758659.259857571683824 ], [ 301613.614679359365255, 2758643.737347469199449 ], [ 302110.270214029762428, 2760496.854975982569158 ], [ 301039.665660680620931, 2760512.349748241249472 ], [ 301288.140925134182908, 2761438.933377034030855 ], [ 300217.560387647943571, 2761454.497990711126477 ], [ 299969.056688151322305, 2760527.928232792299241 ], [ 297827.825390410318505, 2760559.336347269359976 ], [ 298325.025982005288824, 2762412.44629805162549 ], [ 299395.586958425818011, 2762396.728034696076065 ], [ 299893.048249140498228, 2764249.968807817436755 ], [ 298822.544214410299901, 2764265.65934101305902 ], [ 299071.42244073364418, 2765192.304567671846598 ], [ 298000.942433275631629, 2765208.065061551053077 ], [ 298249.928563545050565, 2766134.722229406703264 ], [ 300390.827128208242357, 2766103.312897169962525 ], [ 300639.835658185882494, 2767030.023731122259051 ], [ 302780.659532133722678, 2766998.977868249639869 ], [ 303029.690450635389425, 2767925.742573841940612 ], [ 301959.30920956202317, 2767941.209545109421015 ], [ 302457.666179568273947, 2769794.788724917452782 ], [ 303527.990398073976394, 2769779.349827317055315 ], [ 303777.25942285079509, 2770706.192411880940199 ], [ 305917.83779696712736, 2770675.594783980865031 ], [ 305668.625801655405667, 2769748.723985215649009 ], [ 306738.937034161994234, 2769733.537036547902972 ], [ 307237.383352982869837, 2771587.332985217217356 ], [ 308307.633299115230329, 2771572.25838558236137 ], [ 308806.339919225254562, 2773426.18707672925666 ], [ 309876.528593377675861, 2773411.225011570844799 ], [ 310125.972360776737332, 2774338.242823750711977 ], [ 309055.812213970872108, 2774353.190607949160039 ], [ 309305.363829059060663, 2775280.220287510193884 ], [ 310375.495439539197832, 2775265.286803881637752 ], [ 310625.09782757377252, 2776192.356970423366874 ], [ 309554.994762401096523, 2776207.276133864186704 ], [ 309804.705011903424747, 2777134.358165469486266 ], [ 308734.626296663773246, 2777149.34718419611454 ], [ 309234.341884597553872, 2779003.561193109955639 ], [ 310304.363451027311385, 2778988.600858335383236 ], [ 310804.33912968437653, 2780842.948514021001756 ], [ 311874.299333579081576, 2780828.10124607430771 ], [ 312374.535027603153139, 2782682.58290849160403 ], [ 313444.433883200865239, 2782667.848893206566572 ], [ 313194.304990446777083, 2781740.580418993718922 ], [ 314264.228323704679497, 2781725.916246221400797 ], [ 314014.207302524650004, 2780798.659614950418472 ], [ 316154.098843877145555, 2780769.555176870897412 ], [ 316654.10584078845568, 2782624.152968517038971 ], [ 317723.98836897185538, 2782609.756360746920109 ], [ 318224.255214923759922, 2784464.489052853547037 ], [ 319294.076556299813092, 2784450.206094237044454 ], [ 319794.603175718686543, 2786305.074047840666026 ], [ 320864.363344284123741, 2786290.904924492351711 ], [ 321114.716893388307653, 2787218.393430014606565 ], [ 320044.985331711184699, 2787232.547805974725634 ], [ 320545.987325721129309, 2789087.574978188611567 ], [ 321615.661646631313488, 2789073.45015619834885 ], [ 321866.252846551942639, 2790001.018414224497974 ], [ 320796.607159521081485, 2790015.128429619129747 ], [ 321047.306215036311187, 2790942.708482850342989 ], [ 323186.536386971594766, 2790914.60269368859008 ], [ 323938.936917142826132, 2793697.591928522568196 ], [ 325008.460208897595294, 2793683.710677000228316 ], [ 325259.390113216242753, 2794611.442122870124876 ], [ 323120.396994640119374, 2794639.259402071125805 ], [ 323873.833926141145639, 2797422.524427644908428 ], [ 327082.059673920564819, 2797381.060548570472747 ], [ 327333.277606858755462, 2798308.914193119388074 ], [ 329472.01836283277953, 2798281.725698233582079 ], [ 329723.258073619683273, 2799209.636447564698756 ], [ 330792.594135795719922, 2799196.18456680001691 ], [ 331043.884299475001171, 2800124.137412809766829 ], [ 332113.187958280206658, 2800110.785571391694248 ], [ 332364.528561227023602, 2801038.780599980615079 ], [ 331295.253598516923375, 2801052.11720591597259 ], [ 331798.22959417081438, 2802908.157708994112909 ], [ 333936.661014393146615, 2802881.630489457398653 ], [ 334188.210266980167944, 2803809.721854726783931 ], [ 335257.391790337336715, 2803796.600989819969982 ], [ 335508.991432596987579, 2804724.734787217807025 ], [ 334439.838628374563996, 2804737.840282486751676 ], [ 334943.332669046940282, 2806594.158401302993298 ], [ 336012.428007940412499, 2806581.08370498334989 ], [ 336264.26493675110396, 2807509.29886331083253 ], [ 337333.327942133764736, 2807496.324660753365606 ], [ 337585.21521346597001, 2808424.582453965675086 ], [ 338654.245912727899849, 2808411.708818029612303 ], [ 338906.183512883842923, 2809340.009332331828773 ], [ 339975.181933389976621, 2809327.23633590573445 ], [ 340227.16984865849372, 2810255.579657546244562 ], [ 341296.136017746117432, 2810242.90737354522571 ], [ 341800.291497628204525, 2812099.70711827557534 ], [ 342869.196683696762193, 2812087.151285407599062 ], [ 343121.364223394426517, 2813015.607833876274526 ], [ 344190.237210077932104, 2813003.15290667489171 ], [ 344694.75183696433669, 2814860.179625873453915 ], [ 345763.56387840770185, 2814847.841457749716938 ], [ 347026.08925518731121, 2819490.967828466091305 ], [ 349163.415340426261537, 2819466.706118941772729 ], [ 349416.09978931362275, 2820395.445838787127286 ], [ 350484.72907281469088, 2820383.459074764046818 ], [ 350232.073431976197753, 2819454.703372365795076 ], [ 352369.379829598765355, 2819430.954087463207543 ], [ 352621.977873575291596, 2820359.741837118752301 ], [ 353690.597437483316753, 2820348.01136028720066 ], [ 353943.245636300067417, 2821276.842860599979758 ], [ 352874.654870265396312, 2821288.557252686470747 ], [ 353380.245713124633767, 2823146.271158678922802 ], [ 352311.709372634126339, 2823158.03883075946942 ], [ 352564.652045883180108, 2824086.921242259908468 ], [ 351496.141322561074048, 2824098.758335434831679 ], [ 352508.816966584476177, 2827814.500843633431941 ], [ 353577.212248145136982, 2827802.728311729151756 ], [ 354337.461323790776078, 2830589.875450031366199 ], [ 355405.76675953832455, 2830578.23728045867756 ], [ 355659.312092939275317, 2831507.358296003192663 ], [ 356727.585485038929619, 2831495.822160894982517 ], [ 357234.855107577750459, 2833354.180577313061804 ], [ 358303.067573798529338, 2833342.762923414818943 ], [ 357035.629860237473622, 2828696.994554631412029 ], [ 358103.983669322915375, 2828685.580906092189252 ], [ 358357.28452401724644, 2829614.695062318816781 ], [ 359425.606383697420824, 2829603.38343074079603 ], [ 358666.027093293494545, 2826816.075660584960133 ], [ 356529.207165110856295, 2826838.882503463421017 ], [ 356276.114195601432584, 2825909.868249509949237 ], [ 357344.554550069384277, 2825898.405760882422328 ], [ 357091.569332514132839, 2824969.403089015744627 ], [ 356023.10014769458212, 2824980.881817486137152 ], [ 355770.165023560868576, 2824051.923188037704676 ], [ 357907.157914737123065, 2824029.018823889549822 ], [ 358160.035402646870352, 2824958.009920263197273 ], [ 360296.958292010705918, 2824935.480255756992847 ], [ 359538.735331916192081, 2822148.492808255366981 ], [ 361675.818743696669117, 2822126.207426267210394 ], [ 361170.846280986559577, 2820268.28985951282084 ], [ 362239.4409522547503, 2820257.242746202740818 ], [ 361987.10177816869691, 2819328.309427943546325 ], [ 363055.7221743586706, 2819317.331416925415397 ], [ 362803.490596197487321, 2818388.40963433124125 ], [ 361734.841477516922168, 2818399.403936614748091 ], [ 361482.66005247150315, 2817470.52625288721174 ], [ 358276.608308927854523, 2817504.069967688526958 ], [ 358024.419610437820666, 2816575.268661481328309 ], [ 356955.700805925414898, 2816586.636711146682501 ], [ 357460.214576451457106, 2818444.234748563729227 ], [ 356391.550127910741139, 2818455.65585983870551 ], [ 356643.954136219108477, 2819384.480305910110474 ], [ 355575.315312312915921, 2819395.970656718593091 ], [ 355322.882543383631855, 2818467.162337501998991 ], [ 354254.211799531069119, 2818478.754183111246675 ], [ 353749.525546685908921, 2816621.252726646605879 ], [ 354818.253797402605414, 2816609.628742172848433 ], [ 355070.528704358439427, 2817538.381705741398036 ], [ 356139.225040459423326, 2817526.859121246263385 ], [ 355634.811636788886972, 2815669.348689417820424 ], [ 358841.054235898656771, 2815635.196174076292664 ], [ 358085.284414762863889, 2812848.993116438388824 ], [ 360222.936137257376686, 2812826.554272683802992 ], [ 359971.22801138664363, 2811897.843029377516359 ], [ 362108.92481646023225, 2811875.712633108254522 ], [ 361857.352875213720836, 2810946.996772482991219 ], [ 362926.225378115661442, 2810936.043134921230376 ], [ 362674.76094009220833, 2810007.33880150783807 ], [ 363743.659065198386088, 2809996.454105462413281 ], [ 363492.302108143398073, 2809067.761292525567114 ], [ 364561.225857165176421, 2809056.945501660462469 ], [ 364309.976358828833327, 2808128.264202452730387 ], [ 366447.872159579535946, 2808106.855406837537885 ], [ 366196.758673692471348, 2807178.169398667756468 ], [ 367265.730744285683613, 2807167.576328718103468 ], [ 367014.724657289800234, 2806238.901813264936209 ], [ 364876.720457089715637, 2806260.20539214881137 ], [ 364625.736092020233627, 2805331.590973079670221 ], [ 365694.768218881683424, 2805320.880511484108865 ], [ 365443.891254284477327, 2804392.277594023849815 ], [ 367582.003778010082897, 2804371.079169066622853 ], [ 367331.262718842714094, 2803442.471555342432112 ], [ 366262.179393253987655, 2803453.044490953907371 ], [ 365510.343670048634522, 2800667.436101387254894 ], [ 366579.512522937962785, 2800656.814711914397776 ], [ 366078.739898598752916, 2798799.848289262037724 ], [ 365009.514072722871788, 2798810.5018819142133 ], [ 364508.999870041618124, 2796953.677915899083018 ], [ 362370.425389174488373, 2796975.303499922156334 ], [ 362120.229637587442994, 2796046.964796124491841 ], [ 359981.586105541791767, 2796068.961130620911717 ], [ 360231.838811024208553, 2796997.267962057609111 ], [ 358093.239947599417064, 2797019.57131421752274 ], [ 358343.628539487835951, 2797947.873788962606341 ], [ 357274.352950207481626, 2797959.136692450381815 ], [ 357023.935850160080008, 2797030.850077831186354 ], [ 355954.628610905259848, 2797042.213568502105772 ], [ 356205.074225462856703, 2797970.484350389335304 ], [ 355135.792341759311967, 2797981.91676431754604 ], [ 354885.318206333438866, 2797053.661787771619856 ], [ 353816.004612944961991, 2797065.194737192708999 ], [ 353565.58089359162841, 2796136.982865320518613 ], [ 352496.235563309513964, 2796148.616277187131345 ], [ 352746.687807241920382, 2797076.812418328598142 ], [ 351677.367765721748583, 2797088.514832755550742 ], [ 351176.485179443261586, 2795232.181225209031254 ], [ 353315.236119688837789, 2795208.798301147297025 ], [ 353064.970293378690258, 2794280.641025658231229 ], [ 356273.158055897511076, 2794246.154475186485797 ], [ 356023.056633587519173, 2793317.977291255723685 ], [ 357092.474673345335759, 2793306.635285440366715 ], [ 356842.480638834356796, 2792378.469650606159121 ], [ 357911.923991544055752, 2792367.196472336072475 ], [ 358411.934053988545202, 2794223.586668544914573 ], [ 360550.697596731362864, 2794201.357429195195436 ], [ 360300.710024496889673, 2793273.116957611870021 ], [ 363508.917717534699477, 2793240.36013249726966 ], [ 363009.349802124896087, 2791383.866009713616222 ], [ 364078.803158397902735, 2791373.08439807780087 ], [ 363829.165899065323174, 2790444.862548990640789 ], [ 364898.644658057950437, 2790434.149547423236072 ], [ 364649.114643014152534, 2789505.939188917167485 ], [ 362510.097350193653256, 2789527.48152959253639 ], [ 362260.589428397244774, 2788599.330357952974737 ], [ 360121.503240372985601, 2788621.242353098001331 ], [ 359373.282473444647621, 2785837.047641893848777 ], [ 358303.649618966737762, 2785848.177603855263442 ], [ 358054.372121947060805, 2784920.182952125556767 ], [ 356984.707771935034543, 2784931.412991350516677 ], [ 356735.480820123339072, 2784003.461223385762423 ], [ 355665.78494733228581, 2784014.791266881860793 ], [ 355416.608554566279054, 2783086.882296913303435 ], [ 354346.881131725036539, 2783098.312271715607494 ], [ 354097.755311826127581, 2782170.4460140154697 ], [ 353027.996311642345972, 2782181.975847186055034 ], [ 352778.921078424085863, 2781254.152216069400311 ], [ 342080.86488598753931, 2781374.24043317977339 ], [ 341333.261755070532672, 2778591.391869908664376 ], [ 340263.352130488608964, 2778603.909742669202387 ], [ 340014.280792985344306, 2777676.362345718313009 ], [ 341084.218806685646996, 2777663.829328766558319 ], [ 340835.254909454961307, 2776736.293579704593867 ], [ 339765.288515641528647, 2776748.841721187345684 ], [ 339516.375300573825371, 2775821.347850367426872 ], [ 340586.370065496768802, 2775808.784604005515575 ], [ 339840.189874382223934, 2773026.418130069505423 ], [ 337700.026658145419788, 2773051.719049710780382 ], [ 337948.731024264590815, 2773979.117752922698855 ], [ 336878.672397825168446, 2773991.879273138940334 ], [ 337127.484207568573765, 2774919.289643473923206 ], [ 336057.450344935641624, 2774932.120244243182242 ], [ 335808.610162719036452, 2774004.724857461173087 ], [ 332598.40156864002347, 2774043.766012574546039 ], [ 333096.331366117578, 2775898.493811483960599 ], [ 332026.311265376512893, 2775911.645901803858578 ], [ 331528.324662106344476, 2774056.947870892938226 ], [ 330458.244028526067268, 2774070.213802160695195 ], [ 330209.341027339920402, 2773142.919463655445725 ], [ 329139.228240628144704, 2773156.284269568044692 ], [ 328144.294164212013129, 2769447.430953808128834 ], [ 329214.520470622461289, 2769434.007144382689148 ], [ 328966.01320395845687, 2768506.845230402424932 ], [ 330036.264078042295296, 2768493.490629831328988 ], [ 329787.864306532195769, 2767566.340435424353927 ], [ 330858.139750005560927, 2767553.055006802547723 ], [ 330609.847451260313392, 2766625.916525240056217 ], [ 329539.543681335286237, 2766639.216671290807426 ], [ 329291.302204551175237, 2765712.119318904355168 ], [ 328220.966331597825047, 2765725.517989775631577 ], [ 327972.775690344860777, 2764798.461681612767279 ], [ 326902.407686592661776, 2764811.95880491938442 ], [ 327150.626649337704293, 2765739.000489419326186 ], [ 326080.283134032040834, 2765752.566819668747485 ], [ 325832.035843275079969, 2764825.539731506258249 ], [ 324761.660136646474712, 2764839.204463220201433 ], [ 325258.290573695208877, 2766693.255816561169922 ], [ 324187.967671137535945, 2766706.975252334494144 ], [ 323691.28054295910988, 2764852.953001922462136 ], [ 322620.897038468276151, 2764866.78534948406741 ], [ 322869.22935244825203, 2765793.768812570720911 ], [ 321798.870267565129325, 2765807.670483816880733 ], [ 322793.105053322855383, 2769515.809136598370969 ], [ 320652.602096220012754, 2769543.748041128739715 ], [ 319906.636846336594317, 2766762.691649240907282 ], [ 318836.294217826914974, 2766776.830421396065503 ], [ 318587.769207490608096, 2765849.878544872626662 ], [ 319658.140218827291392, 2765835.725348059553653 ], [ 319409.722822694689967, 2764908.785264190286398 ], [ 320480.118202082172502, 2764894.70147871831432 ], [ 319735.426470774225891, 2762113.995166650507599 ], [ 320805.902896371320821, 2762099.951933688949794 ], [ 320557.859102772024926, 2761173.087798917200416 ], [ 322698.856673748232424, 2761145.223677948582917 ], [ 322203.1199661513092, 2759291.516309454105794 ], [ 321132.566564614535309, 2759305.435333225876093 ], [ 320884.78874013281893, 2758378.635285702068359 ], [ 319814.20307344844332, 2758392.652306783478707 ], [ 320062.009189225442242, 2759319.438003845978528 ], [ 317920.88242173573235, 2759347.694293267093599 ], [ 317673.01970368262846, 2758420.937215195503086 ], [ 315531.820126748643816, 2758449.556624796241522 ], [ 316027.73808392661158, 2760303.03981098625809 ], [ 312816.077925127872732, 2760346.510971045121551 ], [ 313064.240843657054938, 2761273.248980024829507 ], [ 311993.707535896508489, 2761287.892572491895407 ], [ 311745.516255455440842, 2760361.168734519742429 ], [ 310674.950404441682622, 2760375.910189704038203 ], [ 309930.767306186025962, 2757595.936856427695602 ] ], [ [ 357016.453909055038821, 2812860.340333628933877 ], [ 356764.659767671953887, 2811931.677379669621587 ], [ 355695.797449923004024, 2811943.125837435014546 ], [ 355192.388581053353846, 2810085.914771972689778 ], [ 358399.138143930351362, 2810051.728677081875503 ], [ 358650.717133482103236, 2810980.368510397616774 ], [ 357581.832397248770576, 2810991.662703133653849 ], [ 358085.284414762863889, 2812848.993116438388824 ], [ 357016.453909055038821, 2812860.340333628933877 ] ], [ [ 354953.635426596913021, 2793329.403914561029524 ], [ 354703.584459718549624, 2792401.269774368498474 ], [ 355773.034136070637032, 2792389.827417437452823 ], [ 356023.056633587519173, 2793317.977291255723685 ], [ 354953.635426596913021, 2793329.403914561029524 ] ], [ [ 334166.34777646989096, 2775885.425847000442445 ], [ 334664.537218704237603, 2777740.290015816688538 ], [ 333594.577637155773118, 2777753.328079066239297 ], [ 333096.331366117578, 2775898.493811483960599 ], [ 334166.34777646989096, 2775885.425847000442445 ] ], [ [ 332275.42325914587127, 2776839.034804233815521 ], [ 331205.42786724306643, 2776852.256136062089354 ], [ 330956.287450584641192, 2775924.882119747810066 ], [ 332026.311265376512893, 2775911.645901803858578 ], [ 332275.42325914587127, 2776839.034804233815521 ] ], [ [ 319487.354352385387756, 2761187.145413518883288 ], [ 319239.361466831236612, 2760260.3218051684089 ], [ 320309.894533028942533, 2760246.249828432220966 ], [ 320557.859102772024926, 2761173.087798917200416 ], [ 319487.354352385387756, 2761187.145413518883288 ] ], [ [ 318168.824385770247318, 2760274.477459886111319 ], [ 318416.845593700476456, 2761201.28673341171816 ], [ 316275.815956331847701, 2761229.820496784057468 ], [ 316027.73808392661158, 2760303.03981098625809 ], [ 318168.824385770247318, 2760274.477459886111319 ] ], [ [ 360285.51283290493302, 2809100.719143622089177 ], [ 360536.955647960014176, 2810029.363518027588725 ], [ 359468.048434133059345, 2810040.503541484475136 ], [ 359216.576987074920908, 2809111.875258448068053 ], [ 360285.51283290493302, 2809100.719143622089177 ] ], [ [ 357896.216879415907897, 2808194.531833994667977 ], [ 358147.638058521552011, 2809123.116458013188094 ], [ 357078.696023837197572, 2809134.442743840627372 ], [ 356827.246209068340249, 2808205.874136449769139 ], [ 357896.216879415907897, 2808194.531833994667977 ] ], [ [ 356592.565522231569048, 2791450.331326680723578 ], [ 356342.729325679829344, 2790522.220294667873532 ], [ 357412.22956461715512, 2790510.915598967112601 ], [ 357662.037322568939999, 2791439.042379800230265 ], [ 356592.565522231569048, 2791450.331326680723578 ] ], [ [ 356912.850790343480185, 2788654.743896447122097 ], [ 353704.169973230571486, 2788689.005737000610679 ], [ 353204.936388536822051, 2786833.036966925952584 ], [ 355344.17378276924137, 2786810.048706219997257 ], [ 355593.69427772477502, 2787738.0507603129372 ], [ 358802.441328294342384, 2787704.248638481367379 ], [ 359051.955536324006971, 2788632.325059292372316 ], [ 357982.404727501329035, 2788643.49223990412429 ], [ 358232.026242784806527, 2789571.580190955661237 ], [ 360371.067946263938211, 2789549.361859646160156 ], [ 360620.711540375545155, 2790477.508699247147888 ], [ 357412.22956461715512, 2790510.915598967112601 ], [ 356912.850790343480185, 2788654.743896447122097 ] ], [ [ 348427.277457070595119, 2785024.29062471492216 ], [ 348177.8233744262252, 2784096.463193262927234 ], [ 349247.542028241790831, 2784084.542733239941299 ], [ 349496.967697208980098, 2785012.385610928758979 ], [ 351636.338244577986188, 2784988.828713823109865 ], [ 352135.312850226298906, 2786844.657737508416176 ], [ 348926.422587601351552, 2786880.026629138272256 ], [ 349176.113631230371539, 2787807.935239850543439 ], [ 348106.505362992233131, 2787819.878257616888732 ], [ 347856.785872238571756, 2786891.985124977771193 ], [ 345717.50235831795726, 2786916.155424322932959 ], [ 345967.278762539790478, 2787844.017682930920273 ], [ 344897.660383184207603, 2787856.214093755465001 ], [ 344148.482836365466937, 2785072.754485932644457 ], [ 345218.186587747361045, 2785060.511946438346058 ], [ 344968.64722565113334, 2784132.730689470656216 ], [ 346038.375996729359031, 2784120.55716974241659 ], [ 346287.886925930914003, 2785048.353790836408734 ], [ 348427.277457070595119, 2785024.29062471492216 ] ], [ [ 346609.373369276174344, 2782252.924967812839895 ], [ 346858.697869336348958, 2783180.682994610164315 ], [ 345788.944076809566468, 2783192.787531240843236 ], [ 345539.591168295242824, 2782265.04485650639981 ], [ 346609.373369276174344, 2782252.924967812839895 ] ], [ [ 331382.460081348428503, 2781502.756438390817493 ], [ 329242.735208393773064, 2781529.471125611104071 ], [ 328494.108140094554983, 2778747.163754673209041 ], [ 327424.154606291092932, 2778760.692111920099705 ], [ 327174.74209455261007, 2777833.324312233366072 ], [ 329314.702300376608036, 2777806.322155124507844 ], [ 329564.057884766254574, 2778733.719614303670824 ], [ 331703.94610128714703, 2778707.083976903464645 ], [ 331953.323914455366321, 2779634.537838730961084 ], [ 330883.410133504192345, 2779647.798633072059602 ], [ 331382.460081348428503, 2781502.756438390817493 ] ], [ [ 325034.766611514729448, 2777860.663234906736761 ], [ 324536.065241634089034, 2776006.066209060139954 ], [ 325606.111837655189447, 2775992.325187192764133 ], [ 325855.394466454978101, 2776919.625182921532542 ], [ 326925.408750968403183, 2776905.983049102593213 ], [ 327174.74209455261007, 2777833.324312233366072 ], [ 325034.766611514729448, 2777860.663234906736761 ] ], [ [ 326676.154577646288089, 2775978.668303915299475 ], [ 327746.193485272000544, 2775965.095557370688766 ], [ 327995.419209648040123, 2776892.425079344306141 ], [ 326925.408750968403183, 2776905.983049102593213 ], [ 326676.154577646288089, 2775978.668303915299475 ] ], [ [ 327247.979528734053019, 2774110.516051757149398 ], [ 327497.046924265450798, 2775037.79255437431857 ], [ 324286.833341167075559, 2775078.807395537383854 ], [ 324037.680633151088841, 2774151.575023512821645 ], [ 325107.78412622900214, 2774137.804616272915155 ], [ 324858.739047807350289, 2773210.584003928117454 ], [ 328069.11167300271336, 2773169.733124717604369 ], [ 328318.071485516265966, 2774096.997890772297978 ], [ 327247.979528734053019, 2774110.516051757149398 ] ] ], [ [ [ 357592.699487519974355, 2795163.048563884105533 ], [ 357342.547623621532694, 2794234.828250193037093 ], [ 356273.158055897511076, 2794246.154475186485797 ], [ 356523.338400860317051, 2795174.358988242223859 ], [ 357592.699487519974355, 2795163.048563884105533 ] ] ], [ [ [ 355453.974159677745774, 2795185.754084872547537 ], [ 354384.606740458402783, 2795197.233855322469026 ], [ 354885.318206333438866, 2797053.661787771619856 ], [ 355954.628610905259848, 2797042.213568502105772 ], [ 355453.974159677745774, 2795185.754084872547537 ] ] ], [ [ [ 365315.447455709567294, 2811843.155764625407755 ], [ 364246.609553891699761, 2811853.922892633825541 ], [ 364498.203081198036671, 2812782.698905384168029 ], [ 365567.012349182157777, 2812771.948038259986788 ], [ 365315.447455709567294, 2811843.155764625407755 ] ] ], [ [ [ 352874.654870265396312, 2821288.557252686470747 ], [ 352621.977873575291596, 2820359.741837118752301 ], [ 351553.355093127116561, 2820371.557741411030293 ], [ 351806.06089408963453, 2821300.357099622022361 ], [ 352874.654870265396312, 2821288.557252686470747 ] ] ], [ [ [ 361365.41515781742055, 2824924.343756956979632 ], [ 360296.958292010705918, 2824935.480255756992847 ], [ 360549.8570567201823, 2825864.531811554450542 ], [ 361618.285117624909617, 2825853.411662206985056 ], [ 361365.41515781742055, 2824924.343756956979632 ] ] ], [ [ [ 370671.118919870757964, 2827626.014905040618032 ], [ 371739.463158906786703, 2827615.698184951208532 ], [ 371486.694571227766573, 2826686.425675051752478 ], [ 372555.064777076069731, 2826676.177913996390998 ], [ 372302.403732807491906, 2825746.916883064433932 ], [ 373370.799907119828276, 2825736.738044901285321 ], [ 373118.246384040510748, 2824807.48848621873185 ], [ 370981.393775765376631, 2824827.965003887191415 ], [ 371234.004776117857546, 2825757.181287857703865 ], [ 370165.603013771236874, 2825767.531260669697076 ], [ 369912.963265364407562, 2824838.331572909839451 ], [ 365639.212638616620097, 2824880.653283101506531 ], [ 365386.536677302094176, 2823951.547689254395664 ], [ 364318.062987384444568, 2823962.358421496115625 ], [ 364823.551302345469594, 2825820.564694394823164 ], [ 363755.132217156526167, 2825831.428105113096535 ], [ 364008.023444391554222, 2826760.556754053104669 ], [ 365076.413734630565159, 2826749.709795110393316 ], [ 365582.3751379015157, 2828608.084022234659642 ], [ 366650.704884676844813, 2828597.355685997754335 ], [ 366397.713567405822687, 2827668.138042266946286 ], [ 367466.069211502792314, 2827657.478816594928503 ], [ 367719.031728333153296, 2828586.713007149752229 ], [ 370923.995073188678361, 2828555.298900612164289 ], [ 370671.118919870757964, 2827626.014905040618032 ] ] ], [ [ [ 355394.765433112741448, 2770992.139817654620856 ], [ 356464.847850437625311, 2770980.84477297635749 ], [ 356216.889572201063856, 2770053.252529446501285 ], [ 355146.778940074029379, 2770064.562999155838042 ], [ 355394.765433112741448, 2770992.139817654620856 ] ] ], [ [ [ 361737.316744054842275, 2774647.391681679524481 ], [ 361985.556634058360942, 2775575.181354896631092 ], [ 364125.405033680726774, 2775553.671033789869398 ], [ 363629.11701347050257, 2773698.056160042993724 ], [ 364699.093117479467764, 2773687.395708414725959 ], [ 364451.095596029888839, 2772759.613329167477787 ], [ 362311.08396958746016, 2772781.049580521415919 ], [ 362063.108919049031101, 2771853.325635958928615 ], [ 358852.983946679742076, 2771886.156724915839732 ], [ 358357.101307596778497, 2770030.88335915049538 ], [ 359427.202458265819587, 2770019.824655523058027 ], [ 359179.407683387747966, 2769092.212987653445452 ], [ 357039.145865331520326, 2769114.445263209287077 ], [ 356543.680309075047262, 2767259.364675614517182 ], [ 355473.488289799075574, 2767270.637461424339563 ], [ 356216.889572201063856, 2770053.252529446501285 ], [ 357286.997020141454414, 2770042.025983287487179 ], [ 357534.927089910663199, 2770969.633679234888405 ], [ 356464.847850437625311, 2770980.84477297635749 ], [ 356961.001170337200165, 2772836.110203899908811 ], [ 361241.073598026996478, 2772791.893702810164541 ], [ 361489.15573133493308, 2773719.629137266427279 ], [ 360419.170505861926358, 2773730.541665792930871 ], [ 360667.359744153101929, 2774658.288597100879997 ], [ 361737.316744054842275, 2774647.391681679524481 ] ] ], [ [ [ 382731.824840106070042, 2780962.727595541626215 ], [ 384871.23416585981613, 2780944.438554890919477 ], [ 384623.085518059728201, 2780016.164938296191394 ], [ 382483.619857967598364, 2780034.486550147179514 ], [ 382731.824840106070042, 2780962.727595541626215 ] ] ], [ [ [ 389971.705498777213506, 2779971.83424676489085 ], [ 388901.986456091282889, 2779980.532008425798267 ], [ 388654.029050762939733, 2779052.220635102596134 ], [ 384375.015554078738205, 2779087.918957930989563 ], [ 384623.085518059728201, 2780016.164938296191394 ], [ 385692.814514903759118, 2780007.130420935340226 ], [ 386189.134167269163299, 2781863.737982710823417 ], [ 389398.137207519437652, 2781837.237919449340552 ], [ 389150.022509063594043, 2780908.871096833609045 ], [ 390219.713418387225829, 2780900.189771768637002 ], [ 389971.705498777213506, 2779971.83424676489085 ] ] ], [ [ [ 364223.264769890753087, 2783926.512325444258749 ], [ 364721.400714614777826, 2785782.663663084153086 ], [ 365791.015321683138609, 2785772.040023185778409 ], [ 366040.173235993366688, 2786700.172612905036658 ], [ 368179.336943291069474, 2786679.210352761670947 ], [ 367681.21324788313359, 2784822.908837651833892 ], [ 366611.576219632115681, 2784833.37964684329927 ], [ 366362.604304936889093, 2783905.285904868505895 ], [ 364223.264769890753087, 2783926.512325444258749 ] ] ], [ [ [ 378874.984936069697142, 2786579.463218661956489 ], [ 379944.534664030710701, 2786569.95268818968907 ], [ 380193.403495100210421, 2787498.322080137673765 ], [ 379123.882031604356598, 2787507.816337753087282 ], [ 379372.857857006893028, 2788436.197107713669538 ], [ 382581.329549862304702, 2788408.016551024280488 ], [ 381586.237681107711978, 2784694.463814896065742 ], [ 379447.033172997180372, 2784713.296839725691825 ], [ 379695.744555943936575, 2785641.610947757028043 ], [ 378626.166572561487556, 2785651.137731322553009 ], [ 378874.984936069697142, 2786579.463218661956489 ] ] ], [ [ [ 364649.114643014152534, 2789505.939188917167485 ], [ 366788.120013161795214, 2789484.734825927298516 ], [ 366538.725583878636826, 2788556.519995250273496 ], [ 365469.196013675420545, 2788567.095886130351573 ], [ 365219.85206591692986, 2787638.924424233380705 ], [ 364150.291171365766786, 2787649.60068936785683 ], [ 364649.114643014152534, 2789505.939188917167485 ] ] ], [ [ [ 383755.656838012509979, 2796774.295299889519811 ], [ 384255.148092787247151, 2798631.705885159317404 ], [ 383185.969074057822581, 2798640.918575418181717 ], [ 383435.861107142525725, 2799569.649181841872633 ], [ 385574.159856906568166, 2799551.34169194707647 ], [ 385824.073818864359055, 2800480.133401942905039 ], [ 389031.418060034862719, 2800453.357945241965353 ], [ 388781.589197541179601, 2799524.516254500951618 ], [ 389850.727395918569528, 2799515.743983130436391 ], [ 390100.527904225280508, 2800444.602389043197036 ], [ 394376.943392484914511, 2800410.428112857509404 ], [ 394127.256239608977921, 2799481.50257157580927 ], [ 393058.127574209356681, 2799489.935775707475841 ], [ 392808.490702779439744, 2798561.055158787872642 ], [ 396015.954692278115544, 2798535.959339121822268 ], [ 395267.770433816243894, 2795749.334754770621657 ], [ 396337.005350737774279, 2795741.088407916948199 ], [ 396087.796046332921833, 2794812.252927213441581 ], [ 390741.456815437821206, 2794854.414956263732165 ], [ 389993.876523717364762, 2792068.327631390653551 ], [ 392132.588873705477454, 2792051.10890756174922 ], [ 392381.647149110620376, 2792979.810036732349545 ], [ 393450.971501066640485, 2792971.344185270834714 ], [ 393201.941476715728641, 2792042.626362453680485 ], [ 394271.291729778284207, 2792034.228360345121473 ], [ 394022.368551729654428, 2791105.521820685826242 ], [ 391883.609217781340703, 2791122.435743022710085 ], [ 391634.708183511742391, 2790193.790523847099394 ], [ 393773.523977218894288, 2790176.843266020528972 ], [ 393524.758008417731617, 2789248.192677076905966 ], [ 394594.190597212233115, 2789239.829089964739978 ], [ 394345.531438893696759, 2788311.189778137952089 ], [ 396484.446063377894461, 2788294.682556606363505 ], [ 396235.921874841209501, 2787366.037810258567333 ], [ 395166.437533119227737, 2787374.265910669229925 ], [ 394917.963757351390086, 2786445.665816367603838 ], [ 393848.448927424266003, 2786453.99497625650838 ], [ 393600.025578614673577, 2785525.439447723794729 ], [ 389321.829889832239132, 2785559.666132870130241 ], [ 389818.980705843656324, 2787416.672468999866396 ], [ 390888.476832339656539, 2787408.022346012294292 ], [ 391137.141988619987387, 2788336.583844580221921 ], [ 390067.674074014881626, 2788345.217400415800512 ], [ 390316.446079407352954, 2789273.790199676528573 ], [ 389247.003970355086494, 2789282.491631489247084 ], [ 388998.203737887495663, 2788353.935391705483198 ], [ 385789.777964787906967, 2788380.595990184694529 ], [ 386287.626537126547191, 2790237.637250291183591 ], [ 387357.047779111657292, 2790228.69891949230805 ], [ 387606.061806400597561, 2791157.27779727615416 ], [ 388675.452311026165262, 2791148.440504582133144 ], [ 388924.516729678667616, 2792077.063812447246164 ], [ 386785.789785852946807, 2792094.789818769320846 ], [ 387284.267693626112305, 2793952.053849380463362 ], [ 384076.328326905146241, 2793979.177919539157301 ], [ 384824.890027067158371, 2796765.134245511610061 ], [ 383755.656838012509979, 2796774.295299889519811 ] ], [ [ 394096.950881574302912, 2787382.578413316048682 ], [ 393027.461896638968028, 2787390.975319327320904 ], [ 392778.931758003251161, 2786462.408512038178742 ], [ 393848.448927424266003, 2786453.99497625650838 ], [ 394096.950881574302912, 2787382.578413316048682 ] ], [ [ 388426.466541197500192, 2790219.845082643441856 ], [ 389495.882846928725485, 2790211.07573854457587 ], [ 389744.840365439362358, 2791139.687732099089772 ], [ 388675.452311026165262, 2791148.440504582133144 ], [ 388426.466541197500192, 2790219.845082643441856 ] ], [ [ 392060.051777016895358, 2795774.581710419151932 ], [ 392309.452802003128454, 2796703.378145480062813 ], [ 391240.236835584626533, 2796711.946388117969036 ], [ 390990.807511061080731, 2795783.166671134997159 ], [ 392060.051777016895358, 2795774.581710419151932 ] ], [ [ 389672.18185686232755, 2794863.101244083605707 ], [ 389921.560849090514239, 2795791.836288197897375 ], [ 388852.311767599894665, 2795800.590562782716006 ], [ 388602.904472629481461, 2794871.872161962557584 ], [ 389672.18185686232755, 2794863.101244083605707 ] ] ], [ [ [ 387393.198207231122069, 2802328.824153349269181 ], [ 386324.13775774766691, 2802337.80077954614535 ], [ 386574.287730317155365, 2803266.676485806703568 ], [ 387643.319779970683157, 2803257.716552094556391 ], [ 387393.198207231122069, 2802328.824153349269181 ] ] ], [ [ [ 382798.897791537456214, 2805161.067379575222731 ], [ 383049.397524883737788, 2806089.960521771106869 ], [ 384118.35433807305526, 2806080.710915285162628 ], [ 384619.532958656549454, 2807938.614611062221229 ], [ 385688.430314105236903, 2807929.483373447321355 ], [ 385187.30861176806502, 2806071.546278089284897 ], [ 387325.209634389553685, 2806053.471906609833241 ], [ 386574.287730317155365, 2803266.676485806703568 ], [ 385505.253192964068148, 2803275.721302737481892 ], [ 385255.074814400519244, 2802346.86226150393486 ], [ 383116.941352301510051, 2802365.239797625225037 ], [ 383867.883056436490733, 2805151.801130663603544 ], [ 382798.897791537456214, 2805161.067379575222731 ] ] ], [ [ [ 388644.592616952140816, 2806973.566914243157953 ], [ 388394.156430167611688, 2806044.562169878743589 ], [ 387325.209634389553685, 2806053.471906609833241 ], [ 387575.67425726458896, 2806982.459878779482096 ], [ 388644.592616952140816, 2806973.566914243157953 ] ] ], [ [ [ 365567.012349182157777, 2812771.948038259986788 ], [ 365818.656086019880604, 2813700.768103681970388 ], [ 366887.433776985970326, 2813690.118731789290905 ], [ 366635.818676724564284, 2812761.282358087133616 ], [ 365567.012349182157777, 2812771.948038259986788 ] ] ], [ [ [ 373048.596201963489875, 2812699.077122971881181 ], [ 374117.382601039891597, 2812689.007711671292782 ], [ 373866.046551709179766, 2811760.084363846573979 ], [ 372797.231569073454011, 2811770.170255411881953 ], [ 372545.945718339818995, 2810841.291300180833787 ], [ 365063.961407770868391, 2810914.391263492405415 ], [ 365315.447455709567294, 2811843.155764625407755 ], [ 366384.282410776708275, 2811832.47379615297541 ], [ 366635.818676724564284, 2812761.282358087133616 ], [ 367704.62208720529452, 2812750.701863422058523 ], [ 367956.208557190024294, 2813679.554572821594775 ], [ 370093.749478807440028, 2813658.681887950748205 ], [ 370597.044348181865644, 2815516.536506535019726 ], [ 371665.753286335035227, 2815506.260873718187213 ], [ 371414.095079775899649, 2814577.303151276893914 ], [ 372482.829836460528895, 2814567.09629520541057 ], [ 372231.27903784904629, 2813638.150037766899914 ], [ 373300.039614834415261, 2813628.011922200210392 ], [ 373048.596201963489875, 2812699.077122971881181 ] ], [ [ 370659.593231275852304, 2811790.597488882951438 ], [ 370911.015050072106533, 2812719.471478203311563 ], [ 368773.422604003921151, 2812740.206552832387388 ], [ 368521.943574207369238, 2811811.365332046989352 ], [ 370659.593231275852304, 2811790.597488882951438 ] ] ], [ [ [ 394738.174945314123761, 2825551.128239060286433 ], [ 393669.829529779730365, 2825559.596018262207508 ], [ 393921.91686512704473, 2826489.195687985047698 ], [ 392853.597759534604847, 2826497.73181564360857 ], [ 393610.41730290511623, 2829286.650474817492068 ], [ 394678.650473774294369, 2829278.166046461090446 ], [ 394931.052203486324288, 2830207.880014656111598 ], [ 395999.25442512560403, 2830199.49853839725256 ], [ 395242.370967634371482, 2827410.39058438455686 ], [ 396310.656851627514698, 2827402.042861081194133 ], [ 396058.548167621484026, 2826472.380137872416526 ], [ 394990.233660065685399, 2826480.745129108894616 ], [ 394738.174945314123761, 2825551.128239060286433 ] ] ], [ [ [ 393610.41730290511623, 2829286.650474817492068 ], [ 392542.18181651760824, 2829295.220555549487472 ], [ 392794.640878547448665, 2830224.900004459545016 ], [ 393862.847695708856918, 2830216.347169629298151 ], [ 393610.41730290511623, 2829286.650474817492068 ] ] ], [ [ [ 389279.983329267823137, 2833048.971482107881457 ], [ 388211.850771079363767, 2833057.901287266984582 ], [ 388464.767885029432364, 2833987.608967920765281 ], [ 389532.871706858160906, 2833978.696351945865899 ], [ 389785.838723213528283, 2834908.449803456664085 ], [ 388717.763646836625412, 2834917.345210064202547 ], [ 388970.838054287829436, 2835847.110033403616399 ], [ 387902.789320647949353, 2835856.074062237516046 ], [ 388155.971141339396127, 2836785.850264206994325 ], [ 390292.008663365675602, 2836768.042530372273177 ], [ 390038.884376120520756, 2835838.231856355443597 ], [ 391106.928309348470066, 2835829.439529892988503 ], [ 390095.332464848877862, 2832110.413940766360611 ], [ 389027.173592655570246, 2832119.275174238719046 ], [ 389279.983329267823137, 2833048.971482107881457 ] ] ], [ [ [ 391106.928309348470066, 2835829.439529892988503 ], [ 391360.023839117609896, 2836759.267481144983321 ], [ 392428.036655620555393, 2836750.578308793716133 ], [ 392174.969877172319684, 2835820.733052829280496 ], [ 391106.928309348470066, 2835829.439529892988503 ] ] ], [ [ [ 390641.155330674140714, 2849814.518969034776092 ], [ 391150.014466261782218, 2851674.927421927917749 ], [ 392217.575205822649878, 2851666.17260584095493 ], [ 392726.690966248570476, 2853526.731747500132769 ], [ 393794.191517433733679, 2853518.098405779339373 ], [ 394303.563824241398834, 2855378.808613491710275 ], [ 396438.442312868544832, 2855361.871686948463321 ], [ 395420.243535873247311, 2851640.426073511596769 ], [ 396487.795093281194568, 2851632.01653085462749 ], [ 395216.95924905751599, 2846980.773444211110473 ], [ 396284.652931875782087, 2846972.362137457821518 ], [ 395269.514179832476657, 2843251.817879380192608 ], [ 396337.320919352117926, 2843243.422541399486363 ], [ 395323.554751883493736, 2839523.269842893816531 ], [ 396391.474376501224469, 2839514.890576964709908 ], [ 395632.061181574303191, 2836725.026041317731142 ], [ 392428.036655620555393, 2836750.578308793716133 ], [ 393187.708665659360122, 2839540.286243443842977 ], [ 391051.85330896358937, 2839557.646476593334228 ], [ 390798.493132004397921, 2838627.749820732045919 ], [ 389730.533128372975625, 2838636.576187865808606 ], [ 390237.389698709361255, 2840496.363558687735349 ], [ 389169.484905056771822, 2840505.241273921914399 ], [ 388915.988496416306589, 2839575.350551718845963 ], [ 387848.05248626525281, 2839584.331533004064113 ], [ 388355.1815788121894, 2841444.107085238210857 ], [ 387287.300781357800588, 2841453.13951392704621 ], [ 387541.012137958838139, 2842383.053009937983006 ], [ 386473.157739137299359, 2842392.154197641182691 ], [ 386726.976602956827264, 2843322.079090686514974 ], [ 384591.318121015385259, 2843340.505133604630828 ], [ 384337.441534587997012, 2842410.614721152465791 ], [ 383269.579682555515319, 2842419.974059452768415 ], [ 383015.752917106787208, 2841490.129443616140634 ], [ 381947.859666640986688, 2841499.591986013576388 ], [ 381186.764993301592767, 2838710.280858893878758 ], [ 380118.782615460630041, 2838719.880678179208189 ], [ 379611.72204440436326, 2836860.516517309006304 ], [ 376407.586133491364308, 2836889.933521140832454 ], [ 376661.163581540691666, 2837819.550468649249524 ], [ 375593.141794354771264, 2837829.511010860558599 ], [ 375846.826853028964251, 2838759.139423010870814 ], [ 372642.831818517122883, 2838789.48595998249948 ], [ 372896.682284637296107, 2839719.092073796782643 ], [ 373964.654472324182279, 2839708.907479553949088 ], [ 374218.55481891828822, 2840638.558840982150286 ], [ 376354.433233021060005, 2840618.481458849273622 ], [ 376608.354549928975757, 2841548.195121873635799 ], [ 375540.445591592404526, 2841558.173843007534742 ], [ 375794.474561981565785, 2842487.898975669406354 ], [ 376862.354615167889278, 2842477.937241211533546 ], [ 377370.590981812449172, 2844337.506927632726729 ], [ 378438.41054032347165, 2844327.665342706255615 ], [ 378946.904012377257459, 2846187.383260972332209 ], [ 380014.663087988388725, 2846177.662015105597675 ], [ 379760.405915767885745, 2845247.771655630320311 ], [ 381895.974134335294366, 2845228.553338072262704 ], [ 382150.173467244952917, 2846158.478025143500417 ], [ 385353.419953067437746, 2846130.348275305237621 ], [ 385607.611247280205134, 2847060.353356633801013 ], [ 386675.326178772666026, 2847051.166405305732042 ], [ 386929.567234487796668, 2847981.21753132622689 ], [ 389064.931959086970892, 2847963.13692837394774 ], [ 389573.534391452092677, 2849823.395069376099855 ], [ 390641.155330674140714, 2849814.518969034776092 ] ], [ [ 394255.632855993579142, 2839531.73506467230618 ], [ 394508.985295263875742, 2840461.71257750550285 ], [ 393441.089886502712034, 2840470.246343189384788 ], [ 393187.708665659360122, 2839540.286243443842977 ], [ 394255.632855993579142, 2839531.73506467230618 ] ], [ [ 387794.802149763738271, 2843312.995184482075274 ], [ 388048.670814549492206, 2844242.966057348996401 ], [ 386980.87412885640515, 2844252.032661790959537 ], [ 386726.976602956827264, 2843322.079090686514974 ], [ 387794.802149763738271, 2843312.995184482075274 ] ], [ [ 385099.307332474098075, 2845200.371890893671662 ], [ 386167.080056453472935, 2845191.150344526395202 ], [ 386421.16378535318654, 2846121.144016314297915 ], [ 385353.419953067437746, 2846130.348275305237621 ], [ 385099.307332474098075, 2845200.371890893671662 ] ] ] ] } }
]
}
