{
"type": "FeatureCollection",
"name": "urban-1980",
"crs": { "type": "name", "properties": { "name": "urn:ogc:def:crs:EPSG::32643" } },
"features": [
{ "type": "Feature", "properties": { "year": 1980 }, "geometry": { "type": "MultiPolygon", "coordinates": [ [ [ [ 279356.386932083172724, 2065834.659560446627438 ], [ 279113.972258727299049, 2064923.352940661134198 ], [ 278025.4275868316181, 2064936.122183491941541 ], [ 277783.095726255793124, 2064024.840750556206331 ], [ 278871.661630201386288, 2064012.063349305652082 ], [ 278387.352515691891313, 2062189.535190833033994 ], [ 277298.74417232623091, 2062202.328853889834136 ], [ 277056.724482995574363, 2061291.098359680501744 ], [ 273790.800958106876351, 2061329.88027207669802 ], [ 274032.88431286776904, 2062241.086618992500007 ], [ 275121.510099226608872, 2062228.104566113790497 ], [ 275363.676300504128449, 2063139.33586265402846 ], [ 274275.071751413401216, 2063152.30987525661476 ], [ 274759.758871797472239, 2064974.807176672620699 ], [ 273671.190972682030406, 2064987.827935483772308 ], [ 274156.336950635886751, 2066810.376902224030346 ], [ 275244.862303135334514, 2066797.372298113070428 ], [ 275487.570130370673724, 2067708.680329450871795 ], [ 277664.560809744813014, 2067682.876218889374286 ], [ 277421.895532098191325, 2066771.551896284567192 ], [ 280687.40210974769434, 2066733.293281718157232 ], [ 280444.904634855920449, 2065821.961395926540717 ], [ 279356.386932083172724, 2065834.659560446627438 ] ], [ [ 275002.258549604972359, 2065886.081252270378172 ], [ 276090.799337514792569, 2065873.131470561493188 ], [ 276333.381820861250162, 2066784.430630087386817 ], [ 275244.862303135334514, 2066797.372298113070428 ], [ 275002.258549604972359, 2065886.081252270378172 ] ] ], [ [ [ 274399.066063521197066, 2067721.676828654482961 ], [ 273310.556140856468119, 2067734.736292965244502 ], [ 274039.431878993811551, 2070468.713683974929154 ], [ 276216.318034133175388, 2070442.706489124568179 ], [ 275973.297997887595557, 2069531.347409677226096 ], [ 277061.753655698848888, 2069518.430192983709276 ], [ 276818.858981969591696, 2068607.079976019915193 ], [ 274641.89925632433733, 2068632.993737460346892 ], [ 274399.066063521197066, 2067721.676828654482961 ] ] ], [ [ [ 280570.020900828298181, 2070391.448620894923806 ], [ 279481.603793936898001, 2070404.168527394998819 ], [ 279724.663983584556263, 2071315.56935185356997 ], [ 280813.059800863265991, 2071302.857732459902763 ], [ 280570.020900828298181, 2070391.448620894923806 ] ] ], [ [ [ 279724.663983584556263, 2071315.56935185356997 ], [ 278636.26245252287481, 2071328.344037546077743 ], [ 278393.180966035171878, 2070416.951473038876429 ], [ 277304.752388855093159, 2070429.797459665918723 ], [ 277547.855179418926127, 2071341.181791375391185 ], [ 275371.023294035112485, 2071367.046510841930285 ], [ 275614.272786306508351, 2072278.431501916842535 ], [ 274525.869451539823785, 2072291.450301512610167 ], [ 274769.244355885428376, 2073202.844163211528212 ], [ 275857.62634839490056, 2073189.833551806397736 ], [ 276588.31143333367072, 2075924.142207647440955 ], [ 277676.623559162020683, 2075911.219480931758881 ], [ 277432.979159432463348, 2074999.757891938090324 ], [ 278521.306875357171521, 2074986.890074989525601 ], [ 278277.787875360692851, 2074075.437329888576642 ], [ 279366.131186909158714, 2074062.624385006492957 ], [ 278879.447986178682186, 2072239.753700816072524 ], [ 279967.828212177264504, 2072226.987293495098129 ], [ 279724.663983584556263, 2071315.56935185356997 ] ] ], [ [ [ 278764.929922662209719, 2075898.359961815644056 ], [ 277676.623559162020683, 2075911.219480931758881 ], [ 277920.372012396226637, 2076822.698208561632782 ], [ 279008.657015249831602, 2076809.847005741205066 ], [ 278764.929922662209719, 2075898.359961815644056 ] ] ], [ [ [ 278164.224517108523287, 2077734.194090204080567 ], [ 277920.372012396226637, 2076822.698208561632782 ], [ 276832.081254464050289, 2076835.612646132474765 ], [ 277075.955135292606428, 2077747.100220157997683 ], [ 278164.224517108523287, 2077734.194090204080567 ] ] ], [ [ [ 275143.419744245009497, 2078684.590427404036745 ], [ 275387.544545299140736, 2079596.095710924826562 ], [ 276475.782701505115256, 2079583.079613675130531 ], [ 276719.990157322608866, 2080494.610350695904344 ], [ 277808.20111574413022, 2080481.665909310569987 ], [ 277319.933073800173588, 2078658.604945100145414 ], [ 276231.679307530750521, 2078671.566039864905179 ], [ 275743.784713225089945, 2076848.590320312185213 ], [ 276832.081254464050289, 2076835.612646132474765 ], [ 276588.31143333367072, 2075924.142207647440955 ], [ 274411.669781751348637, 2075950.177291319472715 ], [ 274899.39901528484188, 2077773.102273208787665 ], [ 273811.112220639130101, 2077786.198200046783313 ], [ 274055.154355724458583, 2078697.678109591361135 ], [ 275143.419744245009497, 2078684.590427404036745 ] ] ], [ [ [ 283627.774940549978055, 2085900.320942794438452 ], [ 285803.877502712828573, 2085875.231412858236581 ], [ 285559.195767351193354, 2084963.537672544363886 ], [ 284471.125857357517816, 2084976.059298078529537 ], [ 284226.526708577992395, 2084064.391534960828722 ], [ 283138.429808695800602, 2084076.985196680994704 ], [ 283627.774940549978055, 2085900.320942794438452 ] ] ], [ [ [ 289695.341555950115435, 2092232.862311496166512 ], [ 288607.454140018555336, 2092245.187163347611204 ], [ 288116.78178999258671, 2090421.555390382418409 ], [ 289204.712111275992356, 2090409.212968094740063 ], [ 288714.49852107145125, 2088585.633689873619005 ], [ 289802.466251301695593, 2088573.337346704909578 ], [ 289557.536823431088123, 2087661.565195747185498 ], [ 290645.520527736633085, 2087649.323651492595673 ], [ 290400.71646267210599, 2086737.560232759220526 ], [ 288224.700801557162777, 2086762.124351993203163 ], [ 288469.547676465590484, 2087673.870286186458543 ], [ 286293.552941899048164, 2087698.671112702926621 ], [ 286538.546641668770462, 2088610.417103338055313 ], [ 285450.562436178093776, 2088622.90417719585821 ], [ 285205.547297971788794, 2087711.166852343827486 ], [ 283029.519315995101351, 2087736.348993370309472 ], [ 282784.565289911348373, 2086824.646295190555975 ], [ 280608.47195013158489, 2086850.099768257001415 ], [ 280853.468887421418913, 2087761.78536213724874 ], [ 281941.496921616373584, 2087749.03539837570861 ], [ 282186.576418616459705, 2088660.746888828696683 ], [ 281098.569851864827797, 2088673.488295436138287 ], [ 281589.083854090131354, 2090496.946242403704673 ], [ 282677.047461324604228, 2090484.222005884395912 ], [ 282431.75993253121851, 2089572.475752816535532 ], [ 283519.739398332778364, 2089559.806535020004958 ], [ 283274.577352812630124, 2088648.06906813243404 ], [ 284362.572682612459175, 2088635.454831525450572 ], [ 284852.957849841215648, 2090458.964451694628224 ], [ 285940.904687425179873, 2090446.431130395736545 ], [ 286431.66289158759173, 2092270.027925461530685 ], [ 285343.759002809179947, 2092282.543839292833582 ], [ 285834.976125264365692, 2094106.193119059782475 ], [ 286922.837032418698072, 2094093.694687204901129 ], [ 286677.197970934270415, 2093181.852552691241726 ], [ 289940.812218641047366, 2093144.713296705391258 ], [ 289695.341555950115435, 2092232.862311496166512 ] ], [ [ 285695.681566673330963, 2089534.658931355224922 ], [ 286783.644325521076098, 2089522.180541873676702 ], [ 287028.845991424866952, 2090433.961443888954818 ], [ 285940.904687425179873, 2090446.431130395736545 ], [ 285695.681566673330963, 2089534.658931355224922 ] ] ], [ [ [ 285098.30642912274925, 2091370.745416772784665 ], [ 284852.957849841215648, 2090458.964451694628224 ], [ 283765.005450524622574, 2090471.561409587739035 ], [ 284010.375507359043695, 2091383.333707399666309 ], [ 285098.30642912274925, 2091370.745416772784665 ] ] ], [ [ [ 284396.972408821398858, 2096866.933979820925742 ], [ 285484.779832025524229, 2096854.334255577763543 ], [ 284747.109685391013045, 2094118.755296143703163 ], [ 283659.23768467042828, 2094131.381220262032002 ], [ 283905.045257383608259, 2095043.214652312919497 ], [ 282817.189192587858997, 2095055.895637800917029 ], [ 283063.122301090857945, 2095967.737846312578768 ], [ 281975.282166839344427, 2095980.473930650157854 ], [ 282467.503513739677146, 2097804.19338802434504 ], [ 283555.300542614189908, 2097791.474717637058347 ], [ 284047.894803248869721, 2099615.281632274389267 ], [ 286223.385892324557062, 2099590.071007848717272 ], [ 285977.079885210143402, 2098678.141198457684368 ], [ 287064.838691189710516, 2098665.622916969936341 ], [ 286818.658213593182154, 2097753.701854972168803 ], [ 284643.091983473917935, 2097778.819906542077661 ], [ 284396.972408821398858, 2096866.933979820925742 ] ] ], [ [ [ 291237.251632706145756, 2126068.430816860869527 ], [ 292324.370972930686548, 2126056.056364019401371 ], [ 291825.78987114271149, 2124231.201016776729375 ], [ 290738.626932070590556, 2124243.594104261137545 ], [ 290240.41801318252692, 2122418.829269439447671 ], [ 291327.624518367578276, 2122406.417623090092093 ], [ 291576.655225102091208, 2123318.800333734601736 ], [ 292663.834595386229921, 2123306.462575301993638 ], [ 292165.920658421120606, 2121481.696535109076649 ], [ 293253.138221292756498, 2121469.404763204045594 ], [ 292755.683513062540442, 2119644.692006544210017 ], [ 291668.422462367918342, 2119657.002332435455173 ], [ 291917.119591755559668, 2120569.340462064370513 ], [ 290829.874931030441076, 2120581.706055108457804 ], [ 290332.541125554067548, 2118757.066185169387609 ], [ 291419.829272311995737, 2118744.682130272500217 ], [ 291171.340023635304533, 2117832.379839640110731 ], [ 292258.644529411569238, 2117820.051035359036177 ], [ 292010.280939428368583, 2116907.757429460529238 ], [ 290922.954718391411006, 2116920.095444609411061 ], [ 290426.49594638904091, 2115095.580277713481337 ], [ 292601.229834813682828, 2115070.931887096725404 ], [ 292353.1997462658328, 2114158.682747715618461 ], [ 293440.580346281523816, 2114146.445896949619055 ], [ 292944.87530469277408, 2112321.982850728090852 ], [ 294032.293901084456593, 2112309.791924198623747 ], [ 292794.958267617737874, 2107748.900816415436566 ], [ 293882.479664072336163, 2107736.728328987024724 ], [ 293388.316112600499764, 2105912.478364916052669 ], [ 295563.429323430056684, 2105888.289249915163964 ], [ 296057.506550326477736, 2107712.575789181515574 ], [ 299320.007533781812526, 2107676.828041173983365 ], [ 299567.137285152915865, 2108589.02580156410113 ], [ 298479.66373416245915, 2108600.868311227299273 ], [ 298726.918943822733127, 2109513.074710655026138 ], [ 297639.461784200335387, 2109524.972127506043762 ], [ 297886.842473712866195, 2110437.187171445693821 ], [ 298974.27804163552355, 2110425.299032083246857 ], [ 299469.307893558696378, 2112249.801504551433027 ], [ 300556.695090306224301, 2112237.996251174714416 ], [ 299814.370918527711183, 2109501.241486852988601 ], [ 301989.259425322292373, 2109477.767611611168832 ], [ 302236.553791399870533, 2110390.019928551279008 ], [ 301149.133672448457219, 2110401.715412327554077 ], [ 301396.553478295099922, 2111313.976345773786306 ], [ 302483.952019041229505, 2111302.290239822585136 ], [ 302731.454106211313047, 2112214.578561367467046 ], [ 303818.825981408241205, 2112202.966121578589082 ], [ 303571.345473405322991, 2111290.668376210145652 ], [ 304658.733869410818443, 2111279.110753269866109 ], [ 304906.192805457336362, 2112191.417949642054737 ], [ 305993.554606377729215, 2112179.934043900575489 ], [ 305498.78369877213845, 2110355.318761521019042 ], [ 306586.18361150007695, 2110343.880128410644829 ], [ 306338.97545341134537, 2109431.590103616472334 ], [ 304164.12752886058297, 2109454.550488306675106 ], [ 303669.936577274929732, 2107630.062287380453199 ], [ 302582.46197524247691, 2107641.657526223454624 ], [ 302088.643374967738055, 2105817.259957103058696 ], [ 303176.161030927556567, 2105805.646023047622293 ], [ 302436.27663180581294, 2103069.156229342799634 ], [ 303523.853712130221538, 2103057.578387577552348 ], [ 303277.454782266111579, 2102145.441663175355643 ], [ 304365.048271259409375, 2102133.918496566358954 ], [ 303626.538999828859232, 2099397.587865029927343 ], [ 304714.191799213527702, 2099386.100740396417677 ], [ 304222.414411112084053, 2097561.951218479778618 ], [ 306397.790602874825709, 2097539.131404399871826 ], [ 306643.584539628005587, 2098451.21580848377198 ], [ 307731.243718598387204, 2098439.910969588905573 ], [ 307239.802481890190393, 2096615.741417780285701 ], [ 302888.964407356572337, 2096661.418142355047166 ], [ 303380.576946418499574, 2098485.513433148618788 ], [ 301205.213223082595505, 2098508.697789343539625 ], [ 301451.218169707455672, 2099420.75376299303025 ], [ 299275.876843837206252, 2099444.175203653518111 ], [ 300261.107157620135695, 2103092.503897710703313 ], [ 298085.917078255210072, 2103116.107557046227157 ], [ 298826.05968519981252, 2105852.486231552902609 ], [ 297738.521454463363625, 2105864.356486082077026 ], [ 297491.681817779433914, 2104952.221615856513381 ], [ 296404.116822439827956, 2104964.165138313081115 ], [ 296157.359541509824339, 2104052.057275568135083 ], [ 295069.767747233971022, 2104064.073994568083435 ], [ 294576.521838029264472, 2102239.92989657772705 ], [ 290225.929091005702503, 2102288.70945735508576 ], [ 290472.586292335297912, 2103200.736490608658642 ], [ 289384.946217411081307, 2103213.082377356477082 ], [ 290125.606280714971945, 2105949.242726273369044 ], [ 289038.025553677580319, 2105961.625704114325345 ], [ 289532.361928361700848, 2107785.803169794846326 ], [ 288444.819005144701805, 2107798.232257170602679 ], [ 288692.164763480017427, 2108710.338569514919072 ], [ 287604.638029081106652, 2108722.822815916500986 ], [ 287852.109400135581382, 2109634.937851060647517 ], [ 286764.598849261878058, 2109647.47729381127283 ], [ 287012.19585466751596, 2110559.601057128980756 ], [ 288099.684741236676928, 2110547.070620205253363 ], [ 288595.147325393278152, 2112371.389423743356019 ], [ 287507.701792013831437, 2112383.90179258165881 ], [ 288003.623617764911614, 2114208.273578614927828 ], [ 289091.025765182159375, 2114195.779353166930377 ], [ 289339.120925822353456, 2115108.001029707491398 ], [ 288251.74048367398791, 2115120.486155197955668 ], [ 288996.714868944021873, 2117857.230809586122632 ], [ 286822.06800344446674, 2117882.339606607332826 ], [ 286076.963222596154083, 2115145.649533842690289 ], [ 283902.163939071178902, 2115171.070428085513413 ], [ 283653.960179092478938, 2114258.893979751970619 ], [ 282566.530467092758045, 2114271.709963950328529 ], [ 281326.963133919693064, 2109711.137728895060718 ], [ 283502.034124421421438, 2109685.480903313495219 ], [ 283254.47608517576009, 2108773.401653335429728 ], [ 284342.024878192227334, 2108760.660662588663399 ], [ 283847.264147766167298, 2106936.537321244366467 ], [ 284934.850700846174732, 2106923.842710237950087 ], [ 284440.549257492879406, 2105099.772156201768667 ], [ 283352.919420418213122, 2105112.484501189086586 ], [ 283600.039782685227692, 2106024.502103925682604 ], [ 281424.806620414252393, 2106050.101402537897229 ], [ 280930.583321769954637, 2104226.119025925640017 ], [ 282018.246003028762061, 2104213.269734182860702 ], [ 281277.756118623306975, 2101477.401481261942536 ], [ 280190.028553710784763, 2101490.277014223393053 ], [ 279943.38502050738316, 2100578.364695142954588 ], [ 278855.630165558308363, 2100591.312885840423405 ], [ 279102.295317537966184, 2101503.216522444039583 ], [ 278014.556382011156529, 2101516.220007780473679 ], [ 278261.347205922182184, 2102428.132450258359313 ], [ 277173.624184552230872, 2102441.191267683636397 ], [ 277420.540702074766159, 2103353.112521385774016 ], [ 276332.83358961326303, 2103366.226708345580846 ], [ 274852.765485935145989, 2097895.01229554740712 ], [ 273764.922740943380632, 2097908.241906815674156 ], [ 273272.356025978166144, 2096084.659806159324944 ], [ 274360.241993121628184, 2096071.413215335225686 ], [ 273376.443918160395697, 2092424.422893742797896 ], [ 271200.493407475063577, 2092451.047259092330933 ], [ 270709.13259621913312, 2090627.689226660877466 ], [ 269621.105332476145122, 2090641.11362832877785 ], [ 269375.559516551205888, 2089729.468715489609167 ], [ 268287.504725505306851, 2089742.965048506157473 ], [ 268533.072112842462957, 2090654.601692766882479 ], [ 267445.032909159664996, 2090668.153421912575141 ], [ 268182.424566464091185, 2093403.141556923277676 ], [ 269270.398984585131984, 2093389.614663774613291 ], [ 270008.662878034170717, 2096124.78251695795916 ], [ 268920.753319460782222, 2096138.284406403778121 ], [ 268674.539616791065782, 2095226.552906953031197 ], [ 266498.659288827329874, 2095253.764801259618253 ], [ 267237.742625441402197, 2097988.961038939654827 ], [ 268325.620838315226138, 2097975.348142455797642 ], [ 269806.468783254793379, 2103446.256674440577626 ], [ 268718.720698144985363, 2103459.819160722196102 ], [ 271195.346519460785203, 2112579.303609735332429 ], [ 270107.810079164220951, 2112592.844901256728917 ], [ 270604.428071179601829, 2114416.933778386563063 ], [ 269516.929346299380995, 2114430.522173335775733 ], [ 270014.007403330411762, 2116254.663726122584194 ], [ 266751.60661055939272, 2116295.763637335970998 ], [ 267249.232272520777769, 2118119.923423963598907 ], [ 268336.661423197365366, 2118106.17622436536476 ], [ 268585.608555895509198, 2119018.290962712373585 ], [ 269673.009869293950032, 2119004.616915214341134 ], [ 270171.172693355591036, 2120828.916328212246299 ], [ 269083.815159784629941, 2120842.572999793104827 ], [ 269582.438201232638676, 2122666.925222422461957 ], [ 268495.11855764320353, 2122680.629070612136275 ], [ 268744.608163321972825, 2123592.822813927661628 ], [ 267657.304502529208548, 2123606.582592346705496 ], [ 267906.920161253772676, 2124518.785191648639739 ], [ 268994.201880394946784, 2124505.034132041037083 ], [ 269743.607679307111539, 2127241.773693195544183 ], [ 270830.817610679310746, 2127228.113669478334486 ], [ 271080.80578559555579, 2128140.404266627971083 ], [ 272167.98787168727722, 2128126.817855624016374 ], [ 272418.058171609940473, 2129039.134993522427976 ], [ 273505.212446981109679, 2129025.622266535181552 ], [ 274757.015218695800286, 2133587.518649805337191 ], [ 273669.970868473057635, 2133600.986616760026664 ], [ 273920.665632794785779, 2134513.410239516291767 ], [ 270659.563708768808283, 2134554.176994730718434 ], [ 270910.428641164908186, 2135466.591499200090766 ], [ 271997.446420721360482, 2135452.94654529215768 ], [ 272499.444456702505704, 2137277.846806777175516 ], [ 273586.412299567949958, 2137264.284867678768933 ], [ 273837.545381838455796, 2138176.770740917418152 ], [ 274924.485370817303192, 2138163.282922277227044 ], [ 274673.374338351015467, 2137250.78799089230597 ], [ 276847.281115231919102, 2137223.989416530355811 ], [ 276345.459349737153389, 2135399.016810097265989 ], [ 278519.431291343120392, 2135372.441963749472052 ], [ 278018.113713438506238, 2133547.504440650809556 ], [ 279105.135119413083885, 2133534.29626179812476 ], [ 278604.277634774916805, 2131709.412014123983681 ], [ 277517.212293318239972, 2131722.638371149543673 ], [ 276266.779541962838266, 2127160.784969309810549 ], [ 277353.954578745062463, 2127147.513499446678907 ], [ 277104.20209645666182, 2126235.187172672711313 ], [ 278191.393322400050238, 2126221.971462304703891 ], [ 276944.301081709680147, 2121660.56115539604798 ], [ 278031.5959860162111, 2121647.365352911874652 ], [ 277533.531117594626267, 2119822.907409351784736 ], [ 276446.192520375130698, 2119836.121005504857749 ], [ 276197.294319723907392, 2118923.927432816941291 ], [ 277284.654751101043075, 2118910.704968177713454 ], [ 277035.882432500424329, 2117998.520192980300635 ], [ 280297.994902521371841, 2117959.21310491906479 ], [ 281293.446573463559616, 2121608.165451603941619 ], [ 282380.718820710899308, 2121595.22798030404374 ], [ 283627.264550594612956, 2126156.863721266388893 ], [ 284714.422011585324071, 2126144.036322152707726 ], [ 285463.53183615434682, 2128881.259587692562491 ], [ 286550.618176054093055, 2128868.524505983572453 ], [ 287050.500881957937963, 2130693.448166092392057 ], [ 285963.458310608984903, 2130706.164749305695295 ], [ 286213.577519071288407, 2131618.644273470155895 ], [ 285126.551358658238314, 2131631.41645390400663 ], [ 285627.145540090627037, 2133456.410910782404244 ], [ 286714.127868150826544, 2133443.657288603950292 ], [ 286463.800705607398413, 2132531.141781226266176 ], [ 287550.799475661478937, 2132518.443772536702454 ], [ 287300.598193864396308, 2131605.936968010384589 ], [ 289474.623198258806951, 2131580.71697474271059 ], [ 288974.620072224468458, 2129755.720121548976749 ], [ 290061.668198584462516, 2129743.18873068317771 ], [ 289312.508747022133321, 2127005.800568384118378 ], [ 290399.617012839589734, 2126993.306002767756581 ], [ 289900.740797667298466, 2125168.451921537984163 ], [ 290987.887310697231442, 2125156.003467845264822 ], [ 291237.251632706145756, 2126068.430816860869527 ] ], [ [ 287887.566529337491374, 2129768.316327637992799 ], [ 287637.699036238831468, 2128855.854215961415321 ], [ 288724.774444640730508, 2128843.248715810943395 ], [ 288974.620072224468458, 2129755.720121548976749 ], [ 287887.566529337491374, 2129768.316327637992799 ] ], [ [ 271388.616366989561357, 2105256.549996433779597 ], [ 271635.975228763767518, 2106168.47195737157017 ], [ 270548.298233866633382, 2106181.944855834823102 ], [ 270300.917646305460948, 2105270.031426741741598 ], [ 271388.616366989561357, 2105256.549996433779597 ] ] ], [ [ [ 293594.389500527759083, 2118720.107459809631109 ], [ 292507.112054640310816, 2118732.362555741332471 ], [ 292755.683513062540442, 2119644.692006544210017 ], [ 293842.939234600751661, 2119632.446186416782439 ], [ 293594.389500527759083, 2118720.107459809631109 ] ] ], [ [ [ 265732.338803616876248, 2124546.481371886096895 ], [ 265982.102501843939535, 2125458.684148732572794 ], [ 268156.639937511121389, 2125431.005362605210394 ], [ 267906.920161253772676, 2124518.785191648639739 ], [ 265732.338803616876248, 2124546.481371886096895 ] ] ], [ [ [ 294409.807097275217529, 2129693.711283676326275 ], [ 294160.070687490166165, 2128781.193000230006874 ], [ 295247.113971739308909, 2128768.976201697252691 ], [ 294997.50329420901835, 2127856.466567698866129 ], [ 292823.367807288479526, 2127880.983792854938656 ], [ 293322.780357766023371, 2129705.983431513421237 ], [ 294409.807097275217529, 2129693.711283676326275 ] ] ], [ [ [ 290561.62758369022049, 2131568.204283319879323 ], [ 289474.623198258806951, 2131580.71697474271059 ], [ 289724.780692588537931, 2132493.242454277351499 ], [ 290811.763195282313973, 2132480.739141097292304 ], [ 290561.62758369022049, 2131568.204283319879323 ] ] ], [ [ [ 295996.569459783029743, 2131506.613806886132807 ], [ 294909.591664993786253, 2131518.802177314646542 ], [ 294659.647423795075156, 2130606.247670678421855 ], [ 293572.64252140535973, 2130618.510369649622589 ], [ 293322.780357766023371, 2129705.983431513421237 ], [ 292235.748313429532573, 2129718.320387447718531 ], [ 291736.292098644305952, 2127893.339535204228014 ], [ 290649.211042631766759, 2127905.760033092461526 ], [ 291648.626595163950697, 2131555.75645964499563 ], [ 292735.620260596857406, 2131543.373501933645457 ], [ 292985.71212867758004, 2132455.927197676617652 ], [ 294072.678615198237821, 2132443.61856388207525 ], [ 294573.130383941170294, 2134268.799289333634079 ], [ 293486.207643525558524, 2134281.088946586009115 ], [ 293736.611286172585096, 2135193.697031955700368 ], [ 294823.51214127021376, 2135181.416891538072377 ], [ 295073.997811152832583, 2136094.052674896083772 ], [ 293987.118849550490268, 2136106.323279426433146 ], [ 294237.73033160099294, 2137018.967705127317458 ], [ 298585.127204697928391, 2136970.313652324490249 ], [ 298084.183252246584743, 2135144.966289801988751 ], [ 299171.063230769126676, 2135132.946023260708898 ], [ 298420.492011281312443, 2132395.032907101325691 ], [ 296246.59576742554782, 2132419.195963306818157 ], [ 295996.569459783029743, 2131506.613806886132807 ] ] ], [ [ [ 280192.150859103770927, 2133521.153025216422975 ], [ 279105.135119413083885, 2133534.29626179812476 ], [ 279355.719909648643807, 2134446.765201289672405 ], [ 280442.713676695595495, 2134433.631109483074397 ], [ 280192.150859103770927, 2133521.153025216422975 ] ] ], [ [ [ 269321.735130044282414, 2133655.508022287394851 ], [ 269572.518006995436735, 2134567.895880142226815 ], [ 270659.563708768808283, 2134554.176994730718434 ], [ 270408.80287110916106, 2133641.780236352235079 ], [ 269321.735130044282414, 2133655.508022287394851 ] ] ], [ [ [ 272669.397646085824817, 2141853.991260470822453 ], [ 272921.095261585665867, 2142766.548308075405657 ], [ 275094.77180225669872, 2142739.468147601000965 ], [ 274843.118390557938255, 2141826.892874160781503 ], [ 272669.397646085824817, 2141853.991260470822453 ] ] ], [ [ [ 275598.390802529698703, 2144564.672494891099632 ], [ 274511.599646839196794, 2144578.161651242990047 ], [ 274763.587354004383087, 2145490.781573328189552 ], [ 275850.356386941042729, 2145477.301600858103484 ], [ 275598.390802529698703, 2144564.672494891099632 ] ] ], [ [ [ 266321.494291769980919, 2146513.537854294292629 ], [ 265234.694568411097862, 2146527.596714847255498 ], [ 265487.089984051301144, 2147440.170788624323905 ], [ 268747.404644481837749, 2147398.217274515889585 ], [ 268495.075825117761269, 2146485.616185337305069 ], [ 267408.288034724304453, 2146499.544345126021653 ], [ 266903.898366070236079, 2144674.413732676301152 ], [ 265817.060250187758356, 2144688.425194646697491 ], [ 266321.494291769980919, 2146513.537854294292629 ] ] ], [ [ [ 272942.940863789757714, 2154672.175228806678206 ], [ 274029.511148647987284, 2154658.525818888563663 ], [ 273776.416260796366259, 2153745.753564681392163 ], [ 271603.225412906729616, 2153773.136479495558888 ], [ 271350.190132543561049, 2152860.400738805532455 ], [ 272436.810694852145389, 2152846.667280274443328 ], [ 271678.396029137889855, 2150108.540386550594121 ], [ 273851.752967780164909, 2150081.214728683233261 ], [ 274104.409379346296191, 2150993.924118765629828 ], [ 276277.698817637574393, 2150966.878769501578063 ], [ 276530.41491223545745, 2151879.624729834031314 ], [ 279790.239717581425793, 2151839.5757717480883 ], [ 279537.590140856103972, 2150926.801775623112917 ], [ 278450.965373930637725, 2150940.09530547214672 ], [ 278198.39766473864438, 2150027.348773985635489 ], [ 277111.745068497257307, 2150040.7170973662287 ], [ 276859.259237861726433, 2149127.997948817908764 ], [ 277945.933990359015297, 2149114.620318573899567 ], [ 277693.574352872790769, 2148201.909923092462122 ], [ 278780.26556628360413, 2148188.588391222991049 ], [ 278528.032100235926919, 2147275.886743896175176 ], [ 277441.318754364387132, 2147289.217571404762566 ], [ 277189.167196915776003, 2146376.543247391004115 ], [ 275015.679122767294757, 2146403.4194525773637 ], [ 274763.587354004383087, 2145490.781573328189552 ], [ 273676.812555951531976, 2145504.326854279264808 ], [ 272921.095261585665867, 2142766.548308075405657 ], [ 270747.395459830295295, 2142793.889384616166353 ], [ 270495.653610789740924, 2141881.350454308558255 ], [ 271582.528553723532241, 2141867.638255472294986 ], [ 271079.401357618626207, 2140042.595852897968143 ], [ 269992.482198283309117, 2140056.326084566768259 ], [ 269741.05263897968689, 2139143.840613158419728 ], [ 270827.993894222076051, 2139130.101393719669431 ], [ 270325.491247148369439, 2137305.165879691950977 ], [ 269238.50582467589993, 2137318.923017420805991 ], [ 269489.727180418209173, 2138231.372929428704083 ], [ 268402.757929250015877, 2138245.186214821878821 ], [ 269157.112915132776834, 2140982.615763091482222 ], [ 268070.204060262301937, 2140996.467347201891243 ], [ 268321.886061740689911, 2141908.970471345819533 ], [ 267234.993399892118759, 2141922.878293503075838 ], [ 267990.730514448718168, 2144660.46756583172828 ], [ 269077.556723174348008, 2144646.586692117154598 ], [ 268573.672174107981846, 2142821.49139288533479 ], [ 269660.536766396020539, 2142807.657771300058812 ], [ 270668.633659580838867, 2146457.955905934330076 ], [ 269581.857690788165201, 2146471.753372935578227 ], [ 269834.164326336001977, 2147384.363521502818912 ], [ 268747.404644481837749, 2147398.217274515889585 ], [ 268999.83757042104844, 2148310.836238024756312 ], [ 267913.094170790631324, 2148324.746314125601202 ], [ 268165.653408882848453, 2149237.374097408726811 ], [ 267078.926286780158989, 2149251.340533667709678 ], [ 268596.601427435001824, 2154727.428764312528074 ], [ 269683.195086646999698, 2154713.516992116812617 ], [ 269936.483054961892776, 2155626.270323945675045 ], [ 273196.162059527589008, 2155584.956257305108011 ], [ 272942.940863789757714, 2154672.175228806678206 ] ], [ [ 269252.374600843235385, 2149223.473091911990196 ], [ 269505.015733661944978, 2150136.127852239180356 ], [ 268418.316757564141881, 2150150.019767947029322 ], [ 268165.653408882848453, 2149237.374097408726811 ], [ 269252.374600843235385, 2149223.473091911990196 ] ], [ [ 275772.578777811606415, 2149141.440994168631732 ], [ 276025.086772134935018, 2150054.150862993206829 ], [ 274938.422747835284099, 2150067.650072787888348 ], [ 274685.892582386848517, 2149154.949456548783928 ], [ 275772.578777811606415, 2149141.440994168631732 ] ] ], [ [ [ 263237.611170336836949, 2151133.079690772574395 ], [ 263490.594007406558376, 2152045.715949981939048 ], [ 264577.278343883808702, 2152031.514690668322146 ], [ 264324.317776496347506, 2151118.869438897352666 ], [ 263237.611170336836949, 2151133.079690772574395 ] ] ], [ [ [ 263996.872115298931021, 2153871.042002718895674 ], [ 263490.594007406558376, 2152045.715949981939048 ], [ 262403.903624161612242, 2152059.982731511816382 ], [ 262657.012891895137727, 2152972.627845490351319 ], [ 261570.338726960297208, 2152986.951193745713681 ], [ 262076.91432485106634, 2154812.276973789557815 ], [ 263163.543879414326511, 2154797.971598269417882 ], [ 262910.226311011938378, 2153885.29079572390765 ], [ 263996.872115298931021, 2153871.042002718895674 ] ] ], [ [ [ 303583.391084598202724, 2170799.739271749742329 ], [ 302497.345125901279971, 2170811.699335753917694 ], [ 303006.611124159884639, 2172638.392155562993139 ], [ 304092.612636168953031, 2172626.452628881204873 ], [ 303583.391084598202724, 2170799.739271749742329 ] ] ], [ [ [ 307350.587353717128281, 2172591.030562671367079 ], [ 306264.600723275332712, 2172602.771834127604961 ], [ 306519.32280448381789, 2173516.177431501913816 ], [ 307605.287221387843601, 2173504.446539374534041 ], [ 307350.587353717128281, 2172591.030562671367079 ] ] ], [ [ [ 304857.223725698655471, 2175366.663956116884947 ], [ 307029.078416596457828, 2175343.045309394132346 ], [ 306519.32280448381789, 2173516.177431501913816 ], [ 305433.353462068596855, 2173527.97443419136107 ], [ 305178.609159983228892, 2172614.57918896805495 ], [ 304092.612636168953031, 2172626.452628881204873 ], [ 304857.223725698655471, 2175366.663956116884947 ] ] ], [ [ [ 290603.540148393367417, 2062964.2955424671527 ], [ 291087.591294095967896, 2064787.040580521803349 ], [ 292176.069000603863969, 2064775.025711495662108 ], [ 291692.060138297732919, 2062952.263723046751693 ], [ 290603.540148393367417, 2062964.2955424671527 ] ] ], [ [ [ 280202.511194558115676, 2064910.646572208497673 ], [ 280444.904634855920449, 2065821.961395926540717 ], [ 281533.416637073038146, 2065809.326131111010909 ], [ 281291.044422623352148, 2064898.003076303051785 ], [ 280202.511194558115676, 2064910.646572208497673 ] ] ], [ [ [ 288064.370522867306136, 2065734.835334815084934 ], [ 289152.843413267866708, 2065722.640317520359531 ], [ 289395.171217122464441, 2066634.038959465688094 ], [ 290483.617456711828709, 2066621.915294340578839 ], [ 290241.310829412192106, 2065710.508185635320842 ], [ 291329.772799586993642, 2065698.438937413971871 ], [ 291087.591294095967896, 2064787.040580521803349 ], [ 287822.125512347090989, 2064823.462323101237416 ], [ 288064.370522867306136, 2065734.835334815084934 ] ] ], [ [ [ 290726.028042635356542, 2067533.339645795058459 ], [ 289637.602987812715583, 2067545.454825784545392 ], [ 289395.171217122464441, 2066634.038959465688094 ], [ 287218.262308410310652, 2066658.475029202643782 ], [ 287460.736470158561133, 2067569.874006751924753 ], [ 286372.294950777199119, 2067582.178011243231595 ], [ 286614.894308298942633, 2068493.585769754135981 ], [ 290968.542585175600834, 2068444.781255388166755 ], [ 290726.028042635356542, 2067533.339645795058459 ] ] ], [ [ [ 286614.894308298942633, 2068493.585769754135981 ], [ 285526.468465880607255, 2068505.944324417971075 ], [ 285769.193040783633478, 2069417.360869642114267 ], [ 286857.597653282573447, 2069405.010728229302913 ], [ 286614.894308298942633, 2068493.585769754135981 ] ] ], [ [ [ 281658.432314969948493, 2070378.79175170767121 ], [ 281415.518721843487583, 2069467.391464548185468 ], [ 282503.945738457434345, 2069454.789307842496783 ], [ 282261.157430600142106, 2068543.397839400917292 ], [ 280084.255200995365158, 2068568.681743204593658 ], [ 280570.020900828298181, 2070391.448620894923806 ], [ 281658.432314969948493, 2070378.79175170767121 ] ] ], [ [ [ 286012.021609353250824, 2070328.794611800927669 ], [ 285769.193040783633478, 2069417.360869642114267 ], [ 284680.782869658782147, 2069429.774012189125642 ], [ 284438.037057639798149, 2068518.365853053051978 ], [ 283349.600055303948466, 2068530.850357449380681 ], [ 283835.238178073428571, 2070353.667117996141315 ], [ 286012.021609353250824, 2070328.794611800927669 ] ] ], [ [ [ 291453.883532074512914, 2070267.716310607269406 ], [ 292542.239573193131946, 2070255.689715883228928 ], [ 292299.538325676112436, 2069344.204976309789345 ], [ 291211.161082325270399, 2069356.240138522814959 ], [ 291453.883532074512914, 2070267.716310607269406 ] ] ], [ [ [ 297138.330621294095181, 2071119.750175302149728 ], [ 296895.610201549716294, 2070208.21349761262536 ], [ 295807.275518363108858, 2070219.988031510496512 ], [ 295564.637834571301937, 2069308.477426440455019 ], [ 294476.276673535758164, 2069320.323621987132356 ], [ 294233.721736965700984, 2068408.839010083815083 ], [ 295322.104070547153242, 2068396.984183936612681 ], [ 295079.67422829644056, 2067485.508288552751765 ], [ 296168.072407674975693, 2067473.707781317410991 ], [ 295683.566786277689971, 2065650.790746557991952 ], [ 294595.126317138026934, 2065662.608477405272424 ], [ 294837.348309826222248, 2066574.049724850337952 ], [ 293748.923655775957741, 2066585.921757024247199 ], [ 293506.680515165789984, 2065674.489085022592917 ], [ 292418.229352078051306, 2065686.432571118930355 ], [ 292660.49364776071161, 2066597.856694850604981 ], [ 291572.058257497672457, 2066609.854540046770126 ], [ 292299.538325676112436, 2069344.204976309789345 ], [ 293387.910179991682526, 2069332.232804705621675 ], [ 293630.590232442889828, 2070243.726138937752694 ], [ 292542.239573193131946, 2070255.689715883228928 ], [ 293270.966961995465681, 2072990.247933112084866 ], [ 294359.253986797877587, 2072978.310250657843426 ], [ 293873.374219066172373, 2071155.236814370611683 ], [ 296050.017119913711213, 2071131.516014606691897 ], [ 296292.862637218728196, 2072043.061391199473292 ], [ 297381.154948588344269, 2072031.304264910751954 ], [ 297867.115317792980932, 2073854.464741858653724 ], [ 300043.599438748438843, 2073831.174809240270406 ], [ 299800.609693773440085, 2072919.568268002942204 ], [ 300888.865149449673481, 2072908.009145566029474 ], [ 300646.000468391575851, 2071996.411271139280871 ], [ 299557.72383592906408, 2072007.979206558549777 ], [ 299314.941867223358713, 2071096.407609386369586 ], [ 297138.330621294095181, 2071119.750175302149728 ] ] ], [ [ [ 285051.15359119977802, 2074911.009859659476206 ], [ 283835.238178073428571, 2070353.667117996141315 ], [ 281658.432314969948493, 2070378.79175170767121 ], [ 281901.449932617018931, 2071290.209177535958588 ], [ 282989.834407106158324, 2071277.623685262165964 ], [ 283962.859899711096659, 2074923.498632480856031 ], [ 285051.15359119977802, 2074911.009859659476206 ] ] ], [ [ [ 297867.115317792980932, 2073854.464741858653724 ], [ 296778.86541105620563, 2073866.204386811936274 ], [ 297022.022663570416626, 2074777.802036829758435 ], [ 298110.25135568738915, 2074766.071160213788971 ], [ 297867.115317792980932, 2073854.464741858653724 ] ] ], [ [ [ 285051.15359119977802, 2074911.009859659476206 ], [ 285294.648675904376432, 2075822.530103743774816 ], [ 286382.915493664506357, 2075810.1129865355324 ], [ 286139.441710782586597, 2074898.584254518151283 ], [ 285051.15359119977802, 2074911.009859659476206 ] ] ], [ [ [ 284449.996691393957008, 2076746.539448529016227 ], [ 283962.859899711096659, 2074923.498632480856031 ], [ 282874.560608077910729, 2074936.050574779277667 ], [ 283118.098318075179122, 2075847.553924479987472 ], [ 282029.81472154147923, 2075860.160631607053801 ], [ 282273.477775648119859, 2076771.672787348274142 ], [ 284449.996691393957008, 2076746.539448529016227 ] ] ], [ [ [ 290999.462648001674097, 2084901.881559730274603 ], [ 289911.420200516819023, 2084914.085852902615443 ], [ 290400.71646267210599, 2086737.560232759220526 ], [ 291488.716146576683968, 2086725.373449910664931 ], [ 290999.462648001674097, 2084901.881559730274603 ] ] ], [ [ [ 289695.341555950115435, 2092232.862311496166512 ], [ 291871.100111933192238, 2092208.403657351853326 ], [ 291625.776300663535949, 2091296.552549142856151 ], [ 290537.878283622441813, 2091308.758884067414328 ], [ 290292.636983423435595, 2090396.934175251051784 ], [ 289204.712111275992356, 2090409.212968094740063 ], [ 289695.341555950115435, 2092232.862311496166512 ] ] ], [ [ [ 294046.837154322420247, 2092184.19972425349988 ], [ 291871.100111933192238, 2092208.403657351853326 ], [ 292116.527866362361237, 2093120.272350366925821 ], [ 294292.222029381082393, 2093096.086233744164929 ], [ 294046.837154322420247, 2092184.19972425349988 ] ] ], [ [ [ 307731.243718598387204, 2098439.910969588905573 ], [ 307977.120071731274948, 2099352.022644123993814 ], [ 309064.752880987420212, 2099340.791032472159714 ], [ 308818.897935007349588, 2098428.669979309663177 ], [ 307731.243718598387204, 2098439.910969588905573 ] ] ], [ [ [ 304714.191799213527702, 2099386.100740396417677 ], [ 304960.236261828220449, 2100298.202339623589069 ], [ 306047.862584711168893, 2100286.788411460351199 ], [ 305801.839558931766078, 2099374.67749645980075 ], [ 304714.191799213527702, 2099386.100740396417677 ] ] ], [ [ [ 306641.312795377452858, 2118578.075008875224739 ], [ 305554.097203974262811, 2118589.556496056262404 ], [ 305802.408449371228926, 2119501.999049789272249 ], [ 304715.209501917241141, 2119513.53542038006708 ], [ 304963.646233062143438, 2120425.986553674098104 ], [ 307137.995836258050986, 2120402.997512204106897 ], [ 306889.602403409779072, 2119490.527164502069354 ], [ 307976.791392006911337, 2119479.119762871414423 ], [ 307232.298916461702902, 2116741.788977414835244 ], [ 306145.045061933109537, 2116753.225209604017437 ], [ 306641.312795377452858, 2118578.075008875224739 ] ] ], [ [ [ 319593.192950735450722, 2122106.381170023232698 ], [ 320680.264463339990471, 2122095.712880773469806 ], [ 320183.684795714216307, 2120270.48172322101891 ], [ 319096.57014001684729, 2120281.169963424559683 ], [ 318600.362261036643758, 2118456.032421611715108 ], [ 317513.19982999691274, 2118466.804976087529212 ], [ 317265.229944864287972, 2117554.273671140894294 ], [ 316178.041263656807132, 2117565.120521037373692 ], [ 315930.153576601413079, 2116652.617400915361941 ], [ 317017.363806937937625, 2116641.760715004056692 ], [ 316769.601418249658309, 2115729.266091546509415 ], [ 314595.13313330640085, 2115751.063458127435297 ], [ 315090.847854434221517, 2117576.031785810831934 ], [ 314003.649689214944374, 2117587.007467026356608 ], [ 314251.68426773318788, 2118499.509288858622313 ], [ 313164.502897344296798, 2118510.539614774286747 ], [ 313412.662832505418919, 2119423.049952667672187 ], [ 312325.498251491459087, 2119434.13496035663411 ], [ 313070.665535073727369, 2122171.746463028714061 ], [ 314157.765284607885405, 2122160.690863849129528 ], [ 314406.340310717234388, 2123073.274520555976778 ], [ 316580.482277511386201, 2123051.376750265713781 ], [ 316331.950483498629183, 2122138.773330603726208 ], [ 317419.035988768795505, 2122127.911393395159394 ], [ 317170.629545224423055, 2121215.316462180111557 ], [ 319344.829679926624522, 2121193.766350532416254 ], [ 319593.192950735450722, 2122106.381170023232698 ] ] ], [ [ [ 307976.791392006911337, 2119479.119762871414423 ], [ 308225.163186532445252, 2120391.599758552387357 ], [ 309312.325606553116813, 2120380.266514109447598 ], [ 309063.975443140196148, 2119467.776843263301998 ], [ 307976.791392006911337, 2119479.119762871414423 ] ] ], [ [ [ 315742.070830509881489, 2123974.905258437618613 ], [ 315990.831753885839134, 2124887.535577275324613 ], [ 317077.857117422448937, 2124876.638829703442752 ], [ 316829.117822830798104, 2123963.998577899299562 ], [ 315742.070830509881489, 2123974.905258437618613 ] ] ], [ [ [ 310714.590597767964937, 2129517.40486391633749 ], [ 310465.180749191553332, 2128604.741871779318899 ], [ 309378.208511484670453, 2128616.051941504236311 ], [ 309128.880747261282522, 2127703.41714024823159 ], [ 310215.874696814920753, 2127692.097252011299133 ], [ 309966.67244268686045, 2126779.47098841983825 ], [ 311053.683216164587066, 2126768.206000169273466 ], [ 310804.606450625229627, 2125855.58826883463189 ], [ 311891.634053361369297, 2125844.378143553622067 ], [ 311642.682754914043471, 2124931.768939052708447 ], [ 312729.7271922621876, 2124920.613639724440873 ], [ 311486.63576770509826, 2120357.793546355329454 ], [ 309312.325606553116813, 2120380.266514109447598 ], [ 309560.779576398781501, 2121292.774430931545794 ], [ 308473.638795660925098, 2121304.097981298342347 ], [ 308970.901449560187757, 2123129.14917238522321 ], [ 305709.579453051497694, 2123163.449039832223207 ], [ 305958.431528415356297, 2124075.972950916271657 ], [ 301610.018988673051354, 2124122.572049456648529 ], [ 301361.080099160433747, 2123210.086543815676123 ], [ 300273.942569814564195, 2123221.907421527430415 ], [ 300025.085832511307672, 2122309.449573191348463 ], [ 297850.751900353061501, 2122333.304089943412691 ], [ 298348.656162616796792, 2124158.19997775182128 ], [ 297261.524896046495996, 2124170.205220871139318 ], [ 297510.654612067271955, 2125082.670838995371014 ], [ 296423.539895520021673, 2125094.731274812482297 ], [ 297171.617726867378224, 2127832.208343568723649 ], [ 299345.711328728939407, 2127808.209106559399515 ], [ 299844.862199746712577, 2129633.322604699991643 ], [ 298757.861565521219745, 2129645.270738251041621 ], [ 299257.47154946369119, 2131470.437842197716236 ], [ 301431.38047612842638, 2131446.644803982228041 ], [ 301181.567153594340198, 2130534.0329195628874 ], [ 302268.535755026387051, 2130522.224018733948469 ], [ 302518.327283256687224, 2131434.845561220310628 ], [ 306866.064121614326723, 2131388.297059807926416 ], [ 307115.872367925476283, 2132300.975851274561137 ], [ 309289.667418553959578, 2132278.110312194563448 ], [ 309039.902697422134224, 2131365.411867575254291 ], [ 310126.814622158068232, 2131354.066530315671116 ], [ 309877.175450983224437, 2130441.37662033829838 ], [ 308790.241782675031573, 2130452.731805930845439 ], [ 308540.684676361444872, 2129540.070111050270498 ], [ 310714.590597767964937, 2129517.40486391633749 ] ] ], [ [ [ 302518.327283256687224, 2131434.845561220310628 ], [ 301431.38047612842638, 2131446.644803982228041 ], [ 301681.297662233817391, 2132359.274938237387687 ], [ 302768.222666884073988, 2132347.485372561495751 ], [ 302518.327283256687224, 2131434.845561220310628 ] ] ], [ [ [ 299257.47154946369119, 2131470.437842197716236 ], [ 298170.50937410548795, 2131482.431641059927642 ], [ 298420.492011281312443, 2132395.032907101325691 ], [ 299507.432362337363884, 2132383.048703804146498 ], [ 299257.47154946369119, 2131470.437842197716236 ] ] ], [ [ [ 313300.044506039703265, 2134982.593681128229946 ], [ 314386.8549305225024, 2134971.482760132290423 ], [ 314136.865864117513411, 2134058.689208196476102 ], [ 309789.50827176135499, 2134103.562415252439678 ], [ 310289.764325881784316, 2135929.088245018385351 ], [ 311376.567410283838399, 2135917.792434918694198 ], [ 311126.409268530551344, 2135005.010352541692555 ], [ 312213.229294670047238, 2134993.769544730894268 ], [ 312463.365659258270171, 2135906.561597825028002 ], [ 313550.159100689576007, 2135895.395732128061354 ], [ 313300.044506039703265, 2134982.593681128229946 ] ] ], [ [ [ 316308.268117954139598, 2145937.444299252703786 ], [ 316811.091302266635466, 2147763.51379068242386 ], [ 318984.096652464359067, 2147741.641450092662126 ], [ 318481.360912419389933, 2145915.530847873073071 ], [ 316308.268117954139598, 2145937.444299252703786 ] ] ], [ [ [ 327343.893730220152065, 2150406.671912507619709 ], [ 327092.31581520306645, 2149493.477594716474414 ], [ 326005.890942521509714, 2149503.902854935266078 ], [ 326257.490693075407762, 2150417.086623828392476 ], [ 325171.083214231475722, 2150427.566727790050209 ], [ 324919.461620950140059, 2149514.393480586353689 ], [ 323833.02782269497402, 2149524.949473169632256 ], [ 324084.671265898621641, 2150438.112225890625268 ], [ 322998.254820286529139, 2150448.723119639325887 ], [ 322746.589519957720768, 2149535.570834195706993 ], [ 320573.69928985927254, 2149557.009667663834989 ], [ 321077.221076533722226, 2151383.291374070569873 ], [ 322163.624720384599641, 2151372.560116548556834 ], [ 322415.519295221194625, 2152285.739699704106897 ], [ 323501.896512795588933, 2152275.084346591494977 ], [ 323753.872900854097679, 2153188.293321203906089 ], [ 325926.570075900584925, 2153167.200045295991004 ], [ 325674.637443765706848, 2152253.969993574544787 ], [ 327847.360554358456284, 2152233.117434783838689 ], [ 327595.575310624553822, 2151319.885187003295869 ], [ 328681.95209736545803, 2151309.54646215820685 ], [ 328430.29235345532652, 2150396.322592338081449 ], [ 327343.893730220152065, 2150406.671912507619709 ] ] ], [ [ [ 303798.689841537619941, 2050942.577103414339945 ], [ 302709.970281842688564, 2050953.843233785126358 ], [ 302950.298477680538781, 2051865.102412282954901 ], [ 304038.997106073133182, 2051853.844890691107139 ], [ 303798.689841537619941, 2050942.577103414339945 ] ] ], [ [ [ 299076.588083507725969, 2053733.25866410904564 ], [ 302342.604614712356124, 2053698.975353761576116 ], [ 301621.245587127748877, 2050965.171787716448307 ], [ 299443.78067919111345, 2050988.016172794625163 ], [ 299924.666635638452135, 2052810.50042019947432 ], [ 298835.968293140875176, 2052821.999236316885799 ], [ 299076.588083507725969, 2053733.25866410904564 ] ] ], [ [ [ 334380.151922875782475, 2071669.075291763059795 ], [ 333292.022423101880122, 2071678.68908711289987 ], [ 333534.255093713989481, 2072590.563996456796303 ], [ 334622.363635392044671, 2072580.959857354639098 ], [ 334380.151922875782475, 2071669.075291763059795 ] ] ], [ [ [ 331358.025035004247911, 2072609.96140148350969 ], [ 331600.403292511124164, 2073521.835094670997933 ], [ 329424.19772657204885, 2073541.465519268531352 ], [ 329666.721629621693864, 2074453.338047169381753 ], [ 327490.540402976213954, 2074473.20168347354047 ], [ 327733.210010260110721, 2075385.073096905369312 ], [ 328821.281820443458855, 2075375.119275405071676 ], [ 329064.034071479109116, 2076287.018243793398142 ], [ 331240.122368132462725, 2076267.319206070154905 ], [ 331482.936224699369632, 2077179.255449080141261 ], [ 332570.952780418330804, 2077169.510330164805055 ], [ 332328.159943743841723, 2076257.564420245820656 ], [ 333416.193175152642652, 2076247.872787907486781 ], [ 333173.524985011958051, 2075335.935280256439 ], [ 334261.574898166349158, 2075326.297097139758989 ], [ 333534.255093713989481, 2072590.563996456796303 ], [ 331358.025035004247911, 2072609.96140148350969 ] ] ], [ [ [ 321204.684416825301014, 2075446.121847234666348 ], [ 321447.584044388495386, 2076357.954419728834182 ], [ 323623.73533182812389, 2076337.37112337956205 ], [ 323380.877846981340554, 2075425.519716687966138 ], [ 321204.684416825301014, 2075446.121847234666348 ] ] ], [ [ [ 325927.541671984829009, 2080886.74809010932222 ], [ 325440.935564809071366, 2079062.864571515703574 ], [ 326528.936587593867444, 2079052.75940131302923 ], [ 325799.868339815468062, 2076317.040486876154318 ], [ 324711.804106649244204, 2076327.174223380861804 ], [ 324954.74422969162697, 2077239.053036520490423 ], [ 323866.696523852879182, 2077249.240460123633966 ], [ 324109.761421062226873, 2078161.127742686541751 ], [ 321933.694468119065277, 2078181.673259733710438 ], [ 321447.584044388495386, 2076357.954419728834182 ], [ 319271.414251823152881, 2076378.790387760149315 ], [ 319514.459790166467428, 2077290.622091013239697 ], [ 320602.525916548329405, 2077280.181889854371548 ], [ 321088.885986085224431, 2079103.91771827894263 ], [ 322176.905260291066952, 2079093.559558753855526 ], [ 322420.219770000549033, 2080005.463798144832253 ], [ 321332.221610425389372, 2080015.812507404247299 ], [ 321575.660958481021225, 2080927.725234165322036 ], [ 323751.610440966789611, 2080907.11005717003718 ], [ 323995.111255820724182, 2081819.059739182004705 ], [ 325083.058021782664582, 2081808.856646873988211 ], [ 324839.578323817695491, 2080896.897423132555559 ], [ 325927.541671984829009, 2080886.74809010932222 ] ] ], [ [ [ 320244.218824559589848, 2080026.224494901718572 ], [ 321332.221610425389372, 2080015.812507404247299 ], [ 321088.885986085224431, 2079103.91771827894263 ], [ 320000.862078536476474, 2079114.339128835592419 ], [ 319757.609066405217163, 2078202.471666123950854 ], [ 318669.559376757359132, 2078212.965706555405632 ], [ 319399.692999049206264, 2080948.59363294695504 ], [ 320487.679302474949509, 2080938.127780086593702 ], [ 320244.218824559589848, 2080026.224494901718572 ] ] ], [ [ [ 321575.660958481021225, 2080927.725234165322036 ], [ 320487.679302474949509, 2080938.127780086593702 ], [ 321218.683107554679736, 2083673.945308186579496 ], [ 322306.601324923336506, 2083663.571198186371475 ], [ 321575.660958481021225, 2080927.725234165322036 ] ] ], [ [ [ 308895.99671935569495, 2086539.021870378404856 ], [ 309140.438062012020964, 2087450.938296163454652 ], [ 312404.095022678608075, 2087417.834822853561491 ], [ 312159.717475291981827, 2086505.890580321894959 ], [ 311071.815452645649202, 2086516.870857600355521 ], [ 310827.520446937473025, 2085604.953758517280221 ], [ 309739.592280773096718, 2085616.006775011075661 ], [ 309983.908543386030942, 2086527.914620423223823 ], [ 308895.99671935569495, 2086539.021870378404856 ] ] ], [ [ [ 311207.046933684614487, 2091087.721544255968183 ], [ 313382.643086654716171, 2091065.790734523907304 ], [ 313137.850393522996455, 2090153.774883777834475 ], [ 310962.211652039724868, 2090175.724414004245773 ], [ 310717.480170172988437, 2089263.745172281283885 ], [ 309629.632187327370048, 2089274.824631296331063 ], [ 309140.438062012020964, 2087450.938296163454652 ], [ 306964.642122810706496, 2087473.324855316895992 ], [ 307209.229861654923297, 2088385.240657984279096 ], [ 306121.345719760865904, 2088396.520033378619701 ], [ 306366.05859695217805, 2089308.444436544785276 ], [ 305278.190759066434111, 2089319.77818639529869 ], [ 306013.016390258504543, 2092055.630616725422442 ], [ 307100.820227635093033, 2092044.324498992646113 ], [ 306610.875308671442326, 2090220.386638029944152 ], [ 307698.716822410351597, 2090209.125682584010065 ], [ 307943.616040288703516, 2091121.094936033012345 ], [ 310119.241552544874139, 2091098.782382968813181 ], [ 310364.201945080654696, 2092010.788079473655671 ], [ 309276.412976918392815, 2092021.903231977019459 ], [ 309521.498501821421087, 2092933.917500477051362 ], [ 311697.028888250875752, 2092911.769533576210961 ], [ 311207.046933684614487, 2091087.721544255968183 ] ], [ [ 307453.92142886063084, 2089297.174261822365224 ], [ 308541.779282937117387, 2089285.96766060963273 ], [ 308786.553365458559711, 2090197.928327835630625 ], [ 307698.716822410351597, 2090209.125682584010065 ], [ 307453.92142886063084, 2089297.174261822365224 ] ] ], [ [ [ 329100.590332471183501, 2092743.754317253828049 ], [ 328855.887632275698707, 2091831.567955896258354 ], [ 327768.178141528856941, 2091841.601236251415685 ], [ 328012.902049598691519, 2092753.77780563570559 ], [ 329100.590332471183501, 2092743.754317253828049 ] ] ], [ [ [ 323172.59029147727415, 2090970.251099426066503 ], [ 322927.988895002228674, 2090058.149660122347996 ], [ 321840.214410420390777, 2090068.520348859252408 ], [ 322574.393426348979119, 2092804.850098445778713 ], [ 321486.678063102881424, 2092815.255537456832826 ], [ 321976.691828658571467, 2094639.546642649685964 ], [ 324152.032935574417934, 2094618.838107871357352 ], [ 323662.104205906565767, 2092794.508321556029841 ], [ 324749.810429893317632, 2092784.230205301428214 ], [ 324505.02285587717779, 2091872.082848555175588 ], [ 327768.178141528856941, 2091841.601236251415685 ], [ 327523.557906605652533, 2090929.442866525845602 ], [ 326435.82275894517079, 2090939.54952057544142 ], [ 326191.285000587697141, 2090027.419062054250389 ], [ 325103.524161952547729, 2090037.59901819517836 ], [ 325348.083125955658033, 2090949.719776433659717 ], [ 323172.59029147727415, 2090970.251099426066503 ] ] ], [ [ [ 330188.274200355343055, 2092733.794482219498605 ], [ 329100.590332471183501, 2092743.754317253828049 ], [ 329590.306719782878645, 2094568.181758753722534 ], [ 330677.948161517037079, 2094558.241618044441566 ], [ 330188.274200355343055, 2092733.794482219498605 ] ] ], [ [ [ 324432.983301669359207, 2103762.092859928030521 ], [ 324679.182810069527477, 2104674.44784285267815 ], [ 326854.05505167634692, 2104653.954726794734597 ], [ 326607.898249044897966, 2103741.579973094630986 ], [ 324432.983301669359207, 2103762.092859928030521 ] ] ], [ [ [ 323243.641471032169648, 2107432.31269998382777 ], [ 322750.638442653580569, 2105607.550623275805265 ], [ 324925.486012416542508, 2105586.821137402206659 ], [ 324679.182810069527477, 2104674.44784285267815 ], [ 323591.739923804881983, 2104684.790426119230688 ], [ 323345.519051880517509, 2103772.445287767332047 ], [ 321170.576859827793669, 2103793.342119720298797 ], [ 321909.678873947821558, 2106530.373494273517281 ], [ 320822.265054579591379, 2106540.888556233141571 ], [ 321068.861233443662059, 2107453.259081964381039 ], [ 323243.641471032169648, 2107432.31269998382777 ] ] ], [ [ [ 322896.600218201405369, 2110180.004759628791362 ], [ 321809.272085164790042, 2110190.480431770905852 ], [ 322056.283134030643851, 2111102.92419284908101 ], [ 323143.589825072675012, 2111092.458415175788105 ], [ 322896.600218201405369, 2110180.004759628791362 ] ] ], [ [ [ 318448.923396177939139, 2113882.752528781071305 ], [ 321710.691670385014731, 2113850.865911622066051 ], [ 322205.690119288105052, 2115675.898929352406412 ], [ 323292.894024339620955, 2115665.418556809425354 ], [ 322056.283134030643851, 2111102.92419284908101 ], [ 319881.655977836926468, 2111124.04839092399925 ], [ 319634.602023614745121, 2110211.624337172135711 ], [ 318547.260039057699032, 2110222.292573463637382 ], [ 319288.797500607208349, 2112959.590190029703081 ], [ 318201.515278868610039, 2112970.293203966226429 ], [ 318448.923396177939139, 2113882.752528781071305 ] ] ], [ [ [ 315779.589396556897555, 2112079.470602254848927 ], [ 316521.942780833458528, 2114816.789784645661712 ], [ 317609.191363420686685, 2114805.977815056685358 ], [ 316866.902507058810443, 2112068.62926938617602 ], [ 315779.589396556897555, 2112079.470602254848927 ] ] ], [ [ [ 318944.050845783436671, 2115707.726160678546876 ], [ 320031.268557999981567, 2115697.052729770541191 ], [ 319783.674476048327051, 2114784.54686487140134 ], [ 317609.191363420686685, 2114805.977815056685358 ], [ 318104.569330081227235, 2116630.968415217008442 ], [ 319191.770174017525278, 2116620.240500006359071 ], [ 318944.050845783436671, 2115707.726160678546876 ] ] ], [ [ [ 320278.966366729873698, 2116609.576967833098024 ], [ 319191.770174017525278, 2116620.240500006359071 ], [ 319439.593235159583855, 2117532.77320976741612 ], [ 320526.767900207429193, 2117522.119595207739621 ], [ 320278.966366729873698, 2116609.576967833098024 ] ] ], [ [ [ 318104.569330081227235, 2116630.968415217008442 ], [ 317017.363806937937625, 2116641.760715004056692 ], [ 317265.229944864287972, 2117554.273671140894294 ], [ 318352.413926038309, 2117543.491234566550702 ], [ 318104.569330081227235, 2116630.968415217008442 ] ] ], [ [ [ 319935.550548042287119, 2119357.893805205821991 ], [ 320183.684795714216307, 2120270.48172322101891 ], [ 321270.794828790822066, 2120259.857974862214178 ], [ 321022.682133270718623, 2119347.260082544293255 ], [ 319935.550548042287119, 2119357.893805205821991 ] ] ], [ [ [ 319003.197718080715276, 2123942.37903571408242 ], [ 318506.116801863536239, 2122117.114007051102817 ], [ 317419.035988768795505, 2122127.911393395159394 ], [ 317667.546177498763427, 2123040.524735329207033 ], [ 316580.482277511386201, 2123051.376750265713781 ], [ 316829.117822830798104, 2123963.998577899299562 ], [ 319003.197718080715276, 2123942.37903571408242 ] ] ], [ [ [ 333290.516846971120685, 2128382.186142096761614 ], [ 332203.640918155899271, 2128392.136706199962646 ], [ 332452.617875391035341, 2129305.002159931696951 ], [ 333539.472234677232336, 2129295.062004602048546 ], [ 333290.516846971120685, 2128382.186142096761614 ] ] ], [ [ [ 332950.882680874725338, 2131130.789389852434397 ], [ 332452.617875391035341, 2129305.002159931696951 ], [ 331365.759216237405781, 2129315.007065907120705 ], [ 331116.760682361666113, 2128402.151993730571121 ], [ 328942.987178182811476, 2128422.37674482120201 ], [ 329192.028886701213196, 2129335.211135538294911 ], [ 328105.15716050285846, 2129345.410302088595927 ], [ 328354.32413064816501, 2130258.253085552249104 ], [ 329441.17425068403827, 2130248.064237917773426 ], [ 330438.792220482369885, 2133899.664091661106795 ], [ 331525.551486436335836, 2133889.581600994803011 ], [ 331276.0131526166806, 2132976.64306588191539 ], [ 332362.789723018766381, 2132966.615015350747854 ], [ 332113.376644708565436, 2132053.68484607571736 ], [ 331026.578457953350153, 2132063.723327031824738 ], [ 330777.24740448826924, 2131150.822368029505014 ], [ 332950.882680874725338, 2131130.789389852434397 ] ] ], [ [ [ 327847.360554358456284, 2152233.117434783838689 ], [ 328099.249459364102222, 2153146.368672446347773 ], [ 329185.582548684964422, 2153136.051195938140154 ], [ 328933.71549646218773, 2152222.789324489422143 ], [ 327847.360554358456284, 2152233.117434783838689 ] ] ] ] } }
]
}
