{
"type": "FeatureCollection",
"name": "urban-2000",
"crs": { "type": "name", "properties": { "name": "urn:ogc:def:crs:EPSG::32643" } },
"features": [
{ "type": "Feature", "properties": { "year": 2000 }, "geometry": { "type": "MultiPolygon", "coordinates": [ [ [ [ 278150.203528730489779, 2069505.575991969555616 ], [ 277907.330142627470195, 2068594.217579020187259 ], [ 276818.858981969591696, 2068607.079976019915193 ], [ 276576.068369683634955, 2067695.746793482918292 ], [ 277664.560809744813014, 2067682.876218889374286 ], [ 277421.895532098191325, 2066771.551896284567192 ], [ 281775.892877895734273, 2066720.666266358690336 ], [ 281533.416637073038146, 2065809.326131111010909 ], [ 279356.386932083172724, 2065834.659560446627438 ], [ 279113.972258727299049, 2064923.352940661134198 ], [ 280202.511194558115676, 2064910.646572208497673 ], [ 279960.221790866460651, 2063999.348795276833698 ], [ 278871.661630201386288, 2064012.063349305652082 ], [ 278387.352515691891313, 2062189.535190833033994 ], [ 277298.74417232623091, 2062202.328853889834136 ], [ 277056.724482995574363, 2061291.098359680501744 ], [ 273790.800958106876351, 2061329.88027207669802 ], [ 274759.758871797472239, 2064974.807176672620699 ], [ 273671.190972682030406, 2064987.827935483772308 ], [ 274156.336950635886751, 2066810.376902224030346 ], [ 275244.862303135334514, 2066797.372298113070428 ], [ 275487.570130370673724, 2067708.680329450871795 ], [ 273310.556140856468119, 2067734.736292965244502 ], [ 274039.431878993811551, 2070468.713683974929154 ], [ 277304.752388855093159, 2070429.797459665918723 ], [ 277061.753655698848888, 2069518.430192983709276 ], [ 278150.203528730489779, 2069505.575991969555616 ] ], [ [ 275002.258549604972359, 2065886.081252270378172 ], [ 276090.799337514792569, 2065873.131470561493188 ], [ 276333.381820861250162, 2066784.430630087386817 ], [ 275244.862303135334514, 2066797.372298113070428 ], [ 275002.258549604972359, 2065886.081252270378172 ] ], [ [ 278025.4275868316181, 2064936.122183491941541 ], [ 278267.863500462495722, 2065847.420626499922946 ], [ 277179.334311702521518, 2065860.244595922762528 ], [ 276936.877150574931875, 2064948.954302537254989 ], [ 278025.4275868316181, 2064936.122183491941541 ] ] ], [ [ [ 277304.752388855093159, 2070429.797459665918723 ], [ 277547.855179418926127, 2071341.181791375391185 ], [ 278636.26245252287481, 2071328.344037546077743 ], [ 278393.180966035171878, 2070416.951473038876429 ], [ 277304.752388855093159, 2070429.797459665918723 ] ] ], [ [ [ 278521.306875357171521, 2074986.890074989525601 ], [ 277547.855179418926127, 2071341.181791375391185 ], [ 274282.598625234444626, 2071380.073480200953782 ], [ 274769.244355885428376, 2073202.844163211528212 ], [ 275857.62634839490056, 2073189.833551806397736 ], [ 276588.31143333367072, 2075924.142207647440955 ], [ 277676.623559162020683, 2075911.219480931758881 ], [ 277432.979159432463348, 2074999.757891938090324 ], [ 278521.306875357171521, 2074986.890074989525601 ] ] ], [ [ [ 278764.929922662209719, 2075898.359961815644056 ], [ 277676.623559162020683, 2075911.219480931758881 ], [ 277920.372012396226637, 2076822.698208561632782 ], [ 279008.657015249831602, 2076809.847005741205066 ], [ 278764.929922662209719, 2075898.359961815644056 ] ] ], [ [ [ 274899.39901528484188, 2077773.102273208787665 ], [ 273811.112220639130101, 2077786.198200046783313 ], [ 274299.300571128027514, 2079609.175129971001297 ], [ 276475.782701505115256, 2079583.079613675130531 ], [ 276231.679307530750521, 2078671.566039864905179 ], [ 277319.933073800173588, 2078658.604945100145414 ], [ 277075.955135292606428, 2077747.100220157997683 ], [ 275987.67997742863372, 2077760.069613870698959 ], [ 275743.784713225089945, 2076848.590320312185213 ], [ 276832.081254464050289, 2076835.612646132474765 ], [ 276588.31143333367072, 2075924.142207647440955 ], [ 274411.669781751348637, 2075950.177291319472715 ], [ 274899.39901528484188, 2077773.102273208787665 ] ] ], [ [ [ 282761.115937664173543, 2078594.748797975946218 ], [ 277319.933073800173588, 2078658.604945100145414 ], [ 277564.015067960834131, 2079570.126836350187659 ], [ 276475.782701505115256, 2079583.079613675130531 ], [ 276964.301672960165888, 2081406.158266328508034 ], [ 278052.491215127578471, 2081393.2221793923527 ], [ 277808.20111574413022, 2080481.665909310569987 ], [ 279984.605797980097122, 2080455.967060328926891 ], [ 279740.462544489302672, 2079544.411234032828361 ], [ 283005.091041534382384, 2079506.312683720141649 ], [ 282761.115937664173543, 2078594.748797975946218 ] ] ], [ [ [ 284747.109685391013045, 2094118.755296143703163 ], [ 283659.23768467042828, 2094131.381220262032002 ], [ 283905.045257383608259, 2095043.214652312919497 ], [ 282817.189192587858997, 2095055.895637800917029 ], [ 283063.122301090857945, 2095967.737846312578768 ], [ 281975.282166839344427, 2095980.473930650157854 ], [ 282467.503513739677146, 2097804.19338802434504 ], [ 283555.300542614189908, 2097791.474717637058347 ], [ 284047.894803248869721, 2099615.281632274389267 ], [ 286223.385892324557062, 2099590.071007848717272 ], [ 285977.079885210143402, 2098678.141198457684368 ], [ 287064.838691189710516, 2098665.622916969936341 ], [ 286818.658213593182154, 2097753.701854972168803 ], [ 285730.877864431473427, 2097766.22895292378962 ], [ 284747.109685391013045, 2094118.755296143703163 ] ] ], [ [ [ 266410.788044269196689, 2119045.832618506159633 ], [ 266909.0822522288654, 2120870.080066550988704 ], [ 267996.451688739296515, 2120856.294245250057429 ], [ 267498.201290221069939, 2119032.029529819265008 ], [ 266410.788044269196689, 2119045.832618506159633 ] ] ], [ [ [ 265732.338803616876248, 2124546.481371886096895 ], [ 265982.102501843939535, 2125458.684148732572794 ], [ 268156.639937511121389, 2125431.005362605210394 ], [ 267906.920161253772676, 2124518.785191648639739 ], [ 265732.338803616876248, 2124546.481371886096895 ] ] ], [ [ [ 268656.391834344132803, 2127255.498482688795775 ], [ 268906.423950777039863, 2128167.771463447250426 ], [ 269993.617821274383459, 2128154.055468583013862 ], [ 269743.607679307111539, 2127241.773693195544183 ], [ 268656.391834344132803, 2127255.498482688795775 ] ] ], [ [ [ 289474.623198258806951, 2131580.71697474271059 ], [ 289724.780692588537931, 2132493.242454277351499 ], [ 290811.763195282313973, 2132480.739141097292304 ], [ 290561.62758369022049, 2131568.204283319879323 ], [ 289474.623198258806951, 2131580.71697474271059 ] ] ], [ [ [ 280778.391302461910527, 2131683.153962132986635 ], [ 281279.160960418521427, 2133508.074729022104293 ], [ 282366.165451266686432, 2133495.061371341347694 ], [ 281865.439684529439546, 2131670.122263404075056 ], [ 280778.391302461910527, 2131683.153962132986635 ] ] ], [ [ [ 281697.088038186309859, 2138996.290613115765154 ], [ 281948.274950694176368, 2139908.876442541368306 ], [ 283035.131123210652731, 2139895.862750003580004 ], [ 282783.966225090553053, 2138983.267634266521782 ], [ 281697.088038186309859, 2138996.290613115765154 ] ] ], [ [ [ 275678.442830999614671, 2140900.874983094166964 ], [ 275929.970098399673589, 2141813.441478970460594 ], [ 277016.816067130537704, 2141800.055279852822423 ], [ 276765.310874883201905, 2140887.479622326791286 ], [ 275678.442830999614671, 2140900.874983094166964 ] ] ], [ [ [ 282450.960799337713979, 2141734.102158577181399 ], [ 281948.274950694176368, 2139908.876442541368306 ], [ 280861.413191471016034, 2139921.955265494529158 ], [ 281112.726142502273433, 2140834.549830358941108 ], [ 280025.88080605014693, 2140847.684534485451877 ], [ 280277.31981729331892, 2141760.287839808966964 ], [ 279190.490898713702336, 2141773.478462174534798 ], [ 278939.029834539978765, 2140860.884399927221239 ], [ 277852.173200107179582, 2140874.149428573902696 ], [ 278103.656324614479672, 2141786.734274890273809 ], [ 277016.816067130537704, 2141800.055279852822423 ], [ 277268.425304727687035, 2142712.648887681309134 ], [ 278355.243486283696257, 2142699.337090623099357 ], [ 279110.629173499182798, 2145437.253515080083162 ], [ 280197.375424406607635, 2145424.034757327288389 ], [ 279945.498256789229345, 2144511.368644434493035 ], [ 281032.260967464535497, 2144498.205866017844528 ], [ 280528.862849328783341, 2142672.909152777865529 ], [ 281615.66408652975224, 2142659.793008206412196 ], [ 281364.143108213203959, 2141747.162405902985483 ], [ 282450.960799337713979, 2141734.102158577181399 ] ] ], [ [ [ 264400.306466162903234, 2147454.286051691509783 ], [ 264652.828234872606117, 2148366.86897224932909 ], [ 265739.589530847617425, 2148352.762679232284427 ], [ 265487.089984051301144, 2147440.170788624323905 ], [ 264400.306466162903234, 2147454.286051691509783 ] ] ], [ [ [ 265992.193206707714126, 2149265.372402689885348 ], [ 266244.901009543449618, 2150177.999975031707436 ], [ 265158.1841819814872, 2150192.088270414620638 ], [ 266170.145656396984123, 2153842.741144052240998 ], [ 267256.773448812833522, 2153828.689074340742081 ], [ 266750.628987776348367, 2152003.308730566408485 ], [ 267837.295350816915743, 2151989.304025740828365 ], [ 268849.911668230022769, 2155640.172918176744133 ], [ 273196.162059527589008, 2155584.956257305108011 ], [ 272942.940863789757714, 2154672.175228806678206 ], [ 276202.6344238317688, 2154631.423754097428173 ], [ 275949.583982419688255, 2153718.632883992046118 ], [ 272689.82374153326964, 2153759.412241846323013 ], [ 272183.901725832663942, 2151933.940327951218933 ], [ 273270.538689345587045, 2151920.263173976447433 ], [ 273017.75600992271211, 2151007.545005193911493 ], [ 276277.698817637574393, 2150966.878769501578063 ], [ 276530.41491223545745, 2151879.624729834031314 ], [ 277617.02885666966904, 2151866.209581250790507 ], [ 277869.826810036436655, 2152778.982948895543814 ], [ 276783.235053842305206, 2152792.388760140631348 ], [ 277542.319739849714097, 2155530.789432611316442 ], [ 278628.844882231438532, 2155517.411748756654561 ], [ 278882.058970036159735, 2156430.257635006215423 ], [ 277795.556048621190712, 2156443.625904575455934 ], [ 278048.896393965056632, 2157356.480527454521507 ], [ 281308.32157664373517, 2157316.600995582062751 ], [ 281815.180964820785448, 2159142.421696555335075 ], [ 282901.600380286748987, 2159129.278920700773597 ], [ 282141.533956962404773, 2156390.546612051781267 ], [ 279968.556243380298838, 2156416.954997662454844 ], [ 279715.364369102870114, 2155504.09966998687014 ], [ 281888.386487450567074, 2155477.672320095356554 ], [ 281382.403568334470037, 2153651.978355059400201 ], [ 280295.850936331320554, 2153665.178163042291999 ], [ 280548.812574186827987, 2154578.006590606179088 ], [ 279462.276517125079408, 2154591.262515512295067 ], [ 278703.63711585092824, 2151852.859929192345589 ], [ 279790.239717581425793, 2151839.5757717480883 ], [ 279537.590140856103972, 2150926.801775623112917 ], [ 278450.965373930637725, 2150940.09530547214672 ], [ 277693.574352872790769, 2148201.909923092462122 ], [ 278780.26556628360413, 2148188.588391222991049 ], [ 278275.902667063637637, 2146363.2031434122473 ], [ 276102.426024762331508, 2146389.948683139402419 ], [ 275346.52927360846661, 2143652.061349160037935 ], [ 276433.336791739508044, 2143638.628280341159552 ], [ 275929.970098399673589, 2141813.441478970460594 ], [ 273756.260915742604993, 2141840.409467348828912 ], [ 273504.68947577837389, 2140927.861213355325162 ], [ 274591.569040588336065, 2140914.335512794088572 ], [ 274088.782534149591811, 2139089.274462185334414 ], [ 273001.858813926461153, 2139102.818320187740028 ], [ 273253.222107813111506, 2140015.33083630586043 ], [ 272166.314651502529159, 2140028.930770796723664 ], [ 271914.929276577895507, 2139116.427296716254205 ], [ 270827.993894222076051, 2139130.101393719669431 ], [ 270325.491247148369439, 2137305.165879691950977 ], [ 269238.50582467589993, 2137318.923017420805991 ], [ 269489.727180418209173, 2138231.372929428704083 ], [ 268402.757929250015877, 2138245.186214821878821 ], [ 268654.105482966639102, 2139157.64495699852705 ], [ 267567.152398299542256, 2139171.514427219517529 ], [ 267818.626171753858216, 2140083.982004481833428 ], [ 266731.689248804817908, 2140097.907696689944714 ], [ 267486.801655105256941, 2142835.390251353383064 ], [ 266399.925181521102786, 2142849.354348694905639 ], [ 266651.859712240344379, 2143761.875145123805851 ], [ 265564.999422188149765, 2143775.895554781425744 ], [ 266321.494291769980919, 2146513.537854294292629 ], [ 265234.694568411097862, 2146527.596714847255498 ], [ 265487.089984051301144, 2147440.170788624323905 ], [ 266573.86750117543852, 2147426.120906079187989 ], [ 267078.926286780158989, 2149251.340533667709678 ], [ 265992.193206707714126, 2149265.372402689885348 ] ], [ [ 274259.716003353591077, 2143665.559670252725482 ], [ 274763.587354004383087, 2145490.781573328189552 ], [ 273676.812555951531976, 2145504.326854279264808 ], [ 272921.095261585665867, 2142766.548308075405657 ], [ 275094.77180225669872, 2142739.468147601000965 ], [ 275346.52927360846661, 2143652.061349160037935 ], [ 274259.716003353591077, 2143665.559670252725482 ] ], [ [ 271079.401357618626207, 2140042.595852897968143 ], [ 269992.482198283309117, 2140056.326084566768259 ], [ 269741.05263897968689, 2139143.840613158419728 ], [ 270827.993894222076051, 2139130.101393719669431 ], [ 271079.401357618626207, 2140042.595852897968143 ] ], [ [ 267738.714027318928856, 2143747.920003465376794 ], [ 267990.730514448718168, 2144660.46756583172828 ], [ 266903.898366070236079, 2144674.413732676301152 ], [ 266651.859712240344379, 2143761.875145123805851 ], [ 267738.714027318928856, 2143747.920003465376794 ] ], [ [ 269077.556723174348008, 2144646.586692117154598 ], [ 268825.562395280576311, 2143734.030127809382975 ], [ 269912.404843986791093, 2143720.205516164656729 ], [ 270668.633659580838867, 2146457.955905934330076 ], [ 267408.288034724304453, 2146499.544345126021653 ], [ 267156.041140927933156, 2145586.970127341337502 ], [ 268242.851114410383161, 2145573.032954451162368 ], [ 267990.730514448718168, 2144660.46756583172828 ], [ 269077.556723174348008, 2144646.586692117154598 ] ], [ [ 272669.397646085824817, 2141853.991260470822453 ], [ 271582.528553723532241, 2141867.638255472294986 ], [ 271330.912911477731541, 2140955.108134817797691 ], [ 272417.804108697921038, 2140941.452086714096367 ], [ 272669.397646085824817, 2141853.991260470822453 ] ] ], [ [ [ 261570.338726960297208, 2152986.951193745713681 ], [ 262076.91432485106634, 2154812.276973789557815 ], [ 263163.543879414326511, 2154797.971598269417882 ], [ 262910.226311011938378, 2153885.29079572390765 ], [ 265083.511887826374732, 2153856.858786170836538 ], [ 264577.278343883808702, 2152031.514690668322146 ], [ 262403.903624161612242, 2152059.982731511816382 ], [ 262657.012891895137727, 2152972.627845490351319 ], [ 261570.338726960297208, 2152986.951193745713681 ] ] ], [ [ [ 281888.386487450567074, 2155477.672320095356554 ], [ 282141.533956962404773, 2156390.546612051781267 ], [ 283228.01445275626611, 2156377.440860006026924 ], [ 282974.889174489537254, 2155464.557045191992074 ], [ 281888.386487450567074, 2155477.672320095356554 ] ] ], [ [ [ 296265.356462715775706, 2156225.290032955817878 ], [ 296518.319920600391924, 2157138.308718281332403 ], [ 297604.708498837775551, 2157126.065839280374348 ], [ 297351.767144371056929, 2156213.037258812226355 ], [ 296265.356462715775706, 2156225.290032955817878 ] ] ], [ [ [ 294926.058914516062941, 2155324.618051757104695 ], [ 291666.713406706694514, 2155361.996201185975224 ], [ 291919.66142154490808, 2156274.957176261115819 ], [ 293006.093084561813157, 2156262.441979882773012 ], [ 293512.256629158975556, 2158088.438742557074875 ], [ 294598.638746028067544, 2158076.008800978772342 ], [ 294345.527147365966812, 2157162.991368255577981 ], [ 295431.926146030949894, 2157150.61722735222429 ], [ 294926.058914516062941, 2155324.618051757104695 ] ] ], [ [ [ 290833.224443758663256, 2156287.537982649635524 ], [ 291592.758506942423992, 2159026.502045274712145 ], [ 292679.129039516905323, 2159013.950574712827802 ], [ 291919.66142154490808, 2156274.957176261115819 ], [ 290833.224443758663256, 2156287.537982649635524 ] ] ], [ [ [ 305135.206315694958903, 2160706.527248029131442 ], [ 304881.982086435426027, 2159793.364108759444207 ], [ 303795.690330351120792, 2159805.182953596115112 ], [ 303036.574416789808311, 2157065.83583438815549 ], [ 301950.211403751280159, 2157077.750589110422879 ], [ 302203.168272696086206, 2157990.837612936738878 ], [ 300030.47121809492819, 2158014.843969311565161 ], [ 299777.470177372801118, 2157101.776964497752488 ], [ 300863.8433332007844, 2157089.730965242255479 ], [ 300610.968244925956242, 2156176.672536337282509 ], [ 299524.573007705505006, 2156188.728512240573764 ], [ 299271.779711173614487, 2155275.698596134781837 ], [ 297098.929679367924109, 2155300.027175967115909 ], [ 297351.767144371056929, 2156213.037258812226355 ], [ 298438.172650110675022, 2156200.850085821002722 ], [ 298691.091908505419269, 2157113.888588600791991 ], [ 297604.708498837775551, 2157126.065839280374348 ], [ 297857.753740686224774, 2158039.112933759111911 ], [ 298944.11504612013232, 2158026.945624661631882 ], [ 299450.472950696828775, 2159853.115362286567688 ], [ 298364.155878221325111, 2159865.262730361428112 ], [ 298870.973540338804014, 2161691.486779969185591 ], [ 299957.24634720722679, 2161679.359430117532611 ], [ 300210.788849736331031, 2162592.509378984104842 ], [ 301297.034414825844578, 2162580.457856810186058 ], [ 300790.097545826691203, 2160754.15646333899349 ], [ 302962.661987166036852, 2160730.210395473055542 ], [ 303216.034254274447449, 2161643.371948208194226 ], [ 304302.2868112368742, 2161631.507637736853212 ], [ 304048.936651660711505, 2160718.335957548115402 ], [ 305135.206315694958903, 2160706.527248029131442 ] ] ], [ [ [ 297205.734314083703794, 2163542.197180049028248 ], [ 299378.206710388301872, 2163517.785214126575738 ], [ 299124.538187912316062, 2162604.62669074954465 ], [ 295865.755344711826183, 2162641.373380968812853 ], [ 296119.490370944258757, 2163554.501895108260214 ], [ 295033.241227509686723, 2163566.872433909215033 ], [ 295287.102341859426815, 2164480.00955101987347 ], [ 297459.551054176175967, 2164455.354260495398194 ], [ 297205.734314083703794, 2163542.197180049028248 ] ] ], [ [ [ 302890.582929049851373, 2164394.868363840505481 ], [ 301804.386718151276, 2164406.833855298813432 ], [ 301550.658638238441199, 2163493.636522183660418 ], [ 299378.206710388301872, 2163517.785214126575738 ], [ 299885.855371715617366, 2165344.158164569642395 ], [ 298799.666091581108049, 2165356.311118904035538 ], [ 299053.668411304359324, 2166269.515490669291466 ], [ 302312.154439151927363, 2166233.284590787719935 ], [ 302058.21865248400718, 2165320.049872662406415 ], [ 303144.392708551022224, 2165308.09453164273873 ], [ 302890.582929049851373, 2164394.868363840505481 ] ] ], [ [ [ 298221.624588458565995, 2167194.937208935152739 ], [ 296049.309096851153299, 2167219.532377232331783 ], [ 296557.966422594734468, 2169045.973988529294729 ], [ 297644.082298722700216, 2169033.663548609241843 ], [ 297389.723919954150915, 2168120.423361013177782 ], [ 298475.856864266854245, 2168108.16881575062871 ], [ 298221.624588458565995, 2167194.937208935152739 ] ] ], [ [ [ 299561.984672843129374, 2168095.980228300672024 ], [ 298475.856864266854245, 2168108.16881575062871 ], [ 298730.19301878917031, 2169021.419095416553319 ], [ 299816.298610490746796, 2169009.240627203602344 ], [ 299561.984672843129374, 2168095.980228300672024 ] ] ], [ [ [ 300648.107373385573737, 2168083.857596919871867 ], [ 300902.399101519375108, 2168997.128142227418721 ], [ 299816.298610490746796, 2169009.240627203602344 ], [ 300070.716416604991537, 2169922.519734876230359 ], [ 301156.794689963222481, 2169910.417415697593242 ], [ 301411.294136629905552, 2170823.725433886982501 ], [ 302497.345125901279971, 2170811.699335753917694 ], [ 303006.611124159884639, 2172638.392155562993139 ], [ 304092.612636168953031, 2172626.452628881204873 ], [ 304857.223725698655471, 2175366.663956116884947 ], [ 307029.078416596457828, 2175343.045309394132346 ], [ 306519.32280448381789, 2173516.177431501913816 ], [ 307605.287221387843601, 2173504.446539374534041 ], [ 307350.587353717128281, 2172591.030562671367079 ], [ 305178.609159983228892, 2172614.57918896805495 ], [ 304923.968685398576781, 2171701.202796500641853 ], [ 303837.949941513361409, 2171713.08654195908457 ], [ 303583.391084598202724, 2170799.739271749742329 ], [ 305755.468020993634127, 2170776.017239303328097 ], [ 305246.750612794770859, 2168949.338000229094177 ], [ 304160.670247514499351, 2168961.186569466721267 ], [ 303906.44510379480198, 2168047.885421919636428 ], [ 302820.337561162537895, 2168059.810195447877049 ], [ 302566.194076073006727, 2167146.538026202470064 ], [ 301480.059321856009774, 2167158.53893199423328 ], [ 301734.224993591429666, 2168071.80091987689957 ], [ 300648.107373385573737, 2168083.857596919871867 ] ], [ [ 304414.999227078922559, 2169874.506503353826702 ], [ 302242.867897701798938, 2169898.381105195730925 ], [ 301988.494519569212571, 2168985.08163875900209 ], [ 304160.670247514499351, 2168961.186569466721267 ], [ 304414.999227078922559, 2169874.506503353826702 ] ] ], [ [ [ 286253.019910519127734, 2054787.194532451452687 ], [ 286012.043858027900569, 2053876.01841292437166 ], [ 284923.296326974290423, 2053888.321476773358881 ], [ 285164.293456347601023, 2054799.489394780481234 ], [ 284075.56141360476613, 2054811.846818291814998 ], [ 284316.683636358357035, 2055723.023550884099677 ], [ 283227.96707613550825, 2055735.435371906030923 ], [ 283469.214413881534711, 2056646.620924937073141 ], [ 284557.909866444766521, 2056634.217287635430694 ], [ 284799.240101864794269, 2057545.428043771069497 ], [ 283710.565765186329372, 2057557.823479076148942 ], [ 284435.243880398920737, 2060291.533300483832136 ], [ 285523.85482008906547, 2060279.162580920150504 ], [ 285040.674340615340043, 2058456.655834528850392 ], [ 286129.321964949253015, 2058444.331291121663526 ], [ 285405.394586832378991, 2055710.67431998741813 ], [ 287582.799771903140936, 2055686.16362146474421 ], [ 287341.740804468514398, 2054774.96222953335382 ], [ 286253.019910519127734, 2054787.194532451452687 ] ] ], [ [ [ 277419.98291315784445, 2058544.682544133625925 ], [ 277903.45960464788368, 2060367.074963043676689 ], [ 278992.104582392668817, 2060354.327850101748481 ], [ 278508.670250077615492, 2058531.919261643197387 ], [ 277419.98291315784445, 2058544.682544133625925 ] ] ], [ [ [ 277056.724482995574363, 2061291.098359680501744 ], [ 278145.35403373191366, 2061278.296593220671639 ], [ 277903.45960464788368, 2060367.074963043676689 ], [ 276814.80885477171978, 2060379.884814587188885 ], [ 277056.724482995574363, 2061291.098359680501744 ] ] ], [ [ [ 279233.977819546591491, 2061265.557592515600845 ], [ 278145.35403373191366, 2061278.296593220671639 ], [ 278387.352515691891313, 2062189.535190833033994 ], [ 280564.551957613439299, 2062164.136241619940847 ], [ 280322.59586875961395, 2061252.881355733377859 ], [ 283588.415879935084376, 2061215.229210711317137 ], [ 283346.62733849522192, 2060303.966747771017253 ], [ 278992.104582392668817, 2060354.327850101748481 ], [ 279233.977819546591491, 2061265.557592515600845 ] ] ], [ [ [ 290603.540148393367417, 2062964.2955424671527 ], [ 291087.591294095967896, 2064787.040580521803349 ], [ 292176.069000603863969, 2064775.025711495662108 ], [ 291692.060138297732919, 2062952.263723046751693 ], [ 290603.540148393367417, 2062964.2955424671527 ] ] ], [ [ [ 289637.602987812715583, 2067545.454825784545392 ], [ 289395.171217122464441, 2066634.038959465688094 ], [ 290483.617456711828709, 2066621.915294340578839 ], [ 290241.310829412192106, 2065710.508185635320842 ], [ 291329.772799586993642, 2065698.438937413971871 ], [ 291087.591294095967896, 2064787.040580521803349 ], [ 287822.125512347090989, 2064823.462323101237416 ], [ 288064.370522867306136, 2065734.835334815084934 ], [ 285887.408206161460839, 2065759.414032662985846 ], [ 286614.894308298942633, 2068493.585769754135981 ], [ 290968.542585175600834, 2068444.781255388166755 ], [ 290726.028042635356542, 2067533.339645795058459 ], [ 289637.602987812715583, 2067545.454825784545392 ] ] ], [ [ [ 286614.894308298942633, 2068493.585769754135981 ], [ 285526.468465880607255, 2068505.944324417971075 ], [ 285769.193040783633478, 2069417.360869642114267 ], [ 286857.597653282573447, 2069405.010728229302913 ], [ 286614.894308298942633, 2068493.585769754135981 ] ] ], [ [ [ 279238.647645251068752, 2069492.784804784459993 ], [ 279481.603793936898001, 2070404.168527394998819 ], [ 280570.020900828298181, 2070391.448620894923806 ], [ 280813.059800863265991, 2071302.857732459902763 ], [ 281901.449932617018931, 2071290.209177535958588 ], [ 281415.518721843487583, 2069467.391464548185468 ], [ 282503.945738457434345, 2069454.789307842496783 ], [ 282261.157430600142106, 2068543.397839400917292 ], [ 280084.255200995365158, 2068568.681743204593658 ], [ 280327.086033532512374, 2069480.056629587896168 ], [ 279238.647645251068752, 2069492.784804784459993 ] ] ], [ [ [ 283592.367111639352515, 2069442.250157657777891 ], [ 283835.238178073428571, 2070353.667117996141315 ], [ 286012.021609353250824, 2070328.794611800927669 ], [ 285769.193040783633478, 2069417.360869642114267 ], [ 283592.367111639352515, 2069442.250157657777891 ] ] ], [ [ [ 297138.330621294095181, 2071119.750175302149728 ], [ 296895.610201549716294, 2070208.21349761262536 ], [ 295807.275518363108858, 2070219.988031510496512 ], [ 295079.67422829644056, 2067485.508288552751765 ], [ 296168.072407674975693, 2067473.707781317410991 ], [ 295683.566786277689971, 2065650.790746557991952 ], [ 294595.126317138026934, 2065662.608477405272424 ], [ 294837.348309826222248, 2066574.049724850337952 ], [ 293748.923655775957741, 2066585.921757024247199 ], [ 293506.680515165789984, 2065674.489085022592917 ], [ 292418.229352078051306, 2065686.432571118930355 ], [ 292660.49364776071161, 2066597.856694850604981 ], [ 291572.058257497672457, 2066609.854540046770126 ], [ 292056.941022548999172, 2068432.737544090487063 ], [ 290968.542585175600834, 2068444.781255388166755 ], [ 291453.883532074512914, 2070267.716310607269406 ], [ 292542.239573193131946, 2070255.689715883228928 ], [ 293027.953893361904193, 2072078.711178835248575 ], [ 291939.640281334053725, 2072090.720583336194977 ], [ 292182.674576823832467, 2073002.248714859131724 ], [ 294359.253986797877587, 2072978.310250657843426 ], [ 293873.374219066172373, 2071155.236814370611683 ], [ 296050.017119913711213, 2071131.516014606691897 ], [ 296535.812068270635791, 2072954.624176769750193 ], [ 297624.083181423600763, 2072942.875781929353252 ], [ 297867.115317792980932, 2073854.464741858653724 ], [ 298955.359984278678894, 2073842.788216561079025 ], [ 299198.474814702931326, 2074754.403430430684239 ], [ 300286.693068848690018, 2074742.79884580289945 ], [ 299800.609693773440085, 2072919.568268002942204 ], [ 301977.115442443871871, 2072896.51311059249565 ], [ 301734.27193104266189, 2071984.906396002741531 ], [ 299557.72383592906408, 2072007.979206558549777 ], [ 299314.941867223358713, 2071096.407609386369586 ], [ 297138.330621294095181, 2071119.750175302149728 ] ] ], [ [ [ 278636.26245252287481, 2071328.344037546077743 ], [ 278879.447986178682186, 2072239.753700816072524 ], [ 281056.202731622266583, 2072214.283979628002271 ], [ 280813.059800863265991, 2071302.857732459902763 ], [ 278636.26245252287481, 2071328.344037546077743 ] ] ], [ [ [ 295690.610235832107719, 2073878.007153109414503 ], [ 295933.788710121181794, 2074789.596061967080459 ], [ 298110.25135568738915, 2074766.071160213788971 ], [ 297867.115317792980932, 2073854.464741858653724 ], [ 295690.610235832107719, 2073878.007153109414503 ] ] ], [ [ [ 289911.420200516819023, 2084914.085852902615443 ], [ 290400.71646267210599, 2086737.560232759220526 ], [ 291488.716146576683968, 2086725.373449910664931 ], [ 290999.462648001674097, 2084901.881559730274603 ], [ 289911.420200516819023, 2084914.085852902615443 ] ] ], [ [ [ 293941.220142302161548, 2095843.885979608632624 ], [ 293449.887863466225099, 2094020.042645988054574 ], [ 294537.710829178977292, 2094007.990380978677422 ], [ 294046.837154322420247, 2092184.19972425349988 ], [ 295134.697678262367845, 2092172.193273744778708 ], [ 294644.282543603214435, 2090348.455263175535947 ], [ 293556.379186525591649, 2090360.479555792175233 ], [ 293801.556206027977169, 2091272.330836826004088 ], [ 292713.668932086206041, 2091284.409867310896516 ], [ 292958.971308259293437, 2092196.269851544639096 ], [ 291871.100111933192238, 2092208.403657351853326 ], [ 291380.556434582918882, 2090384.719010088359937 ], [ 289204.712111275992356, 2090409.212968094740063 ], [ 288714.49852107145125, 2088585.633689873619005 ], [ 289802.466251301695593, 2088573.337346704909578 ], [ 289557.536823431088123, 2087661.565195747185498 ], [ 290645.520527736633085, 2087649.323651492595673 ], [ 290400.71646267210599, 2086737.560232759220526 ], [ 288224.700801557162777, 2086762.124351993203163 ], [ 288469.547676465590484, 2087673.870286186458543 ], [ 286293.552941899048164, 2087698.671112702926621 ], [ 286538.546641668770462, 2088610.417103338055313 ], [ 285450.562436178093776, 2088622.90417719585821 ], [ 284960.636154081206769, 2086799.44694123766385 ], [ 281696.521443558856845, 2086837.341265923110768 ], [ 281451.649986472679302, 2085925.664475948782638 ], [ 280363.579042024386581, 2085938.431498281890526 ], [ 281098.569851864827797, 2088673.488295436138287 ], [ 278922.539708043681458, 2088699.161873720120639 ], [ 279904.155787699040957, 2092346.078808403108269 ], [ 283167.934555430430919, 2092307.766741496976465 ], [ 282431.75993253121851, 2089572.475752816535532 ], [ 284607.713266995735466, 2089547.200928470352665 ], [ 284852.957849841215648, 2090458.964451694628224 ], [ 285940.904687425179873, 2090446.431130395736545 ], [ 286431.66289158759173, 2092270.027925461530685 ], [ 285343.759002809179947, 2092282.543839292833582 ], [ 285834.976125264365692, 2094106.193119059782475 ], [ 286922.837032418698072, 2094093.694687204901129 ], [ 286677.197970934270415, 2093181.852552691241726 ], [ 288852.946267687832005, 2093157.029335400555283 ], [ 289098.542361089843325, 2094068.889052010839805 ], [ 290186.386838864535093, 2094056.581845107953995 ], [ 290432.065414588432759, 2094968.467972364509478 ], [ 291519.882998015324119, 2094956.233381167519838 ], [ 292011.509034961520229, 2096780.076246103970334 ], [ 293099.27827512222575, 2096767.923283932264894 ], [ 292853.434768335428089, 2095855.984094940358773 ], [ 293941.220142302161548, 2095843.885979608632624 ] ], [ [ 285695.681566673330963, 2089534.658931355224922 ], [ 286783.644325521076098, 2089522.180541873676702 ], [ 287028.845991424866952, 2090433.961443888954818 ], [ 285940.904687425179873, 2090446.431130395736545 ], [ 285695.681566673330963, 2089534.658931355224922 ] ], [ [ 289695.341555950115435, 2092232.862311496166512 ], [ 290783.223537209036294, 2092220.601143418578431 ], [ 291274.225896434509195, 2094044.338376307627186 ], [ 290186.386838864535093, 2094056.581845107953995 ], [ 289695.341555950115435, 2092232.862311496166512 ] ], [ [ 288607.454140018555336, 2092245.187163347611204 ], [ 288362.065980110084638, 2091333.362520216032863 ], [ 289449.974852817889769, 2091321.028873837087303 ], [ 289695.341555950115435, 2092232.862311496166512 ], [ 288607.454140018555336, 2092245.187163347611204 ] ], [ [ 281343.774841433682013, 2089585.208583679515868 ], [ 281834.49688780674478, 2091408.701287154341117 ], [ 280746.549133725930005, 2091421.480579927098006 ], [ 280255.78409688163083, 2089598.005029440158978 ], [ 281343.774841433682013, 2089585.208583679515868 ] ] ], [ [ [ 293099.27827512222575, 2096767.923283932264894 ], [ 293345.225714922184125, 2097679.880136163439602 ], [ 294432.968128532054834, 2097667.799978019203991 ], [ 294187.042173007852398, 2096755.834137856960297 ], [ 293099.27827512222575, 2096767.923283932264894 ] ] ], [ [ [ 308120.52853381971363, 2103924.09908748138696 ], [ 307627.798573324689642, 2102099.732773516327143 ], [ 306540.220138714066707, 2102111.064053376205266 ], [ 306786.554662884911522, 2103023.228812039829791 ], [ 305698.992699601803906, 2103034.614680574741215 ], [ 305945.452522077714093, 2103946.78802821598947 ], [ 308120.52853381971363, 2103924.09908748138696 ] ] ], [ [ [ 304857.907024594140239, 2103958.228522689081728 ], [ 305104.492166889947839, 2104870.410464898217469 ], [ 306192.016179448459297, 2104858.979352666065097 ], [ 305945.452522077714093, 2103946.78802821598947 ], [ 304857.907024594140239, 2103958.228522689081728 ] ] ], [ [ [ 298629.607899875263683, 2113173.939881437458098 ], [ 298381.915533591934945, 2112261.671032499987632 ], [ 299469.307893558696378, 2112249.801504551433027 ], [ 299221.741025560419075, 2111337.541291409637779 ], [ 301396.553478295099922, 2111313.976345773786306 ], [ 301891.70469107630197, 2113138.552202972117811 ], [ 304066.410338721761946, 2113115.281912002246827 ], [ 303818.825981408241205, 2112202.966121578589082 ], [ 305993.554606377729215, 2112179.934043900575489 ], [ 305746.117235079407692, 2111267.617369343061 ], [ 306833.495598435983993, 2111256.18822278175503 ], [ 306338.97545341134537, 2109431.590103616472334 ], [ 304164.12752886058297, 2109454.550488306675106 ], [ 303422.9968774295412, 2106717.845171098131686 ], [ 302335.500744341581594, 2106729.449766935314983 ], [ 302088.643374967738055, 2105817.259957103058696 ], [ 303176.161030927556567, 2105805.646023047622293 ], [ 302436.27663180581294, 2103069.156229342799634 ], [ 303523.853712130221538, 2103057.578387577552348 ], [ 303277.454782266111579, 2102145.441663175355643 ], [ 304365.048271259409375, 2102133.918496566358954 ], [ 304611.42572537320666, 2103046.064538539387286 ], [ 305698.992699601803906, 2103034.614680574741215 ], [ 305206.384567448636517, 2101210.321852154098451 ], [ 304118.774664277443662, 2101221.790380894672126 ], [ 303872.604906458465848, 2100309.680175667162985 ], [ 306047.862584711168893, 2100286.788411460351199 ], [ 305801.839558931766078, 2099374.67749645980075 ], [ 304714.191799213527702, 2099386.100740396417677 ], [ 304468.251181633211672, 2098474.017038627527654 ], [ 305555.920370005187578, 2098462.58449761942029 ], [ 305310.105019952345174, 2097550.509399096015841 ], [ 307485.471187976188958, 2097527.817232757806778 ], [ 307239.802481890190393, 2096615.741417780285701 ], [ 306152.100498839048669, 2096627.064903483260423 ], [ 305661.031797011033632, 2094802.985547846648842 ], [ 304573.282023296982516, 2094814.391347150783986 ], [ 305064.393510801834054, 2096638.452185055240989 ], [ 303976.681489676469937, 2096649.903264130465686 ], [ 303240.105840121977963, 2093913.866437810240313 ], [ 304327.882048990461044, 2093902.387691678013653 ], [ 304082.585923677543178, 2092990.401857473421842 ], [ 301906.985656972625293, 2093013.441410246072337 ], [ 302888.964407356572337, 2096661.418142355047166 ], [ 301801.242235736339353, 2096672.996821381617337 ], [ 302292.897636265901383, 2098497.073682834394276 ], [ 300117.523678766796365, 2098520.385754347313195 ], [ 300363.550082785543054, 2099432.432539649307728 ], [ 299275.876843837206252, 2099444.175203653518111 ], [ 300014.643757335899863, 2102180.394962940365076 ], [ 298927.02980278810719, 2102192.17400174960494 ], [ 299173.514707621536218, 2103104.273727663327008 ], [ 296998.314241450570989, 2103128.005387557670474 ], [ 297491.681817779433914, 2104952.221615856513381 ], [ 296404.116822439827956, 2104964.165138313081115 ], [ 296157.359541509824339, 2104052.057275568135083 ], [ 295069.767747233971022, 2104064.073994568083435 ], [ 293591.277085706067737, 2098591.854667356237769 ], [ 292503.550836748443544, 2098603.989689320325851 ], [ 292257.47796626528725, 2097692.024137572851032 ], [ 291169.724854458647314, 2097704.231983991805464 ], [ 290923.73442441795487, 2096792.293026119936258 ], [ 289835.954415378859267, 2096804.573625733144581 ], [ 290328.082242983276956, 2098628.451351530849934 ], [ 291415.819231873960234, 2098616.188583460636437 ], [ 292154.726028038363438, 2101352.164388654753566 ], [ 289979.375843267072923, 2101376.700106933712959 ], [ 290225.929091005702503, 2102288.70945735508576 ], [ 289138.267446426325478, 2102301.064308433793485 ], [ 290125.606280714971945, 2105949.242726273369044 ], [ 289038.025553677580319, 2105961.625704114325345 ], [ 289532.361928361700848, 2107785.803169794846326 ], [ 288444.819005144701805, 2107798.232257170602679 ], [ 288692.164763480017427, 2108710.338569514919072 ], [ 286517.105822096462362, 2108735.371245694346726 ], [ 287012.19585466751596, 2110559.601057128980756 ], [ 288099.684741236676928, 2110547.070620205253363 ], [ 288595.147325393278152, 2112371.389423743356019 ], [ 287507.701792013831437, 2112383.90179258165881 ], [ 288003.623617764911614, 2114208.273578614927828 ], [ 286916.216013462399133, 2114220.832152191083878 ], [ 287909.3941640414414, 2117869.752978815697134 ], [ 286822.06800344446674, 2117882.339606607332826 ], [ 286076.963222596154083, 2115145.649533842690289 ], [ 283902.163939071178902, 2115171.070428085513413 ], [ 283405.860419895092491, 2113346.735250369645655 ], [ 282318.408974297984969, 2113359.560179899446666 ], [ 281574.668570294277743, 2110623.216870428062975 ], [ 282662.185167497140355, 2110610.365217873360962 ], [ 282414.501431925687939, 2109698.2772062914446 ], [ 283502.034124421421438, 2109685.480903313495219 ], [ 283254.47608517576009, 2108773.401653335429728 ], [ 284342.024878192227334, 2108760.660662588663399 ], [ 284094.592513616196811, 2107848.590168881695718 ], [ 285182.157412400643807, 2107835.904453018214554 ], [ 284934.850700846174732, 2106923.842710237950087 ], [ 286022.43171066546347, 2106911.212231905665249 ], [ 285528.17353672767058, 2105087.123889575712383 ], [ 284440.549257492879406, 2105099.772156201768667 ], [ 284193.554529781395104, 2104187.763313464820385 ], [ 283105.903063008212484, 2104200.484497308265418 ], [ 282858.990712501807138, 2103288.502076567150652 ], [ 281771.312023731996305, 2103301.296106399968266 ], [ 281277.756118623306975, 2101477.401481261942536 ], [ 280190.028553710784763, 2101490.277014223393053 ], [ 279943.38502050738316, 2100578.364695142954588 ], [ 278855.630165558308363, 2100591.312885840423405 ], [ 279102.295317537966184, 2101503.216522444039583 ], [ 276926.811719040968455, 2101529.287472100462765 ], [ 277420.540702074766159, 2103353.112521385774016 ], [ 276332.83358961326303, 2103366.226708345580846 ], [ 274606.451703285099939, 2096983.204082533717155 ], [ 273518.587343111517839, 2096996.442192914895713 ], [ 273272.356025978166144, 2096084.659806159324944 ], [ 274360.241993121628184, 2096071.413215335225686 ], [ 273376.443918160395697, 2092424.422893742797896 ], [ 272288.471605289843865, 2092437.703219815157354 ], [ 272042.760722284961957, 2091526.007235806202516 ], [ 270954.76095126371365, 2091539.359635167056695 ], [ 270709.13259621913312, 2090627.689226660877466 ], [ 269621.105332476145122, 2090641.11362832877785 ], [ 269375.559516551205888, 2089729.468715489609167 ], [ 268287.504725505306851, 2089742.965048506157473 ], [ 268533.072112842462957, 2090654.601692766882479 ], [ 267445.032909159664996, 2090668.153421912575141 ], [ 268182.424566464091185, 2093403.141556923277676 ], [ 269270.398984585131984, 2093389.614663774613291 ], [ 270008.662878034170717, 2096124.78251695795916 ], [ 268920.753319460782222, 2096138.284406403778121 ], [ 268674.539616791065782, 2095226.552906953031197 ], [ 266498.659288827329874, 2095253.764801259618253 ], [ 267237.742625441402197, 2097988.961038939654827 ], [ 268325.620838315226138, 2097975.348142455797642 ], [ 269806.468783254793379, 2103446.256674440577626 ], [ 268718.720698144985363, 2103459.819160722196102 ], [ 271195.346519460785203, 2112579.303609735332429 ], [ 270107.810079164220951, 2112592.844901256728917 ], [ 270604.428071179601829, 2114416.933778386563063 ], [ 269516.929346299380995, 2114430.522173335775733 ], [ 270014.007403330411762, 2116254.663726122584194 ], [ 266751.60661055939272, 2116295.763637335970998 ], [ 267498.201290221069939, 2119032.029529819265008 ], [ 268585.608555895509198, 2119018.290962712373585 ], [ 269582.438201232638676, 2122666.925222422461957 ], [ 267407.792963403626345, 2122694.397548911161721 ], [ 267906.920161253772676, 2124518.785191648639739 ], [ 268994.201880394946784, 2124505.034132041037083 ], [ 269743.607679307111539, 2127241.773693195544183 ], [ 270830.817610679310746, 2127228.113669478334486 ], [ 271330.898053358949255, 2129052.712536651175469 ], [ 272418.058171609940473, 2129039.134993522427976 ], [ 272918.51101711706724, 2130863.822408378124237 ], [ 274005.621347018925007, 2130850.327528380788863 ], [ 274506.446528015832882, 2132675.103824282065034 ], [ 273419.380176370847039, 2132688.580781270749867 ], [ 273669.970868473057635, 2133600.986616760026664 ], [ 272582.92071240930818, 2133614.519535542000085 ], [ 272833.637493759742938, 2134526.934176370035857 ], [ 270659.563708768808283, 2134554.176994730718434 ], [ 270408.80287110916106, 2133641.780236352235079 ], [ 268234.661471484345384, 2133669.30076786223799 ], [ 267983.960661018267274, 2132756.93947550887242 ], [ 266896.859011087450199, 2132770.806009930558503 ], [ 266646.240278146229684, 2131858.471202010288835 ], [ 265559.110602247877978, 2131872.41145398421213 ], [ 266813.355789068154991, 2136434.218128735665232 ], [ 267900.375156947993673, 2136420.321972467470914 ], [ 267398.408845351543278, 2134595.528613254893571 ], [ 269572.518006995436735, 2134567.895880142226815 ], [ 269823.404986882174853, 2135480.301465046126395 ], [ 270910.428641164908186, 2135466.591499200090766 ], [ 271161.39766621903982, 2136379.023765686433762 ], [ 272248.393397516803816, 2136365.387777526862919 ], [ 272499.444456702505704, 2137277.846806777175516 ], [ 273586.412299567949958, 2137264.284867678768933 ], [ 273837.545381838455796, 2138176.770740917418152 ], [ 276011.419591017998755, 2138149.860191154293716 ], [ 275760.330600942950696, 2137237.356174484360963 ], [ 276847.281115231919102, 2137223.989416530355811 ], [ 276596.318207676173188, 2136311.494176688138396 ], [ 277683.285020941286348, 2136298.183354776818305 ], [ 277432.448174198099878, 2135385.696886749006808 ], [ 280693.380515283322893, 2135346.127111210953444 ], [ 279691.337295182631351, 2131696.250545080751181 ], [ 278604.277634774916805, 2131709.412014123983681 ], [ 278354.004944512736984, 2130796.996673998888582 ], [ 277266.917647603317164, 2130810.23209158424288 ], [ 276266.779541962838266, 2127160.784969309810549 ], [ 277353.954578745062463, 2127147.513499446678907 ], [ 277104.20209645666182, 2126235.187172672711313 ], [ 278191.393322400050238, 2126221.971462304703891 ], [ 277193.511438275570981, 2122572.807764254044741 ], [ 278280.784483828465454, 2122559.620886971708387 ], [ 277782.511529918760061, 2120735.127532319165766 ], [ 278869.822571190888993, 2120721.987382013350725 ], [ 278620.86399386508856, 2119809.758344519417733 ], [ 279708.191177174856421, 2119796.67380912322551 ], [ 279210.629768179613166, 2117972.250993716064841 ], [ 280297.994902521371841, 2117959.21310491906479 ], [ 281293.446573463559616, 2121608.165451603941619 ], [ 282380.718820710899308, 2121595.22798030404374 ], [ 284126.610847404692322, 2127981.642987073864788 ], [ 285213.724574288527947, 2127968.833918244577944 ], [ 285963.458310608984903, 2130706.164749305695295 ], [ 284876.410246297949925, 2130718.946180338971317 ], [ 285376.796457278251182, 2132543.904692044481635 ], [ 284289.786702763405629, 2132556.732506821397692 ], [ 284540.157713195716497, 2133469.229464072268456 ], [ 282366.165451266686432, 2133495.061371341347694 ], [ 282616.68434569996316, 2134407.557826599106193 ], [ 283703.661303464090452, 2134394.618631786666811 ], [ 283954.262243806268089, 2135307.142287850845605 ], [ 285041.211702934873756, 2135294.277327394112945 ], [ 284790.632713941624388, 2134381.744398917537183 ], [ 285877.598605030565523, 2134368.935126148629934 ], [ 285627.145540090627037, 2133456.410910782404244 ], [ 287801.104725281358697, 2133430.968595709651709 ], [ 287300.598193864396308, 2131605.936968010384589 ], [ 289474.623198258806951, 2131580.71697474271059 ], [ 289224.569657450832892, 2130668.209535847883672 ], [ 290311.595917438156903, 2130655.687485199887305 ], [ 290561.62758369022049, 2131568.204283319879323 ], [ 291648.626595163950697, 2131555.75645964499563 ], [ 291898.740331341396086, 2132468.300722823943943 ], [ 292985.71212867758004, 2132455.927197676617652 ], [ 293987.118849550490268, 2136106.323279426433146 ], [ 292900.234606391517445, 2136118.658883965108544 ], [ 293150.867997431429103, 2137031.293781878892332 ], [ 294237.73033160099294, 2137018.967705127317458 ], [ 294488.445730254927184, 2137931.630325202830136 ], [ 298835.755007819272578, 2137883.014731491915882 ], [ 298334.603285486693494, 2136057.630843821447343 ], [ 299421.461399723775685, 2136045.620221839752048 ], [ 298920.76894166925922, 2134220.290082053747028 ], [ 300007.665619599749334, 2134208.325126979500055 ], [ 299757.497053068422247, 2133295.677793347742409 ], [ 298670.57853448856622, 2133307.652382051572204 ], [ 298420.492011281312443, 2132395.032907101325691 ], [ 300594.367570019850973, 2132371.129381418693811 ], [ 300344.428574167890474, 2131458.508897074963897 ], [ 301431.38047612842638, 2131446.644803982228041 ], [ 301681.297662233817391, 2132359.274938237387687 ], [ 303855.142611874849536, 2132335.760682702064514 ], [ 303605.269023459870368, 2131423.111167098395526 ], [ 306866.064121614326723, 2131388.297059807926416 ], [ 307115.872367925476283, 2132300.975851274561137 ], [ 309289.667418553959578, 2132278.110312194563448 ], [ 309039.902697422134224, 2131365.411867575254291 ], [ 310126.814622158068232, 2131354.066530315671116 ], [ 309877.175450983224437, 2130441.37662033829838 ], [ 312051.028179122193251, 2130418.860677177552134 ], [ 311552.148121575941332, 2128593.496555941645056 ], [ 309378.208511484670453, 2128616.051941504236311 ], [ 309128.880747261282522, 2127703.41714024823159 ], [ 310215.874696814920753, 2127692.097252011299133 ], [ 309966.67244268686045, 2126779.47098841983825 ], [ 311053.683216164587066, 2126768.206000169273466 ], [ 310804.606450625229627, 2125855.58826883463189 ], [ 311891.634053361369297, 2125844.378143553622067 ], [ 311642.682754914043471, 2124931.768939052708447 ], [ 312729.7271922621876, 2124920.613639724440873 ], [ 312480.901339412899688, 2124008.012956616468728 ], [ 314655.01910446403781, 2123985.876547352876514 ], [ 314406.340310717234388, 2123073.274520555976778 ], [ 316580.482277511386201, 2123051.376750265713781 ], [ 316331.950483498629183, 2122138.773330603726208 ], [ 317419.035988768795505, 2122127.911393395159394 ], [ 317170.629545224423055, 2121215.316462180111557 ], [ 319344.829679926624522, 2121193.766350532416254 ], [ 319593.192950735450722, 2122106.381170023232698 ], [ 320680.264463339990471, 2122095.712880773469806 ], [ 320431.922768158023246, 2121183.088076344691217 ], [ 322606.095126178348437, 2121161.925083585549146 ], [ 322357.900267213524785, 2120249.29871682357043 ], [ 324532.097471947956365, 2120228.373665667138994 ], [ 324284.049390026833862, 2119315.745687214192003 ], [ 319935.550548042287119, 2119357.893805205821991 ], [ 320183.684795714216307, 2120270.48172322101891 ], [ 319096.57014001684729, 2120281.169963424559683 ], [ 318600.362261036643758, 2118456.032421611715108 ], [ 317513.19982999691274, 2118466.804976087529212 ], [ 317265.229944864287972, 2117554.273671140894294 ], [ 318352.413926038309, 2117543.491234566550702 ], [ 318104.569330081227235, 2116630.968415217008442 ], [ 317017.363806937937625, 2116641.760715004056692 ], [ 316769.601418249658309, 2115729.266091546509415 ], [ 315682.369646949984599, 2115740.132594594731927 ], [ 315187.113067999656778, 2113915.217858921270818 ], [ 314099.833482605055906, 2113926.168245740234852 ], [ 314595.13313330640085, 2115751.063458127435297 ], [ 313507.891849326435477, 2115762.058683711104095 ], [ 313755.718882401357405, 2116674.523937345482409 ], [ 314842.938611084886361, 2116663.538474506698549 ], [ 315090.847854434221517, 2117576.031785810831934 ], [ 312916.446740019251592, 2117598.047566257417202 ], [ 313412.662832505418919, 2119423.049952667672187 ], [ 312325.498251491459087, 2119434.13496035663411 ], [ 312822.172659980715252, 2121259.190982002299279 ], [ 311735.046480594202876, 2121270.320932892616838 ], [ 311486.63576770509826, 2120357.793546355329454 ], [ 310399.483124287682585, 2120368.997777249198407 ], [ 309902.929845580656547, 2118544.017279638443142 ], [ 308815.729088199324906, 2118555.305402298923582 ], [ 309063.975443140196148, 2119467.776843263301998 ], [ 307976.791392006911337, 2119479.119762871414423 ], [ 306984.342400756955612, 2115829.381729248911142 ], [ 308071.612894620513543, 2115818.000297918915749 ], [ 307823.781793971196748, 2114905.601615763735026 ], [ 305649.19265224726405, 2114928.447986008599401 ], [ 306641.312795377452858, 2118578.075008875224739 ], [ 305554.097203974262811, 2118589.556496056262404 ], [ 305802.408449371228926, 2119501.999049789272249 ], [ 304715.209501917241141, 2119513.53542038006708 ], [ 305212.186803329735994, 2121338.455857297871262 ], [ 304125.026162627153099, 2121350.03756307112053 ], [ 304373.692246307153255, 2122262.515448833350092 ], [ 303286.548254266614094, 2122274.152120502665639 ], [ 303784.235340848332271, 2124099.143247812986374 ], [ 302697.129699312383309, 2124110.825334704946727 ], [ 302448.212524199334439, 2123198.330268470570445 ], [ 300273.942569814564195, 2123221.907421527430415 ], [ 300025.085832511307672, 2122309.449573191348463 ], [ 297850.751900353061501, 2122333.304089943412691 ], [ 298099.652086377958767, 2123245.742990840226412 ], [ 297012.499076370208059, 2123257.757685858290642 ], [ 297510.654612067271955, 2125082.670838995371014 ], [ 296423.539895520021673, 2125094.731274812482297 ], [ 297171.617726867378224, 2127832.208343568723649 ], [ 298258.667117682169192, 2127820.176352536771446 ], [ 298508.212398560310248, 2128732.714463667944074 ], [ 299595.234825285384431, 2128720.756764407735318 ], [ 299844.862199746712577, 2129633.322604699991643 ], [ 298757.861565521219745, 2129645.270738251041621 ], [ 299257.47154946369119, 2131470.437842197716236 ], [ 295996.569459783029743, 2131506.613806886132807 ], [ 294997.50329420901835, 2127856.466567698866129 ], [ 293910.438196497678291, 2127868.692804273683578 ], [ 293660.909626356093213, 2126956.210679751355201 ], [ 292573.817424566717818, 2126968.511060228105634 ], [ 292823.367807288479526, 2127880.983792854938656 ], [ 290649.211042631766759, 2127905.760033092461526 ], [ 290150.126930498692673, 2126080.869970917701721 ], [ 292324.370972930686548, 2126056.056364019401371 ], [ 292075.028454438201152, 2125143.619688205420971 ], [ 293162.164256841060705, 2125131.300580843351781 ], [ 292165.920658421120606, 2121481.696535109076649 ], [ 293253.138221292756498, 2121469.404763204045594 ], [ 293004.358902630745433, 2120557.039403711911291 ], [ 295178.821586735313758, 2120532.63088403781876 ], [ 294681.661637959128711, 2118707.916840718593448 ], [ 295768.928494923515245, 2118695.790696720127016 ], [ 295272.22760849725455, 2116871.129922601394355 ], [ 296359.532593494630419, 2116859.049594007898122 ], [ 295863.290705787832849, 2115034.442058154381812 ], [ 296950.633785031328443, 2115022.407510047778487 ], [ 296702.690357474028133, 2114110.12137322826311 ], [ 297790.049858291400596, 2114098.141869057435542 ], [ 297542.231972156092525, 2113185.864378887694329 ], [ 298629.607899875263683, 2113173.939881437458098 ] ], [ [ 301181.567153594340198, 2130534.0329195628874 ], [ 302268.535755026387051, 2130522.224018733948469 ], [ 302518.327283256687224, 2131434.845561220310628 ], [ 301431.38047612842638, 2131446.644803982228041 ], [ 301181.567153594340198, 2130534.0329195628874 ] ], [ [ 308473.638795660925098, 2121304.097981298342347 ], [ 306299.342437092214823, 2121326.938692844472826 ], [ 306050.82352775754407, 2120414.45977669628337 ], [ 307137.995836258050986, 2120402.997512204106897 ], [ 306889.602403409779072, 2119490.527164502069354 ], [ 307976.791392006911337, 2119479.119762871414423 ], [ 308473.638795660925098, 2121304.097981298342347 ] ], [ [ 290898.909017818630673, 2128818.232077908702195 ], [ 289811.84442919108551, 2128830.708003725856543 ], [ 289562.12461131659802, 2127918.245288299396634 ], [ 290649.211042631766759, 2127905.760033092461526 ], [ 290898.909017818630673, 2128818.232077908702195 ] ], [ [ 294184.917356483638287, 2116883.274670212063938 ], [ 294433.23753778450191, 2117795.586779342964292 ], [ 293345.943691464490257, 2117807.786682513076812 ], [ 293594.389500527759083, 2118720.107459809631109 ], [ 291419.829272311995737, 2118744.682130272500217 ], [ 291171.340023635304533, 2117832.379839640110731 ], [ 292258.644529411569238, 2117820.051035359036177 ], [ 291762.021286735311151, 2115995.481722122058272 ], [ 292849.363856560026761, 2115983.198912082705647 ], [ 292601.229834813682828, 2115070.931887096725404 ], [ 293688.588758684811182, 2115058.704244939144701 ], [ 292944.87530469277408, 2112321.982850728090852 ], [ 294032.293901084456593, 2112309.791924198623747 ], [ 292794.958267617737874, 2107748.900816415436566 ], [ 293882.479664072336163, 2107736.728328987024724 ], [ 293388.316112600499764, 2105912.478364916052669 ], [ 295563.429323430056684, 2105888.289249915163964 ], [ 296304.701027692586649, 2108624.745829885359854 ], [ 295217.211816130205989, 2108636.780842306558043 ], [ 295464.531798050156794, 2109548.959547189995646 ], [ 296551.999411621538457, 2109536.933739111758769 ], [ 297294.517982380231842, 2112273.604836722370237 ], [ 296207.115211905678734, 2112285.602918930351734 ], [ 296454.8508324175491, 2113197.853181495331228 ], [ 295367.46445264655631, 2113209.906290980987251 ], [ 295615.325623873737641, 2114122.165211447514594 ], [ 294527.955629481002688, 2114134.273385442327708 ], [ 295272.22760849725455, 2116871.129922601394355 ], [ 294184.917356483638287, 2116883.274670212063938 ] ], [ [ 305958.431528415356297, 2124075.972950916271657 ], [ 304871.33594123297371, 2124087.525787104852498 ], [ 304622.462173190433532, 2123175.011518150102347 ], [ 305709.579453051497694, 2123163.449039832223207 ], [ 305958.431528415356297, 2124075.972950916271657 ] ], [ [ 271635.975228763767518, 2106168.47195737157017 ], [ 270548.298233866633382, 2106181.944855834823102 ], [ 270300.917646305460948, 2105270.031426741741598 ], [ 271388.616366989561357, 2105256.549996433779597 ], [ 271635.975228763767518, 2106168.47195737157017 ] ] ], [ [ [ 307576.054511990980245, 2113993.221083192154765 ], [ 307823.781793971196748, 2114905.601615763735026 ], [ 308911.068932582857087, 2114894.274948156438768 ], [ 308663.363225478387903, 2113981.884826514404267 ], [ 307576.054511990980245, 2113993.221083192154765 ] ] ], [ [ [ 295768.928494923515245, 2118695.790696720127016 ], [ 296514.759134254651144, 2121432.916801044717431 ], [ 299776.332971114490647, 2121397.009832695126534 ], [ 299527.683987677097321, 2120484.588184003252536 ], [ 298440.476188413973432, 2120496.502070920076221 ], [ 298191.909388786763884, 2119584.107928556390107 ], [ 299279.138884243206121, 2119572.184611089527607 ], [ 299030.697662860096898, 2118659.799097941722721 ], [ 295768.928494923515245, 2118695.790696720127016 ] ] ], [ [ [ 296514.759134254651144, 2121432.916801044717431 ], [ 293253.138221292756498, 2121469.404763204045594 ], [ 293751.008637696271762, 2123294.189433053135872 ], [ 297012.499076370208059, 2123257.757685858290642 ], [ 296514.759134254651144, 2121432.916801044717431 ] ] ], [ [ [ 296084.563128354842775, 2127844.305081378202885 ], [ 296583.84477351163514, 2129669.361405263189226 ], [ 297670.855766082066111, 2129657.283671198412776 ], [ 297171.617726867378224, 2127832.208343568723649 ], [ 296084.563128354842775, 2127844.305081378202885 ] ] ], [ [ [ 312550.323372419341467, 2132244.298493626061827 ], [ 312800.126639853115194, 2133157.045078156050295 ], [ 313886.980565290490631, 2133145.914164130110294 ], [ 313637.199036091624293, 2132233.157611649949104 ], [ 312550.323372419341467, 2132244.298493626061827 ] ] ], [ [ [ 313050.033685076225083, 2134069.810135232284665 ], [ 312800.126639853115194, 2133157.045078156050295 ], [ 311713.26791309134569, 2133168.240880406927317 ], [ 311463.442900205380283, 2132255.504236637149006 ], [ 309289.667418553959578, 2132278.110312194563448 ], [ 309539.535944017698057, 2133190.827156009152532 ], [ 310626.404357113060541, 2133179.501572486944497 ], [ 310876.354916788463015, 2134092.246737153269351 ], [ 309789.50827176135499, 2134103.562415252439678 ], [ 310289.764325881784316, 2135929.088245018385351 ], [ 311376.567410283838399, 2135917.792434918694198 ], [ 311126.409268530551344, 2135005.010352541692555 ], [ 312213.229294670047238, 2134993.769544730894268 ], [ 312463.365659258270171, 2135906.561597825028002 ], [ 314636.94776245392859, 2135884.294836230576038 ], [ 314136.865864117513411, 2134058.689208196476102 ], [ 313050.033685076225083, 2134069.810135232284665 ] ] ], [ [ [ 301510.858295345969964, 2139684.593160570133477 ], [ 301761.753934835549444, 2140597.368656042497605 ], [ 305021.954273133480456, 2140562.068444480188191 ], [ 304771.124283474637195, 2139649.26348453015089 ], [ 301510.858295345969964, 2139684.593160570133477 ] ] ], [ [ [ 305272.888097611139528, 2141474.891835485119373 ], [ 307446.286225672112778, 2141451.703783100470901 ], [ 307195.396147705963813, 2140538.86057499749586 ], [ 305021.954273133480456, 2140562.068444480188191 ], [ 305272.888097611139528, 2141474.891835485119373 ] ] ], [ [ [ 308532.977878880163189, 2141440.207474150694907 ], [ 307446.286225672112778, 2141451.703783100470901 ], [ 307948.377828844124451, 2143277.445672360714525 ], [ 309035.025732845184393, 2143265.969319423660636 ], [ 308532.977878880163189, 2141440.207474150694907 ] ] ], [ [ [ 318481.360912419389933, 2145915.530847873073071 ], [ 316308.268117954139598, 2145937.444299252703786 ], [ 316811.091302266635466, 2147763.51379068242386 ], [ 318984.096652464359067, 2147741.641450092662126 ], [ 319235.620116413803771, 2148654.724902035668492 ], [ 320322.093969982932322, 2148643.897060060873628 ], [ 320070.59236849413719, 2147730.803260848391801 ], [ 321157.083482219837606, 2147720.03039023373276 ], [ 320905.707448272034526, 2146806.945027637295425 ], [ 318732.676917112781666, 2146828.576770861633122 ], [ 318481.360912419389933, 2145915.530847873073071 ] ] ], [ [ [ 302709.970281842688564, 2050953.843233785126358 ], [ 302950.298477680538781, 2051865.102412282954901 ], [ 304038.997106073133182, 2051853.844890691107139 ], [ 303798.689841537619941, 2050942.577103414339945 ], [ 302709.970281842688564, 2050953.843233785126358 ] ] ], [ [ [ 302342.604614712356124, 2053698.975353761576116 ], [ 302102.047731196274981, 2052787.690234857611358 ], [ 303190.730540958698839, 2052776.378862347919494 ], [ 302950.298477680538781, 2051865.102412282954901 ], [ 301861.594721339060925, 2051876.422384621109813 ], [ 301621.245587127748877, 2050965.171787716448307 ], [ 299443.78067919111345, 2050988.016172794625163 ], [ 299684.171711383271031, 2051899.249688065610826 ], [ 298595.452401057817042, 2051910.757022460689768 ], [ 299076.588083507725969, 2053733.25866410904564 ], [ 302342.604614712356124, 2053698.975353761576116 ] ] ], [ [ [ 302342.604614712356124, 2053698.975353761576116 ], [ 302583.265369897591881, 2054610.277756679337472 ], [ 303671.906261879601516, 2054598.983638566918671 ], [ 303431.266469687630888, 2053687.672599324258044 ], [ 302342.604614712356124, 2053698.975353761576116 ] ] ], [ [ [ 301977.115442443871871, 2072896.51311059249565 ], [ 302220.062824578024447, 2073808.137341857189313 ], [ 303308.286812408943661, 2073796.713278480572626 ], [ 303065.36060100060422, 2072885.080161429010332 ], [ 301977.115442443871871, 2072896.51311059249565 ] ] ], [ [ [ 316023.003368024015799, 2084638.694665631745011 ], [ 315535.144524170900695, 2082814.856657280120999 ], [ 313359.204533417825587, 2082836.447623763931915 ], [ 313603.124473720730748, 2083748.339042440522462 ], [ 314691.075666349614039, 2083737.521180717973039 ], [ 314935.078175674774684, 2084649.439777142833918 ], [ 316023.003368024015799, 2084638.694665631745011 ] ] ], [ [ [ 311671.273756931419484, 2084682.055667251115665 ], [ 311915.443719372095075, 2085593.964200376067311 ], [ 314091.275695712771267, 2085572.175452841911465 ], [ 314335.506973385810852, 2086484.120476098265499 ], [ 315423.394505146017764, 2086473.330646024318412 ], [ 314935.078175674774684, 2084649.439777142833918 ], [ 311671.273756931419484, 2084682.055667251115665 ] ] ], [ [ [ 309983.908543386030942, 2086527.914620423223823 ], [ 308895.99671935569495, 2086539.021870378404856 ], [ 309140.438062012020964, 2087450.938296163454652 ], [ 312404.095022678608075, 2087417.834822853561491 ], [ 312159.717475291981827, 2086505.890580321894959 ], [ 311071.815452645649202, 2086516.870857600355521 ], [ 310827.520446937473025, 2085604.953758517280221 ], [ 309739.592280773096718, 2085616.006775011075661 ], [ 309983.908543386030942, 2086527.914620423223823 ] ] ], [ [ [ 312893.161483808187768, 2089241.776958788046613 ], [ 313980.994870883703697, 2089230.888201154302806 ], [ 313736.431013817724306, 2088318.898822293384001 ], [ 312648.576359520375263, 2088329.796943746507168 ], [ 312893.161483808187768, 2089241.776958788046613 ] ] ], [ [ [ 307209.229861654923297, 2088385.240657984279096 ], [ 305033.456564746680669, 2088407.862956715514883 ], [ 306013.016390258504543, 2092055.630616725422442 ], [ 307100.820227635093033, 2092044.324498992646113 ], [ 306855.79585290432442, 2091132.346653589047492 ], [ 309031.431264123297296, 2091109.906846362398937 ], [ 309521.498501821421087, 2092933.917500477051362 ], [ 311697.028888250875752, 2092911.769533576210961 ], [ 311207.046933684614487, 2091087.721544255968183 ], [ 312294.847435678355396, 2091076.724328633863479 ], [ 312539.765209090139251, 2091988.748728493927047 ], [ 313627.539561191573739, 2091977.824526850599796 ], [ 313382.643086654716171, 2091065.790734523907304 ], [ 314470.43391475151293, 2091054.920760354027152 ], [ 314960.288051515701227, 2092879.025160380639136 ], [ 316048.031507391482592, 2092868.23771694349125 ], [ 315558.219948096433654, 2091044.114404564490542 ], [ 316646.001214823569171, 2091033.371665601618588 ], [ 316156.647246263164561, 2089209.301376291085035 ], [ 313980.994870883703697, 2089230.888201154302806 ], [ 314225.662505198735744, 2090142.895508569199592 ], [ 310962.211652039724868, 2090175.724414004245773 ], [ 310717.480170172988437, 2089263.745172281283885 ], [ 309629.632187327370048, 2089274.824631296331063 ], [ 309140.438062012020964, 2087450.938296163454652 ], [ 306964.642122810706496, 2087473.324855316895992 ], [ 307209.229861654923297, 2088385.240657984279096 ] ] ], [ [ [ 305555.920370005187578, 2098462.58449761942029 ], [ 305801.839558931766078, 2099374.67749645980075 ], [ 306889.482307075639255, 2099363.318131578620523 ], [ 306643.584539628005587, 2098451.21580848377198 ], [ 305555.920370005187578, 2098462.58449761942029 ] ] ], [ [ [ 306047.862584711168893, 2100286.788411460351199 ], [ 306293.989445313927718, 2101198.917258475441486 ], [ 307381.589325949491467, 2101187.576598223764449 ], [ 307135.483903190353885, 2100275.438389537855983 ], [ 306047.862584711168893, 2100286.788411460351199 ] ] ], [ [ [ 323390.683136217237916, 2112004.930438619107008 ], [ 322896.600218201405369, 2110180.004759628791362 ], [ 321809.272085164790042, 2110190.480431770905852 ], [ 322056.283134030643851, 2111102.92419284908101 ], [ 319881.655977836926468, 2111124.04839092399925 ], [ 319634.602023614745121, 2110211.624337172135711 ], [ 318547.260039057699032, 2110222.292573463637382 ], [ 319288.797500607208349, 2112959.590190029703081 ], [ 318201.515278868610039, 2112970.293203966226429 ], [ 318448.923396177939139, 2113882.752528781071305 ], [ 319536.184122907696292, 2113872.059357 ], [ 319783.674476048327051, 2114784.54686487140134 ], [ 320870.909062083635945, 2114773.927881201263517 ], [ 320623.440204976883251, 2113861.430485121905804 ], [ 321710.691670385014731, 2113850.865911622066051 ], [ 321463.34801668842556, 2112938.376978734973818 ], [ 322550.616367041249759, 2112927.866778333671391 ], [ 322303.397895332542248, 2112015.386302997358143 ], [ 323390.683136217237916, 2112004.930438619107008 ] ] ], [ [ [ 316274.387896724976599, 2113904.331778193823993 ], [ 316521.942780833458528, 2114816.789784645661712 ], [ 317609.191363420686685, 2114805.977815056685358 ], [ 317361.657996783731505, 2113893.510001997929066 ], [ 316274.387896724976599, 2113904.331778193823993 ] ] ], [ [ [ 322797.938547132303938, 2113840.365634985733777 ], [ 321710.691670385014731, 2113850.865911622066051 ], [ 321958.139038593624718, 2114763.373223112896085 ], [ 320870.909062083635945, 2114773.927881201263517 ], [ 321366.157936209114268, 2116598.977817169390619 ], [ 322453.344910437182989, 2116588.44304649438709 ], [ 322205.690119288105052, 2115675.898929352406412 ], [ 324380.093382981605828, 2115655.002534036990255 ], [ 324132.585275018587708, 2114742.45687763672322 ], [ 323045.364433574664872, 2114752.882889092899859 ], [ 322797.938547132303938, 2113840.365634985733777 ] ] ], [ [ [ 318944.050845783436671, 2115707.726160678546876 ], [ 320031.268557999981567, 2115697.052729770541191 ], [ 319783.674476048327051, 2114784.54686487140134 ], [ 317609.191363420686685, 2114805.977815056685358 ], [ 318104.569330081227235, 2116630.968415217008442 ], [ 319191.770174017525278, 2116620.240500006359071 ], [ 318944.050845783436671, 2115707.726160678546876 ] ] ], [ [ [ 320278.966366729873698, 2116609.576967833098024 ], [ 319191.770174017525278, 2116620.240500006359071 ], [ 319439.593235159583855, 2117532.77320976741612 ], [ 320526.767900207429193, 2117522.119595207739621 ], [ 320278.966366729873698, 2116609.576967833098024 ] ] ], [ [ [ 324532.097471947956365, 2120228.373665667138994 ], [ 324780.249246003571898, 2121141.020154887810349 ], [ 325867.319536486349534, 2121130.664460810367018 ], [ 325619.18929418589687, 2120218.007869548164308 ], [ 324532.097471947956365, 2120228.373665667138994 ] ] ], [ [ [ 323693.174451887258328, 2121151.440361981280148 ], [ 323941.451463089324534, 2122064.095284447539598 ], [ 322854.393691563571338, 2122074.569939501117915 ], [ 323102.795961328083649, 2122987.233300799038261 ], [ 325276.86386238632258, 2122966.368730586022139 ], [ 324780.249246003571898, 2121141.020154887810349 ], [ 323693.174451887258328, 2121151.440361981280148 ] ] ], [ [ [ 319003.197718080715276, 2123942.37903571408242 ], [ 318506.116801863536239, 2122117.114007051102817 ], [ 317419.035988768795505, 2122127.911393395159394 ], [ 317667.546177498763427, 2123040.524735329207033 ], [ 316580.482277511386201, 2123051.376750265713781 ], [ 316829.117822830798104, 2123963.998577899299562 ], [ 319003.197718080715276, 2123942.37903571408242 ] ] ], [ [ [ 322015.75520687981043, 2122997.762440792750567 ], [ 322264.282756632135715, 2123910.434246492106467 ], [ 323351.301933437702246, 2123899.91518371924758 ], [ 323102.795961328083649, 2122987.233300799038261 ], [ 322015.75520687981043, 2122997.762440792750567 ] ] ], [ [ [ 316829.117822830798104, 2123963.998577899299562 ], [ 315742.070830509881489, 2123974.905258437618613 ], [ 315990.831753885839134, 2124887.535577275324613 ], [ 317077.857117422448937, 2124876.638829703442752 ], [ 316829.117822830798104, 2123963.998577899299562 ] ] ], [ [ [ 327267.469606245751493, 2130268.506716833915561 ], [ 327516.7618594179512, 2131181.357898595742881 ], [ 328603.594762371096294, 2131171.11457803286612 ], [ 328354.32413064816501, 2130258.253085552249104 ], [ 327267.469606245751493, 2130268.506716833915561 ] ] ], [ [ [ 327343.893730220152065, 2150406.671912507619709 ], [ 327092.31581520306645, 2149493.477594716474414 ], [ 326005.890942521509714, 2149503.902854935266078 ], [ 326257.490693075407762, 2150417.086623828392476 ], [ 325171.083214231475722, 2150427.566727790050209 ], [ 324919.461620950140059, 2149514.393480586353689 ], [ 323833.02782269497402, 2149524.949473169632256 ], [ 324084.671265898621641, 2150438.112225890625268 ], [ 322998.254820286529139, 2150448.723119639325887 ], [ 322746.589519957720768, 2149535.570834195706993 ], [ 320573.69928985927254, 2149557.009667663834989 ], [ 321329.137539211427793, 2152296.460505914408714 ], [ 322415.519295221194625, 2152285.739699704106897 ], [ 322667.517572052776814, 2153198.938176568597555 ], [ 329185.582548684964422, 2153136.051195938140154 ], [ 328933.71549646218773, 2152222.789324489422143 ], [ 327847.360554358456284, 2152233.117434783838689 ], [ 327595.575310624553822, 2151319.885187003295869 ], [ 328681.95209736545803, 2151309.54646215820685 ], [ 328430.29235345532652, 2150396.322592338081449 ], [ 327343.893730220152065, 2150406.671912507619709 ] ] ], [ [ [ 320242.751216985401697, 2152307.246766756754369 ], [ 320494.793293015216477, 2153220.424329735804349 ], [ 321581.157712030690163, 2153209.648512235842645 ], [ 321329.137539211427793, 2152296.460505914408714 ], [ 320242.751216985401697, 2152307.246766756754369 ] ] ], [ [ [ 325596.709339307330083, 2155917.486202226951718 ], [ 325344.443788069998845, 2155004.209806608501822 ], [ 323171.825223459280096, 2155025.391877686604857 ], [ 324181.684859457658604, 2158678.526733919978142 ], [ 325267.90868456492899, 2158667.945269457995892 ], [ 325015.310176720726304, 2157754.622468792367727 ], [ 326101.551472088205628, 2157744.096005795057863 ], [ 325849.07856800139416, 2156830.781596414744854 ], [ 326935.337338808225468, 2156820.310098251327872 ], [ 326682.990017049596645, 2155907.004074877128005 ], [ 325596.709339307330083, 2155917.486202226951718 ] ] ], [ [ [ 323348.20263247564435, 2159602.494433686602861 ], [ 324434.408992492826656, 2159591.857931133825332 ], [ 324181.684859457658604, 2158678.526733919978142 ], [ 323095.456546434666961, 2158689.17384190717712 ], [ 323348.20263247564435, 2159602.494433686602861 ] ] ], [ [ [ 324940.168312942958437, 2161418.57742182072252 ], [ 327112.479801064531785, 2161397.54412823356688 ], [ 326859.592216056538746, 2160484.153491558972746 ], [ 325773.416736403713003, 2160494.647975007072091 ], [ 325520.610871814540587, 2159581.287099312059581 ], [ 324434.408992492826656, 2159591.857931133825332 ], [ 324940.168312942958437, 2161418.57742182072252 ] ] ], [ [ [ 329284.773645994835533, 2161376.773723197169602 ], [ 327112.479801064531785, 2161397.54412823356688 ], [ 327365.471051137545146, 2162310.953863421920687 ], [ 329537.720991707290523, 2162290.204975609201938 ], [ 329284.773645994835533, 2161376.773723197169602 ] ] ], [ [ [ 310571.082777275412809, 2051787.611136633902788 ], [ 310811.368412223935593, 2052698.948546786326915 ], [ 311900.011048709508032, 2052688.136952876346186 ], [ 311659.746303906431422, 2051776.790725368307903 ], [ 310571.082777275412809, 2051787.611136633902788 ] ] ], [ [ [ 314558.038987285457551, 2054489.481470340397209 ], [ 314077.281667726871092, 2052666.701159179676324 ], [ 312988.648791094543412, 2052677.387824190082029 ], [ 313228.996444426127709, 2053588.760347368661314 ], [ 312140.379593351855874, 2053599.50061325612478 ], [ 312380.851935851271264, 2054510.881721934303641 ], [ 314558.038987285457551, 2054489.481470340397209 ] ] ], [ [ [ 314558.038987285457551, 2054489.481470340397209 ], [ 314798.573317280155607, 2055400.897868586704135 ], [ 318064.255130134231877, 2055369.29330418817699 ], [ 317823.783460034872405, 2054457.849963183049113 ], [ 314558.038987285457551, 2054489.481470340397209 ] ] ], [ [ [ 332203.888600642094389, 2071688.365897050127387 ], [ 332446.142236327053979, 2072600.231177370296791 ], [ 330269.903461518057156, 2072619.754670196678489 ], [ 330512.302706239162944, 2073531.618770355824381 ], [ 328336.088325287797488, 2073551.375342824263498 ], [ 328578.633237716276199, 2074463.238313678652048 ], [ 327490.540402976213954, 2074473.20168347354047 ], [ 327733.210010260110721, 2075385.073096905369312 ], [ 328821.281820443458855, 2075375.119275405071676 ], [ 329306.889988824608736, 2077198.935234646545723 ], [ 333658.964998928480782, 2077159.828391957329586 ], [ 333416.193175152642652, 2076247.872787907486781 ], [ 334504.222090561757796, 2076238.244307661661878 ], [ 333534.255093713989481, 2072590.563996456796303 ], [ 334622.363635392044671, 2072580.959857354639098 ], [ 334380.151922875782475, 2071669.075291763059795 ], [ 332203.888600642094389, 2071688.365897050127387 ] ] ], [ [ [ 322907.159934036433697, 2081829.326161182485521 ], [ 322663.637995249708183, 2080917.385993688367307 ], [ 323751.610440966789611, 2080907.11005717003718 ], [ 323995.111255820724182, 2081819.059739182004705 ], [ 325083.058021782664582, 2081808.856646873988211 ], [ 324839.578323817695491, 2080896.897423132555559 ], [ 325927.541671984829009, 2080886.74809010932222 ], [ 325440.935564809071366, 2079062.864571515703574 ], [ 327616.933118006796576, 2079042.717474788194522 ], [ 327130.826065696193837, 2077218.867759973043576 ], [ 326042.787400904111564, 2077228.928803621791303 ], [ 325799.868339815468062, 2076317.040486876154318 ], [ 324711.804106649244204, 2076327.174223380861804 ], [ 324954.74422969162697, 2077239.053036520490423 ], [ 323866.696523852879182, 2077249.240460123633966 ], [ 324109.761421062226873, 2078161.127742686541751 ], [ 321933.694468119065277, 2078181.673259733710438 ], [ 321690.587395485839806, 2077269.804885312216356 ], [ 322778.644255185266957, 2077259.491075896425173 ], [ 322535.661987144383602, 2076347.631188336992636 ], [ 323623.73533182812389, 2076337.37112337956205 ], [ 323380.877846981340554, 2075425.519716687966138 ], [ 321204.684416825301014, 2075446.121847234666348 ], [ 321447.584044388495386, 2076357.954419728834182 ], [ 319271.414251823152881, 2076378.790387760149315 ], [ 319514.459790166467428, 2077290.622091013239697 ], [ 316250.233244304545224, 2077322.321889252401888 ], [ 315764.119264466688037, 2075498.732162361266091 ], [ 312499.723105895449407, 2075531.056118624052033 ], [ 312742.791586466832086, 2076442.814442503266037 ], [ 311654.670991560909897, 2076453.706239682156593 ], [ 312141.161619128892198, 2078277.257766051916406 ], [ 313229.239912572607864, 2078266.384341681143269 ], [ 312985.963856024609413, 2077354.590511630522087 ], [ 315162.148246090277098, 2077333.014891983242705 ], [ 315405.382014243048616, 2078244.827194919809699 ], [ 316493.445878877071664, 2078234.14346943073906 ], [ 316736.762273885426112, 2079145.982881713891402 ], [ 318912.83350945089478, 2079124.823791920673102 ], [ 319399.692999049206264, 2080948.59363294695504 ], [ 320487.679302474949509, 2080938.127780086593702 ], [ 321218.683107554679736, 2083673.945308186579496 ], [ 323394.514944221882615, 2083653.260475253686309 ], [ 323150.785584361001384, 2082741.284316431032494 ], [ 322062.850817732920405, 2082751.604563753353432 ], [ 321819.204028251057025, 2081839.655914349714294 ], [ 322907.159934036433697, 2081829.326161182485521 ] ], [ [ 322420.219770000549033, 2080005.463798144832253 ], [ 321332.221610425389372, 2080015.812507404247299 ], [ 321088.885986085224431, 2079103.91771827894263 ], [ 322176.905260291066952, 2079093.559558753855526 ], [ 322420.219770000549033, 2080005.463798144832253 ] ] ], [ [ [ 320130.760263945092447, 2083684.382806744193658 ], [ 319399.692999049206264, 2080948.59363294695504 ], [ 317223.706337190174963, 2080969.715265513397753 ], [ 317467.334001482813619, 2081881.608268518233672 ], [ 315291.37075140431989, 2081902.964471637737006 ], [ 315535.144524170900695, 2082814.856657280120999 ], [ 318799.018774384283461, 2082782.945470854407176 ], [ 319042.83276592742186, 2083694.883695359807462 ], [ 320130.760263945092447, 2083684.382806744193658 ] ] ], [ [ [ 329100.590332471183501, 2092743.754317253828049 ], [ 328855.887632275698707, 2091831.567955896258354 ], [ 327768.178141528856941, 2091841.601236251415685 ], [ 328012.902049598691519, 2092753.77780563570559 ], [ 329100.590332471183501, 2092743.754317253828049 ] ] ], [ [ [ 325103.524161952547729, 2090037.59901819517836 ], [ 325348.083125955658033, 2090949.719776433659717 ], [ 324260.338979510124773, 2090959.953635560581461 ], [ 324015.758802802418359, 2090047.842550394125283 ], [ 321840.214410420390777, 2090068.520348859252408 ], [ 322574.393426348979119, 2092804.850098445778713 ], [ 321486.678063102881424, 2092815.255537456832826 ], [ 321976.691828658571467, 2094639.546642649685964 ], [ 324152.032935574417934, 2094618.838107871357352 ], [ 323662.104205906565767, 2092794.508321556029841 ], [ 324749.810429893317632, 2092784.230205301428214 ], [ 325484.795317751239054, 2095520.781297466251999 ], [ 326572.433278154872824, 2095510.596083274576813 ], [ 325592.745781450357754, 2091861.858681126264855 ], [ 327768.178141528856941, 2091841.601236251415685 ], [ 327523.557906605652533, 2090929.442866525845602 ], [ 326435.82275894517079, 2090939.54952057544142 ], [ 326191.285000587697141, 2090027.419062054250389 ], [ 325103.524161952547729, 2090037.59901819517836 ] ] ], [ [ [ 329100.590332471183501, 2092743.754317253828049 ], [ 329590.306719782878645, 2094568.181758753722534 ], [ 330677.948161517037079, 2094558.241618044441566 ], [ 330188.274200355343055, 2092733.794482219498605 ], [ 329100.590332471183501, 2092743.754317253828049 ] ] ], [ [ [ 328502.660877153626643, 2094578.185607242630795 ], [ 328747.695792620768771, 2095490.41687142662704 ], [ 329835.320402882876806, 2095480.422870873473585 ], [ 329590.306719782878645, 2094568.181758753722534 ], [ 328502.660877153626643, 2094578.185607242630795 ] ] ], [ [ [ 323309.5058500909945, 2095541.34294969914481 ], [ 323554.750739242765121, 2096453.543552628951147 ], [ 324642.376464394037612, 2096443.240585924591869 ], [ 324397.152851096761879, 2095531.030252450844273 ], [ 323309.5058500909945, 2095541.34294969914481 ] ] ], [ [ [ 326817.614360964566004, 2096422.825959468260407 ], [ 327905.226588576391805, 2096412.714296784251928 ], [ 327660.066760411602445, 2095500.474608412245288 ], [ 326572.433278154872824, 2095510.596083274576813 ], [ 326817.614360964566004, 2096422.825959468260407 ] ] ], [ [ [ 324045.551627322449349, 2098277.999333023559302 ], [ 324291.107622223440558, 2099190.25454245088622 ], [ 325378.669470811262727, 2099179.980879496317357 ], [ 325133.134776264545508, 2098267.715883457101882 ], [ 329483.422521657892503, 2098227.220309512224048 ], [ 328992.834373200195841, 2096402.666399191599339 ], [ 327905.226588576391805, 2096412.714296784251928 ], [ 328150.49008800718002, 2097324.972246064804494 ], [ 327062.899123204639181, 2097335.074077889323235 ], [ 326817.614360964566004, 2096422.825959468260407 ], [ 325729.997662270441651, 2096433.001388694858178 ], [ 325975.303694383939728, 2097345.239703469444066 ], [ 323800.099332323647104, 2097365.762341745197773 ], [ 323554.750739242765121, 2096453.543552628951147 ], [ 322467.120458718563896, 2096463.910290286177769 ], [ 322957.963937172200531, 2098288.346607960760593 ], [ 324045.551627322449349, 2098277.999333023559302 ] ] ], [ [ [ 324536.767315011704341, 2100102.527986026834697 ], [ 325028.397786184214056, 2101927.129639676306397 ], [ 326115.895684715243988, 2101916.885448838118464 ], [ 325624.307855078601278, 2100092.264128391630948 ], [ 324536.767315011704341, 2100102.527986026834697 ] ] ], [ [ [ 329132.58075815794291, 2100974.186972688417882 ], [ 329378.362583735201042, 2101886.536466926336288 ], [ 330465.84271143306978, 2101876.547998316586018 ], [ 330220.082182413781993, 2100964.188552462030202 ], [ 329132.58075815794291, 2100974.186972688417882 ] ] ], [ [ [ 326115.895684715243988, 2101916.885448838118464 ], [ 326361.845126051921397, 2102829.223552464041859 ], [ 327449.317213844449725, 2102819.053183073643595 ], [ 327203.389098442101385, 2101906.705190740060061 ], [ 326115.895684715243988, 2101916.885448838118464 ] ] ], [ [ [ 328290.87805542582646, 2101896.588863919489086 ], [ 328536.784851973119657, 2102808.946772175841033 ], [ 329624.24806849862216, 2102798.904318318702281 ], [ 329378.362583735201042, 2101886.536466926336288 ], [ 328290.87805542582646, 2101896.588863919489086 ] ] ], [ [ [ 328782.795313854177948, 2103721.323034924454987 ], [ 328536.784851973119657, 2102808.946772175841033 ], [ 327449.317213844449725, 2102819.053183073643595 ], [ 327695.349002743489109, 2103731.41951115662232 ], [ 328782.795313854177948, 2103721.323034924454987 ] ] ], [ [ [ 329028.909439051407389, 2104633.717668250203133 ], [ 327941.484463118598796, 2104643.804191062692553 ], [ 328187.72359295131173, 2105556.207238879986107 ], [ 329275.127225546166301, 2105546.130688249599189 ], [ 329028.909439051407389, 2104633.717668250203133 ] ] ], [ [ [ 324925.486012416542508, 2105586.821137402206659 ], [ 326012.903014430892654, 2105576.552461996674538 ], [ 325766.621176676591858, 2104664.169276902452111 ], [ 327941.484463118598796, 2104643.804191062692553 ], [ 327695.349002743489109, 2103731.41951115662232 ], [ 326607.898249044897966, 2103741.579973094630986 ], [ 326361.845126051921397, 2102829.223552464041859 ], [ 324186.887489232351072, 2102849.756172567140311 ], [ 324432.983301669359207, 2103762.092859928030521 ], [ 321170.576859827793669, 2103793.342119720298797 ], [ 321909.678873947821558, 2106530.373494273517281 ], [ 320822.265054579591379, 2106540.888556233141571 ], [ 321068.861233443662059, 2107453.259081964381039 ], [ 323243.641471032169648, 2107432.31269998382777 ], [ 323490.298542545875534, 2108344.721213744487613 ], [ 322402.932125378109049, 2108355.152487771119922 ], [ 322649.714317626436241, 2109267.569455860182643 ], [ 324824.399774638121016, 2109246.790832246653736 ], [ 324577.660412383382209, 2108334.354068840388209 ], [ 325665.017762919131201, 2108324.051051571499556 ], [ 324925.486012416542508, 2105586.821137402206659 ] ], [ [ 322750.638442653580569, 2105607.550623275805265 ], [ 323838.064497838378884, 2105597.153857334982604 ], [ 324331.024744149122853, 2107421.93566261511296 ], [ 323243.641471032169648, 2107432.31269998382777 ], [ 322750.638442653580569, 2105607.550623275805265 ] ] ], [ [ [ 327100.315531927568372, 2105566.347829644102603 ], [ 326012.903014430892654, 2105576.552461996674538 ], [ 326505.777739204000682, 2107401.373887676745653 ], [ 327593.147517211153172, 2107391.1891471571289 ], [ 327100.315531927568372, 2105566.347829644102603 ] ] ], [ [ [ 324824.399774638121016, 2109246.790832246653736 ], [ 325071.242828893475235, 2110159.245968945324421 ], [ 326158.557362591265701, 2110148.96284742699936 ], [ 325911.735720837023109, 2109236.497753449715674 ], [ 324824.399774638121016, 2109246.790832246653736 ] ] ], [ [ [ 325318.189573122072034, 2111071.719495054800063 ], [ 325071.242828893475235, 2110159.245968945324421 ], [ 323983.923790102940984, 2110169.593272517435253 ], [ 324230.891962097375654, 2111082.056849742308259 ], [ 325318.189573122072034, 2111071.719495054800063 ] ] ], [ [ [ 326652.511689517530613, 2111973.948276206851006 ], [ 326899.644370639580302, 2112886.468643305823207 ], [ 331248.601081922010053, 2112846.098703888710588 ], [ 331001.554077749955468, 2111933.538009635638446 ], [ 328827.041697344975546, 2111953.614678744692355 ], [ 328333.17302678595297, 2110128.589144661556929 ], [ 327245.867419216665439, 2110138.743906487710774 ], [ 327739.778910863678902, 2111963.74936070619151 ], [ 326652.511689517530613, 2111973.948276206851006 ] ] ], [ [ [ 323390.683136217237916, 2112004.930438619107008 ], [ 323637.880149607430212, 2112917.420846083201468 ], [ 324725.139392392826267, 2112907.03918048646301 ], [ 324477.96383020322537, 2111994.538813687395304 ], [ 323390.683136217237916, 2112004.930438619107008 ] ] ], [ [ [ 325812.39412340184208, 2112896.72178005380556 ], [ 326059.65192540246062, 2113809.250571243930608 ], [ 327146.880727500538342, 2113799.007467093877494 ], [ 326899.644370639580302, 2112886.468643305823207 ], [ 325812.39412340184208, 2112896.72178005380556 ] ] ], [ [ [ 333539.472234677232336, 2129295.062004602048546 ], [ 333290.516846971120685, 2128382.186142096761614 ], [ 328942.987178182811476, 2128422.37674482120201 ], [ 329192.028886701213196, 2129335.211135538294911 ], [ 328105.15716050285846, 2129345.410302088595927 ], [ 328354.32413064816501, 2130258.253085552249104 ], [ 329441.17425068403827, 2130248.064237917773426 ], [ 330438.792220482369885, 2133899.664091661106795 ], [ 331525.551486436335836, 2133889.581600994803011 ], [ 331276.0131526166806, 2132976.64306588191539 ], [ 332362.789723018766381, 2132966.615015350747854 ], [ 331864.067199448938482, 2131140.773475683759898 ], [ 332950.882680874725338, 2131130.789389852434397 ], [ 332452.617875391035341, 2129305.002159931696951 ], [ 333539.472234677232336, 2129295.062004602048546 ] ] ] ] } }
]
}
