{
"type": "FeatureCollection",
"name": "urban-2080",
"crs": { "type": "name", "properties": { "name": "urn:ogc:def:crs:EPSG::32632" } },
"features": [
{ "type": "Feature", "properties": { "year": 2080 }, "geometry": { "type": "MultiPolygon", "coordinates": [ [ [ [ 678468.287402332760394, 5222616.479447967372835 ], [ 677506.330915556522086, 5222587.582055636681616 ], [ 677442.302760346094146, 5221545.670663230121136 ], [ 676480.283147045876831, 5221516.947553653270006 ], [ 676608.472915444523096, 5223600.806442566215992 ], [ 677570.367540001519956, 5223629.565444035455585 ], [ 677762.528197222505696, 5226755.947910604998469 ], [ 680647.645219303900376, 5226843.325432229787111 ], [ 680583.770921709598042, 5225801.071742543950677 ], [ 678660.235086692147888, 5225742.699702464975417 ], [ 678468.287402332760394, 5222616.479447967372835 ] ] ], [ [ [ 632896.791786750080064, 5230778.856333828531206 ], [ 633858.212543323636055, 5230800.557232170365751 ], [ 633724.254239660454914, 5228717.101866445504129 ], [ 632762.708433840190992, 5228695.434150970540941 ], [ 632896.791786750080064, 5230778.856333828531206 ] ] ], [ [ [ 633925.205756431445479, 5231842.392716969363391 ], [ 634886.563453419017605, 5231864.266769364476204 ], [ 634819.632797730970196, 5230822.414648856036365 ], [ 633858.212543323636055, 5230800.557232170365751 ], [ 633925.205756431445479, 5231842.392716969363391 ] ] ], [ [ [ 633097.987260025460273, 5233904.528713908977807 ], [ 632896.791786750080064, 5230778.856333828531206 ], [ 631935.370531663997099, 5230757.311951931566 ], [ 632136.753722736146301, 5233882.934584259055555 ], [ 633097.987260025460273, 5233904.528713908977807 ] ] ], [ [ [ 633232.164505762397312, 5235988.670083982869983 ], [ 633299.267199352267198, 5237030.848801733925939 ], [ 634260.312323374906555, 5237052.649461394175887 ], [ 634126.241607468342409, 5234968.330769304186106 ], [ 632203.900267445947975, 5234924.952668941579759 ], [ 632271.056214712793007, 5235967.042744833044708 ], [ 633232.164505762397312, 5235988.670083982869983 ] ] ], [ [ [ 665078.504963332787156, 5238875.838355422019958 ], [ 667000.430913237738423, 5238929.976503793150187 ], [ 666935.514125969144516, 5237887.124235047958791 ], [ 668857.563033947837539, 5237941.854097520001233 ], [ 668922.354268832830712, 5238984.741884991526604 ], [ 670844.274999658227898, 5239040.13451812043786 ], [ 670714.952244402491488, 5236954.360071424394846 ], [ 669753.866661369218491, 5236926.62101209256798 ], [ 669689.155420797411352, 5235883.860195958986878 ], [ 670650.303747087251395, 5235911.581436323001981 ], [ 670521.032528684940189, 5233826.241178794763982 ], [ 671482.305632333504036, 5233854.08347082324326 ], [ 671676.037169922958128, 5236982.255886485800147 ], [ 672637.121434151078574, 5237010.308459712192416 ], [ 672443.578084160108119, 5233882.082427917979658 ], [ 673404.849880432942882, 5233910.238052523694932 ], [ 673469.293066020007245, 5234952.925612573511899 ], [ 674430.501487809582613, 5234981.255832264199853 ], [ 674559.287963605602272, 5237066.883890469558537 ], [ 675520.370221265824512, 5237095.406752934679389 ], [ 675584.713440838037059, 5238138.347374684177339 ], [ 679428.784518816974014, 5238254.078773131594062 ], [ 679492.88498909061309, 5239297.164133120328188 ], [ 680453.838214678573422, 5239326.507146745920181 ], [ 680517.884246336179785, 5240369.68319118116051 ], [ 686283.211633861646987, 5240549.1446527633816 ], [ 686346.888827060814947, 5241592.502912204712629 ], [ 688268.533072090474889, 5241653.615284090861678 ], [ 688204.981643688050099, 5240610.220227814279497 ], [ 689165.86554640205577, 5240640.993356216698885 ], [ 689292.850815154495649, 5242727.893043113872409 ], [ 691214.364784865290858, 5242789.983979634940624 ], [ 691150.993883453775197, 5241746.460792670026422 ], [ 692111.812656778260134, 5241777.723159836605191 ], [ 692048.512799507589079, 5240734.254137160256505 ], [ 693009.393719344167039, 5240765.654871753416955 ], [ 693072.630675083259121, 5241809.142463686875999 ], [ 694033.447934493073262, 5241840.718706959858537 ], [ 693970.273883817368187, 5240797.212514704093337 ], [ 694931.153289067326114, 5240828.92706876154989 ], [ 695057.383637365070172, 5242916.049454868771136 ], [ 696978.888457880821079, 5242980.024037508293986 ], [ 696789.932518852641806, 5239849.337465700693429 ], [ 691985.221071203006431, 5239690.857793102040887 ], [ 691921.937475186306983, 5238647.534094733186066 ], [ 687116.893077033688314, 5238493.068576462566853 ], [ 686989.722100585117005, 5236406.823428666219115 ], [ 686028.585411300184205, 5236376.437528193928301 ], [ 685964.949509539757855, 5235333.442061017267406 ], [ 686926.148977315519005, 5235363.809623862616718 ], [ 686862.584101703716442, 5234320.868288025259972 ], [ 685901.32187584915664, 5234290.519053772091866 ], [ 685837.702513481024653, 5233247.668473657220602 ], [ 684876.376845392631367, 5233217.494231113232672 ], [ 684940.05894204438664, 5234260.326522707939148 ], [ 683017.530965588521212, 5234200.411559619940817 ], [ 682953.723410481004976, 5233157.615751950070262 ], [ 680069.738067265367135, 5233068.973008879460394 ], [ 680005.750746371690184, 5232026.304034579545259 ], [ 679044.358235425082967, 5231997.087863359600306 ], [ 679236.533528313972056, 5235125.257532828487456 ], [ 676352.916328961960971, 5235038.386384562589228 ], [ 676288.661298582097515, 5233995.644956077449024 ], [ 677249.930435287184082, 5234024.427275463938713 ], [ 677185.746584539418109, 5232981.740174734033644 ], [ 673340.415231071179733, 5232867.622802447527647 ], [ 673275.989121072227135, 5231825.079829627647996 ], [ 672314.591961825150065, 5231796.959966214373708 ], [ 672379.08074313995894, 5232839.485062930732965 ], [ 668533.736304688034579, 5232728.500445319339633 ], [ 668598.484380846377462, 5233771.026580218225718 ], [ 669559.758776945876889, 5233798.555549398995936 ], [ 669624.4527916200459, 5234841.171719307079911 ], [ 668663.241094949888065, 5234813.624980163760483 ], [ 668792.7804246020969, 5236899.038706070743501 ], [ 667831.693537877406925, 5236871.613150950521231 ], [ 667766.856820160639472, 5235828.887879651039839 ], [ 666805.70655333402101, 5235801.636798907071352 ], [ 666870.606004971661605, 5236844.34434434119612 ], [ 664948.429015712579712, 5236790.276967139914632 ], [ 665013.46263602853287, 5237833.021481247618794 ], [ 662130.380626236321405, 5237753.043138063512743 ], [ 662195.611240725498646, 5238795.807153155095875 ], [ 664117.541025027399883, 5238849.004487633705139 ], [ 664182.654842036310583, 5239891.876094931736588 ], [ 665143.555994551861659, 5239918.727622435428202 ], [ 665078.504963332787156, 5238875.838355422019958 ] ], [ [ 683081.346853205584921, 5235243.279767339117825 ], [ 684042.548443717998452, 5235273.177135387435555 ], [ 684106.309892277233303, 5236316.136020437814295 ], [ 682184.031544535886496, 5236256.461552744731307 ], [ 682056.265930436435156, 5234170.689122359268367 ], [ 683017.530965588521212, 5234200.411559619940817 ], [ 683081.346853205584921, 5235243.279767339117825 ] ], [ [ 676481.451802502037026, 5237124.086383442394435 ], [ 676417.17983132507652, 5236081.200182761065662 ], [ 677378.323497957666405, 5236110.018547578714788 ], [ 677442.532703527715057, 5237152.922784491442144 ], [ 676481.451802502037026, 5237124.086383442394435 ] ] ], [ [ [ 662195.611240725498646, 5238795.807153155095875 ], [ 660273.678938174853101, 5238743.23700469173491 ], [ 660339.043868084205315, 5239786.038283511064947 ], [ 662260.850620203884318, 5239838.643534136936069 ], [ 662195.611240725498646, 5238795.807153155095875 ] ] ], [ [ [ 659443.576076361350715, 5240802.827039801515639 ], [ 658482.733927981927991, 5240776.898988274857402 ], [ 658417.234616195783019, 5239734.060324705205858 ], [ 655534.516118008410558, 5239657.269519064575434 ], [ 655665.90033648989629, 5241742.914692512713373 ], [ 654705.1185267791152, 5241717.596658110618591 ], [ 654770.886802231194451, 5242760.510454342700541 ], [ 655731.605794814880937, 5242785.845864997245371 ], [ 655797.320148531114683, 5243828.849471734836698 ], [ 657718.630602318560705, 5243880.025873364880681 ], [ 657653.041932326392271, 5242836.987403043545783 ], [ 659574.475580579135567, 5242888.756578281521797 ], [ 659443.576076361350715, 5240802.827039801515639 ] ] ], [ [ [ 669960.184554308070801, 5255680.819167663343251 ], [ 670090.067905305419117, 5257769.13926596660167 ], [ 671049.895051745930687, 5257797.079225081019104 ], [ 671114.786408180487342, 5258841.366769386455417 ], [ 672074.549664768972434, 5258869.482111969962716 ], [ 671944.901822342537344, 5256780.94404655508697 ], [ 670985.01224072847981, 5256752.864712532609701 ], [ 670920.137978300335817, 5255708.723198571242392 ], [ 669960.184554308070801, 5255680.819167663343251 ] ] ], [ [ [ 654930.660503861377947, 5260475.678158730268478 ], [ 654864.677908219397068, 5259431.546151958405972 ], [ 651985.5386011893861, 5259356.118764931336045 ], [ 652051.7106637514662, 5260400.198463293723762 ], [ 654930.660503861377947, 5260475.678158730268478 ] ] ], [ [ [ 658900.737352578667924, 5262667.145209999755025 ], [ 659860.256917252670974, 5262693.284971895627677 ], [ 659794.572597005870193, 5261648.919084479101002 ], [ 660754.154696129960939, 5261675.198676412925124 ], [ 660688.542352150660008, 5260630.888181789778173 ], [ 654930.660503861377947, 5260475.678158730268478 ], [ 654996.651984476251528, 5261519.883142684586346 ], [ 655956.237442070618272, 5261545.375402797013521 ], [ 656022.174602113547735, 5262589.670913533307612 ], [ 656981.696190843125805, 5262615.338183060288429 ], [ 657047.578983268118463, 5263659.724302994087338 ], [ 658007.036672502988949, 5263685.566655419766903 ], [ 658204.548236092552543, 5266819.216535203158855 ], [ 660123.081929870415479, 5266871.479742903262377 ], [ 660057.362523146439344, 5265826.821300418116152 ], [ 659098.032725069322623, 5265800.628561622463167 ], [ 658900.737352578667924, 5262667.145209999755025 ] ] ], [ [ [ 702806.007662562886253, 5244219.536083141341805 ], [ 700884.638225391623564, 5244153.639888511039317 ], [ 701010.161012510536239, 5246241.42426838260144 ], [ 701970.720120164332911, 5246274.331613821908832 ], [ 701908.017777201253921, 5245230.38409230299294 ], [ 702868.639096000697464, 5245263.429610316641629 ], [ 702806.007662562886253, 5244219.536083141341805 ] ] ], [ [ [ 716317.250836446066387, 5245742.559578361921012 ], [ 717277.859608244500123, 5245777.961317793466151 ], [ 717216.173616356565617, 5244733.780451319180429 ], [ 715294.829099589958787, 5244663.172790973447263 ], [ 715356.641200499958359, 5245707.314941417425871 ], [ 714396.030704367440194, 5245672.227403892204165 ], [ 714581.701995995012112, 5248805.034176827408373 ], [ 715542.123222594615072, 5248840.179703520610929 ], [ 715480.288265553768724, 5247795.818364539183676 ], [ 716440.771734582376666, 5247831.10171393956989 ], [ 716317.250836446066387, 5245742.559578361921012 ] ] ], [ [ [ 705875.406491678440943, 5247451.628259249962866 ], [ 705812.948425328359008, 5246407.531914312392473 ], [ 704852.392575768521056, 5246373.996195598505437 ], [ 704727.373879217891954, 5244286.060396594926715 ], [ 703766.691175417043269, 5244252.719723572023213 ], [ 703891.835905749234371, 5246340.617574545554817 ], [ 701970.720120164332911, 5246274.331613821908832 ], [ 702033.430370043264702, 5247318.352070053108037 ], [ 702993.92562881228514, 5247351.435430029407144 ], [ 703119.243693291791715, 5249439.733157530426979 ], [ 704079.611986055388115, 5249473.011581148020923 ], [ 704142.219728310010396, 5250517.288977200165391 ], [ 706062.827603970421478, 5250584.355452849529684 ], [ 705937.872379214386456, 5248495.797608559019864 ], [ 706898.301273274701089, 5248529.528536792844534 ], [ 706835.898461571428925, 5247485.340128439478576 ], [ 705875.406491678440943, 5247451.628259249962866 ] ] ], [ [ [ 710926.506135472794995, 5251799.257435139268637 ], [ 710864.33253151003737, 5250754.77313020452857 ], [ 708943.733111197594553, 5250686.134360825642943 ], [ 709006.033017149660736, 5251730.580275004729629 ], [ 708045.795172857819125, 5251696.477593772113323 ], [ 708170.544569906662218, 5253785.550624034367502 ], [ 710090.766690647345968, 5253853.989963558502495 ], [ 710028.514487705891952, 5252809.378488866612315 ], [ 711948.859532107249834, 5252878.408659062348306 ], [ 711886.741401407169178, 5251833.83192000631243 ], [ 710926.506135472794995, 5251799.257435139268637 ] ] ], [ [ [ 712971.093357923091389, 5253957.828956023789942 ], [ 712909.030749193392694, 5252913.159700120799243 ], [ 711948.859532107249834, 5252878.408659062348306 ], [ 712010.985342785716057, 5253923.058623452670872 ], [ 712971.093357923091389, 5253957.828956023789942 ] ] ], [ [ [ 712073.118829904939048, 5254967.781846445053816 ], [ 712010.985342785716057, 5253923.058623452670872 ], [ 710090.766690647345968, 5253853.989963558502495 ], [ 710153.026611341862008, 5254898.674678472802043 ], [ 712073.118829904939048, 5254967.781846445053816 ] ] ], [ [ [ 714117.244498737622052, 5257127.262158478610218 ], [ 713931.200493659125641, 5253992.756627698428929 ], [ 712971.093357923091389, 5253957.828956023789942 ], [ 713157.327104580588639, 5257092.276463717222214 ], [ 714117.244498737622052, 5257127.262158478610218 ] ] ], [ [ [ 718916.817957831313834, 5257304.552225760184228 ], [ 717956.90508137200959, 5257268.779322945512831 ], [ 717833.37425339454785, 5255178.880260243080556 ], [ 715913.29268376424443, 5255107.884613015688956 ], [ 716160.890842607012019, 5259287.820683578960598 ], [ 720000.037629714002833, 5259430.753438514657319 ], [ 719938.380025738850236, 5258385.581276133656502 ], [ 718978.531377650564536, 5258349.631376257166266 ], [ 718916.817957831313834, 5257304.552225760184228 ] ] ], [ [ [ 727800.609945302945562, 5261815.060136327520013 ], [ 726840.95896694494877, 5261777.79082590714097 ], [ 726902.195157074835151, 5262823.321540045551956 ], [ 727861.782707239850424, 5262860.610682778060436 ], [ 727800.609945302945562, 5261815.060136327520013 ] ] ], [ [ [ 730923.530357672949322, 5266110.69696816150099 ], [ 729004.741027003386989, 5266035.210921757854521 ], [ 729065.879514210857451, 5267081.076264490373433 ], [ 731943.87144073843956, 5267194.601828712038696 ], [ 731700.123123573954217, 5263011.343637054786086 ], [ 729780.954880761913955, 5262935.661876742728055 ], [ 729719.908987759845331, 5261890.071572235785425 ], [ 728760.259953650296666, 5261852.487050690688193 ], [ 728821.369283216772601, 5262898.057460595853627 ], [ 727861.782707239850424, 5262860.610682778060436 ], [ 727922.962784971459769, 5263906.234902826137841 ], [ 728882.485907779424451, 5263943.701553381979465 ], [ 728943.609823616687208, 5264989.419362582266331 ], [ 730862.526156506617554, 5265064.865532888099551 ], [ 730923.530357672949322, 5266110.69696816150099 ] ] ] ] } }
]
}
