{
"type": "FeatureCollection",
"name": "urban-1990",
"crs": { "type": "name", "properties": { "name": "urn:ogc:def:crs:EPSG::32639" } },
"features": [
{ "type": "Feature", "properties": { "year": 1990 }, "geometry": { "type": "MultiPolygon", "coordinates": [ [ [ [ 223669.702595749869943, 3206982.591555603314191 ], [ 224726.419558945228346, 3206957.297801761887968 ], [ 224464.010578168323264, 3206019.621141709387302 ], [ 223407.259654885157943, 3206044.930935943033546 ], [ 223144.888718278554734, 3205107.300905547104776 ], [ 221031.303044839820359, 3205158.243843343108892 ], [ 221818.835688752122223, 3207971.129725372884423 ], [ 223932.217538739379961, 3207920.282785035204142 ], [ 223669.702595749869943, 3206982.591555603314191 ] ] ], [ [ [ 214676.166206896596123, 3220421.476327286101878 ], [ 212563.541638073103968, 3220474.24437981005758 ], [ 213355.760739260411356, 3223288.023694365750998 ], [ 215468.180062120954972, 3223235.351697403937578 ], [ 215204.103360490815248, 3222297.362560799811035 ], [ 216260.339103373407852, 3222271.156982170417905 ], [ 215996.368681317253504, 3221333.182482285890728 ], [ 217052.633217138121836, 3221307.058455320540816 ], [ 216524.976951838238165, 3219431.16940528107807 ], [ 214412.305759200302418, 3219483.579189149662852 ], [ 214676.166206896596123, 3220421.476327286101878 ] ] ], [ [ [ 193842.510938175604679, 3240803.749966963659972 ], [ 192786.782917662931141, 3240832.199587607290596 ], [ 193053.125366263964679, 3241770.356951490044594 ], [ 190941.72107140609296, 3241827.519467725884169 ], [ 191208.2049961744342, 3242765.675887766759843 ], [ 190152.528713307343423, 3242794.388850979041308 ], [ 190419.119557492609601, 3243732.56007179711014 ], [ 189363.472050188749563, 3243761.355641022324562 ], [ 189630.169837993336841, 3244699.541667967569083 ], [ 187518.926511425175704, 3244757.396460030693561 ], [ 188052.677670134115033, 3246633.797265178989619 ], [ 189108.232948834483977, 3246604.852083323989064 ], [ 189642.204087282880209, 3248481.406475505325943 ], [ 197030.443055086245295, 3248281.767721448559314 ], [ 197297.294455162424129, 3249220.20196472806856 ], [ 198352.699556833365932, 3249192.091965735889971 ], [ 199153.583295861957595, 3252007.627428617328405 ], [ 200208.878778821614105, 3251979.664085187017918 ], [ 200475.949833327613305, 3252918.253665579948574 ], [ 202586.45460267260205, 3252862.654919062741101 ], [ 202319.452859694603831, 3251924.033051086124033 ], [ 204430.004559254273772, 3251868.796196694485843 ], [ 205231.018495603115298, 3254684.851918889209628 ], [ 206286.18208121531643, 3254657.430080784950405 ], [ 206553.296433617186267, 3255596.193619206547737 ], [ 209718.650247675424907, 3255514.568857023958117 ], [ 209451.639830522064585, 3254575.756246878299862 ], [ 210506.78147707413882, 3254548.728850641287863 ], [ 210239.877824643452186, 3253609.930946929380298 ], [ 211295.048650050070137, 3253582.98573493026197 ], [ 211028.251738242513966, 3252644.202532186638564 ], [ 212083.451738509524148, 3252617.339467897545546 ], [ 211816.761543226311915, 3251678.570960640441626 ], [ 212871.990714383427985, 3251651.790007531642914 ], [ 212605.407211535435636, 3250713.036190269514918 ], [ 213660.665549631405156, 3250686.337311808951199 ], [ 213394.188715136609972, 3249747.598179038614035 ], [ 215504.758345622045454, 3249694.462946767453104 ], [ 215771.166092237690464, 3250633.234988608863205 ], [ 218936.876869522791822, 3250554.320036672055721 ], [ 217340.132783265085891, 3244921.858037903904915 ], [ 218395.566041231970303, 3244895.650840146001428 ], [ 217598.270239637175109, 3242079.790695496834815 ], [ 218653.801504092523828, 3242053.632427552249283 ], [ 217857.257526114175562, 3239238.002639950253069 ], [ 218912.886688537779264, 3239211.893326384481043 ], [ 218382.28643837821437, 3237334.929193338379264 ], [ 219437.979033299372531, 3237308.885219502262771 ], [ 218907.735718750744127, 3235432.01237460738048 ], [ 219963.491699683479965, 3235406.033713109791279 ], [ 219168.770090979582164, 3232590.907745841890574 ], [ 220224.623716165893711, 3232564.97803856106475 ], [ 219959.894904324435629, 3231626.648305535316467 ], [ 221015.777517993061338, 3231600.800186317414045 ], [ 220222.126149882155005, 3228785.947636831086129 ], [ 221278.106262736197095, 3228760.148446944076568 ], [ 221013.734124389418866, 3227821.909801814239472 ], [ 222069.74318534595659, 3227796.192114610690624 ], [ 221277.16161764471326, 3224981.612674840260297 ], [ 222333.268032912805211, 3224955.943891721311957 ], [ 221541.437263143772725, 3222141.593455144669861 ], [ 222597.640924673178233, 3222115.973599417135119 ], [ 221806.56081766821444, 3219301.851905273273587 ], [ 222862.861617478367407, 3219276.28100003534928 ], [ 222599.346408968092874, 3218338.285830170847476 ], [ 223655.676043415209278, 3218312.796244220342487 ], [ 222865.66479369031731, 3215498.946801099460572 ], [ 223922.091421959514264, 3215473.506139472126961 ], [ 223395.845433994312771, 3213597.727930328808725 ], [ 220226.34525745222345, 3213674.438812721520662 ], [ 220489.534442690608557, 3214612.264253032859415 ], [ 221546.005742964567617, 3214586.612671632319689 ], [ 222072.532038078410551, 3216462.387787963729352 ], [ 219959.720461911114398, 3216513.723981527611613 ], [ 220223.159846148744691, 3217451.625383349135518 ], [ 219166.780174035462551, 3217477.423570913262665 ], [ 219693.943304983782582, 3219353.286300475243479 ], [ 218637.626551914552692, 3219379.149797117803246 ], [ 219165.146156723436434, 3221255.103192983195186 ], [ 217052.633217138121836, 3221307.058455320540816 ], [ 217844.658101381151937, 3224121.122394125442952 ], [ 216788.496164238662459, 3224147.198126110248268 ], [ 217316.941499858279712, 3226023.362266612704843 ], [ 216260.842640714719892, 3226049.503434222657233 ], [ 216525.207651022647042, 3226987.615524359047413 ], [ 215469.137654830061365, 3227013.838304777164012 ], [ 215998.1524211645592, 3228890.122555977199227 ], [ 213886.133310229633935, 3228942.796958649996668 ], [ 214150.817392343014944, 3229880.952987670898438 ], [ 213094.834006904507987, 3229907.420826632063836 ], [ 213359.624494353425689, 3230845.591513221617788 ], [ 214415.573568518739194, 3230819.13980546919629 ], [ 214945.302194497489836, 3232695.605890254955739 ], [ 213889.421771538560279, 3232722.025272147729993 ], [ 214419.50743750698166, 3234598.58235024381429 ], [ 213363.690298627887387, 3234625.067321176175028 ], [ 213894.133078046899755, 3236501.715443613938987 ], [ 209671.085178735549562, 3236608.506172155961394 ], [ 209405.690165274427272, 3235670.23132757563144 ], [ 208349.880101804446895, 3235697.190274081658572 ], [ 208615.309526420489419, 3236635.44902360951528 ], [ 207559.528363217716105, 3236662.489949757233262 ], [ 207825.064361611730419, 3237600.763395917601883 ], [ 206769.3121025255532, 3237627.886338383890688 ], [ 206503.74166918033734, 3236689.628954099025577 ], [ 205447.949424361111596, 3236716.866040157154202 ], [ 205713.554299792216625, 3237655.107389742508531 ], [ 204657.7909334738506, 3237682.426553522236645 ], [ 204923.502440143958665, 3238620.682617238722742 ], [ 203867.767956228402909, 3238648.083895433228463 ], [ 204133.586118246777914, 3239586.354678786825389 ], [ 203077.880520653852727, 3239613.838108093012124 ], [ 202812.027876009524334, 3238675.583320314064622 ], [ 199644.773858248605393, 3238758.670510761905462 ], [ 199378.889950297249015, 3237820.49418308166787 ], [ 198323.092783781408798, 3237848.402096178382635 ], [ 198589.011193529237062, 3238786.562558145262301 ], [ 196477.468756320886314, 3238842.641150429844856 ], [ 197009.660392683173995, 3240718.990513492375612 ], [ 199121.0647222812986, 3240662.975348316133022 ], [ 199387.199837032123469, 3241601.227717907633632 ], [ 194108.818813072168268, 3241741.923097253311425 ], [ 193842.510938175604679, 3240803.749966963659972 ] ], [ [ 206244.980565916281193, 3239531.682338196784258 ], [ 205979.2313476880081, 3238593.379482177551836 ], [ 207034.954698789049871, 3238566.174486712086946 ], [ 207566.456371527223382, 3240442.843158484902233 ], [ 204399.476467556902207, 3240524.656204048544168 ], [ 204133.586118246777914, 3239586.354678786825389 ], [ 206244.980565916281193, 3239531.682338196784258 ] ], [ [ 198855.001840404584073, 3239724.753635296132416 ], [ 199910.729993790446315, 3239696.877474824432284 ], [ 200176.758354794583283, 3240635.115095964167267 ], [ 199121.0647222812986, 3240662.975348316133022 ], [ 198855.001840404584073, 3239724.753635296132416 ] ], [ [ 189896.93994551897049, 3245637.75822199229151 ], [ 192008.090591401443817, 3245580.328399769496173 ], [ 192274.863723050861154, 3246518.60705669503659 ], [ 190163.782370646542404, 3246576.005323780234903 ], [ 189896.93994551897049, 3245637.75822199229151 ] ], [ [ 191741.389758291828912, 3244642.080333105754107 ], [ 192796.990990784368478, 3244613.497202813159674 ], [ 193063.657197571534198, 3245551.761066511739045 ], [ 192008.090591401443817, 3245580.328399769496173 ], [ 191741.389758291828912, 3244642.080333105754107 ] ], [ [ 209146.384811379481107, 3238512.058900482486933 ], [ 212313.488805189961568, 3238431.621480390895158 ], [ 212844.646031946933363, 3240308.451844671275467 ], [ 210733.386575228883885, 3240361.913826865609735 ], [ 210467.703028986579739, 3239423.515630196779966 ], [ 209412.030667448765598, 3239450.410069331992418 ], [ 209146.384811379481107, 3238512.058900482486933 ] ] ], [ [ [ 188297.404138507379685, 3240008.916390757542104 ], [ 188830.293442208028864, 3241885.075085684191436 ], [ 187774.570827473828103, 3241914.00031712371856 ], [ 188041.158589019440114, 3242852.109700003173202 ], [ 190152.528713307343423, 3242794.388850979041308 ], [ 189353.190075788472313, 3239980.058147736825049 ], [ 188297.404138507379685, 3240008.916390757542104 ] ] ], [ [ [ 186208.602915604016744, 3247630.197711429093033 ], [ 185941.549462629191112, 3246691.982910822145641 ], [ 184885.976494103088044, 3246721.223382147494704 ], [ 184352.017286964866798, 3244844.916445997077972 ], [ 183296.369003407831769, 3244874.286535854451358 ], [ 182762.629925008513965, 3242998.132379468996078 ], [ 180651.176700321200769, 3243057.229753472842276 ], [ 180918.079403123934753, 3243995.260648539755493 ], [ 181973.774337942886632, 3243965.678276531863958 ], [ 182507.727546477748547, 3245841.862127165775746 ], [ 181452.102000624639913, 3245871.413468992803246 ], [ 182253.678844993351959, 3248685.870584785938263 ], [ 184364.715665636002086, 3248626.959809605963528 ], [ 184097.520442179287784, 3247688.745819428004324 ], [ 186208.602915604016744, 3247630.197711429093033 ] ] ], [ [ [ 186208.602915604016744, 3247630.197711429093033 ], [ 186742.926873868971597, 3249506.718845698051155 ], [ 187798.389830278465524, 3249477.623901889659464 ], [ 187264.135278638626914, 3247601.071350407321006 ], [ 186208.602915604016744, 3247630.197711429093033 ] ] ], [ [ [ 179889.619890168949496, 3251589.566403701901436 ], [ 179622.033749321533833, 3250651.339035474229604 ], [ 180677.503615404770244, 3250621.569957601837814 ], [ 180142.618099383893423, 3248745.175372208468616 ], [ 179087.078705109190196, 3248774.975530100986362 ], [ 178819.709805962746032, 3247836.839351643342525 ], [ 177764.129613739496563, 3247866.753505124244839 ], [ 177496.798385045782197, 3246928.663141710218042 ], [ 174329.917033866746351, 3247019.042782391421497 ], [ 174597.352549794770312, 3247957.086929247248918 ], [ 173541.74796655215323, 3247987.395071514416486 ], [ 174612.353774670918938, 3251739.812949971761554 ], [ 175667.819154087046627, 3251709.566425567492843 ], [ 175935.616929787560366, 3252647.762129979673773 ], [ 178046.459787189436611, 3252587.595908328425139 ], [ 177778.731638810364529, 3251649.369207269046456 ], [ 179889.619890168949496, 3251589.566403701901436 ] ] ] ] } }
]
}
