{
"type": "FeatureCollection",
"name": "urban-2070",
"crs": { "type": "name", "properties": { "name": "urn:ogc:def:crs:EPSG::32639" } },
"features": [
{ "type": "Feature", "properties": { "year": 2070 }, "geometry": { "type": "MultiPolygon", "coordinates": [ [ [ [ 215207.097547814657446, 3214741.983093344140798 ], [ 216263.595713051734492, 3214715.844522960018367 ], [ 215737.016703586908989, 3212840.352240171283484 ], [ 214680.450334665481932, 3212866.522661843337119 ], [ 215207.097547814657446, 3214741.983093344140798 ] ] ], [ [ [ 186418.694233590562362, 3222104.294275172520429 ], [ 187475.117674807319418, 3222075.436071682255715 ], [ 186945.54218269593548, 3220200.425032879691571 ], [ 180606.498903668252751, 3220375.222463616169989 ], [ 180871.456821715284605, 3221312.621693617664278 ], [ 179814.962856453785207, 3221342.081297656521201 ], [ 180080.02759081957629, 3222279.495366905815899 ], [ 179023.561963732354343, 3222309.037562722805887 ], [ 180084.682691995985806, 3226058.933123707771301 ], [ 179028.348811518517323, 3226088.512523087672889 ], [ 179293.844485633191653, 3227026.046257964335382 ], [ 181406.437202220957261, 3226967.015690982341766 ], [ 180875.6561781175551, 3225091.91748431744054 ], [ 187213.703158932679798, 3224916.990761609748006 ], [ 186418.694233590562362, 3222104.294275172520429 ] ] ], [ [ [ 191177.996280437044334, 3227643.95429354486987 ], [ 192234.195587579277344, 3227615.481877267360687 ], [ 191969.040983112121467, 3226677.733861460350454 ], [ 187744.070790039666463, 3226792.272512959316373 ], [ 188540.164715968538076, 3229605.421689468901604 ], [ 191708.591221903392579, 3229519.510189469903708 ], [ 191973.997138308826834, 3230457.333613989409059 ], [ 193030.09313922788715, 3230428.907834482844919 ], [ 192499.422483161033597, 3228553.26019769674167 ], [ 191443.257601909455843, 3228581.717089492361993 ], [ 191177.996280437044334, 3227643.95429354486987 ] ] ], [ [ [ 186718.842319447605405, 3241943.023835194297135 ], [ 185663.107898226706311, 3241972.145643658004701 ], [ 185396.52323039190378, 3241034.097884666640311 ], [ 183284.967297662224155, 3241092.667459367308766 ], [ 183551.621236590086482, 3242030.684146870858967 ], [ 184607.367543908243533, 3242001.365746289025992 ], [ 185140.823233712755609, 3243877.521327000577003 ], [ 184085.146233351668343, 3243906.808619575109333 ], [ 183818.347549190046266, 3242968.73119340557605 ], [ 182762.629925008513965, 3242998.132379468996078 ], [ 181696.020358012174256, 3239246.18820299115032 ], [ 179584.289911234925967, 3239305.409127227962017 ], [ 179850.903000979335047, 3240243.318881824612617 ], [ 178795.063355102261994, 3240273.061318530701101 ], [ 179061.783510285953525, 3241210.985934899188578 ], [ 181173.387444053660147, 3241151.630132590886205 ], [ 181706.906315349857323, 3243027.631898217834532 ], [ 180651.176700321200769, 3243057.229753472842276 ], [ 180384.346397626679391, 3242119.229174384381622 ], [ 179328.576079296995886, 3242148.94080489128828 ], [ 179595.441060030949302, 3243086.925949069205672 ], [ 178539.699374583549798, 3243116.720488855615258 ], [ 178806.671459837118164, 3244054.720498779322952 ], [ 177750.958411599742249, 3244084.597984713036567 ], [ 178285.189264125539921, 3245960.658040023874491 ], [ 174062.553976200346369, 3246081.028885223902762 ], [ 174597.352549794770312, 3247957.086929247248918 ], [ 173541.74796655215323, 3247987.395071514416486 ], [ 174076.905947682331316, 3249863.543430282268673 ], [ 173021.364814751257654, 3249893.919367339927703 ], [ 172753.714788804296404, 3248955.845419872552156 ], [ 170642.544416433083825, 3249016.923645425122231 ], [ 171178.056217161356471, 3250893.040462478064001 ], [ 173289.087311671639327, 3250832.023583767935634 ], [ 174360.701967035944108, 3254584.743551481049508 ], [ 175416.068939326971304, 3254554.444767257198691 ], [ 175148.091430692409631, 3253616.203795596957207 ], [ 177258.876788356574252, 3253555.871285712812096 ], [ 176991.041393880208489, 3252617.629701814614236 ], [ 182268.073048787366133, 3252468.447003611829132 ], [ 182535.734419399290346, 3253406.766524524893612 ], [ 183591.087973192916252, 3253377.241515136323869 ], [ 183858.786937948258128, 3254315.607248039450496 ], [ 188080.002809200144839, 3254198.556590733118355 ], [ 188347.63501467986498, 3255137.01600441429764 ], [ 190458.138199234555941, 3255079.114316000137478 ], [ 190190.57551701675402, 3254140.623181109782308 ], [ 191245.853133250726387, 3254111.804442906286567 ], [ 191513.381064748740755, 3255050.311479109805077 ], [ 192568.618138801539317, 3255021.607308791950345 ], [ 192836.183623202552553, 3255960.161028787493706 ], [ 194946.570991819433402, 3255903.080654042307287 ], [ 194411.65126878087176, 3254025.940050021745265 ], [ 192301.124950759462081, 3254083.084344132337719 ], [ 191766.355472275638022, 3252206.130597571376711 ], [ 192821.69095463224221, 3252177.477287264540792 ], [ 191753.158420675143134, 3248423.874504259321839 ], [ 197030.443055086245295, 3248281.767721448559314 ], [ 197297.294455162424129, 3249220.20196472806856 ], [ 198352.699556833365932, 3249192.091965735889971 ], [ 199420.689016914111562, 3252946.200905965641141 ], [ 202586.45460267260205, 3252862.654919062741101 ], [ 202319.452859694603831, 3251924.033051086124033 ], [ 203374.73149723210372, 3251896.365353218279779 ], [ 203641.698595212423243, 3252835.003405737224966 ], [ 204696.937019402626902, 3252807.450460928957909 ], [ 205231.018495603115298, 3254684.851918889209628 ], [ 206286.18208121531643, 3254657.430080784950405 ], [ 206553.296433617186267, 3255596.193619206547737 ], [ 209718.650247675424907, 3255514.568857023958117 ], [ 209451.639830522064585, 3254575.756246878299862 ], [ 210506.78147707413882, 3254548.728850641287863 ], [ 210239.877824643452186, 3253609.930946929380298 ], [ 211295.048650050070137, 3253582.98573493026197 ], [ 211028.251738242513966, 3252644.202532186638564 ], [ 212083.451738509524148, 3252617.339467897545546 ], [ 211816.761543226311915, 3251678.570960640441626 ], [ 212871.990714383427985, 3251651.790007531642914 ], [ 212605.407211535435636, 3250713.036190269514918 ], [ 218936.876869522791822, 3250554.320036672055721 ], [ 217340.132783265085891, 3244921.858037903904915 ], [ 218395.566041231970303, 3244895.650840146001428 ], [ 217598.270239637175109, 3242079.790695496834815 ], [ 218653.801504092523828, 3242053.632427552249283 ], [ 217857.257526114175562, 3239238.002639950253069 ], [ 218912.886688537779264, 3239211.893326384481043 ], [ 218382.28643837821437, 3237334.929193338379264 ], [ 219437.979033299372531, 3237308.885219502262771 ], [ 218907.735718750744127, 3235432.01237460738048 ], [ 219963.491699683479965, 3235406.033713109791279 ], [ 219433.605247343482915, 3233529.252104952931404 ], [ 220489.424567845766433, 3233503.338728348724544 ], [ 220224.623716165893711, 3232564.97803856106475 ], [ 221280.472041740664281, 3232539.146256065927446 ], [ 220751.155026668449864, 3230662.485073706600815 ], [ 221807.066625195962843, 3230636.718505936209112 ], [ 221013.734124389418866, 3227821.909801814239472 ], [ 222069.74318534595659, 3227796.192114610690624 ], [ 221541.283448076224886, 3225919.774939608294517 ], [ 223653.422609716712032, 3225868.567635170184076 ], [ 223389.369172495556995, 3224930.372802335768938 ], [ 222333.268032912805211, 3224955.943891721311957 ], [ 221805.308830721129198, 3223079.679426535964012 ], [ 222861.478327827120665, 3223054.075805168133229 ], [ 222333.875537166139111, 3221177.902227965183556 ], [ 223390.10806992079597, 3221152.363740514032543 ], [ 223126.448838510143105, 3220214.306963264476508 ], [ 224182.710239010979421, 3220188.849807413760573 ], [ 223919.157139730465133, 3219250.807618607766926 ], [ 226031.732431946496945, 3219200.153413967695087 ], [ 225504.978632154350635, 3217324.096519661601633 ], [ 224448.625417848001234, 3217349.407360245008022 ], [ 224185.322419985022862, 3216411.441363095771521 ], [ 226298.091768606973346, 3216360.88468045508489 ], [ 226034.928902700368781, 3215422.917037936393172 ], [ 224978.512784919759724, 3215448.162886182777584 ], [ 224715.38784887176007, 3214510.242240649648011 ], [ 223658.932425916020293, 3214535.601668754592538 ], [ 223395.845433994312771, 3213597.727930328808725 ], [ 224452.334907393320464, 3213572.352348425425589 ], [ 223926.445016704557929, 3211696.664741492364556 ], [ 224982.997289219230879, 3211671.354211180936545 ], [ 224457.463422546978109, 3209795.757155332248658 ], [ 225514.078448205487803, 3209770.511648419778794 ], [ 224988.900532301748171, 3207895.005092541687191 ], [ 226045.578265173127875, 3207869.824580777436495 ], [ 225783.131254469917621, 3206932.101201434619725 ], [ 226839.837702528049704, 3206907.001751342322677 ], [ 226577.49662099359557, 3205969.292928845621645 ], [ 227634.231780962552875, 3205944.274503672961146 ], [ 227371.996604673971888, 3205006.580232167150825 ], [ 228428.760473295347765, 3204981.642795159015805 ], [ 227904.573844181548338, 3203106.313995307777077 ], [ 228961.400314836995676, 3203081.441396025475115 ], [ 228699.448830693145283, 3202143.806862208526582 ], [ 229756.303987059101928, 3202119.015171279199421 ], [ 229494.458329024084378, 3201181.395171212032437 ], [ 230551.342167912749574, 3201156.684351871721447 ], [ 230289.602312089293264, 3200219.078879646491259 ], [ 228175.761731137055904, 3200268.629672551993281 ], [ 228437.569302081072237, 3201206.202961215749383 ], [ 227380.675066830881406, 3201231.107725109905005 ], [ 227642.588472967385314, 3202168.695554254110903 ], [ 226585.722893634869251, 3202193.68125065555796 ], [ 227109.833396597532555, 3204068.916613169480115 ], [ 226053.030386930098757, 3204093.967219619080424 ], [ 226315.227515082049649, 3205031.614758447278291 ], [ 222088.098542596562766, 3205132.723821605555713 ], [ 221825.76566438539885, 3204195.140331273898482 ], [ 218655.261237992323004, 3204272.039477461017668 ], [ 218917.696002218988724, 3205209.575217143632472 ], [ 217860.8844169137883, 3205235.386575884185731 ], [ 218123.425211260386277, 3206172.936917188111693 ], [ 214953.059955674398225, 3206250.906234080437571 ], [ 215478.561781794473063, 3208126.003228316549212 ], [ 214421.830533183703665, 3208152.155696796253324 ], [ 215210.725994929147419, 3210964.98213393939659 ], [ 214154.091460470401216, 3210991.184322925284505 ], [ 214417.234854134963825, 3211928.838241066783667 ], [ 215473.835310592956375, 3211902.651925244834274 ], [ 215737.016703586908989, 3212840.352240171283484 ], [ 216793.577645138429943, 3212814.279168640263379 ], [ 217056.797023312130477, 3213752.025970044545829 ], [ 218113.318474669591524, 3213726.06621481012553 ], [ 218903.306675674510188, 3216539.538249898236245 ], [ 216790.463006287056487, 3216591.459146581590176 ], [ 217054.004753989866003, 3217529.312387595884502 ], [ 213884.8011326706619, 3217607.876767151989043 ], [ 213621.156958097941242, 3216670.071442142128944 ], [ 212564.710716454137582, 3216696.470474408473819 ], [ 212828.389047444623429, 3217634.259881804697216 ], [ 210715.548439138045069, 3217687.318613855168223 ], [ 211243.258132498885971, 3219562.925504007842392 ], [ 210186.897953148232773, 3219589.569393100682646 ], [ 210450.895183469983749, 3220527.402771449647844 ], [ 211507.221156538405921, 3220500.774781519081444 ], [ 211771.25629597902298, 3221438.654641406610608 ], [ 210714.964538730913773, 3221465.266711118631065 ], [ 211243.319615557964426, 3223341.086356740444899 ], [ 212299.542912547069136, 3223314.506190659012645 ], [ 212828.117965156910941, 3225190.480316570959985 ], [ 211771.963166594912764, 3225217.028494704980403 ], [ 212300.895174788194709, 3227093.093289968091995 ], [ 214413.06225674750749, 3227040.158856905996799 ], [ 214677.567868774640374, 3227978.269465472083539 ], [ 213621.521324317669496, 3228004.671697707846761 ], [ 213886.133310229633935, 3228942.796958649996668 ], [ 212830.11562306934502, 3228969.280907684937119 ], [ 213359.624494353425689, 3230845.591513221617788 ], [ 212303.669986537133809, 3230872.141111733391881 ], [ 212833.535929082834627, 3232748.542599188629538 ], [ 210721.747905760945287, 3232801.871102479752153 ], [ 210986.857753508200403, 3233740.085795423947275 ], [ 209930.989900966640562, 3233766.880892686545849 ], [ 210196.206250263960101, 3234705.110265594441444 ], [ 209140.367290355730802, 3234731.987269137986004 ], [ 208609.937964689452201, 3232855.591427784878761 ], [ 206498.10594602744095, 3232909.703602969646454 ], [ 207028.672835075529292, 3234786.035330218728632 ], [ 205972.817299779155292, 3234813.206394761800766 ], [ 206238.243400886305608, 3235751.402313129976392 ], [ 205182.416723528061993, 3235778.655412700492889 ], [ 205447.949424361111596, 3236716.866040157154202 ], [ 203336.348202595429029, 3236771.634471550118178 ], [ 203070.746615242154803, 3235833.455789597239345 ], [ 202014.903144404408522, 3235861.003074026666582 ], [ 202546.247430333634838, 3237737.359232514165342 ], [ 200434.681433602701873, 3237792.684403839986771 ], [ 200168.904240435163956, 3236854.522820170037448 ], [ 197001.409244162496179, 3236938.29409665055573 ], [ 197267.289914119930472, 3237876.408146746922284 ], [ 196211.481321373488754, 3237904.51233841618523 ], [ 195945.566144746087957, 3236966.414078531321138 ], [ 192778.002265286981128, 3237051.362744363024831 ], [ 192246.181654519401491, 3235175.352023255545646 ], [ 194358.034726086130831, 3235118.558694621548057 ], [ 194092.301851835974958, 3234180.567666829563677 ], [ 188812.452903656172566, 3234323.364645581226796 ], [ 189078.358313046512194, 3235261.277582840528339 ], [ 190134.305284701869823, 3235232.537649155128747 ], [ 190666.263995192479342, 3237108.48582514654845 ], [ 191722.136045247898437, 3237079.875218605156988 ], [ 191988.189320817473345, 3238017.910589154809713 ], [ 190932.351813603832852, 3238046.505541225895286 ], [ 191198.511937973671593, 3238984.555703500285745 ], [ 189086.888502014393453, 3239042.008830920327455 ], [ 189353.190075788472313, 3239980.058147736825049 ], [ 188297.404138507379685, 3240008.916390757542104 ], [ 188563.812626264814753, 3240946.98051598854363 ], [ 186452.292276201187633, 3241004.960499766282737 ], [ 186718.842319447605405, 3241943.023835194297135 ] ], [ [ 220236.975035002280492, 3206121.44310939591378 ], [ 220499.519898095168173, 3207059.055771151557565 ], [ 218386.038057558238506, 3207110.517743046395481 ], [ 218123.425211260386277, 3206172.936917188111693 ], [ 220236.975035002280492, 3206121.44310939591378 ] ], [ [ 219974.502204788092058, 3205183.860974078532308 ], [ 221031.303044839820359, 3205158.243843343108892 ], [ 221293.741903513961006, 3206095.841916476376355 ], [ 220236.975035002280492, 3206121.44310939591378 ], [ 219974.502204788092058, 3205183.860974078532308 ] ], [ [ 213884.267307607340626, 3225164.029862604569644 ], [ 214940.411213996412698, 3225137.677129375748336 ], [ 215469.137654830061365, 3227013.838304777164012 ], [ 214413.06225674750749, 3227040.158856905996799 ], [ 213884.267307607340626, 3225164.029862604569644 ] ], [ [ 191464.744366187602282, 3239922.63633258966729 ], [ 191731.049096127622761, 3240860.747449125628918 ], [ 189619.563970339077059, 3240918.137909597251564 ], [ 189353.190075788472313, 3239980.058147736825049 ], [ 191464.744366187602282, 3239922.63633258966729 ] ], [ [ 218117.661957013478968, 3209949.272319995332509 ], [ 218380.597030124510638, 3210886.959327920340002 ], [ 217323.978759585355874, 3210912.869639824610204 ], [ 216798.112581230583601, 3209037.558016100898385 ], [ 218911.479897496115882, 3208985.770930320490152 ], [ 219174.30888687906554, 3209923.443332716356963 ], [ 218117.661957013478968, 3209949.272319995332509 ] ] ], [ [ [ 209665.845684933650773, 3232828.682285643648356 ], [ 210721.747905760945287, 3232801.871102479752153 ], [ 210456.710183866554871, 3231863.687175848055631 ], [ 209400.773604302376043, 3231890.514423757325858 ], [ 209665.845684933650773, 3232828.682285643648356 ] ] ], [ [ [ 204916.956199426727835, 3234840.475486665964127 ], [ 205972.817299779155292, 3234813.206394761800766 ], [ 205442.181607652630191, 3232936.906643028371036 ], [ 204386.251689939526841, 3232964.207656097132713 ], [ 204916.956199426727835, 3234840.475486665964127 ] ] ], [ [ [ 189344.33604425622616, 3236199.220883353613317 ], [ 187232.493511585576925, 3236256.963922269642353 ], [ 186966.446696438768413, 3235319.051710315514356 ], [ 185910.48201156349387, 3235348.08591159619391 ], [ 186442.717095908126794, 3237223.909648668952286 ], [ 187498.612665476452094, 3237194.906475715804845 ], [ 187764.804156000318471, 3238132.87939122132957 ], [ 190932.351813603832852, 3238046.505541225895286 ], [ 190666.263995192479342, 3237108.48582514654845 ], [ 189610.386095174239017, 3237137.194567695260048 ], [ 189344.33604425622616, 3236199.220883353613317 ] ] ], [ [ [ 162465.611830092500895, 3250203.100474400445819 ], [ 162733.682866714079864, 3251141.052300992887467 ], [ 161678.107861415192019, 3251172.497583393473178 ], [ 162214.537442706234287, 3253048.461243711411953 ], [ 164325.541488000249956, 3252985.729853035882115 ], [ 164057.360232233477291, 3252047.702692602295429 ], [ 165112.887681303895079, 3252016.469836039934307 ], [ 164576.812598329794127, 3250140.475540924351662 ], [ 162465.611830092500895, 3250203.100474400445819 ] ] ], [ [ [ 178062.817567451565992, 3256370.778612534049898 ], [ 177526.784616849501617, 3254494.143285004422069 ], [ 175416.068939326971304, 3254554.444767257198691 ], [ 175952.241307316347957, 3256431.017911640927196 ], [ 178062.817567451565992, 3256370.778612534049898 ] ] ], [ [ [ 241990.691154973756056, 3181085.768501244019717 ], [ 242250.454118534602458, 3182023.019904428161681 ], [ 243307.925788962253137, 3181999.62969608232379 ], [ 243567.727025437663542, 3182936.92785056727007 ], [ 246740.01173437491525, 3182867.384111567866057 ], [ 246220.682304094429128, 3180992.721100993454456 ], [ 245163.191925670427736, 3181015.838443874381483 ], [ 244384.635709926689742, 3178204.122263030149043 ], [ 245442.226608099648729, 3178180.956343501806259 ], [ 245182.884971183375455, 3177243.762611696030945 ], [ 244125.260585522773908, 3177266.944681971333921 ], [ 243865.957271773542743, 3176329.797639935277402 ], [ 244923.615135377040133, 3176306.599439632613212 ], [ 244664.417102818959393, 3175369.466806965414435 ], [ 245722.103488786902744, 3175346.348666860722005 ], [ 245463.010713658411987, 3174409.2304373877123 ], [ 246520.725619305972941, 3174386.192320647649467 ], [ 246261.738077851594426, 3173449.08848818577826 ], [ 239915.173532420943957, 3173588.855663444381207 ], [ 239656.057122354366584, 3172651.878552406094968 ], [ 237540.428551681223325, 3172699.268445051275194 ], [ 238318.194203652295982, 3175510.195313822943717 ], [ 241491.328186807804741, 3175439.398256487678736 ], [ 242528.953002396243392, 3179187.918747328221798 ], [ 241471.380722198577132, 3179211.357349222991616 ], [ 241731.000022149062715, 3180148.547656296286732 ], [ 242788.538775301683927, 3180125.125164838507771 ], [ 243048.196371537051164, 3181062.362140967044979 ], [ 241990.691154973756056, 3181085.768501244019717 ] ] ], [ [ [ 238298.633796401903965, 3179282.250911465846002 ], [ 238558.353718541591661, 3180219.393050736747682 ], [ 240673.456275261472911, 3180172.066465718206018 ], [ 240413.803441429481609, 3179234.892241830006242 ], [ 241471.380722198577132, 3179211.357349222991616 ], [ 240952.357629462960176, 3177337.068267311900854 ], [ 238837.063954933633795, 3177384.298500155564398 ], [ 239356.221139644854702, 3179258.523428215645254 ], [ 238298.633796401903965, 3179282.250911465846002 ] ] ], [ [ [ 240933.180951511370949, 3181109.271206740289927 ], [ 241990.691154973756056, 3181085.768501244019717 ], [ 241731.000022149062715, 3180148.547656296286732 ], [ 240673.456275261472911, 3180172.066465718206018 ], [ 240933.180951511370949, 3181109.271206740289927 ] ] ], [ [ [ 240395.397741092805518, 3183007.339159786701202 ], [ 238280.48651527747279, 3183054.762056807987392 ], [ 238540.527463207632536, 3183992.010136319324374 ], [ 237483.097877660533413, 3184015.850144148804247 ], [ 237743.244297099881805, 3184953.112681995145977 ], [ 239858.031209027161822, 3184905.561288814526051 ], [ 239597.952000743913231, 3183968.266567780636251 ], [ 240655.371510671131546, 3183944.619435437954962 ], [ 240395.397741092805518, 3183007.339159786701202 ] ] ], [ [ [ 236946.095173787034582, 3185914.310083750635386 ], [ 238003.462586447654758, 3185890.405755751300603 ], [ 237743.244297099881805, 3184953.112681995145977 ], [ 235628.437139001500327, 3185001.049953761976212 ], [ 235888.722686067514587, 3185938.310911753680557 ], [ 234831.345102900930215, 3185962.40824289014563 ], [ 235352.19916245341301, 3187836.989627012982965 ], [ 236409.50943863397697, 3187812.924392281100154 ], [ 236149.08011999016162, 3186875.602384466677904 ], [ 237206.418965871096589, 3186851.617621509358287 ], [ 236946.095173787034582, 3185914.310083750635386 ] ] ], [ [ [ 215523.487180435506161, 3189249.615428215358406 ], [ 217638.235514997213613, 3189197.942320042755455 ], [ 217377.127232742495835, 3188260.875020127743483 ], [ 216319.722003249044064, 3188286.678840382490307 ], [ 215275.874359571782406, 3184538.773400041740388 ], [ 212103.220377470075618, 3184616.950387695338577 ], [ 212364.175492770853452, 3185553.835222151130438 ], [ 209191.572859159088694, 3185632.834785597864538 ], [ 210236.520052624575328, 3189380.489631765056401 ], [ 211293.924564355926123, 3189354.121470807120204 ], [ 211816.76318180875387, 3191228.160063346382231 ], [ 213931.420179212291259, 3191175.775721721351147 ], [ 213670.032504550879821, 3190238.71035965718329 ], [ 215784.735126837214921, 3190186.681736286263913 ], [ 215523.487180435506161, 3189249.615428215358406 ] ] ], [ [ [ 234802.255228979804087, 3193509.694333131890744 ], [ 235859.373496939369943, 3193485.532435557805002 ], [ 234816.092771222989541, 3189735.822820289060473 ], [ 235873.340790521411691, 3189711.69314993172884 ], [ 235352.19916245341301, 3187836.989627012982965 ], [ 234294.883784222474787, 3187861.151422498282045 ], [ 234555.45232795458287, 3188798.471854251343757 ], [ 233498.165508895122912, 3188822.71418871358037 ], [ 234541.293479618325364, 3192572.237154831644148 ], [ 233484.136374064488336, 3192596.511884693987668 ], [ 234267.338552463101223, 3195408.926918833982199 ], [ 233210.277576267777476, 3195433.250068854074925 ], [ 233732.839436814945657, 3197308.314273967873305 ], [ 232675.840899277711287, 3197332.701974611729383 ], [ 232937.263491780322511, 3198270.263898883480579 ], [ 230823.3186086359201, 3198319.29762857221067 ], [ 231084.880752833967563, 3199256.857944825198501 ], [ 234255.68893310893327, 3199183.50110202934593 ], [ 233994.228231563989539, 3198245.892349884845316 ], [ 236108.142408953164704, 3198197.439867720007896 ], [ 234802.255228979804087, 3193509.694333131890744 ] ] ], [ [ [ 225800.096954186214134, 3199381.05758818006143 ], [ 225015.118843918724451, 3196568.708692129701376 ], [ 223958.044817164889537, 3196593.88718714332208 ], [ 223696.495584842341486, 3195656.514411061070859 ], [ 221582.263909797940869, 3195707.193649630527943 ], [ 221843.880831504007801, 3196644.534723167773336 ], [ 220786.790832006838173, 3196670.003770772367716 ], [ 221310.308460284431931, 3198544.74547187006101 ], [ 222367.330720821453724, 3198519.308107778429985 ], [ 222629.163684181461576, 3199456.740459647029638 ], [ 220515.181586834718473, 3199507.680380793754011 ], [ 221039.199146642640699, 3201382.572942547500134 ], [ 223153.045637670729775, 3201331.696584600489587 ], [ 222891.068657174066175, 3200394.203278445638716 ], [ 223948.017824053880759, 3200368.894644388463348 ], [ 223686.146737381874118, 3199431.415904420893639 ], [ 225800.096954186214134, 3199381.05758818006143 ] ] ], [ [ [ 231346.514830335683655, 3200194.448895130306482 ], [ 231084.880752833967563, 3199256.857944825198501 ], [ 230027.934396978758741, 3199281.504041065927595 ], [ 230289.602312089293264, 3200219.078879646491259 ], [ 231346.514830335683655, 3200194.448895130306482 ] ] ] ] } }
]
}
