{
"type": "FeatureCollection",
"name": "urban-1975",
"crs": { "type": "name", "properties": { "name": "urn:ogc:def:crs:EPSG::32639" } },
"features": [
{ "type": "Feature", "properties": { "year": 1975 }, "geometry": { "type": "MultiPolygon", "coordinates": [ [ [ [ 205455.141990987118334, 3240497.286992554552853 ], [ 203343.805362134356983, 3240552.123616571072489 ], [ 202812.027876009524334, 3238675.583320314064622 ], [ 201756.282179559173528, 3238703.180895442143083 ], [ 202022.169313993363176, 3239641.419714816845953 ], [ 199910.729993790446315, 3239696.877474824432284 ], [ 200176.758354794583283, 3240635.115095964167267 ], [ 199121.0647222812986, 3240662.975348316133022 ], [ 199387.199837032123469, 3241601.227717907633632 ], [ 190941.72107140609296, 3241827.519467725884169 ], [ 191208.2049961744342, 3242765.675887766759843 ], [ 190152.528713307343423, 3242794.388850979041308 ], [ 190419.119557492609601, 3243732.56007179711014 ], [ 189363.472050188749563, 3243761.355641022324562 ], [ 189630.169837993336841, 3244699.541667967569083 ], [ 187518.926511425175704, 3244757.396460030693561 ], [ 188052.677670134115033, 3246633.797265178989619 ], [ 189108.232948834483977, 3246604.852083323989064 ], [ 189642.204087282880209, 3248481.406475505325943 ], [ 193864.089543473732192, 3248366.736409578006715 ], [ 193597.206476040533744, 3247428.380649163387716 ], [ 194652.698030762956478, 3247399.943408324848861 ], [ 194919.546450511028524, 3248338.315056695137173 ], [ 198085.882792313524988, 3248253.641731762792915 ], [ 199153.583295861957595, 3252007.627428617328405 ], [ 201264.168626829108689, 3251951.799293878953904 ], [ 201531.205021979229059, 3252890.405004479922354 ], [ 202586.45460267260205, 3252862.654919062741101 ], [ 202319.452859694603831, 3251924.033051086124033 ], [ 204430.004559254273772, 3251868.796196694485843 ], [ 205231.018495603115298, 3254684.851918889209628 ], [ 206286.18208121531643, 3254657.430080784950405 ], [ 206553.296433617186267, 3255596.193619206547737 ], [ 209718.650247675424907, 3255514.568857023958117 ], [ 209451.639830522064585, 3254575.756246878299862 ], [ 210506.78147707413882, 3254548.728850641287863 ], [ 210239.877824643452186, 3253609.930946929380298 ], [ 211295.048650050070137, 3253582.98573493026197 ], [ 211028.251738242513966, 3252644.202532186638564 ], [ 212083.451738509524148, 3252617.339467897545546 ], [ 211816.761543226311915, 3251678.570960640441626 ], [ 212871.990714383427985, 3251651.790007531642914 ], [ 212605.407211535435636, 3250713.036190269514918 ], [ 213660.665549631405156, 3250686.337311808951199 ], [ 213394.188715136609972, 3249747.598179038614035 ], [ 215504.758345622045454, 3249694.462946767453104 ], [ 215771.166092237690464, 3250633.234988608863205 ], [ 218936.876869522791822, 3250554.320036672055721 ], [ 217074.26099878072273, 3243983.223345071077347 ], [ 218129.728711457166355, 3243956.999698085710406 ], [ 217332.649101899529342, 3241141.232793194707483 ], [ 216277.078082522551995, 3241167.505660342983902 ], [ 216011.494596674339846, 3240228.995160451624542 ], [ 217067.100032480142545, 3240202.705929060466588 ], [ 216536.21810719993664, 3238325.745231888722628 ], [ 218647.5505356399226, 3238273.395750828552991 ], [ 218382.28643837821437, 3237334.929193338379264 ], [ 219437.979033299372531, 3237308.885219502262771 ], [ 218907.735718750744127, 3235432.01237460738048 ], [ 219963.491699683479965, 3235406.033713109791279 ], [ 219433.605247343482915, 3233529.252104952931404 ], [ 220489.424567845766433, 3233503.338728348724544 ], [ 219959.894904324435629, 3231626.648305535316467 ], [ 221015.777517993061338, 3231600.800186317414045 ], [ 220751.155026668449864, 3230662.485073706600815 ], [ 221807.066625195962843, 3230636.718505936209112 ], [ 221013.734124389418866, 3227821.909801814239472 ], [ 222069.74318534595659, 3227796.192114610690624 ], [ 221277.16161764471326, 3224981.612674840260297 ], [ 222333.268032912805211, 3224955.943891721311957 ], [ 221541.437263143772725, 3222141.593455144669861 ], [ 222597.640924673178233, 3222115.973599417135119 ], [ 221806.56081766821444, 3219301.851905273273587 ], [ 222862.861617478367407, 3219276.28100003534928 ], [ 222599.346408968092874, 3218338.285830170847476 ], [ 223655.676043415209278, 3218312.796244220342487 ], [ 222865.66479369031731, 3215498.946801099460572 ], [ 223922.091421959514264, 3215473.506139472126961 ], [ 223395.845433994312771, 3213597.727930328808725 ], [ 220226.34525745222345, 3213674.438812721520662 ], [ 220489.534442690608557, 3214612.264253032859415 ], [ 219433.05780970089836, 3214638.013225514441729 ], [ 219696.353115715959575, 3215575.853269111830741 ], [ 221809.232879979244899, 3215524.484874368645251 ], [ 222072.532038078410551, 3216462.387787963729352 ], [ 219959.720461911114398, 3216513.723981527611613 ], [ 220223.159846148744691, 3217451.625383349135518 ], [ 219166.780174035462551, 3217477.423570913262665 ], [ 219693.943304983782582, 3219353.286300475243479 ], [ 218637.626551914552692, 3219379.149797117803246 ], [ 219165.146156723436434, 3221255.103192983195186 ], [ 217052.633217138121836, 3221307.058455320540816 ], [ 217580.577744644368067, 3223183.070338508114219 ], [ 216524.381598391977604, 3223209.162189898546785 ], [ 217316.941499858279712, 3226023.362266612704843 ], [ 216260.842640714719892, 3226049.503434222657233 ], [ 216525.207651022647042, 3226987.615524359047413 ], [ 215469.137654830061365, 3227013.838304777164012 ], [ 215998.1524211645592, 3228890.122555977199227 ], [ 213886.133310229633935, 3228942.796958649996668 ], [ 214150.817392343014944, 3229880.952987670898438 ], [ 213094.834006904507987, 3229907.420826632063836 ], [ 213359.624494353425689, 3230845.591513221617788 ], [ 214415.573568518739194, 3230819.13980546919629 ], [ 214945.302194497489836, 3232695.605890254955739 ], [ 213889.421771538560279, 3232722.025272147729993 ], [ 214419.50743750698166, 3234598.58235024381429 ], [ 213363.690298627887387, 3234625.067321176175028 ], [ 213894.133078046899755, 3236501.715443613938987 ], [ 212838.379269817320164, 3236528.266031091101468 ], [ 213369.179236160067376, 3238405.005248917266726 ], [ 212313.488805189961568, 3238431.621480390895158 ], [ 213110.332809486135375, 3241246.913415030576289 ], [ 212054.74024715134874, 3241273.57906243391335 ], [ 211789.019024886540137, 3240335.133747530635446 ], [ 210733.386575228883885, 3240361.913826865609735 ], [ 210467.703028986579739, 3239423.515630196779966 ], [ 209412.030667448765598, 3239450.410069331992418 ], [ 209677.748663057922386, 3240388.792086146771908 ], [ 208622.105268461513333, 3240415.768528853543103 ], [ 208887.929867506492883, 3241354.165240524802357 ], [ 205721.070030890696216, 3241435.635345641989261 ], [ 205455.141990987118334, 3240497.286992554552853 ] ], [ [ 217851.974419364705682, 3235458.089049241971225 ], [ 217321.950648690282833, 3233581.372727597597986 ], [ 218377.780614283285104, 3233555.26343691162765 ], [ 218907.735718750744127, 3235432.01237460738048 ], [ 217851.974419364705682, 3235458.089049241971225 ] ], [ [ 218117.09439890406793, 3236396.493633083533496 ], [ 217061.362115603813436, 3236422.652011640369892 ], [ 216796.207781569682993, 3235484.263740395661443 ], [ 217851.974419364705682, 3235458.089049241971225 ], [ 218117.09439890406793, 3236396.493633083533496 ] ], [ [ 194385.921886235766578, 3246461.602434192318469 ], [ 190163.782370646542404, 3246576.005323780234903 ], [ 189896.93994551897049, 3245637.75822199229151 ], [ 194119.218019053398166, 3245523.292113551869988 ], [ 194385.921886235766578, 3246461.602434192318469 ] ], [ [ 194641.651396029046737, 3243618.361092078499496 ], [ 193586.027125224762131, 3243646.763349839951843 ], [ 193319.540102824743371, 3242708.544865341857076 ], [ 194375.198966397612821, 3242680.126798728946596 ], [ 194641.651396029046737, 3243618.361092078499496 ] ] ], [ [ [ 207566.456371527223382, 3240442.843158484902233 ], [ 208622.105268461513333, 3240415.768528853543103 ], [ 208356.352816372236703, 3239477.402664710767567 ], [ 207300.669455835130066, 3239504.493419828824699 ], [ 207566.456371527223382, 3240442.843158484902233 ] ] ], [ [ [ 185941.549462629191112, 3246691.982910822145641 ], [ 185674.568363246042281, 3245753.798593655228615 ], [ 184618.960707919148263, 3245783.054693306330591 ], [ 184352.017286964866798, 3244844.916445997077972 ], [ 183296.369003407831769, 3244874.286535854451358 ], [ 182762.629925008513965, 3242998.132379468996078 ], [ 180651.176700321200769, 3243057.229753472842276 ], [ 180918.079403123934753, 3243995.260648539755493 ], [ 181973.774337942886632, 3243965.678276531863958 ], [ 182774.812728202843573, 3246779.999640735331923 ], [ 181719.221891108667478, 3246809.535435609985143 ], [ 182253.678844993351959, 3248685.870584785938263 ], [ 185420.225153702194802, 3248597.652167064137757 ], [ 185153.064643401303329, 3247659.422533174511045 ], [ 186208.602915604016744, 3247630.197711429093033 ], [ 186742.926873868971597, 3249506.718845698051155 ], [ 187798.389830278465524, 3249477.623901889659464 ], [ 186997.116514686611481, 3246662.840873090550303 ], [ 185941.549462629191112, 3246691.982910822145641 ] ] ], [ [ [ 179622.033749321533833, 3250651.339035474229604 ], [ 180677.503615404770244, 3250621.569957601837814 ], [ 180410.02465520252008, 3249683.357455973513424 ], [ 181465.523276561230887, 3249653.671365305781364 ], [ 181198.151472731609829, 3248715.473725051619112 ], [ 179087.078705109190196, 3248774.975530100986362 ], [ 178819.709805962746032, 3247836.839351643342525 ], [ 177764.129613739496563, 3247866.753505124244839 ], [ 177496.798385045782197, 3246928.663141710218042 ], [ 174329.917033866746351, 3247019.042782391421497 ], [ 174597.352549794770312, 3247957.086929247248918 ], [ 173541.74796655215323, 3247987.395071514416486 ], [ 174612.353774670918938, 3251739.812949971761554 ], [ 175667.819154087046627, 3251709.566425567492843 ], [ 175935.616929787560366, 3252647.762129979673773 ], [ 178046.459787189436611, 3252587.595908328425139 ], [ 177778.731638810364529, 3251649.369207269046456 ], [ 179889.619890168949496, 3251589.566403701901436 ], [ 179622.033749321533833, 3250651.339035474229604 ] ] ], [ [ [ 186222.140829458192457, 3251412.524172788020223 ], [ 185166.735538012580946, 3251441.784756545908749 ], [ 185434.220222421863582, 3252380.120800003875047 ], [ 187544.955410292663146, 3252321.729690317995846 ], [ 187010.19737492542481, 3250445.025220758747309 ], [ 185954.763248846924398, 3250474.202966166194528 ], [ 186222.140829458192457, 3251412.524172788020223 ] ] ], [ [ [ 189923.085152369400021, 3253202.162738099228591 ], [ 190190.57551701675402, 3254140.623181109782308 ], [ 191245.853133250726387, 3254111.804442906286567 ], [ 190443.703195444017183, 3251296.467530324589461 ], [ 189388.321384279581252, 3251325.333844577427953 ], [ 189655.667107415851206, 3252263.732966179959476 ], [ 187544.955410292663146, 3252321.729690317995846 ], [ 188080.002809200144839, 3254198.556590733118355 ], [ 189135.292082265019417, 3254169.540562471840531 ], [ 188867.766969164076727, 3253231.095972314942628 ], [ 189923.085152369400021, 3253202.162738099228591 ] ] ], [ [ [ 224464.010578168323264, 3206019.621141709387302 ], [ 223407.259654885157943, 3206044.930935943033546 ], [ 223144.888718278554734, 3205107.300905547104776 ], [ 221031.303044839820359, 3205158.243843343108892 ], [ 221818.835688752122223, 3207971.129725372884423 ], [ 223932.217538739379961, 3207920.282785035204142 ], [ 223669.702595749869943, 3206982.591555603314191 ], [ 224726.419558945228346, 3206957.297801761887968 ], [ 224464.010578168323264, 3206019.621141709387302 ] ] ], [ [ [ 219169.834546001104172, 3213700.203830156009644 ], [ 220226.34525745222345, 3213674.438812721520662 ], [ 219963.228107117465697, 3212736.644021087791771 ], [ 218906.683326749422122, 3212762.425062468741089 ], [ 219169.834546001104172, 3213700.203830156009644 ] ] ], [ [ [ 216260.339103373407852, 3222271.156982170417905 ], [ 215996.368681317253504, 3221333.182482285890728 ], [ 217052.633217138121836, 3221307.058455320540816 ], [ 216788.769050644128583, 3220369.098586471285671 ], [ 217845.062375835783314, 3220343.056074446067214 ], [ 217581.304440898937173, 3219405.110830930061638 ], [ 214412.305759200302418, 3219483.579189149662852 ], [ 214676.166206896596123, 3220421.476327286101878 ], [ 212563.541638073103968, 3220474.24437981005758 ], [ 213355.760739260411356, 3223288.023694365750998 ], [ 215468.180062120954972, 3223235.351697403937578 ], [ 215204.103360490815248, 3222297.362560799811035 ], [ 216260.339103373407852, 3222271.156982170417905 ] ] ], [ [ [ 211257.792937356280163, 3238458.335830498952419 ], [ 212313.488805189961568, 3238431.621480390895158 ], [ 211782.620030486839823, 3236554.914679368957877 ], [ 210726.855340107984375, 3236581.661391901783645 ], [ 211257.792937356280163, 3238458.335830498952419 ] ] ], [ [ [ 217332.649101899529342, 3241141.232793194707483 ], [ 218388.21478530036984, 3241115.058112570084631 ], [ 218122.700125256378669, 3240176.514856989495456 ], [ 217067.100032480142545, 3240202.705929060466588 ], [ 217332.649101899529342, 3241141.232793194707483 ] ] ] ] } }
]
}
