{
"type": "FeatureCollection",
"name": "urban-2100",
"crs": { "type": "name", "properties": { "name": "urn:ogc:def:crs:EPSG::32639" } },
"features": [
{ "type": "Feature", "properties": { "year": 2100 }, "geometry": { "type": "MultiPolygon", "coordinates": [ [ [ [ 203591.05256619991269, 3207481.636496104300022 ], [ 203327.963046476768795, 3206544.275475938338786 ], [ 202271.102385632460937, 3206571.528504133690149 ], [ 202534.226006774231791, 3207508.874027734156698 ], [ 203591.05256619991269, 3207481.636496104300022 ] ] ], [ [ [ 203591.05256619991269, 3207481.636496104300022 ], [ 203854.214269097254146, 3208419.027728087734431 ], [ 204911.00105299137067, 3208391.902962829917669 ], [ 204647.873453882930335, 3207454.496186174452305 ], [ 203591.05256619991269, 3207481.636496104300022 ] ] ], [ [ [ 204380.75421597174136, 3210293.900909001938999 ], [ 203854.214269097254146, 3208419.027728087734431 ], [ 202797.421820603893138, 3208446.249742213636637 ], [ 203324.030017886776477, 3210321.09182527475059 ], [ 204380.75421597174136, 3210293.900909001938999 ] ] ], [ [ [ 204380.75421597174136, 3210293.900909001938999 ], [ 204644.132455726794433, 3211231.38289871159941 ], [ 203587.442397122213151, 3211258.558234617114067 ], [ 203850.926960602810141, 3212196.054916366469115 ], [ 204907.582870209414978, 3212168.895181798841804 ], [ 205171.105457306432072, 3213106.437778681050986 ], [ 206227.721579487610143, 3213079.391051153186709 ], [ 205700.816871151444502, 3211204.304893185850233 ], [ 206757.49566356575815, 3211177.324214520398527 ], [ 206494.185681363451295, 3210239.810982562135905 ], [ 204380.75421597174136, 3210293.900909001938999 ] ] ], [ [ [ 205962.106233128288295, 3215919.247656515333802 ], [ 205171.105457306432072, 3213106.437778681050986 ], [ 204114.483706217957661, 3213133.581890933215618 ], [ 204378.112631853378844, 3214071.139178745448589 ], [ 203321.519406884675846, 3214098.365063117351383 ], [ 203849.062168681586627, 3215973.539364982862025 ], [ 205962.106233128288295, 3215919.247656515333802 ] ] ], [ [ [ 176203.48715112823993, 3253585.988207811489701 ], [ 177258.876788356574252, 3253555.871285712812096 ], [ 176991.041393880208489, 3252617.629701814614236 ], [ 182268.073048787366133, 3252468.447003611829132 ], [ 182535.734419399290346, 3253406.766524524893612 ], [ 183591.087973192916252, 3253377.241515136323869 ], [ 183858.786937948258128, 3254315.607248039450496 ], [ 188080.002809200144839, 3254198.556590733118355 ], [ 188347.63501467986498, 3255137.01600441429764 ], [ 190458.138199234555941, 3255079.114316000137478 ], [ 190190.57551701675402, 3254140.623181109782308 ], [ 191245.853133250726387, 3254111.804442906286567 ], [ 191513.381064748740755, 3255050.311479109805077 ], [ 192568.618138801539317, 3255021.607308791950345 ], [ 192836.183623202552553, 3255960.161028787493706 ], [ 194946.570991819433402, 3255903.080654042307287 ], [ 194411.65126878087176, 3254025.940050021745265 ], [ 193356.390989337989595, 3254054.462881071027368 ], [ 193089.00482644722797, 3253115.95471665263176 ], [ 192033.704061209224164, 3253144.592113992664963 ], [ 191766.355472275638022, 3252206.130597571376711 ], [ 192821.69095463224221, 3252177.477287264540792 ], [ 191753.158420675143134, 3248423.874504259321839 ], [ 197030.443055086245295, 3248281.767721448559314 ], [ 197297.294455162424129, 3249220.20196472806856 ], [ 198352.699556833365932, 3249192.091965735889971 ], [ 199420.689016914111562, 3252946.200905965641141 ], [ 202586.45460267260205, 3252862.654919062741101 ], [ 202319.452859694603831, 3251924.033051086124033 ], [ 203374.73149723210372, 3251896.365353218279779 ], [ 203641.698595212423243, 3252835.003405737224966 ], [ 204696.937019402626902, 3252807.450460928957909 ], [ 205231.018495603115298, 3254684.851918889209628 ], [ 206286.18208121531643, 3254657.430080784950405 ], [ 206553.296433617186267, 3255596.193619206547737 ], [ 209718.650247675424907, 3255514.568857023958117 ], [ 209451.639830522064585, 3254575.756246878299862 ], [ 210506.78147707413882, 3254548.728850641287863 ], [ 210239.877824643452186, 3253609.930946929380298 ], [ 211295.048650050070137, 3253582.98573493026197 ], [ 211028.251738242513966, 3252644.202532186638564 ], [ 212083.451738509524148, 3252617.339467897545546 ], [ 211816.761543226311915, 3251678.570960640441626 ], [ 212871.990714383427985, 3251651.790007531642914 ], [ 212605.407211535435636, 3250713.036190269514918 ], [ 218936.876869522791822, 3250554.320036672055721 ], [ 217340.132783265085891, 3244921.858037903904915 ], [ 218395.566041231970303, 3244895.650840146001428 ], [ 217598.270239637175109, 3242079.790695496834815 ], [ 218653.801504092523828, 3242053.632427552249283 ], [ 217857.257526114175562, 3239238.002639950253069 ], [ 218912.886688537779264, 3239211.893326384481043 ], [ 218382.28643837821437, 3237334.929193338379264 ], [ 219437.979033299372531, 3237308.885219502262771 ], [ 218907.735718750744127, 3235432.01237460738048 ], [ 219963.491699683479965, 3235406.033713109791279 ], [ 219433.605247343482915, 3233529.252104952931404 ], [ 220489.424567845766433, 3233503.338728348724544 ], [ 220224.623716165893711, 3232564.97803856106475 ], [ 221280.472041740664281, 3232539.146256065927446 ], [ 220751.155026668449864, 3230662.485073706600815 ], [ 221807.066625195962843, 3230636.718505936209112 ], [ 221013.734124389418866, 3227821.909801814239472 ], [ 222069.74318534595659, 3227796.192114610690624 ], [ 221541.283448076224886, 3225919.774939608294517 ], [ 223653.422609716712032, 3225868.567635170184076 ], [ 223389.369172495556995, 3224930.372802335768938 ], [ 222333.268032912805211, 3224955.943891721311957 ], [ 221805.308830721129198, 3223079.679426535964012 ], [ 222861.478327827120665, 3223054.075805168133229 ], [ 222333.875537166139111, 3221177.902227965183556 ], [ 223390.10806992079597, 3221152.363740514032543 ], [ 223126.448838510143105, 3220214.306963264476508 ], [ 224182.710239010979421, 3220188.849807413760573 ], [ 223919.157139730465133, 3219250.807618607766926 ], [ 226031.732431946496945, 3219200.153413967695087 ], [ 225504.978632154350635, 3217324.096519661601633 ], [ 224448.625417848001234, 3217349.407360245008022 ], [ 224185.322419985022862, 3216411.441363095771521 ], [ 226298.091768606973346, 3216360.88468045508489 ], [ 226034.928902700368781, 3215422.917037936393172 ], [ 224978.512784919759724, 3215448.162886182777584 ], [ 224715.38784887176007, 3214510.242240649648011 ], [ 223658.932425916020293, 3214535.601668754592538 ], [ 223395.845433994312771, 3213597.727930328808725 ], [ 224452.334907393320464, 3213572.352348425425589 ], [ 223926.445016704557929, 3211696.664741492364556 ], [ 224982.997289219230879, 3211671.354211180936545 ], [ 224457.463422546978109, 3209795.757155332248658 ], [ 225514.078448205487803, 3209770.511648419778794 ], [ 224988.900532301748171, 3207895.005092541687191 ], [ 226045.578265173127875, 3207869.824580777436495 ], [ 225783.131254469917621, 3206932.101201434619725 ], [ 226839.837702528049704, 3206907.001751342322677 ], [ 226577.49662099359557, 3205969.292928845621645 ], [ 227634.231780962552875, 3205944.274503672961146 ], [ 227371.996604673971888, 3205006.580232167150825 ], [ 228428.760473295347765, 3204981.642795159015805 ], [ 227904.573844181548338, 3203106.313995307777077 ], [ 228961.400314836995676, 3203081.441396025475115 ], [ 228699.448830693145283, 3202143.806862208526582 ], [ 229756.303987059101928, 3202119.015171279199421 ], [ 229494.458329024084378, 3201181.395171212032437 ], [ 230551.342167912749574, 3201156.684351871721447 ], [ 230289.602312089293264, 3200219.078879646491259 ], [ 231346.514830335683655, 3200194.448895130306482 ], [ 231084.880752833967563, 3199256.857944825198501 ], [ 234255.68893310893327, 3199183.50110202934593 ], [ 233994.228231563989539, 3198245.892349884845316 ], [ 236108.142408953164704, 3198197.439867720007896 ], [ 234802.255228979804087, 3193509.694333131890744 ], [ 235859.373496939369943, 3193485.532435557805002 ], [ 234816.092771222989541, 3189735.822820289060473 ], [ 235873.340790521411691, 3189711.69314993172884 ], [ 235352.19916245341301, 3187836.989627012982965 ], [ 236409.50943863397697, 3187812.924392281100154 ], [ 236149.08011999016162, 3186875.602384466677904 ], [ 237206.418965871096589, 3186851.617621509358287 ], [ 236946.095173787034582, 3185914.310083750635386 ], [ 238003.462586447654758, 3185890.405755751300603 ], [ 237743.244297099881805, 3184953.112681995145977 ], [ 239858.031209027161822, 3184905.561288814526051 ], [ 239597.952000743913231, 3183968.266567780636251 ], [ 240655.371510671131546, 3183944.619435437954962 ], [ 240395.397741092805518, 3183007.339159786701202 ], [ 241452.84582271517138, 3182983.772321610711515 ], [ 241192.97746804181952, 3182046.506485248915851 ], [ 239078.009145184070803, 3182093.768776572309434 ], [ 239337.944645417155698, 3183031.002403824590147 ], [ 238280.48651527747279, 3183054.762056807987392 ], [ 238540.527463207632536, 3183992.010136319324374 ], [ 236425.663223700132221, 3184039.786594376433641 ], [ 236685.843259018321987, 3184977.033081497997046 ], [ 235628.437139001500327, 3185001.049953761976212 ], [ 235888.722686067514587, 3185938.310911753680557 ], [ 234831.345102900930215, 3185962.40824289014563 ], [ 235091.736185545858461, 3186899.683677797205746 ], [ 234034.38714216160588, 3186923.861504640430212 ], [ 234555.45232795458287, 3188798.471854251343757 ], [ 233498.165508895122912, 3188822.71418871358037 ], [ 234541.293479618325364, 3192572.237154831644148 ], [ 233484.136374064488336, 3192596.511884693987668 ], [ 234006.199253144208342, 3194471.424632420297712 ], [ 232949.104514747101348, 3194495.763898708857596 ], [ 233732.839436814945657, 3197308.314273967873305 ], [ 232675.840899277711287, 3197332.701974611729383 ], [ 232937.263491780322511, 3198270.263898883480579 ], [ 229766.338424718356691, 3198343.959815642796457 ], [ 230027.934396978758741, 3199281.504041065927595 ], [ 228970.982859456562437, 3199306.24705029418692 ], [ 229232.684619110776111, 3200243.805804381147027 ], [ 228175.761731137055904, 3200268.629672551993281 ], [ 228437.569302081072237, 3201206.202961215749383 ], [ 227380.675066830881406, 3201231.107725109905005 ], [ 227642.588472967385314, 3202168.695554254110903 ], [ 226585.722893634869251, 3202193.68125065555796 ], [ 227109.833396597532555, 3204068.916613169480115 ], [ 226053.030386930098757, 3204093.967219619080424 ], [ 226315.227515082049649, 3205031.614758447278291 ], [ 224201.673592105740681, 3205081.975091863423586 ], [ 223939.408602891431656, 3204144.359631714876741 ], [ 224996.222129104891792, 3204119.114891377277672 ], [ 224471.975989169266541, 3202243.943669539410621 ], [ 223415.094623543031048, 3202269.22039856063202 ], [ 222891.068657174066175, 3200394.203278445638716 ], [ 225004.961694627068937, 3200343.682970045134425 ], [ 224743.124487293011043, 3199406.188281692564487 ], [ 225800.096954186214134, 3199381.05758818006143 ], [ 225015.118843918724451, 3196568.708692129701376 ], [ 223958.044817164889537, 3196593.88718714332208 ], [ 223696.495584842341486, 3195656.514411061070859 ], [ 221582.263909797940869, 3195707.193649630527943 ], [ 221843.880831504007801, 3196644.534723167773336 ], [ 220786.790832006838173, 3196670.003770772367716 ], [ 221310.308460284431931, 3198544.74547187006101 ], [ 220253.280848916852847, 3198570.279747856780887 ], [ 221301.315964280744083, 3202320.064912204630673 ], [ 222358.207955329620745, 3202294.594145014882088 ], [ 222882.589788061683066, 3204169.701443914324045 ], [ 218655.261237992323004, 3204272.039477461017668 ], [ 218917.696002218988724, 3205209.575217143632472 ], [ 217860.8844169137883, 3205235.386575884185731 ], [ 218123.425211260386277, 3206172.936917188111693 ], [ 214953.059955674398225, 3206250.906234080437571 ], [ 215215.774829522240907, 3207188.439510107040405 ], [ 214159.00954809965333, 3207214.607795082498342 ], [ 214947.688758722331841, 3210027.342845754697919 ], [ 213891.020155796199106, 3210053.560886926949024 ], [ 214417.234854134963825, 3211928.838241066783667 ], [ 215473.835310592956375, 3211902.651925244834274 ], [ 215737.016703586908989, 3212840.352240171283484 ], [ 214680.450334665481932, 3212866.522661843337119 ], [ 214943.737899934640154, 3213804.237605762202293 ], [ 213887.200187621871009, 3213830.489493031054735 ], [ 214150.5939491710742, 3214768.219071664381772 ], [ 216263.595713051734492, 3214715.844522960018367 ], [ 216000.270171782991383, 3213778.083099233452231 ], [ 218113.318474669591524, 3213726.06621481012553 ], [ 218639.905224902846385, 3215601.683597261086106 ], [ 217583.451968127978034, 3215627.611350398510695 ], [ 217846.887530506413896, 3216565.449970461428165 ], [ 216790.463006287056487, 3216591.459146581590176 ], [ 217054.004753989866003, 3217529.312387595884502 ], [ 214941.207765427068807, 3217581.591148839797825 ], [ 214677.597740203258581, 3216643.769879024475813 ], [ 212564.710716454137582, 3216696.470474408473819 ], [ 212828.389047444623429, 3217634.259881804697216 ], [ 210715.548439138045069, 3217687.318613855168223 ], [ 211243.258132498885971, 3219562.925504007842392 ], [ 210186.897953148232773, 3219589.569393100682646 ], [ 211507.605332865787204, 3224279.042103874497116 ], [ 210451.410797073796857, 3224305.70398695115 ], [ 210715.80289187777089, 3225243.674400454387069 ], [ 211771.963166594912764, 3225217.028494704980403 ], [ 212300.895174788194709, 3227093.093289968091995 ], [ 213356.981436743866652, 3227066.577184160239995 ], [ 213886.133310229633935, 3228942.796958649996668 ], [ 212830.11562306934502, 3228969.280907684937119 ], [ 213094.834006904507987, 3229907.420826632063836 ], [ 212038.845180734409951, 3229933.986529162153602 ], [ 212568.566903365368489, 3231810.32646150700748 ], [ 211512.641276891285088, 3231836.95785625372082 ], [ 211777.644647150824312, 3232775.157874815165997 ], [ 210721.747905760945287, 3232801.871102479752153 ], [ 210986.857753508200403, 3233740.085795423947275 ], [ 208875.116556115855929, 3233793.773976111784577 ], [ 208609.937964689452201, 3232855.591427784878761 ], [ 206498.10594602744095, 3232909.703602969646454 ], [ 206763.353309599100612, 3233847.854115407913923 ], [ 205707.46336799103301, 3233875.041178290732205 ], [ 205442.181607652630191, 3232936.906643028371036 ], [ 204386.251689939526841, 3232964.207656097132713 ], [ 205182.416723528061993, 3235778.655412700492889 ], [ 197791.472684164589737, 3235972.172935095615685 ], [ 197525.770998542720918, 3235034.104194667655975 ], [ 196469.864659094368108, 3235062.157633798662573 ], [ 197001.409244162496179, 3236938.29409665055573 ], [ 193833.862675252952613, 3237022.948398722335696 ], [ 193567.950743119756225, 3236084.912126921117306 ], [ 194623.83987454342423, 3236056.58019147394225 ], [ 194092.301851835974958, 3234180.567666829563677 ], [ 193036.343725819839165, 3234208.930968227330595 ], [ 192505.025851911341306, 3232333.07151877740398 ], [ 191448.992943076009396, 3232361.564090695232153 ], [ 191183.407968972343951, 3231423.69553730590269 ], [ 190127.334735367505345, 3231452.30165677703917 ], [ 190392.954187931958586, 3232390.154655498918146 ], [ 189336.909566492657177, 3232418.843216893728822 ], [ 189602.635823410237208, 3233356.711010835599154 ], [ 191714.650216777052265, 3233299.463009107857943 ], [ 191980.379787963291164, 3234237.3923131050542 ], [ 187756.465518743381836, 3234352.218201408628374 ], [ 188022.405456945532933, 3235290.115601981524378 ], [ 190134.305284701869823, 3235232.537649155128747 ], [ 190400.248484853364062, 3236170.496534652542323 ], [ 187232.493511585576925, 3236256.963922269642353 ], [ 186966.446696438768413, 3235319.051710315514356 ], [ 185910.48201156349387, 3235348.08591159619391 ], [ 186176.563379605999216, 3236285.982619969639927 ], [ 185120.627310594310984, 3236315.099441510159522 ], [ 185386.815596601110883, 3237253.010972592514008 ], [ 187498.612665476452094, 3237194.906475715804845 ], [ 187764.804156000318471, 3238132.87939122132957 ], [ 190932.351813603832852, 3238046.505541225895286 ], [ 191198.511937973671593, 3238984.555703500285745 ], [ 189086.888502014393453, 3239042.008830920327455 ], [ 189353.190075788472313, 3239980.058147736825049 ], [ 188297.404138507379685, 3240008.916390757542104 ], [ 188563.812626264814753, 3240946.98051598854363 ], [ 186452.292276201187633, 3241004.960499766282737 ], [ 186718.842319447605405, 3241943.023835194297135 ], [ 185663.107898226706311, 3241972.145643658004701 ], [ 185396.52323039190378, 3241034.097884666640311 ], [ 182229.180370922840666, 3241122.09965675836429 ], [ 181696.020358012174256, 3239246.18820299115032 ], [ 179584.289911234925967, 3239305.409127227962017 ], [ 179850.903000979335047, 3240243.318881824612617 ], [ 178795.063355102261994, 3240273.061318530701101 ], [ 179061.783510285953525, 3241210.985934899188578 ], [ 181173.387444053660147, 3241151.630132590886205 ], [ 181440.110683351464104, 3242089.615857100114226 ], [ 179328.576079296995886, 3242148.94080489128828 ], [ 179595.441060030949302, 3243086.925949069205672 ], [ 178539.699374583549798, 3243116.720488855615258 ], [ 178806.671459837118164, 3244054.720498779322952 ], [ 177750.958411599742249, 3244084.597984713036567 ], [ 178018.03762564616045, 3245022.612865629605949 ], [ 174850.966115465096664, 3245112.789506452623755 ], [ 175118.221961990231648, 3246050.788510431069881 ], [ 174062.553976200346369, 3246081.028885223902762 ], [ 174597.352549794770312, 3247957.086929247248918 ], [ 173541.74796655215323, 3247987.395071514416486 ], [ 174076.905947682331316, 3249863.543430282268673 ], [ 173021.364814751257654, 3249893.919367339927703 ], [ 172753.714788804296404, 3248955.845419872552156 ], [ 170642.544416433083825, 3249016.923645425122231 ], [ 171178.056217161356471, 3250893.040462478064001 ], [ 173289.087311671639327, 3250832.023583767935634 ], [ 174628.786787279590499, 3255522.999422133900225 ], [ 175684.118898904998787, 3255492.716132378671318 ], [ 175952.241307316347957, 3256431.017911640927196 ], [ 178062.817567451565992, 3256370.778612534049898 ], [ 177526.784616849501617, 3254494.143285004422069 ], [ 176471.429816001269501, 3254524.244679735042155 ], [ 176203.48715112823993, 3253585.988207811489701 ] ], [ [ 184085.146233351668343, 3243906.808619575109333 ], [ 183551.621236590086482, 3242030.684146870858967 ], [ 184607.367543908243533, 3242001.365746289025992 ], [ 185140.823233712755609, 3243877.521327000577003 ], [ 184085.146233351668343, 3243906.808619575109333 ] ], [ [ 219442.781662172521465, 3207084.738172057084739 ], [ 219180.202810988412239, 3206147.141441852785647 ], [ 220236.975035002280492, 3206121.44310939591378 ], [ 220499.519898095168173, 3207059.055771151557565 ], [ 219442.781662172521465, 3207084.738172057084739 ] ] ], [ [ [ 183253.647948610247113, 3225970.781931632198393 ], [ 182988.362550311838277, 3225033.217393521685153 ], [ 187213.703158932679798, 3224916.990761609748006 ], [ 186418.694233590562362, 3222104.294275172520429 ], [ 187475.117674807319418, 3222075.436071682255715 ], [ 186945.54218269593548, 3220200.425032879691571 ], [ 180606.498903668252751, 3220375.222463616169989 ], [ 180871.456821715284605, 3221312.621693617664278 ], [ 179814.962856453785207, 3221342.081297656521201 ], [ 180080.02759081957629, 3222279.495366905815899 ], [ 179023.561963732354343, 3222309.037562722805887 ], [ 180084.682691995985806, 3226058.933123707771301 ], [ 179028.348811518517323, 3226088.512523087672889 ], [ 179293.844485633191653, 3227026.046257964335382 ], [ 181406.437202220957261, 3226967.015690982341766 ], [ 180875.6561781175551, 3225091.91748431744054 ], [ 181932.012386580754537, 3225062.518537853844464 ], [ 182197.332240498508327, 3226000.067831801250577 ], [ 183253.647948610247113, 3225970.781931632198393 ] ] ], [ [ [ 192234.195587579277344, 3227615.481877267360687 ], [ 191969.040983112121467, 3226677.733861460350454 ], [ 190912.807259595021605, 3226706.221781121566892 ], [ 190647.690541492018383, 3225768.519531737081707 ], [ 189591.416534049611073, 3225797.120732884388417 ], [ 189856.567666266812012, 3226734.807527115568519 ], [ 187744.070790039666463, 3226792.272512959316373 ], [ 188274.727746228745673, 3228667.675063410308212 ], [ 187218.539323629578575, 3228696.52349995309487 ], [ 187484.010757819807623, 3229634.254688978660852 ], [ 191708.591221903392579, 3229519.510189469903708 ], [ 191973.997138308826834, 3230457.333613989409059 ], [ 193030.09313922788715, 3230428.907834482844919 ], [ 192499.422483161033597, 3228553.26019769674167 ], [ 191443.257601909455843, 3228581.717089492361993 ], [ 191177.996280437044334, 3227643.95429354486987 ], [ 192234.195587579277344, 3227615.481877267360687 ] ] ], [ [ [ 192505.025851911341306, 3232333.07151877740398 ], [ 193561.052934422215912, 3232304.676936047617346 ], [ 193295.536895490833558, 3231366.77719189459458 ], [ 192239.475349015672691, 3231395.187383578624576 ], [ 192505.025851911341306, 3232333.07151877740398 ] ] ], [ [ [ 210721.747905760945287, 3232801.871102479752153 ], [ 210456.710183866554871, 3231863.687175848055631 ], [ 209400.773604302376043, 3231890.514423757325858 ], [ 209665.845684933650773, 3232828.682285643648356 ], [ 210721.747905760945287, 3232801.871102479752153 ] ] ], [ [ [ 161678.107861415192019, 3251172.497583393473178 ], [ 162214.537442706234287, 3253048.461243711411953 ], [ 165381.034038030833472, 3252954.51218320755288 ], [ 164308.883876265899744, 3249202.523551871068776 ], [ 162197.613359436392784, 3249265.178704101592302 ], [ 162733.682866714079864, 3251141.052300992887467 ], [ 161678.107861415192019, 3251172.497583393473178 ] ] ], [ [ [ 244384.635709926689742, 3178204.122263030149043 ], [ 245442.226608099648729, 3178180.956343501806259 ], [ 244664.417102818959393, 3175369.466806965414435 ], [ 245722.103488786902744, 3175346.348666860722005 ], [ 245463.010713658411987, 3174409.2304373877123 ], [ 246520.725619305972941, 3174386.192320647649467 ], [ 246261.738077851594426, 3173449.08848818577826 ], [ 239915.173532420943957, 3173588.855663444381207 ], [ 239656.057122354366584, 3172651.878552406094968 ], [ 237540.428551681223325, 3172699.268445051275194 ], [ 238318.194203652295982, 3175510.195313822943717 ], [ 240433.621893849689513, 3175462.901092868763953 ], [ 240692.953840949223377, 3176399.969451814889908 ], [ 241750.626645027514314, 3176376.482642981689423 ], [ 242269.439054957270855, 3178250.742868076078594 ], [ 241211.833257257705554, 3178274.197559674270451 ], [ 240952.357629462960176, 3177337.068267311900854 ], [ 237779.409545145521406, 3177408.057978584896773 ], [ 238298.633796401903965, 3179282.250911465846002 ], [ 235125.841313504381105, 3179354.01117340195924 ], [ 235385.661919584788848, 3180291.105390087235719 ], [ 239615.907514204038307, 3180195.68159617157653 ], [ 239875.665740722150076, 3181132.87026052037254 ], [ 240933.180951511370949, 3181109.271206740289927 ], [ 241192.97746804181952, 3182046.506485248915851 ], [ 243307.925788962253137, 3181999.62969608232379 ], [ 243567.727025437663542, 3182936.92785056727007 ], [ 246740.01173437491525, 3182867.384111567866057 ], [ 246220.682304094429128, 3180992.721100993454456 ], [ 245163.191925670427736, 3181015.838443874381483 ], [ 244384.635709926689742, 3178204.122263030149043 ] ], [ [ 240673.456275261472911, 3180172.066465718206018 ], [ 240413.803441429481609, 3179234.892241830006242 ], [ 241471.380722198577132, 3179211.357349222991616 ], [ 241731.000022149062715, 3180148.547656296286732 ], [ 240673.456275261472911, 3180172.066465718206018 ] ] ], [ [ [ 231398.76143169234274, 3185098.082233227789402 ], [ 230341.329596089140978, 3185122.581516506150365 ], [ 230862.309154597634915, 3186996.974217811133713 ], [ 229804.939471682708245, 3187021.538210335187614 ], [ 230065.570843414927367, 3187958.764275107067078 ], [ 232180.237640133476816, 3187909.764708326663822 ], [ 232440.873553951445501, 3188847.053117473144084 ], [ 233498.165508895122912, 3188822.71418871358037 ], [ 232716.574568690382876, 3186010.892427132930607 ], [ 231659.181576874689199, 3186035.279286560136825 ], [ 231398.76143169234274, 3185098.082233227789402 ] ] ], [ [ [ 216058.651991597202141, 3187349.657290300354362 ], [ 215275.874359571782406, 3184538.773400041740388 ], [ 212103.220377470075618, 3184616.950387695338577 ], [ 212364.175492770853452, 3185553.835222151130438 ], [ 210249.112655319971964, 3185606.405044120270759 ], [ 209988.089966558909509, 3184669.550977628212422 ], [ 208930.516373049642425, 3184695.996062314137816 ], [ 210236.520052624575328, 3189380.489631765056401 ], [ 211293.924564355926123, 3189354.121470807120204 ], [ 211816.76318180875387, 3191228.160063346382231 ], [ 213931.420179212291259, 3191175.775721721351147 ], [ 213670.032504550879821, 3190238.71035965718329 ], [ 215784.735126837214921, 3190186.681736286263913 ], [ 215523.487180435506161, 3189249.615428215358406 ], [ 217638.235514997213613, 3189197.942320042755455 ], [ 217116.091004611225799, 3187323.83790139015764 ], [ 216058.651991597202141, 3187349.657290300354362 ] ] ], [ [ [ 217103.364411585731432, 3191097.924533991608769 ], [ 216842.078215356101282, 3190160.812441968824714 ], [ 215784.735126837214921, 3190186.681736286263913 ], [ 216046.055142168421298, 3191123.778224461711943 ], [ 217103.364411585731432, 3191097.924533991608769 ] ] ], [ [ [ 225026.693192085484043, 3192794.191422451753169 ], [ 224765.499553998757619, 3191856.908587671350688 ], [ 223708.26177002931945, 3191882.069626450538635 ], [ 223969.489197226299439, 3192819.336625302676111 ], [ 222912.279890805948526, 3192844.578563580289483 ], [ 223435.018351591133978, 3194719.172062025871128 ], [ 225549.296425286098383, 3194668.848335196264088 ], [ 225287.958816556783859, 3193731.504664835520089 ], [ 227402.283376518578734, 3193681.536247507669032 ], [ 227141.085328429355286, 3192744.191209946759045 ], [ 225026.693192085484043, 3192794.191422451753169 ] ] ], [ [ [ 205447.2835918138735, 3202713.771191837731749 ], [ 206504.257854767492972, 3202686.844708863645792 ], [ 206241.665426573192235, 3201749.572603028267622 ], [ 205184.657138307753485, 3201776.51458667172119 ], [ 205447.2835918138735, 3202713.771191837731749 ] ] ], [ [ [ 221563.504804237571079, 3203257.587368296459317 ], [ 221301.315964280744083, 3202320.064912204630673 ], [ 220244.418630151427351, 3202345.632703443989158 ], [ 220506.641406029870268, 3203283.13925728853792 ], [ 221563.504804237571079, 3203257.587368296459317 ] ] ], [ [ [ 205709.982210498361383, 3203651.057969859335572 ], [ 205447.2835918138735, 3202713.771191837731749 ], [ 203333.318105418002233, 3202767.915387134999037 ], [ 203596.08481513831066, 3203705.171203532721847 ], [ 202539.127607434522361, 3203732.373482842464 ], [ 203064.945712036220357, 3205606.944647234864533 ], [ 206235.595934967685025, 3205525.722125804983079 ], [ 205972.752992252411786, 3204588.374941065441817 ], [ 204915.841175964684226, 3204615.36748961545527 ], [ 204653.036342747160234, 3203678.066033713985234 ], [ 205709.982210498361383, 3203651.057969859335572 ] ] ], [ [ [ 206494.185681363451295, 3210239.810982562135905 ], [ 207550.892989027546719, 3210212.911965362727642 ], [ 207287.689273195050191, 3209275.413407375104725 ], [ 206230.94785696308827, 3209302.328065496869385 ], [ 206494.185681363451295, 3210239.810982562135905 ] ] ], [ [ [ 215734.03308289317647, 3216617.565781639888883 ], [ 215470.52927617757814, 3215679.759145121090114 ], [ 214414.059800741204526, 3215705.979193481616676 ], [ 214677.597740203258581, 3216643.769879024475813 ], [ 215734.03308289317647, 3216617.565781639888883 ] ] ], [ [ [ 210980.267110514105298, 3226181.675457182340324 ], [ 210715.80289187777089, 3225243.674400454387069 ], [ 209659.637120959348977, 3225270.418037274386734 ], [ 209924.135617309133522, 3226208.403122768737376 ], [ 210980.267110514105298, 3226181.675457182340324 ] ] ] ] } }
]
}
