{
"type": "FeatureCollection",
"name": "urban-2020",
"crs": { "type": "name", "properties": { "name": "urn:ogc:def:crs:EPSG::32639" } },
"features": [
{ "type": "Feature", "properties": { "year": 2020 }, "geometry": { "type": "MultiPolygon", "coordinates": [ [ [ [ 212035.756096371915191, 3218598.54455494042486 ], [ 213092.139481145597529, 3218572.07985197333619 ], [ 212828.389047444623429, 3217634.259881804697216 ], [ 211771.97148963768268, 3217660.740496225655079 ], [ 212035.756096371915191, 3218598.54455494042486 ] ] ], [ [ [ 186948.6278455411084, 3223979.395134478807449 ], [ 185889.049988743499853, 3220229.31380645558238 ], [ 181663.021203034964856, 3220345.845414333511144 ], [ 181927.944712946016807, 3221283.259783235844225 ], [ 180871.456821715284605, 3221312.621693617664278 ], [ 181136.487131123896688, 3222250.050895688124001 ], [ 180080.02759081957629, 3222279.495366905815899 ], [ 180345.164723946596496, 3223216.939407531172037 ], [ 179288.733538645203225, 3223246.466476599685848 ], [ 180350.143879008537624, 3226996.482042469084263 ], [ 181406.437202220957261, 3226967.015690982341766 ], [ 180875.6561781175551, 3225091.91748431744054 ], [ 185101.044823778269347, 3224974.908496046438813 ], [ 184835.900669272756204, 3224037.343504981603473 ], [ 186948.6278455411084, 3223979.395134478807449 ] ] ], [ [ [ 214148.628735645557754, 3226102.078996172174811 ], [ 213884.267307607340626, 3225164.029862604569644 ], [ 212828.117965156910941, 3225190.480316570959985 ], [ 213092.51364964467939, 3226128.513397334609181 ], [ 214148.628735645557754, 3226102.078996172174811 ] ] ], [ [ [ 188274.727746228745673, 3228667.675063410308212 ], [ 189330.910253461857792, 3228638.924518636893481 ], [ 189596.312766023387667, 3229576.68660886446014 ], [ 191708.591221903392579, 3229519.510189469903708 ], [ 190912.807259595021605, 3226706.221781121566892 ], [ 187744.070790039666463, 3226792.272512959316373 ], [ 188274.727746228745673, 3228667.675063410308212 ] ] ], [ [ [ 191208.2049961744342, 3242765.675887766759843 ], [ 190152.528713307343423, 3242794.388850979041308 ], [ 190419.119557492609601, 3243732.56007179711014 ], [ 189363.472050188749563, 3243761.355641022324562 ], [ 189630.169837993336841, 3244699.541667967569083 ], [ 187518.926511425175704, 3244757.396460030693561 ], [ 188052.677670134115033, 3246633.797265178989619 ], [ 189108.232948834483977, 3246604.852083323989064 ], [ 189642.204087282880209, 3248481.406475505325943 ], [ 188586.718167002662085, 3248510.320174142718315 ], [ 188853.846911951783113, 3249448.627469298895448 ], [ 192020.183106917073019, 3249362.229201371781528 ], [ 191753.158420675143134, 3248423.874504259321839 ], [ 197030.443055086245295, 3248281.767721448559314 ], [ 197297.294455162424129, 3249220.20196472806856 ], [ 198352.699556833365932, 3249192.091965735889971 ], [ 199153.583295861957595, 3252007.627428617328405 ], [ 200208.878778821614105, 3251979.664085187017918 ], [ 200475.949833327613305, 3252918.253665579948574 ], [ 202586.45460267260205, 3252862.654919062741101 ], [ 202319.452859694603831, 3251924.033051086124033 ], [ 203374.73149723210372, 3251896.365353218279779 ], [ 203641.698595212423243, 3252835.003405737224966 ], [ 204696.937019402626902, 3252807.450460928957909 ], [ 205231.018495603115298, 3254684.851918889209628 ], [ 206286.18208121531643, 3254657.430080784950405 ], [ 206553.296433617186267, 3255596.193619206547737 ], [ 209718.650247675424907, 3255514.568857023958117 ], [ 209451.639830522064585, 3254575.756246878299862 ], [ 210506.78147707413882, 3254548.728850641287863 ], [ 210239.877824643452186, 3253609.930946929380298 ], [ 211295.048650050070137, 3253582.98573493026197 ], [ 211028.251738242513966, 3252644.202532186638564 ], [ 212083.451738509524148, 3252617.339467897545546 ], [ 211816.761543226311915, 3251678.570960640441626 ], [ 212871.990714383427985, 3251651.790007531642914 ], [ 212605.407211535435636, 3250713.036190269514918 ], [ 218936.876869522791822, 3250554.320036672055721 ], [ 217340.132783265085891, 3244921.858037903904915 ], [ 218395.566041231970303, 3244895.650840146001428 ], [ 217598.270239637175109, 3242079.790695496834815 ], [ 218653.801504092523828, 3242053.632427552249283 ], [ 217857.257526114175562, 3239238.002639950253069 ], [ 218912.886688537779264, 3239211.893326384481043 ], [ 218382.28643837821437, 3237334.929193338379264 ], [ 219437.979033299372531, 3237308.885219502262771 ], [ 218907.735718750744127, 3235432.01237460738048 ], [ 219963.491699683479965, 3235406.033713109791279 ], [ 219433.605247343482915, 3233529.252104952931404 ], [ 220489.424567845766433, 3233503.338728348724544 ], [ 219959.894904324435629, 3231626.648305535316467 ], [ 221015.777517993061338, 3231600.800186317414045 ], [ 220751.155026668449864, 3230662.485073706600815 ], [ 221807.066625195962843, 3230636.718505936209112 ], [ 221013.734124389418866, 3227821.909801814239472 ], [ 222069.74318534595659, 3227796.192114610690624 ], [ 221541.283448076224886, 3225919.774939608294517 ], [ 223653.422609716712032, 3225868.567635170184076 ], [ 223389.369172495556995, 3224930.372802335768938 ], [ 222333.268032912805211, 3224955.943891721311957 ], [ 221541.437263143772725, 3222141.593455144669861 ], [ 222597.640924673178233, 3222115.973599417135119 ], [ 222070.182167450140696, 3220239.861670140642673 ], [ 224182.710239010979421, 3220188.849807413760573 ], [ 223919.157139730465133, 3219250.807618607766926 ], [ 226031.732431946496945, 3219200.153413967695087 ], [ 225504.978632154350635, 3217324.096519661601633 ], [ 224448.625417848001234, 3217349.407360245008022 ], [ 224185.322419985022862, 3216411.441363095771521 ], [ 225241.709713395510335, 3216386.114305643830448 ], [ 224715.38784887176007, 3214510.242240649648011 ], [ 223658.932425916020293, 3214535.601668754592538 ], [ 223395.845433994312771, 3213597.727930328808725 ], [ 224452.334907393320464, 3213572.352348425425589 ], [ 223926.445016704557929, 3211696.664741492364556 ], [ 224982.997289219230879, 3211671.354211180936545 ], [ 224457.463422546978109, 3209795.757155332248658 ], [ 225514.078448205487803, 3209770.511648419778794 ], [ 224988.900532301748171, 3207895.005092541687191 ], [ 223932.217538739379961, 3207920.282785035204142 ], [ 224194.804481716069859, 3208858.00464476691559 ], [ 223138.150193428853527, 3208883.363466186914593 ], [ 223400.843129969784059, 3209821.099900695495307 ], [ 222344.217550294008106, 3209846.539887802209705 ], [ 222607.016504345985595, 3210784.290902900043875 ], [ 221550.41963663889328, 3210809.812092451844364 ], [ 221024.825714395439718, 3208934.372755925636739 ], [ 218911.479897496115882, 3208985.770930320490152 ], [ 219174.30888687906554, 3209923.443332716356963 ], [ 218117.661957013478968, 3209949.272319995332509 ], [ 218380.597030124510638, 3210886.959327920340002 ], [ 219437.209919698478188, 3210861.146301626227796 ], [ 219700.182993821799755, 3211798.879857572261244 ], [ 218643.604154079745058, 3211824.676901904866099 ], [ 218906.683326749422122, 3212762.425062468741089 ], [ 217850.133179474330973, 3212788.303443865384907 ], [ 218376.575823856168427, 3214663.859592422377318 ], [ 219433.05780970089836, 3214638.013225514441729 ], [ 219696.353115715959575, 3215575.853269111830741 ], [ 220752.795660698146094, 3215550.120362595655024 ], [ 221016.128909338091034, 3216488.007161996327341 ], [ 218903.306675674510188, 3216539.538249898236245 ], [ 219166.780174035462551, 3217477.423570913262665 ], [ 218110.39515001984546, 3217503.319237874355167 ], [ 218901.350330023036804, 3220317.111130163539201 ], [ 217845.062375835783314, 3220343.056074446067214 ], [ 218108.892368913977407, 3221281.03202667972073 ], [ 217052.633217138121836, 3221307.058455320540816 ], [ 217580.577744644368067, 3223183.070338508114219 ], [ 216524.381598391977604, 3223209.162189898546785 ], [ 217052.682798773574177, 3225085.264811458997428 ], [ 215996.549704370379914, 3225111.422113462351263 ], [ 216525.207651022647042, 3226987.615524359047413 ], [ 215469.137654830061365, 3227013.838304777164012 ], [ 215733.608998379495461, 3227951.96503555867821 ], [ 213621.521324317669496, 3228004.671697707846761 ], [ 213886.133310229633935, 3228942.796958649996668 ], [ 212830.11562306934502, 3228969.280907684937119 ], [ 213359.624494353425689, 3230845.591513221617788 ], [ 214415.573568518739194, 3230819.13980546919629 ], [ 214680.401836617209483, 3231757.357432757038623 ], [ 213624.487083277665079, 3231783.792988155968487 ], [ 213889.421771538560279, 3232722.025272147729993 ], [ 212833.535929082834627, 3232748.542599188629538 ], [ 213098.577061550458893, 3233686.789545500185341 ], [ 212042.720133712748066, 3233713.388680848293006 ], [ 212307.867734437517356, 3234651.650295077823102 ], [ 213363.690298627887387, 3234625.067321176175028 ], [ 213628.875638173543848, 3235563.375946959014982 ], [ 212573.087447185360361, 3235589.942738241050392 ], [ 212838.379269817320164, 3236528.266031091101468 ], [ 210726.855340107984375, 3236581.661391901783645 ], [ 210461.494730690203141, 3235643.370425086468458 ], [ 208349.880101804446895, 3235697.190274081658572 ], [ 208615.309526420489419, 3236635.44902360951528 ], [ 207559.528363217716105, 3236662.489949757233262 ], [ 207028.672835075529292, 3234786.035330218728632 ], [ 205972.817299779155292, 3234813.206394761800766 ], [ 206503.74166918033734, 3236689.628954099025577 ], [ 205447.949424361111596, 3236716.866040157154202 ], [ 205713.554299792216625, 3237655.107389742508531 ], [ 204657.7909334738506, 3237682.426553522236645 ], [ 204923.502440143958665, 3238620.682617238722742 ], [ 201756.282179559173528, 3238703.180895442143083 ], [ 201490.467253635753877, 3237764.972754847258329 ], [ 200434.681433602701873, 3237792.684403839986771 ], [ 200168.904240435163956, 3236854.522820170037448 ], [ 198057.246613285969943, 3236910.272228716406971 ], [ 198323.092783781408798, 3237848.402096178382635 ], [ 197267.289914119930472, 3237876.408146746922284 ], [ 197533.24283286370337, 3238814.552770159207284 ], [ 196477.468756320886314, 3238842.641150429844856 ], [ 196743.528447465447243, 3239780.800535231363028 ], [ 195687.783168069727253, 3239808.97128195874393 ], [ 195421.688943973451387, 3238870.827702598180622 ], [ 192254.314892821537796, 3238955.976427083835006 ], [ 193053.125366263964679, 3241770.356951490044594 ], [ 190941.72107140609296, 3241827.519467725884169 ], [ 191208.2049961744342, 3242765.675887766759843 ] ], [ [ 195953.94965577381663, 3240747.14543357398361 ], [ 193842.510938175604679, 3240803.749966963659972 ], [ 193576.275343829242047, 3239865.607387185096741 ], [ 195687.783168069727253, 3239808.97128195874393 ], [ 195953.94965577381663, 3240747.14543357398361 ] ], [ [ 206244.980565916281193, 3239531.682338196784258 ], [ 207300.669455835130066, 3239504.493419828824699 ], [ 207566.456371527223382, 3240442.843158484902233 ], [ 206510.801952340174466, 3240470.015978544950485 ], [ 206244.980565916281193, 3239531.682338196784258 ] ], [ [ 210202.091612729942426, 3238485.148302704561502 ], [ 211257.792937356280163, 3238458.335830498952419 ], [ 211523.369920907425694, 3239396.719343819189817 ], [ 210467.703028986579739, 3239423.515630196779966 ], [ 210202.091612729942426, 3238485.148302704561502 ] ], [ [ 219963.228107117465697, 3212736.644021087791771 ], [ 221019.767540735017974, 3212710.960316371638328 ], [ 221282.850629170890898, 3213648.771159160416573 ], [ 220226.34525745222345, 3213674.438812721520662 ], [ 219963.228107117465697, 3212736.644021087791771 ] ] ], [ [ [ 208084.522825280611869, 3234758.962289514020085 ], [ 207819.237698983342852, 3233820.765049185603857 ], [ 206763.353309599100612, 3233847.854115407913923 ], [ 207028.672835075529292, 3234786.035330218728632 ], [ 208084.522825280611869, 3234758.962289514020085 ] ] ], [ [ [ 191190.246391871827655, 3235203.895797198172659 ], [ 190134.305284701869823, 3235232.537649155128747 ], [ 190400.248484853364062, 3236170.496534652542323 ], [ 191456.15506822738098, 3236141.870294819585979 ], [ 191722.136045247898437, 3237079.875218605156988 ], [ 192778.002265286981128, 3237051.362744363024831 ], [ 191980.379787963291164, 3234237.3923131050542 ], [ 190924.410018296330236, 3234265.951705151703209 ], [ 191190.246391871827655, 3235203.895797198172659 ] ] ], [ [ [ 186452.292276201187633, 3241004.960499766282737 ], [ 186985.46470780915115, 3242881.117593293078244 ], [ 190152.528713307343423, 3242794.388850979041308 ], [ 189353.190075788472313, 3239980.058147736825049 ], [ 188297.404138507379685, 3240008.916390757542104 ], [ 188563.812626264814753, 3240946.98051598854363 ], [ 186452.292276201187633, 3241004.960499766282737 ] ] ], [ [ [ 181732.967475255602039, 3250591.899444699287415 ], [ 181198.151472731609829, 3248715.473725051619112 ], [ 184364.715665636002086, 3248626.959809605963528 ], [ 184631.983257503656205, 3249565.204282054677606 ], [ 183576.502557876869105, 3249594.594782170373946 ], [ 183843.87725556048099, 3250532.854098454117775 ], [ 182788.425348697986919, 3250562.327492925804108 ], [ 183055.907176451932173, 3251500.60165829770267 ], [ 184111.324326950008981, 3251471.143917115405202 ], [ 184378.843769930652343, 3252409.464258864987642 ], [ 187544.955410292663146, 3252321.729690317995846 ], [ 187010.19737492542481, 3250445.025220758747309 ], [ 189121.047985084645916, 3250386.965352533850819 ], [ 188853.846911951783113, 3249448.627469298895448 ], [ 187798.389830278465524, 3249477.623901889659464 ], [ 186997.116514686611481, 3246662.840873090550303 ], [ 185941.549462629191112, 3246691.982910822145641 ], [ 185674.568363246042281, 3245753.798593655228615 ], [ 184618.960707919148263, 3245783.054693306330591 ], [ 184352.017286964866798, 3244844.916445997077972 ], [ 183296.369003407831769, 3244874.286535854451358 ], [ 182495.868956372316461, 3242060.100849204231054 ], [ 181440.110683351464104, 3242089.615857100114226 ], [ 181706.906315349857323, 3243027.631898217834532 ], [ 180651.176700321200769, 3243057.229753472842276 ], [ 180918.079403123934753, 3243995.260648539755493 ], [ 179862.378450384247117, 3244024.941388007253408 ], [ 180396.470451527624391, 3245901.063232516869903 ], [ 176173.883825328957755, 3246020.646580567583442 ], [ 176441.17736981093185, 3246958.691219170577824 ], [ 174329.917033866746351, 3247019.042782391421497 ], [ 174597.352549794770312, 3247957.086929247248918 ], [ 173541.74796655215323, 3247987.395071514416486 ], [ 174344.593631495372392, 3250801.663034704048187 ], [ 173289.087311671639327, 3250832.023583767935634 ], [ 173556.882277462631464, 3251770.158089763484895 ], [ 175667.819154087046627, 3251709.566425567492843 ], [ 175935.616929787560366, 3252647.762129979673773 ], [ 178046.459787189436611, 3252587.595908328425139 ], [ 177778.731638810364529, 3251649.369207269046456 ], [ 179889.619890168949496, 3251589.566403701901436 ], [ 179622.033749321533833, 3250651.339035474229604 ], [ 181732.967475255602039, 3250591.899444699287415 ] ], [ [ 178819.709805962746032, 3247836.839351643342525 ], [ 179875.283950057229958, 3247807.023685644380748 ], [ 180142.618099383893423, 3248745.175372208468616 ], [ 179087.078705109190196, 3248774.975530100986362 ], [ 178819.709805962746032, 3247836.839351643342525 ] ], [ [ 185153.064643401303329, 3247659.422533174511045 ], [ 186208.602915604016744, 3247630.197711429093033 ], [ 186475.728720056300517, 3248568.443016160279512 ], [ 185420.225153702194802, 3248597.652167064137757 ], [ 185153.064643401303329, 3247659.422533174511045 ] ] ], [ [ [ 191231.875204763549846, 3250329.29962273221463 ], [ 190176.464508820907213, 3250358.083222201094031 ], [ 190443.703195444017183, 3251296.467530324589461 ], [ 191499.079186084563844, 3251267.699774076696485 ], [ 191231.875204763549846, 3250329.29962273221463 ] ] ], [ [ [ 191766.355472275638022, 3252206.130597571376711 ], [ 192821.69095463224221, 3252177.477287264540792 ], [ 192554.449376020755153, 3251239.030572108924389 ], [ 191499.079186084563844, 3251267.699774076696485 ], [ 191766.355472275638022, 3252206.130597571376711 ] ] ], [ [ [ 188347.63501467986498, 3255137.01600441429764 ], [ 190458.138199234555941, 3255079.114316000137478 ], [ 190190.57551701675402, 3254140.623181109782308 ], [ 191245.853133250726387, 3254111.804442906286567 ], [ 190443.703195444017183, 3251296.467530324589461 ], [ 189388.321384279581252, 3251325.333844577427953 ], [ 189655.667107415851206, 3252263.732966179959476 ], [ 187544.955410292663146, 3252321.729690317995846 ], [ 188347.63501467986498, 3255137.01600441429764 ] ] ], [ [ [ 191513.381064748740755, 3255050.311479109805077 ], [ 192568.618138801539317, 3255021.607308791950345 ], [ 192301.124950759462081, 3254083.084344132337719 ], [ 191245.853133250726387, 3254111.804442906286567 ], [ 191513.381064748740755, 3255050.311479109805077 ] ] ], [ [ [ 239375.910572956985561, 3175486.500110954046249 ], [ 240433.621893849689513, 3175462.901092868763953 ], [ 239656.057122354366584, 3172651.878552406094968 ], [ 238598.245371505036019, 3172675.525447207503021 ], [ 239375.910572956985561, 3175486.500110954046249 ] ] ], [ [ [ 246520.725619305972941, 3174386.192320647649467 ], [ 246261.738077851594426, 3173449.08848818577826 ], [ 240972.946774526382796, 3173565.320834065787494 ], [ 241491.328186807804741, 3175439.398256487678736 ], [ 242549.029472305410309, 3175415.991598743479699 ], [ 242808.294448480213759, 3176353.092040039133281 ], [ 244923.615135377040133, 3176306.599439632613212 ], [ 244664.417102818959393, 3175369.466806965414435 ], [ 245722.103488786902744, 3175346.348666860722005 ], [ 245463.010713658411987, 3174409.2304373877123 ], [ 246520.725619305972941, 3174386.192320647649467 ] ] ], [ [ [ 244644.082642846158706, 3179141.330403456930071 ], [ 244125.260585522773908, 3177266.944681971333921 ], [ 242009.996935121627757, 3177313.597506736870855 ], [ 242528.953002396243392, 3179187.918747328221798 ], [ 244644.082642846158706, 3179141.330403456930071 ] ] ], [ [ [ 214466.104800323548261, 3189275.596955499146134 ], [ 216580.864078539249022, 3189223.730550854001194 ], [ 215275.874359571782406, 3184538.773400041740388 ], [ 213160.777235673100222, 3184590.79487558780238 ], [ 213421.698574844980612, 3185527.695134805049747 ], [ 212364.175492770853452, 3185553.835222151130438 ], [ 212886.302016746019945, 3187427.695023497100919 ], [ 211828.840978607011493, 3187453.900801351293921 ], [ 211306.646859726752155, 3185580.071857449132949 ], [ 209191.572859159088694, 3185632.834785597864538 ], [ 209975.175071108737029, 3188443.530886908527464 ], [ 211032.613418205583002, 3188417.147299651056528 ], [ 211816.76318180875387, 3191228.160063346382231 ], [ 213931.420179212291259, 3191175.775721721351147 ], [ 213670.032504550879821, 3190238.71035965718329 ], [ 214727.386563352658413, 3190212.647707720752805 ], [ 214466.104800323548261, 3189275.596955499146134 ] ], [ [ 214204.895117850159295, 3188338.57634232705459 ], [ 213943.757518040656578, 3187401.585847969632596 ], [ 215001.207502866047435, 3187375.573271368164569 ], [ 215262.311305074661504, 3188312.57927999086678 ], [ 214204.895117850159295, 3188338.57634232705459 ] ] ], [ [ [ 225800.096954186214134, 3199381.05758818006143 ], [ 225276.70622943516355, 3197506.127828612457961 ], [ 224219.666046432394069, 3197531.290410669054836 ], [ 223696.495584842341486, 3195656.514411061070859 ], [ 222639.382412939041387, 3195681.805618522223085 ], [ 222900.965486458851956, 3196619.162529726047069 ], [ 221843.880831504007801, 3196644.534723167773336 ], [ 222629.163684181461576, 3199456.740459647029638 ], [ 223686.146737381874118, 3199431.415904420893639 ], [ 223424.347650807118043, 3198493.967652269639075 ], [ 224481.359270518529229, 3198468.72410204494372 ], [ 224743.124487293011043, 3199406.188281692564487 ], [ 225800.096954186214134, 3199381.05758818006143 ] ] ], [ [ [ 228428.760473295347765, 3204981.642795159015805 ], [ 228166.631178335868753, 3204043.963068770244718 ], [ 227109.833396597532555, 3204068.916613169480115 ], [ 227371.996604673971888, 3205006.580232167150825 ], [ 228428.760473295347765, 3204981.642795159015805 ] ] ], [ [ [ 226577.49662099359557, 3205969.292928845621645 ], [ 227634.231780962552875, 3205944.274503672961146 ], [ 227371.996604673971888, 3205006.580232167150825 ], [ 226315.227515082049649, 3205031.614758447278291 ], [ 226577.49662099359557, 3205969.292928845621645 ] ] ], [ [ [ 217329.289064048207365, 3207136.394487472716719 ], [ 217066.642215607746039, 3206198.829538757447153 ], [ 216009.853803816367872, 3206224.819309927988797 ], [ 216272.534661436919123, 3207162.368408699985594 ], [ 217329.289064048207365, 3207136.394487472716719 ] ] ], [ [ [ 221031.303044839820359, 3205158.243843343108892 ], [ 221293.741903513961006, 3206095.841916476376355 ], [ 220236.975035002280492, 3206121.44310939591378 ], [ 220499.519898095168173, 3207059.055771151557565 ], [ 221556.252785528544337, 3207033.470536988694221 ], [ 221818.835688752122223, 3207971.129725372884423 ], [ 223932.217538739379961, 3207920.282785035204142 ], [ 223669.702595749869943, 3206982.591555603314191 ], [ 224726.419558945228346, 3206957.297801761887968 ], [ 224201.673592105740681, 3205081.975091863423586 ], [ 221031.303044839820359, 3205158.243843343108892 ] ] ], [ [ [ 226839.837702528049704, 3206907.001751342322677 ], [ 226577.49662099359557, 3205969.292928845621645 ], [ 225520.756226800498553, 3205994.408473769202828 ], [ 225783.131254469917621, 3206932.101201434619725 ], [ 226839.837702528049704, 3206907.001751342322677 ] ] ], [ [ [ 224726.419558945228346, 3206957.297801761887968 ], [ 224988.900532301748171, 3207895.005092541687191 ], [ 226045.578265173127875, 3207869.824580777436495 ], [ 225783.131254469917621, 3206932.101201434619725 ], [ 224726.419558945228346, 3206957.297801761887968 ] ] ], [ [ [ 216004.351913113729097, 3210001.22207313682884 ], [ 215741.420810366224032, 3209063.597409168723971 ], [ 216798.112581230583601, 3209037.558016100898385 ], [ 216272.534661436919123, 3207162.368408699985594 ], [ 215215.774829522240907, 3207188.439510107040405 ], [ 215478.561781794473063, 3208126.003228316549212 ], [ 214421.830533183703665, 3208152.155696796253324 ], [ 215737.016703586908989, 3212840.352240171283484 ], [ 216793.577645138429943, 3212814.279168640263379 ], [ 216530.430332627380267, 3211876.562932368833572 ], [ 217587.019940402300563, 3211850.571259048767388 ], [ 217061.009639151277952, 3209975.198565678671002 ], [ 216004.351913113729097, 3210001.22207313682884 ] ] ], [ [ [ 216524.381598391977604, 3223209.162189898546785 ], [ 215996.368681317253504, 3221333.182482285890728 ], [ 217052.633217138121836, 3221307.058455320540816 ], [ 216788.769050644128583, 3220369.098586471285671 ], [ 217845.062375835783314, 3220343.056074446067214 ], [ 217581.304440898937173, 3219405.110830930061638 ], [ 214412.305759200302418, 3219483.579189149662852 ], [ 214148.517400414566509, 3218545.712675964925438 ], [ 213092.139481145597529, 3218572.07985197333619 ], [ 213355.962015428638551, 3219509.930405472870916 ], [ 212299.612813226354774, 3219536.37917594704777 ], [ 212563.541638073103968, 3220474.24437981005758 ], [ 211507.221156538405921, 3220500.774781519081444 ], [ 211771.25629597902298, 3221438.654641406610608 ], [ 212827.54256878135493, 3221412.140187102835625 ], [ 213884.267307607340626, 3225164.029862604569644 ], [ 214940.411213996412698, 3225137.677129375748336 ], [ 214676.156120987259783, 3224199.642643420025706 ], [ 215732.328844125731848, 3224173.371541409287602 ], [ 215468.180062120954972, 3223235.351697403937578 ], [ 216524.381598391977604, 3223209.162189898546785 ] ] ] ] } }
]
}
