{
"type": "FeatureCollection",
"name": "urban-2055",
"crs": { "type": "name", "properties": { "name": "urn:ogc:def:crs:EPSG::32642" } },
"features": [
{ "type": "Feature", "properties": { "year": 2055 }, "geometry": { "type": "MultiPolygon", "coordinates": [ [ [ [ 266072.598440343223047, 2755482.540649221744388 ], [ 268214.444495263276622, 2755446.242695332039148 ], [ 267914.566874719806947, 2754521.093017205130309 ], [ 266843.617619324941188, 2754539.217112965881824 ], [ 266543.807083863241132, 2753614.110543064773083 ], [ 265472.823822124104481, 2753632.335107383318245 ], [ 266072.598440343223047, 2755482.540649221744388 ] ] ], [ [ [ 265902.135410919669084, 2758276.268999804742634 ], [ 270185.481502564856783, 2758203.876624071970582 ], [ 269285.359775895893108, 2755428.219143331050873 ], [ 268214.444495263276622, 2755446.242695332039148 ], [ 268514.418008308857679, 2756371.418598973657936 ], [ 265301.727634981158189, 2756425.940186619292945 ], [ 265902.135410919669084, 2758276.268999804742634 ] ] ], [ [ [ 276740.477279941376764, 2761816.857725105248392 ], [ 275669.789048677426763, 2761834.34294222574681 ], [ 275970.289438104024157, 2762759.78902249224484 ], [ 277040.948832646827213, 2762742.321084207389504 ], [ 277341.51620856433874, 2763667.810984892770648 ], [ 280553.378301472519524, 2763615.962139360141009 ], [ 280252.897412860766053, 2762690.420168726239353 ], [ 279182.252796250686515, 2762707.636659685987979 ], [ 278581.520798824261874, 2760856.66723022563383 ], [ 276440.101552868145518, 2760891.420885645318776 ], [ 276740.477279941376764, 2761816.857725105248392 ] ] ], [ [ [ 277642.179405270901043, 2764593.327449114527553 ], [ 277341.51620856433874, 2763667.810984892770648 ], [ 276270.885659071791451, 2763685.261620761360973 ], [ 276571.577709162374958, 2764610.760758976917714 ], [ 277642.179405270901043, 2764593.327449114527553 ] ] ], [ [ [ 286976.971626347745769, 2763514.528017133940011 ], [ 285906.384697174478788, 2763531.224129883572459 ], [ 286206.817353458143771, 2764456.880178524181247 ], [ 287277.375500804220792, 2764440.201635912526399 ], [ 286976.971626347745769, 2763514.528017133940011 ] ] ], [ [ [ 294132.83180901495507, 2768987.280215764418244 ], [ 293062.440860589500517, 2769003.45063961064443 ], [ 293363.303910280228592, 2769929.356496429536492 ], [ 294433.666066316072829, 2769913.203920240048319 ], [ 294132.83180901495507, 2768987.280215764418244 ] ] ], [ [ [ 279583.768278673407622, 2773867.216676908079535 ], [ 279282.118070671800524, 2772941.450928905047476 ], [ 278211.771544229297433, 2772958.81136041181162 ], [ 278513.450696920277551, 2773884.559573106002063 ], [ 279583.768278673407622, 2773867.216676908079535 ] ] ], [ [ [ 297477.280841306434013, 2772659.191885730717331 ], [ 296407.014149355818518, 2772675.122609600890428 ], [ 297009.486164380447008, 2774527.249777242075652 ], [ 298079.695227900170721, 2774511.355070487130433 ], [ 297477.280841306434013, 2772659.191885730717331 ] ] ], [ [ [ 270554.841226975782774, 2775877.629822794813663 ], [ 269484.536737865884788, 2775895.695485939271748 ], [ 269182.404953829129227, 2774970.050758159253746 ], [ 270252.738476383499801, 2774951.967756279744208 ], [ 269648.820602590509225, 2773100.723374699242413 ], [ 270719.207068029150832, 2773082.689906894695014 ], [ 269814.136338516138494, 2770305.970569448079914 ], [ 270884.604680825956166, 2770287.969345066696405 ], [ 270583.135159417171963, 2769362.432020544540137 ], [ 269512.637849695864134, 2769380.450495803263038 ], [ 269211.235242091119289, 2768454.956904939375818 ], [ 268140.703857782762498, 2768473.076609950046986 ], [ 269045.286248165532015, 2771249.585181508213282 ], [ 267974.836675096070394, 2771267.737301432527602 ], [ 268880.36905310745351, 2774044.432597843930125 ], [ 267810.001390758669004, 2774062.617084773723036 ], [ 268414.227150168153457, 2775913.845373289193958 ], [ 267343.9124402012676, 2775932.079487312585115 ], [ 267646.19821280502947, 2776857.716161006595939 ], [ 268716.483864906127565, 2776839.499355236534029 ], [ 269926.469567398657091, 2780542.381382420193404 ], [ 270996.63382276071934, 2780524.31840908061713 ], [ 271602.143754877673928, 2782375.954323515761644 ], [ 272672.24477671761997, 2782358.010695901699364 ], [ 271461.724704397493042, 2778654.775789990089834 ], [ 270391.507365579484031, 2778672.789294640533626 ], [ 269786.764402789063752, 2776821.366803233977407 ], [ 270857.039850128989201, 2776803.318502531852573 ], [ 270554.841226975782774, 2775877.629822794813663 ] ] ], [ [ [ 300220.09997713053599, 2774479.818059016950428 ], [ 298079.695227900170721, 2774511.355070487130433 ], [ 298682.492247231828514, 2776363.627085581887513 ], [ 297612.34084554342553, 2776379.485680353362113 ], [ 297009.486164380447008, 2774527.249777242075652 ], [ 295939.272610017214902, 2774543.228620888665318 ], [ 295336.742950834683143, 2772691.137416037265211 ], [ 293196.186939286650158, 2772723.419285332784057 ], [ 294100.297969984123483, 2775501.489106613211334 ], [ 296240.680953152885195, 2775469.314952395390719 ], [ 297145.480007481819484, 2778247.737130811437964 ], [ 298215.578173333196901, 2778231.830497422255576 ], [ 298517.340323614364024, 2779158.04380453703925 ], [ 299587.405169921345077, 2779142.239555792417377 ], [ 298984.034238075721078, 2777289.803960299119353 ], [ 300054.152352723060176, 2777274.047673350200057 ], [ 300657.465588334016502, 2779126.519577616360039 ], [ 301727.521602498949505, 2779110.883867870550603 ], [ 300220.09997713053599, 2774479.818059016950428 ] ] ], [ [ [ 278953.105978552717716, 2778531.041607017163187 ], [ 281093.456306680454873, 2778496.447595094330609 ], [ 280791.327110784477554, 2777570.547713852487504 ], [ 281861.52398458722746, 2777553.359450338408351 ], [ 281559.519551461213268, 2776627.468782797455788 ], [ 278348.827434740727767, 2776679.339229329489172 ], [ 278953.105978552717716, 2778531.041607017163187 ] ] ], [ [ [ 305706.141795699426439, 2778122.842819441109896 ], [ 306776.204948646714911, 2778107.610090868081897 ], [ 306474.769050004077144, 2777181.278373349457979 ], [ 307544.856721943011507, 2777166.111540681216866 ], [ 307243.545196487801149, 2776239.788954970892519 ], [ 305103.308005210419651, 2776270.243412612937391 ], [ 305706.141795699426439, 2778122.842819441109896 ] ] ], [ [ [ 298517.340323614364024, 2779158.04380453703925 ], [ 297447.271025766269304, 2779173.932325995992869 ], [ 297749.157706739322748, 2780100.154792950488627 ], [ 298819.198128231568262, 2780084.284407185856253 ], [ 298517.340323614364024, 2779158.04380453703925 ] ] ], [ [ [ 299889.234106040734332, 2780068.498321304097772 ], [ 298819.198128231568262, 2780084.284407185856253 ], [ 299121.151584738865495, 2781010.552327754441649 ], [ 300191.158685697126202, 2780994.784428510814905 ], [ 299889.234106040734332, 2780068.498321304097772 ] ] ], [ [ [ 290258.748347400454804, 2780213.6080726319924 ], [ 288118.590046940254979, 2780246.782119208015501 ], [ 289025.605218202457763, 2783025.126092958264053 ], [ 291165.58975794329308, 2782992.05976098170504 ], [ 290258.748347400454804, 2780213.6080726319924 ] ] ], [ [ [ 301261.161374461837113, 2780979.100854174233973 ], [ 300191.158685697126202, 2780994.784428510814905 ], [ 300493.17890645051375, 2781921.097899820189923 ], [ 301563.152717860415578, 2781905.43256307952106 ], [ 301261.161374461837113, 2780979.100854174233973 ] ] ], [ [ [ 299725.345443659694865, 2782863.170212252531201 ], [ 299121.151584738865495, 2781010.552327754441649 ], [ 296981.124051712104119, 2781042.341109547298402 ], [ 297585.433515304233879, 2782894.886267766356468 ], [ 299725.345443659694865, 2782863.170212252531201 ] ] ], [ [ [ 267287.757428130833432, 2808526.140614090953022 ], [ 266218.409901153936516, 2808544.691852591466159 ], [ 265912.541778915852774, 2807618.33706006128341 ], [ 264843.159691780339926, 2807636.991298260632902 ], [ 265149.057251920225099, 2808563.328295863699168 ], [ 263010.336492941423785, 2808600.85680684261024 ], [ 263622.537197074037977, 2810453.540766594000161 ], [ 264691.841227896336932, 2810434.769459846895188 ], [ 264998.055987740983255, 2811361.169788458384573 ], [ 263928.781436021730769, 2811379.923282289411873 ], [ 264235.121596286306158, 2812306.332851849030703 ], [ 266373.606588200782426, 2812268.946856321301311 ], [ 266067.325394679384772, 2811342.501585707534105 ], [ 267136.589680252480321, 2811323.918671507388353 ], [ 266524.373927090782672, 2809471.073703680187464 ], [ 267593.692015942826401, 2809452.540311234537512 ], [ 267287.757428130833432, 2808526.140614090953022 ] ] ], [ [ [ 315145.473429711651988, 2740788.335832771845162 ], [ 314074.347899240674451, 2740802.703019822947681 ], [ 314371.542743103229441, 2741728.298613725230098 ], [ 315442.639950022683479, 2741713.949329614173621 ], [ 315145.473429711651988, 2740788.335832771845162 ] ] ], [ [ [ 317584.822025663743261, 2741685.500148859340698 ], [ 317287.712129338178784, 2740759.850764510687441 ], [ 316216.594831768597942, 2740774.051748317666352 ], [ 316513.73303623625543, 2741699.683175307698548 ], [ 317584.822025663743261, 2741685.500148859340698 ] ] ], [ [ [ 321095.185154569917358, 2742569.180398576427251 ], [ 318953.084038933971897, 2742597.094731943216175 ], [ 319250.356634055147879, 2743522.816352289635688 ], [ 321392.401138399145566, 2743494.938163325656205 ], [ 321095.185154569917358, 2742569.180398576427251 ] ] ], [ [ [ 335023.845105470216367, 2759131.319855053443462 ], [ 333953.337446735065896, 2759144.237262095790356 ], [ 334550.903396177804098, 2760997.02740301610902 ], [ 335621.35426376236137, 2760984.147473176941276 ], [ 335023.845105470216367, 2759131.319855053443462 ] ] ], [ [ [ 336866.294670453818981, 2758179.326280880253762 ], [ 334725.23358153749723, 2758204.947715470101684 ], [ 335023.845105470216367, 2759131.319855053443462 ], [ 336094.349099019425921, 2759118.48607115726918 ], [ 336990.67071028391365, 2761897.825545713771135 ], [ 338061.085908711771481, 2761885.131797990761697 ], [ 337762.245072743622586, 2760958.638644742313772 ], [ 338832.685061687720008, 2760946.009742675814778 ], [ 338235.346185711910948, 2759093.069365822244436 ], [ 337164.849451171699911, 2759105.735908658709377 ], [ 336866.294670453818981, 2758179.326280880253762 ] ] ], [ [ [ 316240.748970729589928, 2780768.38375619193539 ], [ 316844.020245222374797, 2782621.591279196552932 ], [ 318983.779851345578209, 2782592.912355298176408 ], [ 319285.501209306297824, 2783519.595168159808964 ], [ 321425.187319652410224, 2783491.291145282331854 ], [ 321123.523477450245991, 2782564.570810103323311 ], [ 323263.251312460168265, 2782536.566628212109208 ], [ 322660.324981918674894, 2780683.134399965405464 ], [ 323730.240473468671553, 2780669.221174054313451 ], [ 323127.753407871350646, 2778815.862854740582407 ], [ 324197.722394876356702, 2778801.996308816596866 ], [ 324498.889508215244859, 2779728.680324436165392 ], [ 326638.758497334900312, 2779701.237562290392816 ], [ 326036.634420173824765, 2777847.822127581574023 ], [ 328176.602727370278444, 2777820.640869270078838 ], [ 327274.304238618758973, 2775040.613969266414642 ], [ 329414.42909127031453, 2775013.656268096528947 ], [ 329113.910996079794131, 2774086.998767707496881 ], [ 328043.821866236627102, 2774100.454398269299418 ], [ 327443.01474673487246, 2772247.260656911879778 ], [ 326372.864619036321528, 2772260.83790670754388 ], [ 326072.575617095571943, 2771334.301522180903703 ], [ 323932.206616931245662, 2771361.7454898157157 ], [ 323631.95587985496968, 2770435.274225965607911 ], [ 324702.1709084630711, 2770421.491585297975689 ], [ 323502.236854978371412, 2766715.809023244772106 ], [ 322431.907545050082263, 2766729.666052721440792 ], [ 322132.134126946912147, 2765803.333117668516934 ], [ 323202.491986273380462, 2765789.457550162449479 ], [ 322603.288639566162601, 2763936.837447876576334 ], [ 323673.699636598292273, 2763923.008658263832331 ], [ 324272.845924988738261, 2765775.665820127818733 ], [ 326413.542135541210882, 2765748.333864977117628 ], [ 326713.201402117614634, 2766674.741115532349795 ], [ 327783.515202725306153, 2766661.219533658586442 ], [ 328083.241377407801338, 2767587.67317033931613 ], [ 329153.522840587655082, 2767574.254143601749092 ], [ 329453.315911830635741, 2768500.754263467621058 ], [ 328383.062976458226331, 2768514.154568668920547 ], [ 328682.979997432907112, 2769440.663751142565161 ], [ 329753.20439662138233, 2769427.282191159203649 ], [ 330353.267597044585273, 2771280.421560131479055 ], [ 328212.929213938652538, 2771307.193550533615053 ], [ 328813.488316494389437, 2773160.369163036346436 ], [ 330953.712422261829488, 2773133.672430887818336 ], [ 330653.442307779565454, 2772207.033046504016966 ], [ 331723.577299744996708, 2772193.791883283294737 ], [ 330823.425024481373839, 2769413.984568352345377 ], [ 332963.855061064357869, 2769387.641127043403685 ], [ 333263.753369104349986, 2770314.253355299588293 ], [ 335404.111584475031123, 2770288.283424217253923 ], [ 336004.080257446563337, 2772141.667383716907352 ], [ 337074.196862780605443, 2772128.846288294997066 ], [ 337374.295719289162662, 2773055.599285262171179 ], [ 338444.380202010041103, 2773042.881228963844478 ], [ 338144.309861857676879, 2772116.109201157931238 ], [ 339214.419278367073275, 2772103.456120574381202 ], [ 338614.621628068503924, 2770249.958189554512501 ], [ 337544.455219194060192, 2770262.649315174669027 ], [ 337244.670921589247882, 2769335.961411736439914 ], [ 339385.05712489906, 2769310.625109625514597 ], [ 338785.888458323839586, 2767457.257408660836518 ], [ 336645.388386102567893, 2767482.669570927973837 ], [ 336345.890153120213654, 2766556.065588390920311 ], [ 335275.606232009129599, 2766568.916362623218447 ], [ 334676.838940882589668, 2764715.829866726882756 ], [ 333606.494445740943775, 2764728.80213740374893 ], [ 333905.858862886438146, 2765655.312630172818899 ], [ 332835.539141409681179, 2765668.349906036164612 ], [ 332536.146259764500428, 2764741.858200048096478 ], [ 331465.794359207036905, 2764754.998056433629245 ], [ 331166.468403634498827, 2763828.552898802328855 ], [ 332236.848767934017815, 2763815.394306534901261 ], [ 331638.539963499642909, 2761962.549867016263306 ], [ 329497.661668983753771, 2761989.025567063130438 ], [ 328899.620700198109262, 2760136.366666148416698 ], [ 327829.118987963418476, 2760149.767286077141762 ], [ 327231.402828424004838, 2758297.256100299302489 ], [ 328301.96140654431656, 2758283.818377337884158 ], [ 328600.743342759495135, 2759210.078706424683332 ], [ 330741.792241557501256, 2759183.491239733062685 ], [ 331040.612747654959094, 2760109.816407804843038 ], [ 332111.103130437724758, 2760096.666765774600208 ], [ 332409.990615961025469, 2761023.038302704226226 ], [ 333480.448854835820384, 2761009.991012270562351 ], [ 332882.826099030207843, 2759157.238294041249901 ], [ 333953.337446735065896, 2759144.237262095790356 ], [ 333654.697539798507933, 2758217.883825722150505 ], [ 332584.157801480730996, 2758230.90353362262249 ], [ 331987.107379284920171, 2756378.317098134197295 ], [ 329845.903159846435301, 2756404.681712847203016 ], [ 329547.464286262867972, 2755478.467121749650687 ], [ 328476.82812526577618, 2755491.793274474795908 ], [ 328178.456285924650729, 2754565.624771683011204 ], [ 329249.120826900238171, 2754552.280119001399726 ], [ 328950.872784192324616, 2753626.120682273991406 ], [ 330021.561890654556919, 2753612.841019955929369 ], [ 329723.437622634810396, 2752686.690646811854094 ], [ 330794.151294778974261, 2752673.475942092016339 ], [ 331688.725259517785162, 2755452.065378292929381 ], [ 333829.97125988395419, 2755425.99770553316921 ], [ 333531.741244178614579, 2754499.736430503893644 ], [ 334602.3870309490012, 2754486.809229992330074 ], [ 334304.280731901526451, 2753560.557002489920706 ], [ 337516.28106619004393, 2753522.220303100068122 ], [ 336920.524436659354251, 2751669.687018614728004 ], [ 337991.240533161442727, 2751657.037653595674783 ], [ 337693.533530604909174, 2750730.793902274686843 ], [ 341976.475123282463755, 2750680.955511823762208 ], [ 341678.976474564871751, 2749754.664665811695158 ], [ 343820.482517652912065, 2749730.208096134942025 ], [ 344117.924710261577275, 2750656.536497327964753 ], [ 345188.644284879032057, 2750644.452029411215335 ], [ 344891.230309019680135, 2749718.104809708893299 ], [ 347032.71555066696601, 2749694.148225441109389 ], [ 346141.214533479127567, 2746915.160585575737059 ], [ 341857.891875652130693, 2746963.632496311329305 ], [ 341263.808884536963888, 2745111.262970762327313 ], [ 340192.913078280980699, 2745123.626389734447002 ], [ 339895.98638552124612, 2744197.501769012771547 ], [ 340966.910373302875087, 2744185.119726947508752 ], [ 340670.107188196561765, 2743259.004132710397243 ], [ 339599.155027270084247, 2743271.404774426482618 ], [ 339005.778324005194008, 2741419.29357461258769 ], [ 335792.731215047941078, 2741457.105431389529258 ], [ 335496.101385508896783, 2740531.146606238093227 ], [ 332282.936722632264718, 2740569.761495349463075 ], [ 331986.31772998906672, 2739643.885246199090034 ], [ 329844.13287361280527, 2739670.080469736363739 ], [ 330437.579056026181206, 2741521.787111772689968 ], [ 329366.537362355273217, 2741534.972751536406577 ], [ 329960.42163759667892, 2743386.752243620809168 ], [ 328889.432607038121205, 2743399.984404869377613 ], [ 329186.546113346237689, 2744325.896902261767536 ], [ 323831.684565448667854, 2744393.21394342975691 ], [ 324129.034891325514764, 2745319.062488549854606 ], [ 319845.188309859950095, 2745374.341091473586857 ], [ 319250.356634055147879, 2743522.816352289635688 ], [ 317108.295995413092896, 2743551.027255002874881 ], [ 316513.73303623625543, 2741699.683175307698548 ], [ 315442.639950022683479, 2741713.949329614173621 ], [ 315739.901996246364433, 2742639.589870956260711 ], [ 313597.76010931644123, 2742668.335745473392308 ], [ 313300.441391558037139, 2741742.731029597111046 ], [ 311158.226158909732476, 2741771.84526450606063 ], [ 310860.946298074442893, 2740846.303216205909848 ], [ 308718.657483230635989, 2740875.785563001874834 ], [ 308421.416484214074444, 2739950.305957971140742 ], [ 311634.928396634524688, 2739906.153792268130928 ], [ 311337.867991733714007, 2738980.647805352695286 ], [ 309195.47429685224779, 2739010.035019801929593 ], [ 308898.452799139893614, 2738084.591416550800204 ], [ 307827.221231228904799, 2738099.427306777331978 ], [ 308124.271066074841656, 2739024.853213202208281 ], [ 307053.063547819561791, 2739039.754466744139791 ], [ 306755.985368085443042, 2738114.346229955554008 ], [ 304613.500660311023239, 2738144.433183321263641 ], [ 304910.635553102940321, 2739069.806162395980209 ], [ 303839.415028759045526, 2739084.956608605571091 ], [ 304136.673906431125943, 2740010.338744500186294 ], [ 303065.477383153454866, 2740025.55467478884384 ], [ 303362.860267772804946, 2740950.945969835855067 ], [ 302291.687745538074523, 2740966.227417269255966 ], [ 302589.194659176748246, 2741891.627873783465475 ], [ 301518.046137983037625, 2741906.974871424026787 ], [ 301815.677102719782852, 2742832.384491708129644 ], [ 300744.552582577161957, 2742847.797072613611817 ], [ 301042.307620490784757, 2743773.215858954470605 ], [ 297828.992647706530988, 2743819.900096815079451 ], [ 297531.152239705610555, 2742894.533936226274818 ], [ 294317.711220928817056, 2742942.019525920040905 ], [ 294615.637069430609699, 2743867.333305241074413 ], [ 293544.509408319368958, 2743883.310822655446827 ], [ 293842.559449115942698, 2744808.633792879991233 ], [ 291700.347312841098756, 2744840.803735127672553 ], [ 291998.550096296123229, 2745766.118499843869358 ], [ 290927.465605238452554, 2745782.310987114906311 ], [ 291225.792641441919841, 2746707.634950842242688 ], [ 290154.732039349619299, 2746723.893358882982284 ], [ 290453.183350444363896, 2747649.226523777004331 ], [ 288311.105229196604341, 2747681.9585948032327 ], [ 288609.709422073618043, 2748607.283602711278945 ], [ 286467.669616958941333, 2748640.314432461280376 ], [ 286766.426754114567302, 2749565.631320052780211 ], [ 284624.425153954536654, 2749598.961096776183695 ], [ 284923.335297933313996, 2750524.269900656770915 ], [ 281710.382792358170263, 2750574.838434359058738 ], [ 281411.386701811454259, 2749649.581363572739065 ], [ 280340.364175105642062, 2749666.621622150298208 ], [ 280041.435218547179829, 2748741.408141456544399 ], [ 273615.024334067711607, 2748845.504067874047905 ], [ 273914.125395988638047, 2749770.615118094254285 ], [ 271772.005756160244346, 2749805.947080939542502 ], [ 271173.784635546500795, 2747955.819024414289743 ], [ 269031.529742164071649, 2747991.552340838126838 ], [ 269330.649816203047521, 2748916.569502417929471 ], [ 270401.751097742351703, 2748898.678021701052785 ], [ 271299.600383234035689, 2751673.937213261146098 ], [ 273441.615223582601175, 2751638.506256274878979 ], [ 273142.293737914820667, 2750713.359689446631819 ], [ 274213.32230659207562, 2750695.752427621278912 ], [ 274812.003664218995254, 2752546.105911597143859 ], [ 275882.969753265380859, 2752528.616238259710371 ], [ 275583.609881652402692, 2751603.409270538948476 ], [ 277725.584548312763218, 2751568.646236917469651 ], [ 277127.26713282498531, 2749718.242939339950681 ], [ 279269.336753954179585, 2749683.74530274560675 ], [ 280166.784449195140041, 2752459.492672623600811 ], [ 279095.838176549994387, 2752476.648299597669393 ], [ 279694.673062617657706, 2754327.244283652864397 ], [ 281836.445890245726332, 2754293.085461699869484 ], [ 281537.037964280694723, 2753367.739762885961682 ], [ 283678.848761109169573, 2753333.880576385185122 ], [ 284577.187681990442798, 2756110.101148582994938 ], [ 285647.999774397118017, 2756093.348930622451007 ], [ 286247.313795291003771, 2757944.3304498847574 ], [ 287318.063713382405695, 2757927.696732310112566 ], [ 288517.725845487497281, 2761630.050028687808663 ], [ 287447.0908412913559, 2761646.613672988023609 ], [ 288347.928928201203234, 2764423.606944826431572 ], [ 287277.375500804220792, 2764440.201635912526399 ], [ 287577.875118607946206, 2765365.902052613906562 ], [ 286507.345761429169215, 2765382.563001481350511 ], [ 286807.96991866081953, 2766308.272620818112046 ], [ 283596.439780455781147, 2766358.706072877626866 ], [ 283295.729180150141474, 2765433.049142798874527 ], [ 282225.180737298680469, 2765450.045629112515599 ], [ 282826.755378562258556, 2767301.351195591967553 ], [ 281756.259789607604034, 2767318.396585010457784 ], [ 282659.426668207510374, 2770095.502927339170128 ], [ 281589.012854034779593, 2770112.579687060322613 ], [ 282493.128430426237173, 2772889.874337739311159 ], [ 281422.796490071807057, 2772906.982419912703335 ], [ 281724.388832619646564, 2773832.78331989608705 ], [ 279583.768278673407622, 2773867.216676908079535 ], [ 279885.514289116719738, 2774793.009207265917212 ], [ 280955.798048072785605, 2774775.768043103162199 ], [ 281559.519551461213268, 2776627.468782797455788 ], [ 282629.740565158601385, 2776610.347086946479976 ], [ 282327.860872593650129, 2775684.465631254483014 ], [ 283398.106025596964173, 2775667.410470211878419 ], [ 282794.691852194431704, 2773815.692854397930205 ], [ 283864.990065090707503, 2773798.686527803074569 ], [ 284166.620343128568493, 2774724.549565410241485 ], [ 285236.884859825193416, 2774707.645070038735867 ], [ 285538.581982974545099, 2775633.552725299727172 ], [ 289819.477166158496402, 2775566.847479953896254 ], [ 290121.15440494462382, 2776492.853320050984621 ], [ 291191.337629505083896, 2776476.405340832192451 ], [ 291493.08168976433808, 2777402.456144771538675 ], [ 292563.231406484381296, 2777386.11029859026894 ], [ 293166.948846025275998, 2779238.329182349145412 ], [ 294237.036186507320963, 2779222.103548319078982 ], [ 293633.37653763894923, 2777369.848681732080877 ], [ 294703.517106889397837, 2777353.67129198461771 ], [ 294100.297969984123483, 2775501.489106613211334 ], [ 293030.099659227358643, 2775517.702438523992896 ], [ 292728.604765037423931, 2774591.669994958210737 ], [ 291658.373010474024341, 2774607.98540801089257 ], [ 291959.896770786785055, 2775533.999943238217384 ], [ 290889.689280989579856, 2775550.381622972898185 ], [ 289684.053053086739965, 2771846.557167363353074 ], [ 290754.375988902640529, 2771830.104105116799474 ], [ 291055.612617097562179, 2772756.037511180154979 ], [ 293196.186939286650158, 2772723.419285332784057 ], [ 292895.007985375414137, 2771797.450177665334195 ], [ 291824.694291764288209, 2771813.735109292902052 ], [ 291523.582211887813173, 2770887.810888306703418 ], [ 293664.262655373895541, 2770855.289378497749567 ], [ 293363.303910280228592, 2769929.356496429536492 ], [ 292292.93717663717689, 2769945.593078088015318 ], [ 291992.045326675986871, 2769019.705041771288961 ], [ 289851.240407488890924, 2769052.465789895039052 ], [ 289249.628630168910604, 2767200.841610505245626 ], [ 290320.09101331513375, 2767184.383783617988229 ], [ 290019.457506057689898, 2766258.594341450370848 ], [ 291089.944023599964567, 2766242.202720603439957 ], [ 291390.5487477282295, 2767168.009885185863823 ], [ 293531.450365314492956, 2767135.513864783104509 ], [ 294132.83180901495507, 2768987.280215764418244 ], [ 296273.600044295424595, 2768955.19129422865808 ], [ 296574.376740437641274, 2769881.150775487534702 ], [ 297644.725305957836099, 2769865.250202565453947 ], [ 298848.673611182370223, 2773569.431265865452588 ], [ 300989.127094655414112, 2773538.026340757496655 ], [ 300688.054114671016578, 2772611.904187912587076 ], [ 302828.547531798714772, 2772580.799429450649768 ], [ 303129.562962309923023, 2773506.957820226438344 ], [ 305269.98140364617575, 2773476.225687373429537 ], [ 305571.034918119199574, 2774402.447776047512889 ], [ 306641.208907404216006, 2774387.226087577175349 ], [ 307243.545196487801149, 2776239.788954970892519 ], [ 309383.76533929456491, 2776209.671186250634491 ], [ 309685.019326520734467, 2777136.030471544712782 ], [ 310755.094306477520149, 2777121.116230986546725 ], [ 310453.869076685397886, 2776194.738555110991001 ], [ 311523.968622958869673, 2776179.890090073924512 ], [ 311825.165103091392666, 2777106.286183728370816 ], [ 312895.231740021030419, 2777091.540327754803002 ], [ 313497.853840686380863, 2778944.452177538536489 ], [ 312427.844712627003901, 2778959.161072275135666 ], [ 312729.327837133896537, 2779885.639912137296051 ], [ 313799.308198210783303, 2779870.949533678591251 ], [ 314100.858090596040711, 2780797.474540672264993 ], [ 316240.748970729589928, 2780768.38375619193539 ] ], [ [ 320987.803687089006416, 2778843.848627124913037 ], [ 321289.056892619584687, 2779770.476359091233462 ], [ 320219.104824367153924, 2779784.576882585883141 ], [ 319616.636474784230813, 2777931.386603196151555 ], [ 322826.65306681394577, 2777889.225469923578203 ], [ 323127.753407871350646, 2778815.862854740582407 ], [ 320987.803687089006416, 2778843.848627124913037 ] ], [ [ 318546.623002924141474, 2777945.608721158001572 ], [ 318245.503357445122674, 2777019.07384740607813 ], [ 319315.54553309106268, 2777004.833097450435162 ], [ 319616.636474784230813, 2777931.386603196151555 ], [ 318546.623002924141474, 2777945.608721158001572 ] ], [ [ 318847.838146322290413, 2778872.171319583430886 ], [ 317777.849384336324874, 2778886.459015645086765 ], [ 317476.605521055171266, 2777959.915045766625553 ], [ 318546.623002924141474, 2777945.608721158001572 ], [ 318847.838146322290413, 2778872.171319583430886 ] ], [ [ 318713.650128158507869, 2775151.809241129085422 ], [ 319783.745676743215881, 2775137.615421519149095 ], [ 319482.969889353611507, 2774211.126437940634787 ], [ 320553.090115327970125, 2774196.998124284669757 ], [ 319951.882317289127968, 2772344.066021732985973 ], [ 318881.704789951210842, 2772358.231494549661875 ], [ 318581.21548283030279, 2771431.82548976643011 ], [ 319651.421648295246996, 2771417.641472945455462 ], [ 319351.056469246512279, 2770491.244562515057623 ], [ 320421.287263735779561, 2770477.126008501742035 ], [ 321022.055859317886643, 2772329.984586463775486 ], [ 323162.391082215530332, 2772302.073820918332785 ], [ 323763.427068633376621, 2774155.117727626115084 ], [ 324833.531557122827508, 2774141.325770516414195 ], [ 325134.164105344330892, 2775067.908102222718298 ], [ 324064.08824929909315, 2775081.681335250847042 ], [ 324364.844885000959039, 2776008.272742451168597 ], [ 322224.738780446350574, 2776036.034137005917728 ], [ 322525.648190187755972, 2776962.615904869977385 ], [ 319315.54553309106268, 2777004.833097450435162 ], [ 318713.650128158507869, 2775151.809241129085422 ] ], [ [ 333434.611064361932222, 2767521.41684545064345 ], [ 334504.873831695062108, 2767508.417214129120111 ], [ 334804.524378462403547, 2768435.011350382119417 ], [ 331593.810469374642707, 2768474.205381047911942 ], [ 330694.888553838711232, 2765694.675922531168908 ], [ 332835.539141409681179, 2765668.349906036164612 ], [ 333434.611064361932222, 2767521.41684545064345 ] ], [ [ 329796.825275451410562, 2762915.396553071215749 ], [ 328726.408924853429198, 2762928.741341455839574 ], [ 328427.216856131737586, 2762002.388989574741572 ], [ 329497.661668983753771, 2761989.025567063130438 ], [ 329796.825275451410562, 2762915.396553071215749 ] ], [ [ 327704.683807528053876, 2756431.380521613638848 ], [ 328775.295387201127596, 2756417.989342068787664 ], [ 329372.516169114969671, 2758270.46426100237295 ], [ 328301.96140654431656, 2758283.818377337884158 ], [ 327704.683807528053876, 2756431.380521613638848 ] ], [ [ 283379.593995702278335, 2752408.526816712226719 ], [ 282308.662334922119044, 2752425.431933502200991 ], [ 282009.474670865631197, 2751500.121950391680002 ], [ 285222.341204869095236, 2751449.605220163241029 ], [ 285521.442872349114623, 2752374.967077154666185 ], [ 284450.520833560847677, 2752391.70519869402051 ], [ 284749.746925109764561, 2753317.076273138169199 ], [ 283678.848761109169573, 2753333.880576385185122 ], [ 283379.593995702278335, 2752408.526816712226719 ] ], [ [ 290453.235076281824149, 2770904.197697672061622 ], [ 290152.189881667261943, 2769978.318266657181084 ], [ 291222.565841672476381, 2769961.913667423650622 ], [ 291523.582211887813173, 2770887.810888306703418 ], [ 290453.235076281824149, 2770904.197697672061622 ] ], [ [ 288948.966331882053055, 2766275.06986360438168 ], [ 288648.39976375119295, 2765349.324982410296798 ], [ 289718.919720612815581, 2765332.831788614392281 ], [ 290019.457506057689898, 2766258.594341450370848 ], [ 288948.966331882053055, 2766275.06986360438168 ] ], [ [ 297343.977378597774077, 2768939.27279217261821 ], [ 298414.3502223076066, 2768923.438259700778872 ], [ 298715.069388737494592, 2769849.433626390527934 ], [ 297644.725305957836099, 2769865.250202565453947 ], [ 297343.977378597774077, 2768939.27279217261821 ] ], [ [ 312594.064001776976511, 2776165.125789122190326 ], [ 313664.155236804974265, 2776150.445650248322636 ], [ 313363.111768973350991, 2775224.040224052965641 ], [ 312292.991808183724061, 2775238.738811360206455 ], [ 311992.015161690185778, 2774312.37937201326713 ], [ 313062.163839875720441, 2774297.662360011599958 ], [ 312460.55460766563192, 2772444.989228599704802 ], [ 314600.954353664827067, 2772415.733799980022013 ], [ 315202.448813013848849, 2774268.480651041958481 ], [ 316272.58515532175079, 2774254.015950108412653 ], [ 316874.404315812746063, 2776106.910186196677387 ], [ 314734.242351710912772, 2776135.849671456962824 ], [ 315035.352629460976459, 2777062.301181656308472 ], [ 312895.231740021030419, 2777091.540327754803002 ], [ 312594.064001776976511, 2776165.125789122190326 ] ], [ [ 316105.406929287826642, 2777047.807887556497008 ], [ 316406.584005526616238, 2777974.305578966625035 ], [ 315336.558432687539607, 2777988.780322714708745 ], [ 315035.352629460976459, 2777062.301181656308472 ], [ 316105.406929287826642, 2777047.807887556497008 ] ], [ [ 318380.623619968362618, 2780739.630148300435394 ], [ 318682.153987416531891, 2781666.257356214802712 ], [ 317612.247432568925433, 2781680.573341366834939 ], [ 317310.688312396465335, 2780753.964806153438985 ], [ 318380.623619968362618, 2780739.630148300435394 ] ], [ [ 289216.409858599188738, 2773714.916897817049176 ], [ 289517.895649898680858, 2774640.868679954204708 ], [ 287377.399662836687639, 2774674.08856127364561 ], [ 287075.856100628618151, 2773748.172358362935483 ], [ 289216.409858599188738, 2773714.916897817049176 ] ], [ [ 331215.013045543804765, 2757317.718408231623471 ], [ 331513.614342789165676, 2758244.006840945687145 ], [ 330443.067139931488782, 2758257.193749472964555 ], [ 330144.437445214309264, 2757330.923914635088295 ], [ 331215.013045543804765, 2757317.718408231623471 ] ], [ [ 287789.60968083149055, 2756060.095307479612529 ], [ 288089.161423418205231, 2756985.60764337470755 ], [ 287018.38753337005619, 2757002.175190514419228 ], [ 286718.807099403406028, 2756076.680317678488791 ], [ 287789.60968083149055, 2756060.095307479612529 ] ], [ [ 332935.567364658403676, 2752647.296838647685945 ], [ 333233.606611623603385, 2753573.502815658226609 ], [ 332162.928780541929882, 2753586.532088439445943 ], [ 331864.861200841376558, 2752660.344673300161958 ], [ 332935.567364658403676, 2752647.296838647685945 ] ], [ [ 293367.899903083394747, 2746675.368079479318112 ], [ 294561.936675231321715, 2750377.069812576286495 ], [ 291349.111595071270131, 2750425.385650415439159 ], [ 290751.730381703586318, 2748574.58627941319719 ], [ 291822.733854153484572, 2748558.362677104771137 ], [ 291524.215391884848941, 2747632.985506884288043 ], [ 292595.242785717593506, 2747616.827832783572376 ], [ 292296.848588058026507, 2746691.459858442656696 ], [ 293367.899903083394747, 2746675.368079479318112 ] ], [ [ 335135.543192625977099, 2746112.750944547820836 ], [ 334838.380104832409415, 2745186.691499138250947 ], [ 335909.293971442035399, 2745173.912069606594741 ], [ 335612.254476977628656, 2744247.861668592784554 ], [ 337754.127670524292625, 2744222.515369123779237 ], [ 338051.110749002720695, 2745148.602825463283807 ], [ 339122.013707733363844, 2745136.073007402941585 ], [ 339419.063930027536117, 2746062.206657267641276 ], [ 338348.189176316664089, 2746074.71788332099095 ], [ 339239.9965269647073, 2748853.228888854384422 ], [ 336027.604675532842521, 2748891.09469036757946 ], [ 335730.155480407178402, 2747964.952517889905721 ], [ 337871.81015982356621, 2747939.588148257695138 ], [ 337574.512812784931157, 2747013.436432188842446 ], [ 334361.940580639056861, 2747051.663590812589973 ], [ 334064.653877602831926, 2746125.59509840561077 ], [ 335135.543192625977099, 2746112.750944547820836 ] ], [ [ 345367.488973665051162, 2747853.436262188944966 ], [ 345664.68416513473494, 2748779.746641936711967 ], [ 344593.911627911846153, 2748791.785420576576144 ], [ 344296.688243992975913, 2747865.493839621543884 ], [ 345367.488973665051162, 2747853.436262188944966 ] ], [ [ 297950.310876612900756, 2747537.289527445100248 ], [ 298248.658089909760747, 2748462.771755420602858 ], [ 297177.682097779703327, 2748478.495170854497701 ], [ 296879.306362594477832, 2747553.030520404223353 ], [ 297950.310876612900756, 2747537.289527445100248 ] ] ], [ [ [ 336990.67071028391365, 2761897.825545713771135 ], [ 335920.251893236010801, 2761910.602996618952602 ], [ 336219.244886336149648, 2762837.086359610781074 ], [ 337289.635294453473762, 2762824.327733598183841 ], [ 336990.67071028391365, 2761897.825545713771135 ] ] ], [ [ [ 333307.225410031096544, 2763802.319480758626014 ], [ 332236.848767934017815, 2763815.394306534901261 ], [ 332536.146259764500428, 2764741.858200048096478 ], [ 333606.494445740943775, 2764728.80213740374893 ], [ 333307.225410031096544, 2763802.319480758626014 ] ] ], [ [ [ 345806.131103189371061, 2769236.630260625388473 ], [ 345506.669747608539183, 2768309.817883791401982 ], [ 344436.471006484236568, 2768321.959724991116673 ], [ 344735.960784297669306, 2769248.752947652712464 ], [ 345806.131103189371061, 2769236.630260625388473 ] ] ], [ [ [ 340455.244877803139389, 2769298.082841395866126 ], [ 339385.05712489906, 2769310.625109625514597 ], [ 339684.784462889074348, 2770237.351014229934663 ], [ 340754.943747361307032, 2770224.827787487301975 ], [ 340455.244877803139389, 2769298.082841395866126 ] ] ], [ [ [ 343194.989023505477235, 2771126.844421213492751 ], [ 344265.109345026256051, 2771114.592177070211619 ], [ 343965.400535708293319, 2770187.761781776323915 ], [ 345035.545855809235945, 2770175.574332445394248 ], [ 344735.960784297669306, 2769248.752947652712464 ], [ 342595.609804653970059, 2769273.250062060542405 ], [ 343194.989023505477235, 2771126.844421213492751 ] ] ], [ [ [ 327142.754329084651545, 2771320.705537784378976 ], [ 326842.589342767256312, 2770394.178222964983433 ], [ 325772.382054865942337, 2770407.79291825229302 ], [ 326072.575617095571943, 2771334.301522180903703 ], [ 327142.754329084651545, 2771320.705537784378976 ] ] ], [ [ [ 340284.525135998323094, 2772090.887044822797179 ], [ 339214.419278367073275, 2772103.456120574381202 ], [ 339514.461109755968209, 2773030.247206485830247 ], [ 340584.538466208148748, 2773017.697216110769659 ], [ 340284.525135998323094, 2772090.887044822797179 ] ] ], [ [ [ 337374.295719289162662, 2773055.599285262171179 ], [ 336304.207637912128121, 2773068.401377108879387 ], [ 336904.748474521678872, 2774921.953504353761673 ], [ 337974.779482828511391, 2774909.189490876626223 ], [ 337374.295719289162662, 2773055.599285262171179 ] ] ], [ [ [ 334897.202542257204186, 2778667.962882412131876 ], [ 334596.417273894883692, 2777741.11758816242218 ], [ 332456.49396503996104, 2777767.288614060729742 ], [ 333058.27432249271078, 2779620.931165139190853 ], [ 334128.180583282839507, 2779607.841605344321579 ], [ 334429.185210268828087, 2780534.724045681767166 ], [ 335499.059185902005993, 2780521.737805718556046 ], [ 335198.083180414163508, 2779594.836280691437423 ], [ 336267.982137519866228, 2779581.915189414285123 ], [ 335967.130104854470119, 2778655.022702989168465 ], [ 334897.202542257204186, 2778667.962882412131876 ] ] ], [ [ [ 315472.422220180509612, 2781709.458271825686097 ], [ 314402.503515393531416, 2781724.027221057098359 ], [ 315006.080952418327797, 2783577.215692210476846 ], [ 316075.942080186505336, 2783562.683996540494263 ], [ 315472.422220180509612, 2781709.458271825686097 ] ] ], [ [ [ 313168.33606084366329, 2784533.130817201454192 ], [ 315308.012959737505298, 2784503.851528130006045 ], [ 315006.080952418327797, 2783577.215692210476846 ], [ 312866.346428128133994, 2783606.532224690075964 ], [ 313168.33606084366329, 2784533.130817201454192 ] ] ], [ [ [ 355741.79613887751475, 2799837.387442265637219 ], [ 358949.460246725473553, 2799803.464584291912615 ], [ 357739.957687303074636, 2796092.380188090261072 ], [ 356670.624788604560308, 2796103.68294818373397 ], [ 356972.886303942941595, 2797031.390654407907277 ], [ 354834.268357831111643, 2797054.210454380139709 ], [ 355741.79613887751475, 2799837.387442265637219 ] ] ], [ [ [ 345151.762692468590103, 2703262.168867472093552 ], [ 344079.666198196762707, 2703274.035935802385211 ], [ 344371.951781941461377, 2704199.250749970786273 ], [ 345444.02058352844324, 2704187.401718593668193 ], [ 345151.762692468590103, 2703262.168867472093552 ] ] ], [ [ [ 348958.54766695050057, 2715292.31395288137719 ], [ 346815.072574055986479, 2715315.657828998286277 ], [ 347108.624734677257948, 2716241.207699925638735 ], [ 349252.044216936454177, 2716217.9004708933644 ], [ 348958.54766695050057, 2715292.31395288137719 ] ] ], [ [ [ 346330.585116470407229, 2717178.543683579191566 ], [ 347402.272176684113219, 2717166.784883035812527 ], [ 347108.624734677257948, 2716241.207699925638735 ], [ 346036.90984955476597, 2716252.984806245658547 ], [ 346330.585116470407229, 2717178.543683579191566 ] ] ], [ [ [ 364755.036859413143247, 2724418.496523073408753 ], [ 365826.452991045138333, 2724408.123453453648835 ], [ 365532.460871444898658, 2723482.046333129517734 ], [ 364461.016959198284894, 2723492.438303813803941 ], [ 364755.036859413143247, 2724418.496523073408753 ] ] ], [ [ [ 356693.67263313184958, 2732860.849088563583791 ], [ 356988.922898555640131, 2733786.996832418721169 ], [ 353775.397982209688053, 2733820.527200018055737 ], [ 354070.827335040317848, 2734746.646280635148287 ], [ 352999.673828674596734, 2734757.969983609393239 ], [ 353886.61720580549445, 2737536.437516133766621 ], [ 351744.468333419179544, 2737559.22086180979386 ], [ 351448.66928587120492, 2736633.074834351893514 ], [ 350377.561867114505731, 2736644.609708494972438 ], [ 350673.388938963995315, 2737570.736972764134407 ], [ 349602.306207076762803, 2737582.336044554598629 ], [ 349898.256569999619387, 2738508.472300683613867 ], [ 348827.198524390929379, 2738520.135602908674628 ], [ 349123.27220021415269, 2739446.280853693373501 ], [ 348052.238840310368687, 2739458.008419134654105 ], [ 348348.435850866371766, 2740384.162667364813387 ], [ 346206.41509067005245, 2740407.829439324792475 ], [ 346799.207298647030257, 2742260.146218866575509 ], [ 345728.24799259705469, 2742272.066770611796528 ], [ 346915.088285941630602, 2745976.958355316426605 ], [ 347985.93506335397251, 2745965.11290375282988 ], [ 348282.855187991401181, 2746891.424106495920569 ], [ 350424.482314227963798, 2746868.020594296045601 ], [ 350127.618473343900405, 2745941.671642305329442 ], [ 351198.455153681454249, 2745930.07582922745496 ], [ 350901.714689217100386, 2745003.735867044422776 ], [ 353043.434342036489397, 2744980.756002191454172 ], [ 352746.845331057906151, 2744054.406103821936995 ], [ 353817.7283204899868, 2744043.02199047897011 ], [ 353521.262626416864805, 2743116.681072527077049 ], [ 354592.170430202502757, 2743105.361155170947313 ], [ 353999.580854198662564, 2741252.725184113252908 ], [ 356141.498958504467737, 2741230.258871713653207 ], [ 355845.403084284393117, 2740303.944878150708973 ], [ 360129.313009260047693, 2740259.932979648467153 ], [ 359833.424379010975827, 2739333.570963580161333 ], [ 360904.421981277118903, 2739322.756517186295241 ], [ 360608.6565114405239, 2738396.403455668594688 ], [ 361679.678980678436346, 2738385.652955268044025 ], [ 361384.036649482732173, 2737459.308845392894 ], [ 362455.083986403653398, 2737448.622258276678622 ], [ 362159.564772080804687, 2736522.287097128573805 ], [ 364301.706125220633112, 2736501.124599448405206 ], [ 364892.727940459211823, 2738353.899286029860377 ], [ 365963.73819085129071, 2738343.480668793898076 ], [ 364782.186831265455112, 2734637.967000483069569 ], [ 363711.064886834938079, 2734648.462044036481529 ], [ 363415.886990049853921, 2733722.172759560402483 ], [ 360202.419018788379617, 2733754.212032350711524 ], [ 359907.252546802978031, 2732828.00762395421043 ], [ 364191.981985833030194, 2732785.378324276767671 ], [ 364487.036836989806034, 2733711.658667865674943 ], [ 365558.183652138861362, 2733701.227406723424792 ], [ 364968.224860427435488, 2731848.656605340540409 ], [ 366039.424418040667661, 2731838.270037781912833 ], [ 365155.283345876378007, 2729059.566509216092527 ], [ 363012.714061032456812, 2729080.536393428687006 ], [ 363602.157722605275922, 2730932.901514797005802 ], [ 360388.447952547809109, 2730964.863054341636598 ], [ 360093.59491639060434, 2730038.723326158244163 ], [ 362236.126942398608662, 2730017.29505505040288 ], [ 361352.306091171689332, 2727238.929557065945119 ], [ 362423.651020547724329, 2727228.282781797461212 ], [ 362129.262239282717928, 2726302.197736462578177 ], [ 359986.513594924239442, 2726323.611623534932733 ], [ 359692.164314927300438, 2725397.592038120143116 ], [ 363977.760533005697653, 2725355.019303935579956 ], [ 364566.331652772496454, 2727207.237147613428533 ], [ 365637.667403648607433, 2727196.838285823818296 ], [ 364755.036859413143247, 2724418.496523073408753 ], [ 363683.617694190703332, 2724428.952145673334599 ], [ 363389.570005987479817, 2723502.912800149992108 ], [ 364461.016959198284894, 2723492.438303813803941 ], [ 364167.092203624546528, 2722566.407898327335715 ], [ 365238.563888089091051, 2722555.997049829456955 ], [ 364944.762043401831761, 2721629.975581335369498 ], [ 366016.258460027049296, 2721619.628347838763148 ], [ 364548.81505769235082, 2716989.843389635439962 ], [ 365620.447086217813194, 2716979.484426439739764 ], [ 364741.205833962187171, 2714201.889848354738206 ], [ 365812.917891026707366, 2714191.556892849504948 ], [ 365227.288094364805147, 2712339.928087673615664 ], [ 364155.520713344682008, 2712350.298475650139153 ], [ 363277.706652020860929, 2709573.118494067806751 ], [ 364349.556956036307383, 2709562.692130888346583 ], [ 364057.170201350818388, 2708637.001990673597902 ], [ 365129.045067095546983, 2708626.639098048675805 ], [ 364836.781070603989065, 2707700.957894082181156 ], [ 365908.680499119160231, 2707690.658439041581005 ], [ 365324.493116826284677, 2705839.341452113352716 ], [ 364252.53851127019152, 2705849.678125347010791 ], [ 363668.676546185859479, 2703998.508395633660257 ], [ 364740.686295224353671, 2703988.134596488904208 ], [ 364157.26005355885718, 2702137.037696411833167 ], [ 363085.195194592990447, 2702147.448529262561351 ], [ 363376.888292501389515, 2703072.964740501716733 ], [ 362304.847901816945523, 2703083.438985376153141 ], [ 363472.682143577490933, 2706785.704346181359142 ], [ 362400.748992080276366, 2706796.186476592440158 ], [ 362108.620094759040512, 2705870.597471229266375 ], [ 361036.656235465605278, 2705881.180146738421172 ], [ 360452.628751568263397, 2704030.121466881129891 ], [ 361524.647798541118391, 2704019.501829394139349 ], [ 360941.056182916101534, 2702168.515866500325501 ], [ 359868.981981811462902, 2702179.172373770270497 ], [ 360160.757776222249959, 2703104.63323293812573 ], [ 359088.707992927636951, 2703115.353238525334746 ], [ 358796.904618261847645, 2702189.910775414668024 ], [ 356652.740307045693044, 2702211.633267714176327 ], [ 356944.598864395171404, 2703137.039020643569529 ], [ 355872.539470773423091, 2703148.00480014225468 ], [ 355580.653310982976109, 2702222.6173613416031 ], [ 352364.372670592507347, 2702256.061050201766193 ], [ 352656.341682188562118, 2703181.393710430711508 ], [ 349440.113973990082741, 2703215.520010503474623 ], [ 349732.261169002507813, 2704140.825282256584615 ], [ 352948.405933397822082, 2704106.753584183752537 ], [ 353240.565421824925579, 2705032.140693301800638 ], [ 348952.476295956526883, 2705077.660710031632334 ], [ 348660.206167391967028, 2704152.346441162750125 ], [ 345444.02058352844324, 2704187.401718593668193 ], [ 346321.366022259695455, 2706963.262803645804524 ], [ 347393.348231698502786, 2706951.550073752645403 ], [ 347685.959573090542108, 2707876.909508447628468 ], [ 349829.858282044006046, 2707853.766594087239355 ], [ 350415.25591576268198, 2709704.63996650557965 ], [ 348271.468087138608098, 2709727.7099529071711 ], [ 348564.365254989999812, 2710653.151006400585175 ], [ 349636.233129497384652, 2710641.593200668692589 ], [ 349929.197823277674615, 2711567.079780276864767 ], [ 351001.034574792312924, 2711555.622436249163002 ], [ 351294.066782787907869, 2712481.154637397266924 ], [ 350222.25777695432771, 2712492.593654926400632 ], [ 350515.412988125346601, 2713418.134846546221524 ], [ 349443.628373028244823, 2713429.637754647992551 ], [ 349150.445400340133347, 2712504.114885360468179 ], [ 345934.987804570177104, 2712539.17186989588663 ], [ 346228.25410659739282, 2713464.639935911167413 ], [ 345156.455797012662515, 2713476.471820635255426 ], [ 345449.845187419094145, 2714401.948896707501262 ], [ 348665.146383998566307, 2714366.754771408624947 ], [ 348958.54766695050057, 2715292.31395288137719 ], [ 350030.280106399673969, 2715280.765462509356439 ], [ 349736.906609183410183, 2714355.18793971510604 ], [ 350808.663454383960925, 2714343.703377081081271 ], [ 351395.450142532819882, 2716194.922542742453516 ], [ 350323.748862268403172, 2716206.370344997383654 ], [ 350910.97214033070486, 2718057.662276984192431 ], [ 349839.323108376353048, 2718069.155604429543018 ], [ 350426.983039035054389, 2719920.520347961224616 ], [ 349355.386294671101496, 2719932.059218605980277 ], [ 350531.960620702477172, 2723635.044288961682469 ], [ 351603.445940817822702, 2723623.579370012041181 ], [ 351897.79978560807649, 2724549.412907364778221 ], [ 352969.253906681085937, 2724538.04910527355969 ], [ 353263.675116424623411, 2725463.928796104155481 ], [ 350049.386419327463955, 2725498.21220875531435 ], [ 350343.986542552825995, 2726424.063724363222718 ], [ 348201.166462990513537, 2726447.295288070105016 ], [ 348495.917682738159783, 2727373.137263237498701 ], [ 350638.681920613104012, 2727349.942794622853398 ], [ 350933.472551092156209, 2728275.849441670347005 ], [ 352004.821718461695127, 2728264.394803723786026 ], [ 351710.059006007155403, 2727338.469544912688434 ], [ 352781.432767727295868, 2727327.078949507791549 ], [ 353665.922870649723336, 2730104.993601856287569 ], [ 354737.209598217566963, 2730093.74172816472128 ], [ 355327.289947819022927, 2731945.86073810281232 ], [ 354256.059085191576742, 2731957.075115952640772 ], [ 353960.943364944425412, 2731031.020502844825387 ], [ 351818.415932821168099, 2731053.735065115615726 ], [ 352408.854404990561306, 2732905.797104515135288 ], [ 356693.67263313184958, 2732860.849088563583791 ] ], [ [ 352928.616924453992397, 2741264.082939916290343 ], [ 352632.436921434069518, 2740337.825680515728891 ], [ 353703.428901570732705, 2740326.449040629435331 ], [ 353999.580854198662564, 2741252.725184113252908 ], [ 352928.616924453992397, 2741264.082939916290343 ] ], [ [ 351982.617822130734567, 2718046.251327766105533 ], [ 351688.986359606264159, 2717120.573221833445132 ], [ 352760.656511307810433, 2717109.226183883380145 ], [ 351880.416943710413761, 2714332.301081936340779 ], [ 352952.167101278086193, 2714320.981052721850574 ], [ 352658.972152460948564, 2713395.375749371014535 ], [ 353730.746749935555272, 2713384.119557186495513 ], [ 354317.176379983953666, 2715235.394448907580227 ], [ 353245.457286010263488, 2715246.613763236906379 ], [ 353538.842704249371309, 2716172.273902912158519 ], [ 354610.534033898205962, 2716161.073062241077423 ], [ 354903.986910521925893, 2717086.779149909038097 ], [ 355975.647206213441677, 2717075.679150818381459 ], [ 356269.167529471567832, 2718001.431282160338014 ], [ 355197.535007446655072, 2718012.512733945157379 ], [ 355491.178322257474065, 2718938.273836399894208 ], [ 354419.570335895055905, 2718949.419117055367678 ], [ 354713.336664045113139, 2719875.189193609170616 ], [ 353641.753212518058717, 2719886.398336071055382 ], [ 353347.959079067048151, 2718960.646798598114401 ], [ 351204.726657701539807, 2718983.349370489362627 ], [ 350910.97214033070486, 2718057.662276984192431 ], [ 351982.617822130734567, 2718046.251327766105533 ] ], [ [ 353935.642575799371116, 2720812.177389695774764 ], [ 355007.198213639087044, 2720800.986809520516545 ], [ 355301.154982261359692, 2721726.811986872926354 ], [ 356372.67954986152472, 2721715.722474996000528 ], [ 356666.703712066810112, 2722641.593871924560517 ], [ 355595.206967495556455, 2722652.664747770410031 ], [ 355889.354166924953461, 2723578.545114327222109 ], [ 356960.823080080095679, 2723567.492897746618837 ], [ 357549.34742384380661, 2725419.373924658168107 ], [ 356477.934198689530604, 2725430.388752963393927 ], [ 356183.596578128926922, 2724504.453108675777912 ], [ 355112.152278904337436, 2724515.569207462947816 ], [ 354523.7069821881596, 2722663.818133720196784 ], [ 353452.203732096008025, 2722675.054031296633184 ], [ 352864.083658296382055, 2720823.450426893308759 ], [ 351792.521437065093778, 2720834.805922652129084 ], [ 351498.576424084953032, 2719909.063911698758602 ], [ 353641.753212518058717, 2719886.398336071055382 ], [ 353935.642575799371116, 2720812.177389695774764 ] ], [ [ 352086.561694230302237, 2721760.575425407383591 ], [ 351015.023989619105123, 2721771.994877676479518 ], [ 350720.955888044205494, 2720846.243878524750471 ], [ 351792.521437065093778, 2720834.805922652129084 ], [ 352086.561694230302237, 2721760.575425407383591 ] ], [ [ 352486.793201480992138, 2726401.162674982566386 ], [ 353558.191558267455548, 2726389.836089248768985 ], [ 353852.803229790122714, 2727315.771006854716688 ], [ 352781.432767727295868, 2727327.078949507791549 ], [ 352486.793201480992138, 2726401.162674982566386 ] ], [ [ 354442.31225218763575, 2729167.723804126959294 ], [ 355513.623638892662711, 2729156.535923298448324 ], [ 355218.849419328151271, 2728230.526973305735737 ], [ 356290.185465898248367, 2728219.403052503243089 ], [ 356879.773317431798205, 2730071.486178612336516 ], [ 354737.209598217566963, 2730093.74172816472128 ], [ 354442.31225218763575, 2729167.723804126959294 ] ], [ [ 355995.53435100603383, 2727293.403073638211936 ], [ 358138.252561788773164, 2727271.365733047947288 ], [ 358432.847922522574663, 2728197.403235776349902 ], [ 356290.185465898248367, 2728219.403052503243089 ], [ 355995.53435100603383, 2727293.403073638211936 ] ], [ [ 353111.410679231514223, 2738473.980325966142118 ], [ 353407.372175771160983, 2739400.200762026943266 ], [ 352336.352153633255512, 2739411.596262582112104 ], [ 352040.362623483641073, 2738485.394663786981255 ], [ 353111.410679231514223, 2738473.980325966142118 ] ], [ [ 359317.205142675898969, 2730975.682404761202633 ], [ 359612.181253956048749, 2731901.831088855862617 ], [ 358540.963201112812385, 2731912.714324859436601 ], [ 358245.959182897116989, 2730986.584509585984051 ], [ 359317.205142675898969, 2730975.682404761202633 ] ], [ [ 360469.34175663132919, 2724460.814345690887421 ], [ 360175.210660139855463, 2723534.831457430031151 ], [ 361246.666880498640239, 2723524.109375510830432 ], [ 360952.658763985557016, 2722598.135439508594573 ], [ 362024.139665620983578, 2722587.477091728709638 ], [ 362612.195471343817189, 2724439.490322681609541 ], [ 360469.34175663132919, 2724460.814345690887421 ] ], [ [ 359587.23400422319537, 2721682.948821065947413 ], [ 359881.174741863040254, 2722608.8762899460271 ], [ 358809.687575201620348, 2722619.699644507374614 ], [ 358515.719036786060315, 2721693.790893590077758 ], [ 359587.23400422319537, 2721682.948821065947413 ] ], [ [ 354509.473816863726825, 2712447.330846652854234 ], [ 353630.912451562006027, 2709670.650953993201256 ], [ 354702.791338169947267, 2709659.485534838400781 ], [ 354410.155699680559337, 2708733.961920761037618 ], [ 355482.058997227461077, 2708722.860231232829392 ], [ 355774.666952358558774, 2709648.40223897062242 ], [ 356846.539318269817159, 2709637.401064875535667 ], [ 357431.985492344305385, 2711488.604183031246066 ], [ 356360.168503470718861, 2711499.568445879500359 ], [ 357532.314101680589374, 2715202.230240739416331 ], [ 356460.604763715702575, 2715213.202689175494015 ], [ 356167.397824520478025, 2714287.514545248821378 ], [ 355095.657517571467906, 2714298.587785909418017 ], [ 354802.518056439934298, 2713372.945600549224764 ], [ 355874.286096089053899, 2713361.853877931367606 ], [ 355581.26958082919009, 2712436.220665216911584 ], [ 354509.473816863726825, 2712447.330846652854234 ] ], [ [ 360647.417299599735998, 2711456.204437855631113 ], [ 360940.200130795012228, 2712381.902806026861072 ], [ 359868.420376369205769, 2712392.60197643423453 ], [ 359575.609866278828122, 2711466.92218050127849 ], [ 360647.417299599735998, 2711456.204437855631113 ] ], [ [ 358990.274401842965744, 2709615.645075995475054 ], [ 359282.894540632609278, 2710541.269887688569725 ], [ 358211.056268354004715, 2710552.088324054609984 ], [ 357918.40846004942432, 2709626.48201104812324 ], [ 358990.274401842965744, 2709615.645075995475054 ] ], [ [ 352266.339240903616883, 2708756.411589303519577 ], [ 352559.030268387519754, 2709681.898497961927205 ], [ 351487.144764502649195, 2709693.228168283589184 ], [ 351194.426031369250268, 2708767.759571387432516 ], [ 352266.339240903616883, 2708756.411589303519577 ] ], [ [ 354800.476825325982645, 2703159.052507263142616 ], [ 355092.48581782047404, 2704084.448918831069022 ], [ 354020.447522004251368, 2704095.560272529255599 ], [ 353728.410903862561099, 2703170.182143518235534 ], [ 354800.476825325982645, 2703159.052507263142616 ] ] ], [ [ [ 347611.94984072475927, 2724595.693839983548969 ], [ 347906.510514847468585, 2725521.480821018107235 ], [ 350049.386419327463955, 2725498.21220875531435 ], [ 349754.8815533593297, 2724572.388225681614131 ], [ 347611.94984072475927, 2724595.693839983548969 ] ] ], [ [ [ 349380.742947416147217, 2730150.828458674717695 ], [ 349675.875229384750128, 2731076.780687617603689 ], [ 351818.415932821168099, 2731053.735065115615726 ], [ 351228.358431568776723, 2729201.783687655813992 ], [ 350157.033857850183267, 2729213.302401012275368 ], [ 350452.04292816267116, 2730139.245637045241892 ], [ 349380.742947416147217, 2730150.828458674717695 ] ] ], [ [ [ 343108.747728911112063, 2744160.605150358751416 ], [ 340966.910373302875087, 2744185.119726947508752 ], [ 341263.808884536963888, 2745111.262970762327313 ], [ 343405.589899722952396, 2745086.785722177475691 ], [ 343108.747728911112063, 2744160.605150358751416 ] ] ], [ [ [ 343642.428422948345542, 2752521.406984427943826 ], [ 342571.758370688767172, 2752533.620573558378965 ], [ 343465.398080140119419, 2755312.826926538720727 ], [ 344535.983336297736969, 2755300.669911583419889 ], [ 343642.428422948345542, 2752521.406984427943826 ] ] ], [ [ [ 344834.025571100879461, 2756227.146693580318242 ], [ 346975.129193163011223, 2756203.121045370120555 ], [ 346081.457956568221562, 2753423.66089606564492 ], [ 345010.823082526563667, 2753435.688767340965569 ], [ 345606.565134995384142, 2755288.596393682528287 ], [ 344535.983336297736969, 2755300.669911583419889 ], [ 344834.025571100879461, 2756227.146693580318242 ] ] ], [ [ [ 348045.675888818223029, 2756191.233503678813577 ], [ 346975.129193163011223, 2756203.121045370120555 ], [ 347273.210163938696496, 2757129.663707279600203 ], [ 348343.728591643914115, 2757117.795176179613918 ], [ 348045.675888818223029, 2756191.233503678813577 ] ] ], [ [ [ 348374.891815329960082, 2773859.172873604577035 ], [ 349444.913164851721376, 2773847.314406969584525 ], [ 349744.889272770611569, 2774774.334914410021156 ], [ 350814.878841637982987, 2774762.579870660789311 ], [ 351114.921744888066314, 2775689.648150023072958 ], [ 352184.879563403199427, 2775677.996605926658958 ], [ 352484.989250225306023, 2776605.112754866480827 ], [ 353554.915348663751502, 2776593.564787219744176 ], [ 353254.834113644203171, 2775666.429157699923962 ], [ 355394.733503942028619, 2775643.546542581636459 ], [ 355994.877418544259854, 2777497.92442206852138 ], [ 357064.765438857313711, 2777486.648400872480124 ], [ 355864.972147227730602, 2773777.928485098760575 ], [ 353724.965493323921692, 2773800.720969031564891 ], [ 354024.827846226515248, 2774727.819154003635049 ], [ 351884.865111059509218, 2774750.908897065557539 ], [ 351285.121919676079415, 2772896.81870831316337 ], [ 350215.078773646964692, 2772908.528469611424953 ], [ 349615.659706754260696, 2771054.590460239909589 ], [ 348545.556388209224679, 2771066.42287521250546 ], [ 347946.461517661169637, 2769212.636618681252003 ], [ 346876.298006407101639, 2769224.591484847478569 ], [ 347175.826224206248298, 2770151.451252681203187 ], [ 345035.545855809235945, 2770175.574332445394248 ], [ 345335.226218562747817, 2771102.423902046401054 ], [ 344265.109345026256051, 2771114.592177070211619 ], [ 344564.913451523170806, 2772041.45075613912195 ], [ 343494.821592514170334, 2772053.683829532936215 ], [ 344094.772637406305876, 2773907.447217101696879 ], [ 347304.867111498839222, 2773871.11538630630821 ], [ 347604.900142024620436, 2774798.097218769602478 ], [ 348674.896380788995884, 2774786.174029910005629 ], [ 348374.891815329960082, 2773859.172873604577035 ] ], [ [ 345635.001870098640211, 2772029.301679147407413 ], [ 345934.872807960025966, 2772956.207686455920339 ], [ 344864.81285273830872, 2772968.337541682180017 ], [ 344564.913451523170806, 2772041.45075613912195 ], [ 345635.001870098640211, 2772029.301679147407413 ] ] ], [ [ [ 358134.650300485547632, 2777475.456523958127946 ], [ 357064.765438857313711, 2777486.648400872480124 ], [ 357364.951757741160691, 2778413.899775023106486 ], [ 359504.66147609334439, 2778391.639466107357293 ], [ 359204.532027078210376, 2777464.34878980461508 ], [ 360274.410642279486638, 2777453.325196903664619 ], [ 359374.678600494284183, 2774671.565914404578507 ], [ 357234.747794794966467, 2774693.815026279073209 ], [ 358134.650300485547632, 2777475.456523958127946 ] ] ], [ [ [ 354455.730385499424301, 2779375.142687470652163 ], [ 355525.567863477743231, 2779363.737507862504572 ], [ 355225.229434558306821, 2778436.496770342811942 ], [ 356295.092183573404327, 2778425.156186119187623 ], [ 355994.877418544259854, 2777497.92442206852138 ], [ 353855.091807292890735, 2777520.728903444018215 ], [ 354455.730385499424301, 2779375.142687470652163 ] ] ], [ [ [ 360574.511667554615997, 2778380.6355652641505 ], [ 360874.707861047703773, 2779307.974608938675374 ], [ 361944.526547517394647, 2779297.074618371669203 ], [ 361644.358778722351417, 2778369.715831499546766 ], [ 360574.511667554615997, 2778380.6355652641505 ] ] ], [ [ [ 364215.851055314065889, 2782996.060739492531866 ], [ 364516.466126641957089, 2783923.58325654361397 ], [ 365586.136563015636057, 2783912.95099724130705 ], [ 364985.058454732527025, 2782057.894990799482912 ], [ 366054.782806825940497, 2782047.307193190790713 ], [ 365754.414878668962047, 2781119.802562979515642 ], [ 364684.662098942324519, 2781130.41025729291141 ], [ 364384.360878693521954, 2780202.954339544288814 ], [ 363314.576685236243065, 2780213.666124046780169 ], [ 363014.342184780281968, 2779286.258820728864521 ], [ 361944.526547517394647, 2779297.074618371669203 ], [ 362845.600787964649498, 2782079.323403485585004 ], [ 361775.867426071199588, 2782090.164021472912282 ], [ 362377.116265101183672, 2783945.100760985631496 ], [ 363446.792701868340373, 2783934.299843973945826 ], [ 363146.149171210592613, 2783006.79721667477861 ], [ 364215.851055314065889, 2782996.060739492531866 ] ] ] ] } }
]
}
