{
"type": "FeatureCollection",
"name": "urban-1990",
"crs": { "type": "name", "properties": { "name": "urn:ogc:def:crs:EPSG::32642" } },
"features": [
{ "type": "Feature", "properties": { "year": 1990 }, "geometry": { "type": "MultiPolygon", "coordinates": [ [ [ [ 323299.075167299248278, 2752767.731131219305098 ], [ 324369.811936471029185, 2752754.015772731974721 ], [ 324071.641269062529318, 2751827.984955194406211 ], [ 323000.876114422164392, 2751841.718634115066379 ], [ 323299.075167299248278, 2752767.731131219305098 ] ] ], [ [ [ 290403.344917934620753, 2754159.792296257801354 ], [ 291474.186057868064381, 2754143.506601839326322 ], [ 291175.036129396990873, 2753218.004370170179754 ], [ 290104.166354674613103, 2753234.307565691880882 ], [ 290403.344917934620753, 2754159.792296257801354 ] ] ], [ [ [ 324668.078058887040243, 2753680.074017615523189 ], [ 325738.782532789511606, 2753666.460477207321674 ], [ 325440.544796548318118, 2752740.383861143607646 ], [ 324369.811936471029185, 2752754.015772731974721 ], [ 324668.078058887040243, 2753680.074017615523189 ] ] ], [ [ [ 321754.387937889085151, 2754647.446164839435369 ], [ 321157.589806326082908, 2752795.412196375895292 ], [ 320086.841166852973402, 2752809.377906816080213 ], [ 320683.696140511310659, 2754661.375327210873365 ], [ 321754.387937889085151, 2754647.446164839435369 ] ] ], [ [ [ 321631.975047340732999, 2750929.568888769019395 ], [ 321930.107019181363285, 2751855.535734575707465 ], [ 323000.876114422164392, 2751841.718634115066379 ], [ 322702.772527352324687, 2750915.733518607448786 ], [ 323773.566059092641808, 2750901.981542760040611 ], [ 324071.641269062529318, 2751827.984955194406211 ], [ 326213.159851915785111, 2751800.767854500561953 ], [ 326511.273771368607413, 2752726.83539459714666 ], [ 327581.998884765082039, 2752713.370371247176081 ], [ 327283.913327813148499, 2751787.28442901885137 ], [ 328354.662958481814712, 2751773.884417661931366 ], [ 328652.720160574885085, 2752699.988789259456098 ], [ 329723.437622634810396, 2752686.690646811854094 ], [ 329425.408767763990909, 2751760.567818603944033 ], [ 330496.150779502291698, 2751747.334630030207336 ], [ 330198.245671435957775, 2750821.220864126458764 ], [ 328056.701180342468433, 2750847.807545200455934 ], [ 327758.834828591323458, 2749921.758149612229317 ], [ 326688.028513321070932, 2749935.194949189666659 ], [ 326390.229260641965084, 2749009.191367096733302 ], [ 328531.894706371822394, 2748982.364380781073123 ], [ 328829.637307202094235, 2749908.404707855079323 ], [ 330971.230849868385121, 2749881.947890531271696 ], [ 331269.012233070039656, 2750808.052596646826714 ], [ 332339.775037231447641, 2750794.96770881023258 ], [ 332935.567364658403676, 2752647.296838647685945 ], [ 336147.663640987011604, 2752608.653921811841428 ], [ 335552.041143347276375, 2750756.213305388111621 ], [ 334481.289468520903029, 2750769.048064946662635 ], [ 334183.592985321884044, 2749842.887803079560399 ], [ 335254.372944949078374, 2749830.034470429643989 ], [ 334956.800116742611863, 2748903.883254546672106 ], [ 333885.991880693007261, 2748916.755136791151017 ], [ 333588.486157066596206, 2747990.650043789763004 ], [ 332517.645944251446053, 2748003.623744709882885 ], [ 332220.207336792489514, 2747077.564678102266043 ], [ 331149.335116516798735, 2747090.640121487900615 ], [ 331744.364281366462819, 2748942.748862504493445 ], [ 330673.544870363781229, 2748955.870709514245391 ], [ 330375.954296988376882, 2748029.82103133155033 ], [ 329305.102814801677596, 2748043.044620601925999 ], [ 329007.579359879717231, 2747117.040816648863256 ], [ 330078.459132171352394, 2747103.79883373901248 ], [ 329781.059378338686656, 2746177.804094504099339 ], [ 326568.323734036064707, 2746217.834891248494387 ], [ 326865.808355950401165, 2747143.774601676035672 ], [ 325794.917076561716385, 2747157.266407436225563 ], [ 325497.404150012822356, 2746231.344985469710082 ], [ 324426.480674888705835, 2746244.938330403529108 ], [ 324129.034891325514764, 2745319.062488549854606 ], [ 319845.188309859950095, 2745374.341091473586857 ], [ 319547.724725171225145, 2744448.565131439361721 ], [ 318476.724760123295709, 2744462.610937828198075 ], [ 318179.328343474306166, 2743536.880213470198214 ], [ 316037.259565964573994, 2743565.257478816434741 ], [ 315739.901996246364433, 2742639.589870956260711 ], [ 312526.682936570956372, 2742682.833423147443682 ], [ 312229.335871465620585, 2741757.246579197235405 ], [ 311158.226158909732476, 2741771.84526450606063 ], [ 310860.946298074442893, 2740846.303216205909848 ], [ 309789.804014677414671, 2740861.002833350095898 ], [ 310087.112229965976439, 2741786.527087514288723 ], [ 309015.994060713681392, 2741801.292050226125866 ], [ 309313.4262142512016, 2742726.825441588647664 ], [ 308242.332159070996568, 2742741.655782874673605 ], [ 308539.888272896001581, 2743667.198313800618052 ], [ 307468.818331730086356, 2743682.094066667370498 ], [ 306873.744905607774854, 2741831.071402817498893 ], [ 305802.613871908106375, 2741846.085796759929508 ], [ 305505.192161312676035, 2740920.632447220385075 ], [ 302291.687745538074523, 2740966.227417269255966 ], [ 302589.194659176748246, 2741891.627873783465475 ], [ 301518.046137983037625, 2741906.974871424026787 ], [ 301815.677102719782852, 2742832.384491708129644 ], [ 300744.552582577161957, 2742847.797072613611817 ], [ 301042.307620490784757, 2743773.215858954470605 ], [ 299971.207101434585638, 2743788.694056178443134 ], [ 300269.086234614136629, 2744714.122010851278901 ], [ 297055.843216967827175, 2744761.003284697886556 ], [ 296460.009784879803192, 2742910.27927147783339 ], [ 294317.711220928817056, 2742942.019525920040905 ], [ 294615.637069430609699, 2743867.333305241074413 ], [ 293544.509408319368958, 2743883.310822655446827 ], [ 293842.559449115942698, 2744808.633792879991233 ], [ 292771.455692684510723, 2744824.677135536447167 ], [ 293069.629947901994456, 2745750.009298857767135 ], [ 291998.550096296123229, 2745766.118499843869358 ], [ 292296.848588058026507, 2746691.459858442656696 ], [ 293367.899903083394747, 2746675.368079479318112 ], [ 294860.68509405083023, 2751302.56200804002583 ], [ 291647.945772350998595, 2751350.825309567619115 ], [ 291050.373130718246102, 2749499.972647665068507 ], [ 289979.393579857831355, 2749516.262211244087666 ], [ 289680.722245636628941, 2748590.893253873568028 ], [ 286467.669616958941333, 2748640.314432461280376 ], [ 286766.426754114567302, 2749565.631320052780211 ], [ 287837.420415426429827, 2749549.091545200441033 ], [ 288136.244684069650248, 2750474.452326379716396 ], [ 290278.160637758206576, 2750441.657779658678919 ], [ 290577.023416925338097, 2751367.079981009941548 ], [ 288435.164690657344181, 2751399.839693569112569 ], [ 288734.180432776804082, 2752325.253668657504022 ], [ 286592.360135913011618, 2752358.31244981335476 ], [ 287490.153678370406851, 2755134.609642115421593 ], [ 288560.980215181189124, 2755118.090765722095966 ], [ 288261.648622061940841, 2754192.614305768627673 ], [ 289332.499113944359124, 2754176.161530157551169 ], [ 289033.291908011771739, 2753250.694273547735065 ], [ 290104.166354674613103, 2753234.307565691880882 ], [ 289805.083513772755396, 2752308.849510338157415 ], [ 290875.981914943782613, 2752292.528837207239121 ], [ 291175.036129396990873, 2753218.004370170179754 ], [ 292245.901256021927111, 2753201.784684761427343 ], [ 292545.022557579446584, 2754127.304444682318717 ], [ 294686.681731674238108, 2754095.150733335409313 ], [ 294985.841489581624046, 2755020.732422391418368 ], [ 293915.042818334302865, 2755036.749905571807176 ], [ 294214.326888259500265, 2755962.340778218116611 ], [ 293143.55226805259008, 2755978.424218990840018 ], [ 293442.960672126617283, 2756904.024277352262288 ], [ 289159.930601611500606, 2756969.123723862692714 ], [ 289459.549390086496715, 2757894.680265977978706 ], [ 290530.285196316079237, 2757878.297512722201645 ], [ 290829.971019474032801, 2758803.898357259109616 ], [ 291900.673484984901734, 2758787.61684586154297 ], [ 292200.426331604481675, 2759713.262089069467038 ], [ 291129.75255881389603, 2759729.525985354091972 ], [ 291429.62981191824656, 2760655.180419035255909 ], [ 290358.980107508599758, 2760671.51040838798508 ], [ 290658.981789240147918, 2761597.174034604802728 ], [ 289588.356153543340042, 2761613.570149974431843 ], [ 289888.482286055805162, 2762539.242970774881542 ], [ 292029.671449715504423, 2762506.569791343994439 ], [ 292630.095913472468965, 2764358.066650713328272 ], [ 295841.672757145832293, 2764309.791761588305235 ], [ 296442.307592932949774, 2766161.503058319911361 ], [ 298583.221255319018383, 2766129.810425368137658 ], [ 297982.701297267805785, 2764278.027674688026309 ], [ 300123.711907935910858, 2764246.59890559874475 ], [ 301024.463081273424905, 2767024.42121587600559 ], [ 299954.046117247955408, 2767040.039857111405581 ], [ 300254.516504129162058, 2767966.016902790404856 ], [ 301324.904747451539151, 2767950.416252044960856 ], [ 301625.442047103890218, 2768876.438458300661296 ], [ 302695.797165669209789, 2768860.939782733563334 ], [ 302395.288587244460359, 2767934.899535160977393 ], [ 303465.668047237384599, 2767919.46675002714619 ], [ 304668.16118357819505, 2771623.863541446160525 ], [ 305738.421414989512414, 2771608.587210683617741 ], [ 306039.254983712104149, 2772534.772809584159404 ], [ 307109.482182786858175, 2772519.598732690792531 ], [ 306507.968098083510995, 2770667.218453699722886 ], [ 307578.248466014745645, 2770652.091972392052412 ], [ 308480.576805837335996, 2773430.758178474381566 ], [ 309550.766765366133768, 2773415.770518021658063 ], [ 309249.923795756185427, 2772489.502761102281511 ], [ 310320.138257038430311, 2772474.580862312577665 ], [ 309418.268883353215642, 2769695.887218076735735 ], [ 308347.968323603388853, 2769710.86394322430715 ], [ 308047.507653242966626, 2768784.705747033469379 ], [ 310188.161908631038386, 2768754.799787083175033 ], [ 310789.064095581357833, 2770607.216550201643258 ], [ 312929.586857181333471, 2770577.719599868170917 ], [ 312629.145326231373474, 2769651.460876798722893 ], [ 314769.708828319213353, 2769622.263157636858523 ], [ 315370.572791316197254, 2771474.881621537730098 ], [ 316440.791078040725552, 2771460.445562116336077 ], [ 316140.339986550738104, 2770534.104130941443145 ], [ 317210.582854360691272, 2770519.733621797990054 ], [ 316610.024491612275597, 2768667.096510830335319 ], [ 315539.724358492007013, 2768681.503880647476763 ], [ 315239.559826808515936, 2767755.245016721077263 ], [ 316309.888580034195911, 2767740.819252083543688 ], [ 315709.903308668755926, 2765888.34721611533314 ], [ 314639.517340325284749, 2765902.809699418023229 ], [ 314339.639390406373423, 2764976.633201329037547 ], [ 313269.220708774751984, 2764991.197834180202335 ], [ 313569.127261444926262, 2765917.35603561392054 ], [ 312498.733048286521807, 2765931.986226683016866 ], [ 312198.797885118285194, 2765005.846294701099396 ], [ 311128.370895687257871, 2765020.578584885690361 ], [ 310828.502671483438462, 2764094.484234851319343 ], [ 311898.95827080408344, 2764079.73372604791075 ], [ 311299.5656984866946, 2762227.590589553117752 ], [ 312370.074303469620645, 2762212.887462430633605 ], [ 312669.694227350992151, 2763138.963569887448102 ], [ 313740.170089398277923, 2763124.362414613831788 ], [ 313440.578743181831669, 2762198.268081370741129 ], [ 314511.079041392658837, 2762183.732444384135306 ], [ 314810.641817687952425, 2763109.84503061696887 ], [ 316951.572968035936356, 2763081.061568562872708 ], [ 316652.067308385390788, 2762154.912394727580249 ], [ 320933.995190174609888, 2762098.277138001751155 ], [ 320036.393528307671659, 2759319.774075476452708 ], [ 321106.950999071239494, 2759305.769403384067118 ], [ 320807.96990069351159, 2758379.638280454091728 ], [ 319737.383947484195232, 2758393.661301658023149 ], [ 319139.651260137790814, 2756541.517990785185248 ], [ 322351.567970456380863, 2756499.589738392271101 ], [ 322052.930217763525434, 2755573.504239851608872 ], [ 320982.266853981593158, 2755587.415092894807458 ], [ 320683.696140511310659, 2754661.375327210873365 ], [ 319613.000354069983587, 2754675.387998463585973 ], [ 318717.775851421640255, 2751897.487584077287465 ], [ 320859.333959496987518, 2751869.436258458532393 ], [ 320561.173595207976177, 2750943.487655128352344 ], [ 321631.975047340732999, 2750929.568888769019395 ] ], [ [ 314982.793364225421101, 2760317.100967046339065 ], [ 316053.34253456373699, 2760302.696268277708441 ], [ 316352.657163082563784, 2761228.790635399054736 ], [ 315282.136530474061146, 2761243.177073963452131 ], [ 314982.793364225421101, 2760317.100967046339065 ] ], [ [ 296879.306362594477832, 2747553.030520404223353 ], [ 297950.310876612900756, 2747537.289527445100248 ], [ 298248.658089909760747, 2748462.771755420602858 ], [ 297177.682097779703327, 2748478.495170854497701 ], [ 296879.306362594477832, 2747553.030520404223353 ] ] ], [ [ [ 322949.129884572699666, 2758351.843095161952078 ], [ 325090.274130361736752, 2758324.382373428437859 ], [ 324492.825988259981386, 2756472.055380472913384 ], [ 322351.567970456380863, 2756499.589738392271101 ], [ 322949.129884572699666, 2758351.843095161952078 ] ] ], [ [ [ 314039.856972618494183, 2764050.484113833401352 ], [ 315110.300122622807976, 2764035.98500644043088 ], [ 314810.641817687952425, 2763109.84503061696887 ], [ 313740.170089398277923, 2763124.362414613831788 ], [ 314039.856972618494183, 2764050.484113833401352 ] ] ], [ [ [ 283127.686367048125248, 2768227.044086837209761 ], [ 283428.713130867690779, 2769152.763746175449342 ], [ 284499.146202769712545, 2769135.837436920963228 ], [ 284800.239875916973688, 2770061.601489803753793 ], [ 283729.835667594976258, 2770078.510195691138506 ], [ 284031.053974802838638, 2771004.283457486890256 ], [ 281890.288928917259909, 2771038.317776190117002 ], [ 282493.128430426237173, 2772889.874337739311159 ], [ 284633.777890935423784, 2772855.910506399348378 ], [ 285236.884859825193416, 2774707.645070038735867 ], [ 286307.144625167187769, 2774690.824736088979989 ], [ 286005.572165618417785, 2773764.926282081287354 ], [ 287075.856100628618151, 2773748.172358362935483 ], [ 286774.408282497199252, 2772822.283103693742305 ], [ 288915.019794692110736, 2772788.992111324332654 ], [ 288312.526858793629799, 2770937.223436473403126 ], [ 289382.883299820241518, 2770920.668546314351261 ], [ 288780.830974765471183, 2769068.972140315454453 ], [ 286639.998044438078068, 2769102.236805101390928 ], [ 286339.057822538015898, 2768176.464325215201825 ], [ 283127.686367048125248, 2768227.044086837209761 ] ] ], [ [ [ 290754.375988902640529, 2771830.104105116799474 ], [ 290453.235076281824149, 2770904.197697672061622 ], [ 289382.883299820241518, 2770920.668546314351261 ], [ 289684.053053086739965, 2771846.557167363353074 ], [ 290754.375988902640529, 2771830.104105116799474 ] ] ], [ [ [ 318412.845669814501889, 2774225.338845506310463 ], [ 317511.005300645134412, 2771446.093518843408674 ], [ 316440.791078040725552, 2771460.445562116336077 ], [ 317342.717433029552922, 2774239.635348914656788 ], [ 318412.845669814501889, 2774225.338845506310463 ] ] ], [ [ [ 265149.057251920225099, 2808563.328295863699168 ], [ 264079.699456993257627, 2808582.049946435261518 ], [ 264691.841227896336932, 2810434.769459846895188 ], [ 266830.433854276023339, 2810397.482635816559196 ], [ 266524.373927090782672, 2809471.073703680187464 ], [ 265455.05072408443084, 2809489.692327983211726 ], [ 265149.057251920225099, 2808563.328295863699168 ] ] ], [ [ [ 359088.707992927636951, 2703115.353238525334746 ], [ 356944.598864395171404, 2703137.039020643569529 ], [ 357820.745763377344701, 2705913.420200940687209 ], [ 358892.719093944993801, 2705902.59151012962684 ], [ 358600.602545720757917, 2704977.085363985039294 ], [ 359672.600307825021446, 2704966.320241854060441 ], [ 359088.707992927636951, 2703115.353238525334746 ] ] ], [ [ [ 354897.128739840583876, 2706871.858297485858202 ], [ 355189.546258919523098, 2707797.345591380260885 ], [ 357333.398438792093657, 2707775.351671166252345 ], [ 357041.036230652360246, 2706849.827600385062397 ], [ 358112.985130677989218, 2706838.935307856183499 ], [ 357820.745763377344701, 2705913.420200940687209 ], [ 355676.789461772073992, 2705935.323608198203146 ], [ 355969.084108428098261, 2706860.801929761189967 ], [ 354897.128739840583876, 2706871.858297485858202 ] ] ], [ [ [ 359477.237759489682503, 2707753.686007586307824 ], [ 359184.930832669313531, 2706828.12505068583414 ], [ 358112.985130677989218, 2706838.935307856183499 ], [ 358405.319694459089078, 2707764.477808041963726 ], [ 359477.237759489682503, 2707753.686007586307824 ] ] ], [ [ [ 357333.398438792093657, 2707775.351671166252345 ], [ 357625.855849393527023, 2708700.903134072199464 ], [ 358697.749452316318639, 2708690.047723436262459 ], [ 358405.319694459089078, 2707764.477808041963726 ], [ 357333.398438792093657, 2707775.351671166252345 ] ] ], [ [ [ 361526.051311716903001, 2714233.382209220901132 ], [ 359382.599429905763827, 2714254.788376130629331 ], [ 360262.256258318433538, 2717032.102571841329336 ], [ 361333.900609130971134, 2717021.414274 ], [ 361040.614212979678996, 2716095.596631919499487 ], [ 362112.283167930552736, 2716084.971981898881495 ], [ 361526.051311716903001, 2714233.382209220901132 ] ] ], [ [ [ 360312.986214541015215, 2737470.07837814791128 ], [ 360017.411093013070058, 2736543.781262246891856 ], [ 355733.065990782808512, 2736587.764641887042671 ], [ 356028.753015769296326, 2737513.985995099879801 ], [ 353886.61720580549445, 2737536.437516133766621 ], [ 354182.455452894093469, 2738462.648973152972758 ], [ 356324.535249707405455, 2738440.23521637590602 ], [ 356620.41269016492879, 2739366.512328052893281 ], [ 357691.419757383293472, 2739355.448867521714419 ], [ 357395.570320726721548, 2738429.152809355407953 ], [ 359537.630927658057772, 2738407.236930496059358 ], [ 359241.932657639263198, 2737480.930858010426164 ], [ 360312.986214541015215, 2737470.07837814791128 ] ] ], [ [ [ 352928.616924453992397, 2741264.082939916290343 ], [ 352632.436921434069518, 2740337.825680515728891 ], [ 351561.441650216467679, 2740349.285361563786864 ], [ 351265.328832947358023, 2739423.074776999186724 ], [ 350194.302189782843925, 2739434.636306845583022 ], [ 350490.44306399684865, 2740360.828085337299854 ], [ 349419.441138854017481, 2740372.453853409271687 ], [ 350012.064794867532328, 2742224.88318885024637 ], [ 348941.115675874170847, 2742236.554429593961686 ], [ 349237.598485460504889, 2743162.791988224722445 ], [ 348166.674099261406809, 2743174.5275365752168 ], [ 348463.280283286469057, 2744100.774092104751617 ], [ 351675.95905651547946, 2744065.873369087465107 ], [ 351379.437188903859351, 2743139.570277995895594 ], [ 352450.351553952554241, 2743128.084112950135022 ], [ 351857.649711096019018, 2741275.523764182347804 ], [ 352928.616924453992397, 2741264.082939916290343 ] ] ], [ [ [ 331625.616307017975487, 2745225.529038508888334 ], [ 334838.380104832409415, 2745186.691499138250947 ], [ 334244.340053583146073, 2743334.655179595574737 ], [ 331031.406873625819571, 2743373.603242255747318 ], [ 331625.616307017975487, 2745225.529038508888334 ] ] ], [ [ [ 325199.986670361831784, 2745305.45090583851561 ], [ 324902.664640032104217, 2744379.584146382287145 ], [ 323831.684565448667854, 2744393.21394342975691 ], [ 324129.034891325514764, 2745319.062488549854606 ], [ 325199.986670361831784, 2745305.45090583851561 ] ] ], [ [ [ 348759.981734743108973, 2745027.04846133152023 ], [ 348463.280283286469057, 2744100.774092104751617 ], [ 347392.380629361374304, 2744112.573980803135782 ], [ 347689.110209666250739, 2745038.829535977449268 ], [ 348759.981734743108973, 2745027.04846133152023 ] ] ] ] } }
]
}
