{
"type": "FeatureCollection",
"name": "urban-2080",
"crs": { "type": "name", "properties": { "name": "urn:ogc:def:crs:EPSG::32642" } },
"features": [
{ "type": "Feature", "properties": { "year": 2080 }, "geometry": { "type": "MultiPolygon", "coordinates": [ [ [ [ 268214.444495263276622, 2755446.242695332039148 ], [ 267914.566874719806947, 2754521.093017205130309 ], [ 266843.617619324941188, 2754539.217112965881824 ], [ 266543.807083863241132, 2753614.110543064773083 ], [ 265472.823822124104481, 2753632.335107383318245 ], [ 266372.629614377627149, 2756407.68267705431208 ], [ 265301.727634981158189, 2756425.940186619292945 ], [ 265902.135410919669084, 2758276.268999804742634 ], [ 266972.979680242831819, 2758258.045355306006968 ], [ 267273.298567248042673, 2759183.266049274709076 ], [ 270485.713835216651205, 2759129.148384047206491 ], [ 269285.359775895893108, 2755428.219143331050873 ], [ 268214.444495263276622, 2755446.242695332039148 ] ] ], [ [ [ 264831.285937633831054, 2758294.576348808594048 ], [ 265131.662567725172266, 2759219.763134233187884 ], [ 266202.483165444806218, 2759201.472725957166404 ], [ 265902.135410919669084, 2758276.268999804742634 ], [ 264831.285937633831054, 2758294.576348808594048 ] ] ], [ [ [ 284535.427332780207507, 2762622.392292329575866 ], [ 284235.157414066488855, 2761696.8072220236063 ], [ 283164.503387511358596, 2761713.705951339099556 ], [ 283464.802087230375037, 2762639.273552955128253 ], [ 284535.427332780207507, 2762622.392292329575866 ] ] ], [ [ [ 278845.790351565927267, 2768295.659380958881229 ], [ 277775.304152302327566, 2768313.023150720167905 ], [ 278076.475311665330082, 2769238.655318366363645 ], [ 279146.932615885918494, 2769221.308992700185627 ], [ 278845.790351565927267, 2768295.659380958881229 ] ] ], [ [ [ 269950.731600779108703, 2774026.332280929200351 ], [ 271021.089057466131635, 2774008.316131567116827 ], [ 269814.136338516138494, 2770305.970569448079914 ], [ 270884.604680825956166, 2770287.969345066696405 ], [ 270583.135159417171963, 2769362.432020544540137 ], [ 269512.637849695864134, 2769380.450495803263038 ], [ 268909.928518122294918, 2767529.489774898160249 ], [ 267839.368175016948953, 2767547.626656416337937 ], [ 269045.286248165532015, 2771249.585181508213282 ], [ 267974.836675096070394, 2771267.737301432527602 ], [ 268880.36905310745351, 2774044.432597843930125 ], [ 267810.001390758669004, 2774062.617084773723036 ], [ 268414.227150168153457, 2775913.845373289193958 ], [ 267343.9124402012676, 2775932.079487312585115 ], [ 267646.19821280502947, 2776857.716161006595939 ], [ 268716.483864906127565, 2776839.499355236534029 ], [ 269926.469567398657091, 2780542.381382420193404 ], [ 270996.63382276071934, 2780524.31840908061713 ], [ 271602.143754877673928, 2782375.954323515761644 ], [ 272672.24477671761997, 2782358.010695901699364 ], [ 270554.841226975782774, 2775877.629822794813663 ], [ 269484.536737865884788, 2775895.695485939271748 ], [ 269182.404953829129227, 2774970.050758159253746 ], [ 270252.738476383499801, 2774951.967756279744208 ], [ 269950.731600779108703, 2774026.332280929200351 ] ] ], [ [ [ 278348.827434740727767, 2776679.339229329489172 ], [ 278953.105978552717716, 2778531.041607017163187 ], [ 281093.456306680454873, 2778496.447595094330609 ], [ 280791.327110784477554, 2777570.547713852487504 ], [ 281861.52398458722746, 2777553.359450338408351 ], [ 281559.519551461213268, 2776627.468782797455788 ], [ 278348.827434740727767, 2776679.339229329489172 ] ] ], [ [ [ 302797.573236062482465, 2779095.332424430642277 ], [ 301727.521602498949505, 2779110.883867870550603 ], [ 302029.292825166892726, 2780037.179040618240833 ], [ 303099.315613764105365, 2780021.645841557066888 ], [ 302797.573236062482465, 2779095.332424430642277 ] ] ], [ [ [ 290258.748347400454804, 2780213.6080726319924 ], [ 288118.590046940254979, 2780246.782119208015501 ], [ 289025.605218202457763, 2783025.126092958264053 ], [ 291165.58975794329308, 2782992.05976098170504 ], [ 290258.748347400454804, 2780213.6080726319924 ] ] ], [ [ [ 300191.158685697126202, 2780994.784428510814905 ], [ 299889.234106040734332, 2780068.498321304097772 ], [ 298819.198128231568262, 2780084.284407185856253 ], [ 299121.151584738865495, 2781010.552327754441649 ], [ 296981.124051712104119, 2781042.341109547298402 ], [ 297585.433515304233879, 2782894.886267766356468 ], [ 299725.345443659694865, 2782863.170212252531201 ], [ 299423.2006906971219, 2781936.847588639706373 ], [ 301563.152717860415578, 2781905.43256307952106 ], [ 301261.161374461837113, 2780979.100854174233973 ], [ 300191.158685697126202, 2780994.784428510814905 ] ] ], [ [ [ 307681.086174391035456, 2780886.770112676080316 ], [ 306611.109462511201855, 2780901.947781919036061 ], [ 306912.956536620797124, 2781828.371086463797837 ], [ 307982.904418091056868, 2781813.211817900184542 ], [ 307681.086174391035456, 2780886.770112676080316 ] ] ], [ [ [ 275721.153755786013789, 2785100.189398100599647 ], [ 277861.146399496356025, 2785064.998885313980281 ], [ 277255.352256651269272, 2783213.026252783834934 ], [ 274045.181350860395469, 2783266.044626778457314 ], [ 274348.117766608309466, 2784191.964587863069028 ], [ 275418.15059837885201, 2784174.224970289040357 ], [ 275721.153755786013789, 2785100.189398100599647 ] ] ], [ [ [ 276024.252744760597125, 2786026.180708200205117 ], [ 275721.153755786013789, 2785100.189398100599647 ], [ 274651.150024690665305, 2785117.911385201849043 ], [ 274954.278122673975304, 2786043.885041020810604 ], [ 276024.252744760597125, 2786026.180708200205117 ] ] ], [ [ [ 265301.093255350715481, 2805765.70856078248471 ], [ 267439.959715017001145, 2805728.584416877944022 ], [ 266829.01242209848715, 2803875.992876393254846 ], [ 265759.522968709934503, 2803894.547917902935296 ], [ 266064.97805513383355, 2804820.812426739837974 ], [ 264995.512858926202171, 2804839.434809132944793 ], [ 265301.093255350715481, 2805765.70856078248471 ] ] ], [ [ [ 263010.336492941423785, 2808600.85680684261024 ], [ 261940.968336325167911, 2808619.74887963803485 ], [ 262859.501716107479297, 2811398.762069743126631 ], [ 261790.216804583527846, 2811417.686153373215348 ], [ 262096.615964072465431, 2812344.060130199417472 ], [ 267442.841402564314194, 2812250.38183327531442 ], [ 267136.589680252480321, 2811323.918671507388353 ], [ 268205.84886787016876, 2811305.421043339651078 ], [ 267899.722496674512513, 2810378.967113478109241 ], [ 268969.006056442274712, 2810360.536847575102001 ], [ 268663.005014068679884, 2809434.092148134484887 ], [ 269732.312944896984845, 2809415.729211878497154 ], [ 269120.657351928413846, 2807562.885401521809399 ], [ 268051.290585546637885, 2807581.284114203415811 ], [ 268357.099856286193244, 2808507.674577846191823 ], [ 267287.757428130833432, 2808526.140614090953022 ], [ 266981.918735690182075, 2807599.767999547533691 ], [ 265912.541778915852774, 2807618.33706006128341 ], [ 265301.093255350715481, 2805765.70856078248471 ], [ 264231.65231739054434, 2805784.39831674983725 ], [ 264537.358046120498329, 2806710.681312704924494 ], [ 263467.941367495805025, 2806729.438474934082478 ], [ 263773.77245084347669, 2807655.730716676451266 ], [ 262704.380032661720179, 2807674.555317849386483 ], [ 263010.336492941423785, 2808600.85680684261024 ] ] ], [ [ [ 271413.596077148336917, 2811250.439850011374801 ], [ 271107.5580217638053, 2810323.932075090240687 ], [ 268969.006056442274712, 2810360.536847575102001 ], [ 269275.102980950381607, 2811287.008698696270585 ], [ 271413.596077148336917, 2811250.439850011374801 ] ] ], [ [ [ 269275.102980950381607, 2811287.008698696270585 ], [ 268205.84886787016876, 2811305.421043339651078 ], [ 268512.071127074304968, 2812231.90212334971875 ], [ 269581.295785137801431, 2812213.507724037859589 ], [ 269275.102980950381607, 2811287.008698696270585 ] ] ], [ [ [ 315145.473429711651988, 2740788.335832771845162 ], [ 314074.347899240674451, 2740802.703019822947681 ], [ 314371.542743103229441, 2741728.298613725230098 ], [ 315442.639950022683479, 2741713.949329614173621 ], [ 315145.473429711651988, 2740788.335832771845162 ] ] ], [ [ [ 317584.822025663743261, 2741685.500148859340698 ], [ 317287.712129338178784, 2740759.850764510687441 ], [ 316216.594831768597942, 2740774.051748317666352 ], [ 316513.73303623625543, 2741699.683175307698548 ], [ 317584.822025663743261, 2741685.500148859340698 ] ] ], [ [ [ 320501.039634386310354, 2740717.746397669892758 ], [ 318358.825346345605794, 2740745.732879415620118 ], [ 318655.906942224770319, 2741671.400248335674405 ], [ 320798.064652424538508, 2741643.449817380867898 ], [ 320501.039634386310354, 2740717.746397669892758 ] ] ], [ [ [ 329069.738349275372457, 2740609.124039622489363 ], [ 327998.664621959498618, 2740622.411041628103703 ], [ 328295.491858921712264, 2741548.241496697999537 ], [ 329366.537362355273217, 2741534.972751536406577 ], [ 329069.738349275372457, 2740609.124039622489363 ] ] ], [ [ [ 318655.906942224770319, 2741671.400248335674405 ], [ 317584.822025663743261, 2741685.500148859340698 ], [ 317882.027431183261797, 2742611.176624499261379 ], [ 318953.084038933971897, 2742597.094731943216175 ], [ 318655.906942224770319, 2741671.400248335674405 ] ] ], [ [ [ 321095.185154569917358, 2742569.180398576427251 ], [ 318953.084038933971897, 2742597.094731943216175 ], [ 319250.356634055147879, 2743522.816352289635688 ], [ 321392.401138399145566, 2743494.938163325656205 ], [ 321095.185154569917358, 2742569.180398576427251 ] ] ], [ [ [ 313196.495020475238562, 2778017.982449731789529 ], [ 313497.853840686380863, 2778944.452177538536489 ], [ 312427.844712627003901, 2778959.161072275135666 ], [ 312729.327837133896537, 2779885.639912137296051 ], [ 313799.308198210783303, 2779870.949533678591251 ], [ 314100.858090596040711, 2780797.474540672264993 ], [ 313030.906504867365584, 2780812.146379067562521 ], [ 313332.580713380244561, 2781738.68049559276551 ], [ 312262.653790515847504, 2781753.41809742199257 ], [ 312564.452337200404145, 2782679.9613256175071 ], [ 313634.350460218905937, 2782665.242284249514341 ], [ 313936.215742934145965, 2783591.831767598167062 ], [ 312866.346428128133994, 2783606.532224690075964 ], [ 313168.33606084366329, 2784533.130817201454192 ], [ 316377.845286444528028, 2784489.338494976516813 ], [ 316075.942080186505336, 2783562.683996540494263 ], [ 318215.652185022016056, 2783533.873736472334713 ], [ 318517.49781239440199, 2784460.565641576424241 ], [ 317447.673562796611805, 2784474.909866778645664 ], [ 317749.643481603416149, 2785401.610866303090006 ], [ 318819.438937255938072, 2785387.285381879191846 ], [ 319423.607669620134402, 2787240.808458675164729 ], [ 320493.341532310994808, 2787226.605010065250099 ], [ 319285.501209306297824, 2783519.595168159808964 ], [ 320355.34624631353654, 2783505.400971739087254 ], [ 320657.134325733233709, 2784432.130392378661782 ], [ 321726.94663668028079, 2784418.039364520926028 ], [ 321425.187319652410224, 2783491.291145282331854 ], [ 322495.024452931596898, 2783477.265686871949583 ], [ 322193.38935703370953, 2782550.526549700181931 ], [ 324333.109367342432961, 2782522.691043742001057 ], [ 323428.949210908205714, 2779742.528081915341318 ], [ 324498.889508215244859, 2779728.680324436165392 ], [ 324800.152072700613644, 2780655.392228816170245 ], [ 325870.059803246054798, 2780641.64756237110123 ], [ 325568.825929145561531, 2779714.916818517725915 ], [ 327708.687236417492386, 2779687.642553894314915 ], [ 327407.606146061327308, 2778760.90200953418389 ], [ 328477.559738654934336, 2778747.372349732555449 ], [ 328176.602727370278444, 2777820.640869270078838 ], [ 329246.581173404760193, 2777807.176525530871004 ], [ 328645.010681668063626, 2775953.759627553168684 ], [ 327574.974974898272194, 2775967.261701654177159 ], [ 327274.304238618758973, 2775040.613969266414642 ], [ 329414.42909127031453, 2775013.656268096528947 ], [ 329113.910996079794131, 2774086.998767707496881 ], [ 331254.077938039670698, 2774060.339735871646553 ], [ 330653.442307779565454, 2772207.033046504016966 ], [ 331723.577299744996708, 2772193.791883283294737 ], [ 331123.380383450421505, 2770340.559122549369931 ], [ 332193.568734414584469, 2770327.364258513320237 ], [ 331893.64190472534392, 2769400.770880911964923 ], [ 332963.855061064357869, 2769387.641127043403685 ], [ 333263.753369104349986, 2770314.253355299588293 ], [ 334333.934311222285032, 2770301.226411124225706 ], [ 334633.899480358348228, 2771227.885464996099472 ], [ 335704.048238816787489, 2771214.961406959220767 ], [ 336904.748474521678872, 2774921.953504353761673 ], [ 337974.779482828511391, 2774909.189490876626223 ], [ 337374.295719289162662, 2773055.599285262171179 ], [ 340584.538466208148748, 2773017.697216110769659 ], [ 340284.525135998323094, 2772090.887044822797179 ], [ 339214.419278367073275, 2772103.456120574381202 ], [ 338314.86581406625919, 2769323.25129916658625 ], [ 339385.05712489906, 2769310.625109625514597 ], [ 338187.10115396254696, 2765604.001701362431049 ], [ 339257.402696714736521, 2765591.383504095021635 ], [ 338659.053618780570105, 2763738.201787375379354 ], [ 337588.695231421035714, 2763750.857807154301554 ], [ 336990.67071028391365, 2761897.825545713771135 ], [ 339131.497512281290255, 2761872.521751722786576 ], [ 337936.819765217602253, 2758166.640953054651618 ], [ 334725.23358153749723, 2758204.947715470101684 ], [ 335023.845105470216367, 2759131.319855053443462 ], [ 333953.337446735065896, 2759144.237262095790356 ], [ 333654.697539798507933, 2758217.883825722150505 ], [ 332584.157801480730996, 2758230.90353362262249 ], [ 331987.107379284920171, 2756378.317098134197295 ], [ 333057.703873693360947, 2756365.260109052993357 ], [ 332759.350119404727593, 2755438.989783967845142 ], [ 338112.419104004802648, 2755374.864515488035977 ], [ 337516.28106619004393, 2753522.220303100068122 ], [ 338586.940581529750489, 2753509.608310872223228 ], [ 338289.04288428282598, 2752583.309115671552718 ], [ 339359.727095155918505, 2752570.761848931666464 ], [ 339061.953022853820585, 2751644.47168495785445 ], [ 343344.767390323628206, 2751595.041740161832422 ], [ 343047.20166434510611, 2750668.704324246384203 ], [ 348400.78241939417785, 2750608.698763266205788 ], [ 347806.218947501038201, 2748755.91898648487404 ], [ 348876.981240363908, 2748744.130106425378472 ], [ 348579.870581140217837, 2747817.763166586402804 ], [ 347509.080118372687139, 2747829.570927296765149 ], [ 346915.088285941630602, 2745976.958355316426605 ], [ 342631.66680295241531, 2746025.172338304109871 ], [ 342334.701150387292728, 2745098.982748800888658 ], [ 343405.589899722952396, 2745086.785722177475691 ], [ 343108.747728911112063, 2744160.605150358751416 ], [ 344179.66114452551119, 2744148.472612493205816 ], [ 343586.319026082986966, 2742296.157196446787566 ], [ 341444.376094292849302, 2742320.58006304083392 ], [ 342037.830813133972697, 2744172.820854621939361 ], [ 340966.910373302875087, 2744185.119726947508752 ], [ 339780.269613930257037, 2740480.823024785146117 ], [ 338709.232983849477023, 2740493.279324897099286 ], [ 339005.778324005194008, 2741419.29357461258769 ], [ 335792.731215047941078, 2741457.105431389529258 ], [ 335496.101385508896783, 2740531.146606238093227 ], [ 332282.936722632264718, 2740569.761495349463075 ], [ 331986.31772998906672, 2739643.885246199090034 ], [ 329844.13287361280527, 2739670.080469736363739 ], [ 330437.579056026181206, 2741521.787111772689968 ], [ 329366.537362355273217, 2741534.972751536406577 ], [ 329960.42163759667892, 2743386.752243620809168 ], [ 328889.432607038121205, 2743399.984404869377613 ], [ 329186.546113346237689, 2744325.896902261767536 ], [ 323831.684565448667854, 2744393.21394342975691 ], [ 324129.034891325514764, 2745319.062488549854606 ], [ 319845.188309859950095, 2745374.341091473586857 ], [ 319250.356634055147879, 2743522.816352289635688 ], [ 317108.295995413092896, 2743551.027255002874881 ], [ 316513.73303623625543, 2741699.683175307698548 ], [ 315442.639950022683479, 2741713.949329614173621 ], [ 315739.901996246364433, 2742639.589870956260711 ], [ 313597.76010931644123, 2742668.335745473392308 ], [ 313300.441391558037139, 2741742.731029597111046 ], [ 311158.226158909732476, 2741771.84526450606063 ], [ 310860.946298074442893, 2740846.303216205909848 ], [ 308718.657483230635989, 2740875.785563001874834 ], [ 308421.416484214074444, 2739950.305957971140742 ], [ 311634.928396634524688, 2739906.153792268130928 ], [ 311337.867991733714007, 2738980.647805352695286 ], [ 309195.47429685224779, 2739010.035019801929593 ], [ 308898.452799139893614, 2738084.591416550800204 ], [ 307827.221231228904799, 2738099.427306777331978 ], [ 308124.271066074841656, 2739024.853213202208281 ], [ 307053.063547819561791, 2739039.754466744139791 ], [ 306755.985368085443042, 2738114.346229955554008 ], [ 304613.500660311023239, 2738144.433183321263641 ], [ 304910.635553102940321, 2739069.806162395980209 ], [ 303839.415028759045526, 2739084.956608605571091 ], [ 304136.673906431125943, 2740010.338744500186294 ], [ 303065.477383153454866, 2740025.55467478884384 ], [ 303362.860267772804946, 2740950.945969835855067 ], [ 302291.687745538074523, 2740966.227417269255966 ], [ 302589.194659176748246, 2741891.627873783465475 ], [ 301518.046137983037625, 2741906.974871424026787 ], [ 301815.677102719782852, 2742832.384491708129644 ], [ 300744.552582577161957, 2742847.797072613611817 ], [ 301042.307620490784757, 2743773.215858954470605 ], [ 297828.992647706530988, 2743819.900096815079451 ], [ 297531.152239705610555, 2742894.533936226274818 ], [ 294317.711220928817056, 2742942.019525920040905 ], [ 294615.637069430609699, 2743867.333305241074413 ], [ 293544.509408319368958, 2743883.310822655446827 ], [ 293842.559449115942698, 2744808.633792879991233 ], [ 291700.347312841098756, 2744840.803735127672553 ], [ 291998.550096296123229, 2745766.118499843869358 ], [ 290927.465605238452554, 2745782.310987114906311 ], [ 291225.792641441919841, 2746707.634950842242688 ], [ 290154.732039349619299, 2746723.893358882982284 ], [ 290453.183350444363896, 2747649.226523777004331 ], [ 288311.105229196604341, 2747681.9585948032327 ], [ 288609.709422073618043, 2748607.283602711278945 ], [ 286467.669616958941333, 2748640.314432461280376 ], [ 286766.426754114567302, 2749565.631320052780211 ], [ 284624.425153954536654, 2749598.961096776183695 ], [ 284923.335297933313996, 2750524.269900656770915 ], [ 281710.382792358170263, 2750574.838434359058738 ], [ 281411.386701811454259, 2749649.581363572739065 ], [ 280340.364175105642062, 2749666.621622150298208 ], [ 280041.435218547179829, 2748741.408141456544399 ], [ 273615.024334067711607, 2748845.504067874047905 ], [ 273914.125395988638047, 2749770.615118094254285 ], [ 271772.005756160244346, 2749805.947080939542502 ], [ 271173.784635546500795, 2747955.819024414289743 ], [ 269031.529742164071649, 2747991.552340838126838 ], [ 269330.649816203047521, 2748916.569502417929471 ], [ 270401.751097742351703, 2748898.678021701052785 ], [ 271299.600383234035689, 2751673.937213261146098 ], [ 273441.615223582601175, 2751638.506256274878979 ], [ 274040.545749088691082, 2753488.878249756060541 ], [ 277253.357827686006203, 2753436.460520756430924 ], [ 276953.930852434947155, 2752511.210080060176551 ], [ 278024.886985578981694, 2752493.887434625998139 ], [ 278623.779307095333934, 2754344.449036908335984 ], [ 280765.561915720929392, 2754310.123092694208026 ], [ 281065.094342654163484, 2755235.478020299226046 ], [ 282135.949602854903787, 2755218.457669675350189 ], [ 282435.549099687545095, 2756143.856408692430705 ], [ 284577.187681990442798, 2756110.101148582994938 ], [ 285776.313610479002818, 2759812.101080340798944 ], [ 286847.010824043885805, 2759795.418638724368066 ], [ 287447.0908412913559, 2761646.613672988023609 ], [ 286376.451117175922263, 2761663.261085131205618 ], [ 286676.663497664150782, 2762588.88117421977222 ], [ 284535.427332780207507, 2762622.392292329575866 ], [ 285436.811668460839428, 2765399.307831279933453 ], [ 281154.627463647339027, 2765467.126005542930216 ], [ 280853.954985874355771, 2764541.530744299758226 ], [ 278712.776167584699579, 2764575.978011619765311 ], [ 278412.141816281131469, 2763650.444194277748466 ], [ 281623.989226480363868, 2763598.846870362758636 ], [ 281323.537151046330109, 2762673.287488837260753 ], [ 279182.252796250686515, 2762707.636659685987979 ], [ 278581.520798824261874, 2760856.66723022563383 ], [ 276440.101552868145518, 2760891.420885645318776 ], [ 276740.477279941376764, 2761816.857725105248392 ], [ 275669.789048677426763, 2761834.34294222574681 ], [ 275970.289438104024157, 2762759.78902249224484 ], [ 277040.948832646827213, 2762742.321084207389504 ], [ 277341.51620856433874, 2763667.810984892770648 ], [ 276270.885659071791451, 2763685.261620761360973 ], [ 276571.577709162374958, 2764610.760758976917714 ], [ 277642.179405270901043, 2764593.327449114527553 ], [ 277942.938420348451473, 2765518.870498838368803 ], [ 280084.069335441221483, 2765484.290274413768202 ], [ 280384.866450296249241, 2766409.894759404007345 ], [ 281455.395732366363518, 2766392.747945103328675 ], [ 281756.259789607604034, 2767318.396585010457784 ], [ 279615.254072025010828, 2767352.739206254016608 ], [ 280217.385026189207565, 2769204.046674991492182 ], [ 279146.932615885918494, 2769221.308992700185627 ], [ 279448.170686456491239, 2770146.985300023574382 ], [ 280518.59420135745313, 2770129.740477176848799 ], [ 281422.796490071807057, 2772906.982419912703335 ], [ 280352.459711386356503, 2772924.17461618874222 ], [ 280654.080982676474378, 2773849.957926620263606 ], [ 279583.768278673407622, 2773867.216676908079535 ], [ 279282.118070671800524, 2772941.450928905047476 ], [ 278211.771544229297433, 2772958.81136041181162 ], [ 278815.225660384574439, 2774810.334544459357858 ], [ 279885.514289116719738, 2774793.009207265917212 ], [ 280187.356099571101367, 2775718.828542108181864 ], [ 281257.610905144189019, 2775701.604987776372582 ], [ 281559.519551461213268, 2776627.468782797455788 ], [ 283699.956772370787803, 2776593.309613701887429 ], [ 283398.106025596964173, 2775667.410470211878419 ], [ 285538.581982974545099, 2775633.552725299727172 ], [ 285840.374862015945837, 2776559.487325778231025 ], [ 286910.576791788917035, 2776542.702506500296295 ], [ 287212.436493990768213, 2777468.681867331266403 ], [ 286142.263494513113983, 2777485.448893684428185 ], [ 286444.247878034249879, 2778411.437451246660203 ], [ 288584.531303769443184, 2778378.023299552500248 ], [ 287980.77400975371711, 2776526.001900631934404 ], [ 290121.15440494462382, 2776492.853320050984621 ], [ 290422.927363816881552, 2777418.8862224961631 ], [ 292563.231406484381296, 2777386.11029859026894 ], [ 293166.948846025275998, 2779238.329182349145412 ], [ 294237.036186507320963, 2779222.103548319078982 ], [ 294539.009543765918352, 2780148.271771165076643 ], [ 296679.112817924120463, 2780116.109480754472315 ], [ 296075.377358575526159, 2778263.728011910337955 ], [ 295005.270202961633913, 2778279.803142895456403 ], [ 294703.517106889397837, 2777353.67129198461771 ], [ 295773.653137897141278, 2777337.578127149958163 ], [ 295472.024593137728516, 2776411.455445718485862 ], [ 296542.184968734683935, 2776395.428466342389584 ], [ 297749.157706739322748, 2780100.154792950488627 ], [ 298819.198128231568262, 2780084.284407185856253 ], [ 298517.340323614364024, 2779158.04380453703925 ], [ 299587.405169921345077, 2779142.239555792417377 ], [ 299285.671879785950296, 2778216.008109582588077 ], [ 300355.761150492704473, 2778200.269965141545981 ], [ 300657.465588334016502, 2779126.519577616360039 ], [ 301727.521602498949505, 2779110.883867870550603 ], [ 301425.846009106840938, 2778184.616061959415674 ], [ 302495.926479281624779, 2778169.046397909522057 ], [ 301892.919838249450549, 2776316.556427077390254 ], [ 304033.182957229320891, 2776285.596904946956784 ], [ 303731.880677463603206, 2775359.356535620056093 ], [ 304802.034513512859121, 2775343.984812390059233 ], [ 305706.141795699426439, 2778122.842819441109896 ], [ 307846.263831418822519, 2778092.461590960156173 ], [ 307544.856721943011507, 2777166.111540681216866 ], [ 311825.165103091392666, 2777106.286183728370816 ], [ 312126.457133798161522, 2778032.709836970083416 ], [ 313196.495020475238562, 2778017.982449731789529 ] ], [ [ 326337.648740328615531, 2778774.515888080000877 ], [ 326036.634420173824765, 2777847.822127581574023 ], [ 327106.620484175975434, 2777834.189402673393488 ], [ 327407.606146061327308, 2778760.90200953418389 ], [ 326337.648740328615531, 2778774.515888080000877 ] ], [ [ 337887.850518740422558, 2764677.4157888982445 ], [ 335747.179768931120634, 2764702.941386250779033 ], [ 336046.487279913388193, 2765629.48953434638679 ], [ 334976.174901142017916, 2765642.359173530247062 ], [ 334676.838940882589668, 2764715.829866726882756 ], [ 333606.494445740943775, 2764728.80213740374893 ], [ 333307.225410031096544, 2763802.319480758626014 ], [ 332236.848767934017815, 2763815.394306534901261 ], [ 331638.539963499642909, 2761962.549867016263306 ], [ 332708.973492696532048, 2761949.437585877254605 ], [ 332409.990615961025469, 2761023.038302704226226 ], [ 333480.448854835820384, 2761009.991012270562351 ], [ 333181.589784296462312, 2760083.600779449101537 ], [ 334252.072733009816147, 2760070.618447049055248 ], [ 334849.829433798673563, 2761923.464152446016669 ], [ 335920.251893236010801, 2761910.602996618952602 ], [ 336518.333240618929267, 2763763.597584642935544 ], [ 337588.695231421035714, 2763750.857807154301554 ], [ 337887.850518740422558, 2764677.4157888982445 ] ], [ [ 330568.102696850837674, 2761975.745860146358609 ], [ 330269.062950526364148, 2761049.383934223093092 ], [ 329198.593476418871433, 2761062.682278894819319 ], [ 328600.743342759495135, 2759210.078706424683332 ], [ 329671.26968421851052, 2759196.743157052900642 ], [ 329970.118612169229891, 2760123.049707328900695 ], [ 331040.612747654959094, 2760109.816407804843038 ], [ 331638.539963499642909, 2761962.549867016263306 ], [ 330568.102696850837674, 2761975.745860146358609 ] ], [ [ 327530.21319339441834, 2759223.497889662627131 ], [ 327231.402828424004838, 2758297.256100299302489 ], [ 328301.96140654431656, 2758283.818377337884158 ], [ 328600.743342759495135, 2759210.078706424683332 ], [ 327530.21319339441834, 2759223.497889662627131 ] ], [ [ 330916.507149271783419, 2756391.457632136065513 ], [ 330319.781569390906952, 2754539.018960342742503 ], [ 331390.438537220819853, 2754525.841293901670724 ], [ 331987.107379284920171, 2756378.317098134197295 ], [ 330916.507149271783419, 2756391.457632136065513 ] ], [ [ 294401.859695084567647, 2776427.566620659548789 ], [ 294100.297969984123483, 2775501.489106613211334 ], [ 295170.49172673386056, 2775485.359945300966501 ], [ 295472.024593137728516, 2776411.455445718485862 ], [ 294401.859695084567647, 2776427.566620659548789 ] ], [ [ 304500.856627436354756, 2774417.753584439866245 ], [ 305571.034918119199574, 2774402.447776047512889 ], [ 305872.184032297693193, 2775328.697238344233483 ], [ 304802.034513512859121, 2775343.984812390059233 ], [ 304500.856627436354756, 2774417.753584439866245 ] ], [ [ 320686.645960284571629, 2777917.248689948581159 ], [ 320987.803687089006416, 2778843.848627124913037 ], [ 319917.822906025336124, 2778857.967857387382537 ], [ 319616.636474784230813, 2777931.386603196151555 ], [ 320686.645960284571629, 2777917.248689948581159 ] ], [ [ 321923.924840037128888, 2775109.480143770109862 ], [ 322525.648190187755972, 2776962.615904869977385 ], [ 320385.583714658627287, 2776990.676524990238249 ], [ 320084.616952662647236, 2776064.132109694648534 ], [ 321154.679843789956067, 2776050.041050132829696 ], [ 320252.43847378261853, 2773270.518231350462884 ], [ 322392.724326354917139, 2773242.476613545324653 ], [ 322994.008502086042427, 2775095.538681805599481 ], [ 321923.924840037128888, 2775109.480143770109862 ] ], [ [ 315202.448813013848849, 2774268.480651041958481 ], [ 315503.339330584974959, 2775194.895446087233722 ], [ 313363.111768973350991, 2775224.040224052965641 ], [ 313062.163839875720441, 2774297.662360011599958 ], [ 315202.448813013848849, 2774268.480651041958481 ] ], [ [ 296574.376740437641274, 2769881.150775487534702 ], [ 297477.280841306434013, 2772659.191885730717331 ], [ 295336.742950834683143, 2772691.137416037265211 ], [ 295035.621639658696949, 2771765.132498153019696 ], [ 292895.007985375414137, 2771797.450177665334195 ], [ 292593.924730347585864, 2770871.508115987293422 ], [ 293664.262655373895541, 2770855.289378497749567 ], [ 293363.303910280228592, 2769929.356496429536492 ], [ 296574.376740437641274, 2769881.150775487534702 ] ], [ [ 328083.241377407801338, 2767587.67317033931613 ], [ 328682.979997432907112, 2769440.663751142565161 ], [ 329753.20439662138233, 2769427.282191159203649 ], [ 330053.188292509061284, 2770353.83794920053333 ], [ 328982.992437883513048, 2770367.20074027357623 ], [ 329283.100295359501615, 2771293.765558591112494 ], [ 327142.754329084651545, 2771320.705537784378976 ], [ 326842.589342767256312, 2770394.178222964983433 ], [ 325772.382054865942337, 2770407.79291825229302 ], [ 325472.283934791688807, 2769481.312072408851236 ], [ 324402.044213179964572, 2769495.029399410821497 ], [ 323802.077183993067592, 2767642.188140849582851 ], [ 328083.241377407801338, 2767587.67317033931613 ] ], [ [ 333135.027410424430855, 2766594.869446999393404 ], [ 333434.611064361932222, 2767521.41684545064345 ], [ 331294.074430812732317, 2767547.667736377101392 ], [ 330994.433791483752429, 2766621.157924375496805 ], [ 333135.027410424430855, 2766594.869446999393404 ] ], [ [ 325343.195966831466649, 2765761.957925687544048 ], [ 325642.883759779972024, 2766688.346556519158185 ], [ 324572.562251977389678, 2766702.035858469083905 ], [ 324272.845924988738261, 2765775.665820127818733 ], [ 325343.195966831466649, 2765761.957925687544048 ] ], [ [ 293367.899903083394747, 2746675.368079479318112 ], [ 294561.936675231321715, 2750377.069812576286495 ], [ 291349.111595071270131, 2750425.385650415439159 ], [ 290751.730381703586318, 2748574.58627941319719 ], [ 291822.733854153484572, 2748558.362677104771137 ], [ 291524.215391884848941, 2747632.985506884288043 ], [ 292595.242785717593506, 2747616.827832783572376 ], [ 292296.848588058026507, 2746691.459858442656696 ], [ 293367.899903083394747, 2746675.368079479318112 ] ], [ [ 297950.310876612900756, 2747537.289527445100248 ], [ 298248.658089909760747, 2748462.771755420602858 ], [ 297177.682097779703327, 2748478.495170854497701 ], [ 296879.306362594477832, 2747553.030520404223353 ], [ 297950.310876612900756, 2747537.289527445100248 ] ] ], [ [ [ 335747.179768931120634, 2764702.941386250779033 ], [ 334849.829433798673563, 2761923.464152446016669 ], [ 333779.403308207460213, 2761936.409014944918454 ], [ 334676.838940882589668, 2764715.829866726882756 ], [ 335747.179768931120634, 2764702.941386250779033 ] ] ], [ [ [ 340455.244877803139389, 2769298.082841395866126 ], [ 339385.05712489906, 2769310.625109625514597 ], [ 339684.784462889074348, 2770237.351014229934663 ], [ 340754.943747361307032, 2770224.827787487301975 ], [ 340455.244877803139389, 2769298.082841395866126 ] ] ], [ [ [ 330785.070752392406575, 2775927.007877572439611 ], [ 329715.042599611741025, 2775940.341686801053584 ], [ 330015.751518647768535, 2776867.055046434048563 ], [ 331085.751060559763573, 2776853.740144991315901 ], [ 330785.070752392406575, 2775927.007877572439611 ] ] ], [ [ [ 334897.202542257204186, 2778667.962882412131876 ], [ 334596.417273894883692, 2777741.11758816242218 ], [ 333526.457458923920058, 2777754.161010796669871 ], [ 333225.738966471340973, 2776827.362811186816543 ], [ 331085.751060559763573, 2776853.740144991315901 ], [ 331386.526768590672873, 2777780.500399739015847 ], [ 332456.49396503996104, 2777767.288614060729742 ], [ 333058.27432249271078, 2779620.931165139190853 ], [ 334128.180583282839507, 2779607.841605344321579 ], [ 334429.185210268828087, 2780534.724045681767166 ], [ 335499.059185902005993, 2780521.737805718556046 ], [ 335198.083180414163508, 2779594.836280691437423 ], [ 336267.982137519866228, 2779581.915189414285123 ], [ 335967.130104854470119, 2778655.022702989168465 ], [ 334897.202542257204186, 2778667.962882412131876 ] ] ], [ [ [ 308751.058639500057325, 2780871.676753662526608 ], [ 309052.848060590331443, 2781798.136886755935848 ], [ 310122.787487746798433, 2781783.146290984004736 ], [ 309217.792368985072244, 2779003.793238655198365 ], [ 308147.766522467252798, 2779018.839128244202584 ], [ 308449.364792644279078, 2779945.244174987543374 ], [ 307379.363513286109082, 2779960.355938077438623 ], [ 307681.086174391035456, 2780886.770112676080316 ], [ 308751.058639500057325, 2780871.676753662526608 ] ] ], [ [ [ 311494.550077481835615, 2782694.764723483473063 ], [ 311192.722723180544563, 2781768.240028548054397 ], [ 310122.787487746798433, 2781783.146290984004736 ], [ 310424.643657441367395, 2782709.652479858603328 ], [ 311494.550077481835615, 2782694.764723483473063 ] ] ], [ [ [ 318051.708903813967481, 2786328.339699822943658 ], [ 316981.93823920271825, 2786342.730877046007663 ], [ 317284.127980788529385, 2787269.468805943615735 ], [ 318353.869826973881572, 2787255.096389987505972 ], [ 318051.708903813967481, 2786328.339699822943658 ] ] ], [ [ [ 319423.607669620134402, 2787240.808458675164729 ], [ 318353.869826973881572, 2787255.096389987505972 ], [ 318656.126248622429557, 2788181.880959464702755 ], [ 319725.835272208205424, 2788167.611840503755957 ], [ 319423.607669620134402, 2787240.808458675164729 ] ] ], [ [ [ 355278.120433476171456, 2801704.420729553326964 ], [ 354208.947009117342532, 2801715.942884068470448 ], [ 354511.894536983862054, 2802643.744356761686504 ], [ 355581.039229043759406, 2802632.242188724689186 ], [ 355278.120433476171456, 2801704.420729553326964 ] ] ], [ [ [ 345931.720777016249485, 2702325.159902369603515 ], [ 344859.600099659990519, 2702336.963068664073944 ], [ 345151.762692468590103, 2703262.168867472093552 ], [ 346223.855692990939133, 2703250.383742383215576 ], [ 345931.720777016249485, 2702325.159902369603515 ] ] ], [ [ [ 347108.624734677257948, 2716241.207699925638735 ], [ 346036.90984955476597, 2716252.984806245658547 ], [ 345743.329872401722241, 2715327.453217934817076 ], [ 344671.583701799972914, 2715339.330909601412714 ], [ 345846.586685692018364, 2719041.547924484591931 ], [ 346918.221509959723335, 2719029.743393156211823 ], [ 346624.355670742224902, 2718104.129871892277151 ], [ 347696.014897665590979, 2718092.389400295913219 ], [ 347108.624734677257948, 2716241.207699925638735 ] ] ], [ [ [ 345281.745797951531131, 2727408.548912977799773 ], [ 348495.917682738159783, 2727373.137263237498701 ], [ 348790.764171672402881, 2728299.006768638733774 ], [ 349862.120043499046005, 2728287.386762783396989 ], [ 349567.301487529883161, 2727361.498700205702335 ], [ 350638.681920613104012, 2727349.942794622853398 ], [ 351228.358431568776723, 2729201.783687655813992 ], [ 349085.705927372036967, 2729224.903826402500272 ], [ 349971.102770856581628, 2732002.760535409208387 ], [ 351042.346826979715843, 2731991.214991230983287 ], [ 351337.641650637087878, 2732917.241153771523386 ], [ 352408.854404990561306, 2732905.797104515135288 ], [ 352999.673828674596734, 2734757.969983609393239 ], [ 351928.51703432755312, 2734769.376560835167766 ], [ 352224.097589504439384, 2735695.485849841497838 ], [ 351152.965483266511001, 2735706.956559128593653 ], [ 351448.66928587120492, 2736633.074834351893514 ], [ 349306.45110344782006, 2736656.227516179904342 ], [ 349602.306207076762803, 2737582.336044554598629 ], [ 348531.220113818300888, 2737594.01807876303792 ], [ 348827.198524390929379, 2738520.135602908674628 ], [ 347756.137100959778763, 2738531.881896433420479 ], [ 348052.238840310368687, 2739458.008419134654105 ], [ 344839.118299313238822, 2739493.689243056811392 ], [ 345431.776135856111068, 2741345.913235647603869 ], [ 344360.785267595900223, 2741357.93558346433565 ], [ 345547.356944397906773, 2745062.641248303465545 ], [ 346618.235287514631636, 2745050.693797762971371 ], [ 346915.088285941630602, 2745976.958355316426605 ], [ 347985.93506335397251, 2745965.11290375282988 ], [ 348579.870581140217837, 2747817.763166586402804 ], [ 350721.441406841739081, 2747794.397450590506196 ], [ 350424.482314227963798, 2746868.020594296045601 ], [ 352566.096103175659664, 2746844.950036220252514 ], [ 351972.576166390208527, 2744992.204344225581735 ], [ 353043.434342036489397, 2744980.756002191454172 ], [ 352746.845331057906151, 2744054.406103821936995 ], [ 354888.608048705442343, 2744031.721027507446706 ], [ 354592.170430202502757, 2743105.361155170947313 ], [ 355663.074989205924794, 2743094.12435933900997 ], [ 355366.760649943025783, 2742167.77346075931564 ], [ 357508.616226296755485, 2742145.511229135561734 ], [ 357804.874468472553417, 2743071.900126134045422 ], [ 358875.769436534610577, 2743060.91268573096022 ], [ 359172.094827270542737, 2743987.348648690152913 ], [ 360242.958607803098857, 2743976.463414694648236 ], [ 359650.459080575150438, 2742123.58135612308979 ], [ 360721.375796702050138, 2742112.741050352342427 ], [ 360425.296815969515592, 2741186.323001100216061 ], [ 361496.238430009456351, 2741175.546681817620993 ], [ 361200.282621611841023, 2740249.137585100252181 ], [ 362271.24913424719125, 2740238.425219623371959 ], [ 361975.416476411861368, 2739312.02507254248485 ], [ 363046.407888344721869, 2739301.376628183294088 ], [ 362455.083986403653398, 2737448.622258276678622 ], [ 363526.128249246627092, 2737438.018615342210978 ], [ 363821.714671253692359, 2738364.400871897116303 ], [ 365963.73819085129071, 2738343.480668793898076 ], [ 364782.186831265455112, 2734637.967000483069569 ], [ 365853.305751288717147, 2734627.554814811330289 ], [ 364968.224860427435488, 2731848.656605340540409 ], [ 366039.424418040667661, 2731838.270037781912833 ], [ 364860.759928870829754, 2728133.387877537403256 ], [ 363789.44897146394942, 2728143.850436211563647 ], [ 363494.992866410524584, 2727217.718645793851465 ], [ 365637.667403648607433, 2727196.838285823818296 ], [ 364755.036859413143247, 2724418.496523073408753 ], [ 365826.452991045138333, 2724408.123453453648835 ], [ 364944.762043401831761, 2721629.975581335369498 ], [ 366016.258460027049296, 2721619.628347838763148 ], [ 364842.113458246109076, 2717915.74488269072026 ], [ 365913.717779659840744, 2717905.404712658375502 ], [ 364741.205833962187171, 2714201.889848354738206 ], [ 365812.917891026707366, 2714191.556892849504948 ], [ 364934.615904954494908, 2711414.15515734674409 ], [ 366006.407894960604608, 2711403.848252552561462 ], [ 365713.858481683360878, 2710478.08425524784252 ], [ 364642.038858039188199, 2710488.409845768008381 ], [ 364349.556956036307383, 2709562.692130888346583 ], [ 365421.404204925638624, 2709552.347877761814743 ], [ 364836.781070603989065, 2707700.957894082181156 ], [ 365908.680499119160231, 2707690.658439041581005 ], [ 364740.686295224353671, 2703988.134596488904208 ], [ 365812.692993320408277, 2703977.842740605119616 ], [ 365229.321846870821901, 2702126.708752171136439 ], [ 348075.9517248502234, 2702301.799311226699501 ], [ 348368.031309558136854, 2703227.059315494727343 ], [ 346223.855692990939133, 2703250.383742383215576 ], [ 346516.085898842953611, 2704175.63465773826465 ], [ 345444.02058352844324, 2704187.401718593668193 ], [ 345151.762692468590103, 2703262.168867472093552 ], [ 344079.666198196762707, 2703274.035935802385211 ], [ 345249.380348970531486, 2706975.057585901580751 ], [ 346321.366022259695455, 2706963.262803645804524 ], [ 346614.005082362855319, 2707888.604081900324672 ], [ 344470.085707610240206, 2707912.239469348452985 ], [ 344762.875530571909621, 2708837.57163174264133 ], [ 345834.809216180758085, 2708825.731022344902158 ], [ 346127.666589346714318, 2709751.108469783328474 ], [ 347199.569058961118571, 2709739.368144240230322 ], [ 346906.739428729284555, 2708813.972521482035518 ], [ 349050.589531255827751, 2708790.701838939916342 ], [ 349343.363698024768382, 2709716.1338941892609 ], [ 348271.468087138608098, 2709727.7099529071711 ], [ 348564.365254989999812, 2710653.151006400585175 ], [ 349636.233129497384652, 2710641.593200668692589 ], [ 350222.25777695432771, 2712492.593654926400632 ], [ 345934.987804570177104, 2712539.17186989588663 ], [ 346228.25410659739282, 2713464.639935911167413 ], [ 345156.455797012662515, 2713476.471820635255426 ], [ 345743.329872401722241, 2715327.453217934817076 ], [ 346815.072574055986479, 2715315.657828998286277 ], [ 347108.624734677257948, 2716241.207699925638735 ], [ 348180.336182438884862, 2716229.512922007124871 ], [ 348473.955807013087906, 2717155.108438179362565 ], [ 349545.636031548783649, 2717143.51434741448611 ], [ 350133.105445009307005, 2718994.824263939633965 ], [ 349061.480865538993385, 2719006.381564480252564 ], [ 349649.386987167003099, 2720857.764296072535217 ], [ 348577.814710370614193, 2720869.367176868952811 ], [ 348871.938523152726702, 2721795.08125069597736 ], [ 347800.390713184024207, 2721806.748174597974867 ], [ 348683.417394109535962, 2724583.999745042528957 ], [ 347611.94984072475927, 2724595.693839983548969 ], [ 347906.510514847468585, 2725521.480821018107235 ], [ 346835.067458590376191, 2725533.23903304617852 ], [ 347129.751330413564574, 2726459.035016752779484 ], [ 346058.332770607201383, 2726470.857378788758069 ], [ 345469.004455407266505, 2724619.329763002227992 ], [ 344397.526575396594126, 2724631.271594306454062 ], [ 345281.745797951531131, 2727408.548912977799773 ] ], [ [ 348977.950160416774452, 2725509.805213452316821 ], [ 349272.578192363260314, 2726435.638191137462854 ], [ 348201.166462990513537, 2726447.295288070105016 ], [ 347906.510514847468585, 2725521.480821018107235 ], [ 348977.950160416774452, 2725509.805213452316821 ] ], [ [ 353665.922870649723336, 2730104.993601856287569 ], [ 353960.943364944425412, 2731031.020502844825387 ], [ 352889.681295801827218, 2731042.336402230896056 ], [ 352594.632865782652516, 2730116.328210199717432 ], [ 353665.922870649723336, 2730104.993601856287569 ] ], [ [ 355301.154982261359692, 2721726.811986872926354 ], [ 355595.206967495556455, 2722652.664747770410031 ], [ 354523.7069821881596, 2722663.818133720196784 ], [ 354229.627166493795812, 2721737.983981547877192 ], [ 355301.154982261359692, 2721726.811986872926354 ] ], [ [ 354903.986910521925893, 2717086.779149909038097 ], [ 355197.535007446655072, 2718012.512733945157379 ], [ 354125.899231604067609, 2718023.676557789556682 ], [ 353832.323353583633434, 2717097.961493754759431 ], [ 354903.986910521925893, 2717086.779149909038097 ] ], [ [ 356067.370121907268185, 2710573.971636534202844 ], [ 356946.050893001956865, 2713350.844387817196548 ], [ 355874.286096089053899, 2713361.853877931367606 ], [ 354995.522199461469427, 2710585.036515639629215 ], [ 356067.370121907268185, 2710573.971636534202844 ] ], [ [ 362596.663722018536646, 2704008.964139458723366 ], [ 363180.580845304124523, 2705860.096797910984606 ], [ 362108.620094759040512, 2705870.597471229266375 ], [ 361524.647798541118391, 2704019.501829394139349 ], [ 362596.663722018536646, 2704008.964139458723366 ] ] ], [ [ [ 345576.676130688574631, 2728334.362910571042448 ], [ 345281.745797951531131, 2727408.548912977799773 ], [ 344210.348266161745414, 2727420.518121810164303 ], [ 344505.306561825564131, 2728346.313671366777271 ], [ 345576.676130688574631, 2728334.362910571042448 ] ] ], [ [ [ 349010.691261537838727, 2735730.146693291142583 ], [ 347939.549098134506494, 2735741.866121329832822 ], [ 348235.336970923468471, 2736667.928258989006281 ], [ 349306.45110344782006, 2736656.227516179904342 ], [ 349010.691261537838727, 2735730.146693291142583 ] ] ], [ [ [ 340554.908941632078495, 2739542.426033553201705 ], [ 339483.847757620271295, 2739554.817806252278388 ], [ 339780.269613930257037, 2740480.823024785146117 ], [ 340851.30266586644575, 2740468.449785333126783 ], [ 340554.908941632078495, 2739542.426033553201705 ] ] ], [ [ [ 344360.785267595900223, 2741357.93558346433565 ], [ 344064.380592034722213, 2740431.828414124902338 ], [ 341922.332163580867928, 2740456.159604854416102 ], [ 342218.793082364543807, 2741382.229524524882436 ], [ 344360.785267595900223, 2741357.93558346433565 ] ] ], [ [ [ 353636.89805585029535, 2746833.539611042011529 ], [ 352566.096103175659664, 2746844.950036220252514 ], [ 352862.998925209976733, 2747771.364797902759165 ], [ 353933.772753808647394, 2747759.973366369027644 ], [ 353636.89805585029535, 2746833.539611042011529 ] ] ], [ [ [ 343642.428422948345542, 2752521.406984427943826 ], [ 342571.758370688767172, 2752533.620573558378965 ], [ 343465.398080140119419, 2755312.826926538720727 ], [ 342394.809342710010242, 2755325.067440205253661 ], [ 342692.908149340073578, 2756251.506439152639359 ], [ 344834.025571100879461, 2756227.146693580318242 ], [ 345132.163100344012491, 2757153.651416170410812 ], [ 348343.728591643914115, 2757117.795176179613918 ], [ 347449.856293417746201, 2754338.194170088972896 ], [ 346379.253087034216151, 2754350.119662254583091 ], [ 346081.457956568221562, 2753423.66089606564492 ], [ 343940.184759777970612, 2753447.800079462584108 ], [ 343642.428422948345542, 2752521.406984427943826 ] ] ], [ [ [ 363184.107402685738634, 2776493.418366085737944 ], [ 362884.281897315639071, 2775566.106182224117219 ], [ 361814.35569686209783, 2775576.916836983989924 ], [ 362114.209586803452112, 2776504.209294407162815 ], [ 363184.107402685738634, 2776493.418366085737944 ] ] ], [ [ [ 352785.194169060327113, 2777532.25736672244966 ], [ 353855.091807292890735, 2777520.728903444018215 ], [ 354155.363487061113119, 2778447.921529234852642 ], [ 352015.621902053127997, 2778471.023577242624015 ], [ 352316.045762024179567, 2779398.205658833961934 ], [ 354455.730385499424301, 2779375.142687470652163 ], [ 354756.192500134930015, 2780302.392401047516614 ], [ 355826.001500186452176, 2780291.006824542302638 ], [ 355525.567863477743231, 2779363.737507862504572 ], [ 356595.402150459121913, 2779352.416530234739184 ], [ 356295.092183573404327, 2778425.156186119187623 ], [ 357364.951757741160691, 2778413.899775023106486 ], [ 357665.233270075346809, 2779341.17975304974243 ], [ 360874.707861047703773, 2779307.974608938675374 ], [ 362076.444267671788111, 2783017.617996106855571 ], [ 361006.736321094445884, 2783028.523079256061465 ], [ 361307.436792742752004, 2783955.986009045969695 ], [ 363446.792701868340373, 2783934.299843973945826 ], [ 363747.531377461506054, 2784861.831308425404131 ], [ 365886.818310544011183, 2784840.522316286806017 ], [ 364985.058454732527025, 2782057.894990799482912 ], [ 366054.782806825940497, 2782047.307193190790713 ], [ 364853.881866857118439, 2778337.461617903783917 ], [ 363784.043854737537913, 2778348.128859285730869 ], [ 363484.028055986273102, 2777420.75925078894943 ], [ 362414.158633088460192, 2777431.530428876169026 ], [ 362114.209586803452112, 2776504.209294407162815 ], [ 361044.308723023859784, 2776515.084332192316651 ], [ 360744.426441068877466, 2775587.811573877930641 ], [ 359674.494106277008541, 2775598.790394387207925 ], [ 359074.958272819174454, 2773744.370018080342561 ], [ 360144.947381304809824, 2773733.351925348863006 ], [ 359545.84901021089172, 2771879.006615029647946 ], [ 358475.803161667659879, 2771890.063884922303259 ], [ 358176.368383126333356, 2770962.953602388035506 ], [ 356036.210527644958347, 2770985.359095119405538 ], [ 355736.814216669823509, 2770058.316281334962696 ], [ 353596.586861496441998, 2770081.096447524148971 ], [ 354495.231707712751813, 2772862.193501897156239 ], [ 351285.121919676079415, 2772896.81870831316337 ], [ 350985.393185565364547, 2771969.816182826645672 ], [ 353125.526457803091034, 2771946.609902191907167 ], [ 352526.468332427204587, 2770092.612420845776796 ], [ 350386.221452819299884, 2770115.896155767142773 ], [ 350086.778459107736126, 2769188.97860869532451 ], [ 345806.131103189371061, 2769236.630260625388473 ], [ 345506.669747608539183, 2768309.817883791401982 ], [ 343366.268818427110091, 2768334.185451806057245 ], [ 343665.787026022793725, 2769260.959547577425838 ], [ 342595.609804653970059, 2769273.250062060542405 ], [ 342895.251760067534633, 2770200.033172946423292 ], [ 341825.099505186954048, 2770212.388507622759789 ], [ 342124.865230303490534, 2771139.180636143311858 ], [ 343194.989023505477235, 2771126.844421213492751 ], [ 343794.749464633816388, 2772980.55142059456557 ], [ 342724.682619966275524, 2772992.849324853625149 ], [ 343024.734279592812527, 2773919.725930416956544 ], [ 345164.80754621210508, 2773895.252556413877755 ], [ 345464.897529484354891, 2774822.19582306407392 ], [ 346534.900532813975587, 2774810.104482610244304 ], [ 346835.057314883568324, 2775737.095316951628774 ], [ 348974.996208395110443, 2775713.203532172832638 ], [ 349275.191295682336204, 2776640.261403183918446 ], [ 350345.127247387717944, 2776628.461061262525618 ], [ 350044.960634438786656, 2775701.383791573345661 ], [ 351114.921744888066314, 2775689.648150023072958 ], [ 351415.059891016338952, 2776616.744845686946064 ], [ 352484.989250225306023, 2776605.112754866480827 ], [ 352785.194169060327113, 2777532.25736672244966 ] ], [ [ 357705.31251796730794, 2772828.32437887089327 ], [ 358004.966046758985613, 2773755.472141274251044 ], [ 356934.970679452409968, 2773766.658296440728009 ], [ 356635.288761502946727, 2772839.530079856980592 ], [ 357705.31251796730794, 2772828.32437887089327 ] ] ], [ [ [ 348505.570847015129402, 2777579.212740456219763 ], [ 349575.481640186102595, 2777567.347665751352906 ], [ 349275.191295682336204, 2776640.261403183918446 ], [ 348205.252012246870436, 2776652.145873055327684 ], [ 348505.570847015129402, 2777579.212740456219763 ] ] ], [ [ [ 361441.621751468861476, 2787677.015963456127793 ], [ 360372.050177814380731, 2787687.990517498925328 ], [ 360673.283488426415715, 2788615.557797761168331 ], [ 361742.826530873891897, 2788604.60314361192286 ], [ 361441.621751468861476, 2787677.015963456127793 ] ] ], [ [ [ 361140.512132316012867, 2786749.45764105161652 ], [ 362210.109168354538269, 2786738.547627022955567 ], [ 362511.190272174426354, 2787666.125852738041431 ], [ 363580.755763498600572, 2787655.320183866657317 ], [ 363881.903502848523203, 2788582.947245801333338 ], [ 361742.826530873891897, 2788604.60314361192286 ], [ 362044.126468045869842, 2789532.219204612076283 ], [ 360974.611965222575236, 2789543.153934947215021 ], [ 361276.035605717333965, 2790470.778952156193554 ], [ 363415.004484695848078, 2790449.033912293147296 ], [ 363716.466180935502052, 2791376.727803349029273 ], [ 365855.365956074907444, 2791355.36093892948702 ], [ 364951.437479497573804, 2788572.24599920026958 ], [ 366020.968481338117272, 2788561.629218861460686 ], [ 365117.981676362804137, 2785778.714896800927818 ], [ 360839.497675896738656, 2785821.928153318352997 ], [ 361140.512132316012867, 2786749.45764105161652 ] ] ], [ [ [ 359716.185646621685009, 2798864.491967688314617 ], [ 360785.426379217067733, 2798853.41869332222268 ], [ 360483.060461244778708, 2797925.593040431383997 ], [ 359413.791074977547396, 2797936.686369040980935 ], [ 358809.287459076265804, 2796081.162126276642084 ], [ 356670.624788604560308, 2796103.68294818373397 ], [ 356368.458470045938157, 2795176.004140152595937 ], [ 354229.725888574961573, 2795198.903534533455968 ], [ 354531.949516400636639, 2796126.54256935371086 ], [ 353462.607095883227885, 2796138.099433531519026 ], [ 354067.39734688855242, 2797993.424313677474856 ], [ 352998.109077470144257, 2798005.026173694059253 ], [ 353300.675728425558191, 2798932.712020617909729 ], [ 354369.935299198725261, 2798921.130050933454186 ], [ 355278.120433476171456, 2801704.420729553326964 ], [ 358485.621745146578178, 2801670.363469923380762 ], [ 358182.884283279476222, 2800742.510924868285656 ], [ 359252.073838803218678, 2800731.308162800502032 ], [ 358949.460246725473553, 2799803.464584291912615 ], [ 360018.675390735501423, 2799792.326582137495279 ], [ 359716.185646621685009, 2798864.491967688314617 ] ] ] ] } }
]
}
