{
"type": "FeatureCollection",
"name": "urban-2015",
"crs": { "type": "name", "properties": { "name": "urn:ogc:def:crs:EPSG::32642" } },
"features": [
{ "type": "Feature", "properties": { "year": 2015 }, "geometry": { "type": "MultiPolygon", "coordinates": [ [ [ [ 307053.063547819561791, 2739039.754466744139791 ], [ 306755.985368085443042, 2738114.346229955554008 ], [ 305684.745185763225891, 2738129.348188121337444 ], [ 305981.851718143327162, 2739054.738782460801303 ], [ 307053.063547819561791, 2739039.754466744139791 ] ] ], [ [ [ 337457.239943313412368, 2743296.455492036882788 ], [ 337754.127670524292625, 2744222.515369123779237 ], [ 338825.058825893560424, 2744209.966982504818588 ], [ 339122.013707733363844, 2745136.073007402941585 ], [ 340192.913078280980699, 2745123.626389734447002 ], [ 339302.419005955918692, 2742345.335383710451424 ], [ 335018.461594545573462, 2742395.843441462609917 ], [ 335315.310350536019541, 2743321.838799953926355 ], [ 337457.239943313412368, 2743296.455492036882788 ] ] ], [ [ [ 328115.5815209755674, 2744339.193925352301449 ], [ 327044.613093897234648, 2744352.574139183852822 ], [ 327341.878556078416295, 2745278.477409013081342 ], [ 328412.818710539955646, 2745265.115491221658885 ], [ 328115.5815209755674, 2744339.193925352301449 ] ] ], [ [ [ 304136.673906431125943, 2740010.338744500186294 ], [ 303065.477383153454866, 2740025.55467478884384 ], [ 303362.860267772804946, 2740950.945969835855067 ], [ 302291.687745538074523, 2740966.227417269255966 ], [ 302589.194659176748246, 2741891.627873783465475 ], [ 301518.046137983037625, 2741906.974871424026787 ], [ 301815.677102719782852, 2742832.384491708129644 ], [ 300744.552582577161957, 2742847.797072613611817 ], [ 301042.307620490784757, 2743773.215858954470605 ], [ 299971.207101434585638, 2743788.694056178443134 ], [ 300269.086234614136629, 2744714.122010851278901 ], [ 297055.843216967827175, 2744761.003284697886556 ], [ 296460.009784879803192, 2742910.27927147783339 ], [ 294317.711220928817056, 2742942.019525920040905 ], [ 294615.637069430609699, 2743867.333305241074413 ], [ 293544.509408319368958, 2743883.310822655446827 ], [ 293842.559449115942698, 2744808.633792879991233 ], [ 292771.455692684510723, 2744824.677135536447167 ], [ 293069.629947901994456, 2745750.009298857767135 ], [ 290927.465605238452554, 2745782.310987114906311 ], [ 291225.792641441919841, 2746707.634950842242688 ], [ 293367.899903083394747, 2746675.368079479318112 ], [ 294860.68509405083023, 2751302.56200804002583 ], [ 293789.776587057858706, 2751318.566325280349702 ], [ 293490.999589945771731, 2750393.091669075656682 ], [ 291349.111595071270131, 2750425.385650415439159 ], [ 291050.373130718246102, 2749499.972647665068507 ], [ 289979.393579857831355, 2749516.262211244087666 ], [ 289680.722245636628941, 2748590.893253873568028 ], [ 286467.669616958941333, 2748640.314432461280376 ], [ 287065.2796399674844, 2750490.97474832739681 ], [ 288136.244684069650248, 2750474.452326379716396 ], [ 288734.180432776804082, 2752325.253668657504022 ], [ 286592.360135913011618, 2752358.31244981335476 ], [ 287190.7934184523765, 2754209.150625332258642 ], [ 286119.933479279919993, 2754225.770491101779044 ], [ 286718.807099403406028, 2756076.680317678488791 ], [ 287789.60968083149055, 2756060.095307479612529 ], [ 287490.153678370406851, 2755134.609642115421593 ], [ 289631.802048160054255, 2755101.65546042425558 ], [ 289033.291908011771739, 2753250.694273547735065 ], [ 290104.166354674613103, 2753234.307565691880882 ], [ 290403.344917934620753, 2754159.792296257801354 ], [ 294686.681731674238108, 2754095.150733335409313 ], [ 294985.841489581624046, 2755020.732422391418368 ], [ 293915.042818334302865, 2755036.749905571807176 ], [ 294214.326888259500265, 2755962.340778218116611 ], [ 293143.55226805259008, 2755978.424218990840018 ], [ 293442.960672126617283, 2756904.024277352262288 ], [ 292372.210103208199143, 2756920.173708694055676 ], [ 292072.773047192487866, 2755994.591249124146998 ], [ 291001.989201862132177, 2756010.841870820615441 ], [ 291301.454917692113668, 2756936.406758750788867 ], [ 289159.930601611500606, 2756969.123723862692714 ], [ 289459.549390086496715, 2757894.680265977978706 ], [ 290530.285196316079237, 2757878.297512722201645 ], [ 291129.75255881389603, 2759729.525985354091972 ], [ 290059.074145457241684, 2759745.873586230445653 ], [ 290658.981789240147918, 2761597.174034604802728 ], [ 289588.356153543340042, 2761613.570149974431843 ], [ 289888.482286055805162, 2762539.242970774881542 ], [ 290959.079188230447471, 2762522.864486929960549 ], [ 291259.272302052937448, 2763448.581787427887321 ], [ 292329.835829562623985, 2763432.304774103220552 ], [ 292930.451699020224623, 2765283.855443280190229 ], [ 295071.450011997949332, 2765251.62388757802546 ], [ 295371.844002368627116, 2766177.475205857306719 ], [ 294301.375873897690326, 2766193.531243664212525 ], [ 294601.89429596113041, 2767119.391738390550017 ], [ 299954.046117247955408, 2767040.039857111405581 ], [ 300555.082532837754115, 2768892.021094901487231 ], [ 302695.797165669209789, 2768860.939782733563334 ], [ 303597.896627344365697, 2771639.223910580854863 ], [ 305738.421414989512414, 2771608.587210683617741 ], [ 306039.254983712104149, 2772534.772809584159404 ], [ 307109.482182786858175, 2772519.598732690792531 ], [ 307711.378618974238634, 2774372.088516958989203 ], [ 309851.705303684633691, 2774342.065721056424081 ], [ 309249.923795756185427, 2772489.502761102281511 ], [ 310320.138257038430311, 2772474.580862312577665 ], [ 310019.419566430326086, 2771548.322229973506182 ], [ 311089.658529243199155, 2771533.466060136444867 ], [ 310789.064095581357833, 2770607.216550201643258 ], [ 312929.586857181333471, 2770577.719599868170917 ], [ 313230.123930715373717, 2771504.005796687677503 ], [ 314300.350416776025668, 2771489.4016990698874 ], [ 313999.842011667555198, 2770563.097118005156517 ], [ 315070.09304688940756, 2770548.558629021514207 ], [ 315671.148059161496349, 2772401.232157599180937 ], [ 316741.337684579717461, 2772386.814560539554805 ], [ 317041.97980372508755, 2773313.211148652713746 ], [ 315971.818847978312988, 2773327.610259640961885 ], [ 316874.404315812746063, 2776106.910186196677387 ], [ 315804.325370158534497, 2776121.337850763462484 ], [ 316105.406929287826642, 2777047.807887556497008 ], [ 318245.503357445122674, 2777019.07384740607813 ], [ 317944.47921233845409, 2776092.566675793845206 ], [ 319014.550083400215954, 2776078.307317605707794 ], [ 318412.845669814501889, 2774225.338845506310463 ], [ 319482.969889353611507, 2774211.126437940634787 ], [ 319182.28959294129163, 2773284.665136448573321 ], [ 318112.136710818042047, 2773298.896108237560838 ], [ 317511.005300645134412, 2771446.093518843408674 ], [ 316440.791078040725552, 2771460.445562116336077 ], [ 316140.339986550738104, 2770534.104130941443145 ], [ 317210.582854360691272, 2770519.733621797990054 ], [ 316910.255917202797718, 2769593.40129326749593 ], [ 317980.5233659746591, 2769579.096301715821028 ], [ 317380.213261926779523, 2767726.477392790839076 ], [ 316309.888580034195911, 2767740.819252083543688 ], [ 315709.903308668755926, 2765888.34721611533314 ], [ 314639.517340325284749, 2765902.809699418023229 ], [ 314039.856972618494183, 2764050.484113833401352 ], [ 316180.73917036363855, 2764021.569695557001978 ], [ 315881.109435978229158, 2763095.411415921524167 ], [ 318022.032437618880067, 2763066.795486587565392 ], [ 317722.55532470473554, 2762140.627978133969009 ], [ 320933.995190174609888, 2762098.277138001751155 ], [ 320634.699152088142, 2761172.081971333827823 ], [ 321705.199632857984398, 2761158.114068217109889 ], [ 320509.084284570300952, 2757453.534600773826241 ], [ 321579.69472205475904, 2757439.576846478506923 ], [ 322476.552590492705349, 2760218.025366583839059 ], [ 323547.07366076298058, 2760204.206413524691015 ], [ 323846.188741046586074, 2761130.429364114999771 ], [ 322775.696154586272314, 2761144.229866440873593 ], [ 323074.935185262002051, 2762070.461900098249316 ], [ 322004.467163394321688, 2762084.327654767315835 ], [ 322603.288639566162601, 2763936.837447876576334 ], [ 325814.509917733550537, 2763895.602420572657138 ], [ 326113.978306599368807, 2764821.954307470470667 ], [ 328254.716132589615881, 2764794.920405980665237 ], [ 328853.825185334309936, 2766647.781809057109058 ], [ 329924.131373675598297, 2766634.427939902525395 ], [ 329325.079319364624098, 2764781.529157595243305 ], [ 330395.43872032139916, 2764768.221708349883556 ], [ 329796.825275451410562, 2762915.396553071215749 ], [ 326585.564796581980772, 2762955.682154015637934 ], [ 326286.31578040641034, 2762029.366988665889949 ], [ 327356.768234529532492, 2762015.836129498668015 ], [ 326758.613451683660969, 2760163.251568936742842 ], [ 325688.10406757669989, 2760176.81951656518504 ], [ 325389.141375797451474, 2759250.587165056727827 ], [ 324318.599659989005886, 2759264.257260899990797 ], [ 324019.703962830652017, 2758338.070927289780229 ], [ 326160.840410962176975, 2758310.77743171621114 ], [ 325862.097049992415123, 2757384.581715954001993 ], [ 324791.502333703567274, 2757398.205119342077523 ], [ 324492.825988259981386, 2756472.055380472913384 ], [ 322351.567970456380863, 2756499.589738392271101 ], [ 322052.930217763525434, 2755573.504239851608872 ], [ 320982.266853981593158, 2755587.415092894807458 ], [ 320683.696140511310659, 2754661.375327210873365 ], [ 322825.075770028925035, 2754633.600509452167898 ], [ 322526.657382953795604, 2753707.551522688008845 ], [ 321455.941133266780525, 2753721.415491093881428 ], [ 320859.333959496987518, 2751869.436258458532393 ], [ 323000.876114422164392, 2751841.718634115066379 ], [ 323597.369683551951312, 2753693.771032154094428 ], [ 325738.782532789511606, 2753666.460477207321674 ], [ 325440.544796548318118, 2752740.383861143607646 ], [ 329723.437622634810396, 2752686.690646811854094 ], [ 329425.408767763990909, 2751760.567818603944033 ], [ 330496.150779502291698, 2751747.334630030207336 ], [ 330794.151294778974261, 2752673.475942092016339 ], [ 336147.663640987011604, 2752608.653921811841428 ], [ 334956.800116742611863, 2748903.883254546672106 ], [ 333885.991880693007261, 2748916.755136791151017 ], [ 332993.760862545517739, 2746138.52248856285587 ], [ 334064.653877602831926, 2746125.59509840561077 ], [ 333767.462554485944565, 2745199.554135961458087 ], [ 334838.380104832409415, 2745186.691499138250947 ], [ 333947.463094984472264, 2742408.678261012304574 ], [ 335018.461594545573462, 2742395.843441462609917 ], [ 334721.708211430930533, 2741469.875570906326175 ], [ 333650.681517637160141, 2741482.728806945029646 ], [ 333353.995323967130389, 2740556.806795208714902 ], [ 332282.936722632264718, 2740569.761495349463075 ], [ 331986.31772998906672, 2739643.885246199090034 ], [ 329844.13287361280527, 2739670.080469736363739 ], [ 330437.579056026181206, 2741521.787111772689968 ], [ 331508.616963851964101, 2741508.684575608465821 ], [ 331805.454952441970818, 2742434.597278454806656 ], [ 330734.445261640124954, 2742447.68147988198325 ], [ 331922.864123571314849, 2746151.533116780221462 ], [ 330851.963636797154322, 2746164.626984832342714 ], [ 331149.335116516798735, 2747090.640121487900615 ], [ 330078.459132171352394, 2747103.79883373901248 ], [ 329483.755037922703195, 2745251.836791411973536 ], [ 328412.818710539955646, 2745265.115491221658885 ], [ 328710.151324316626415, 2746191.064447590149939 ], [ 325497.404150012822356, 2746231.344985469710082 ], [ 324902.664640032104217, 2744379.584146382287145 ], [ 323831.684565448667854, 2744393.21394342975691 ], [ 324129.034891325514764, 2745319.062488549854606 ], [ 319845.188309859950095, 2745374.341091473586857 ], [ 319547.724725171225145, 2744448.565131439361721 ], [ 318476.724760123295709, 2744462.610937828198075 ], [ 318179.328343474306166, 2743536.880213470198214 ], [ 316037.259565964573994, 2743565.257478816434741 ], [ 315739.901996246364433, 2742639.589870956260711 ], [ 312526.682936570956372, 2742682.833423147443682 ], [ 312229.335871465620585, 2741757.246579197235405 ], [ 311158.226158909732476, 2741771.84526450606063 ], [ 310860.946298074442893, 2740846.303216205909848 ], [ 309789.804014677414671, 2740861.002833350095898 ], [ 310087.112229965976439, 2741786.527087514288723 ], [ 309015.994060713681392, 2741801.292050226125866 ], [ 308124.271066074841656, 2739024.853213202208281 ], [ 307053.063547819561791, 2739039.754466744139791 ], [ 307647.50667980738217, 2740890.651407177560031 ], [ 304434.028398388472851, 2740935.747647176962346 ], [ 304136.673906431125943, 2740010.338744500186294 ] ], [ [ 319438.469857282936573, 2757467.575947518926114 ], [ 319139.651260137790814, 2756541.517990785185248 ], [ 320210.294153137831017, 2756527.458342059049755 ], [ 320509.084284570300952, 2757453.534600773826241 ], [ 319438.469857282936573, 2757467.575947518926114 ] ], [ [ 324916.677416011691093, 2761116.71255936101079 ], [ 325215.859469999326393, 2762042.981568917632103 ], [ 324145.399279541103169, 2762056.679872107226402 ], [ 323846.188741046586074, 2761130.429364114999771 ], [ 324916.677416011691093, 2761116.71255936101079 ] ], [ [ 309313.4262142512016, 2742726.825441588647664 ], [ 308242.332159070996568, 2742741.655782874673605 ], [ 307944.87162723595975, 2741816.140154651366174 ], [ 309015.994060713681392, 2741801.292050226125866 ], [ 309313.4262142512016, 2742726.825441588647664 ] ], [ [ 308539.888272896001581, 2743667.198313800618052 ], [ 307468.818331730086356, 2743682.094066667370498 ], [ 307171.233823497314006, 2742756.569295091088861 ], [ 308242.332159070996568, 2742741.655782874673605 ], [ 308539.888272896001581, 2743667.198313800618052 ] ], [ [ 289207.205008711549453, 2750458.013337569776922 ], [ 290278.160637758206576, 2750441.657779658678919 ], [ 290577.023416925338097, 2751367.079981009941548 ], [ 289506.096397646469995, 2751383.418108268640935 ], [ 289207.205008711549453, 2750458.013337569776922 ] ], [ [ 328829.637307202094235, 2749908.404707855079323 ], [ 330971.230849868385121, 2749881.947890531271696 ], [ 331269.012233070039656, 2750808.052596646826714 ], [ 329127.475328475236893, 2750834.472513041459024 ], [ 328829.637307202094235, 2749908.404707855079323 ] ], [ [ 296879.306362594477832, 2747553.030520404223353 ], [ 297950.310876612900756, 2747537.289527445100248 ], [ 298248.658089909760747, 2748462.771755420602858 ], [ 297177.682097779703327, 2748478.495170854497701 ], [ 296879.306362594477832, 2747553.030520404223353 ] ] ], [ [ [ 290059.074145457241684, 2759745.873586230445653 ], [ 289759.26390550925862, 2758820.263546099886298 ], [ 288688.552119292668067, 2758836.712414612062275 ], [ 288988.391067738411948, 2759762.304893923923373 ], [ 290059.074145457241684, 2759745.873586230445653 ] ] ], [ [ [ 290188.704141743481159, 2763464.942616160493344 ], [ 289888.482286055805162, 2762539.242970774881542 ], [ 287747.27446454577148, 2762572.251312172971666 ], [ 288047.55382765782997, 2763497.915728768799454 ], [ 289118.131324867077637, 2763481.387262527830899 ], [ 289418.47765940631507, 2764407.096103004645556 ], [ 288347.928928201203234, 2764423.606944826431572 ], [ 288648.39976375119295, 2765349.324982410296798 ], [ 290789.435012942645699, 2765316.422468981239945 ], [ 290489.021718180039898, 2764390.6691082008183 ], [ 291559.561128282919526, 2764374.325958179309964 ], [ 291259.272302052937448, 2763448.581787427887321 ], [ 290188.704141743481159, 2763464.942616160493344 ] ] ], [ [ [ 293230.903183775721118, 2766209.671173924580216 ], [ 292930.451699020224623, 2765283.855443280190229 ], [ 291859.94566449400736, 2765300.097021277062595 ], [ 292160.425908258126583, 2766225.894998834934086 ], [ 293230.903183775721118, 2766209.671173924580216 ] ] ], [ [ [ 286507.345761429169215, 2765382.563001481350511 ], [ 287409.505471203359775, 2768159.772336958441883 ], [ 288479.948407840158325, 2768143.164311048574746 ], [ 288179.161574552650563, 2767217.383368086535484 ], [ 289249.628630168910604, 2767200.841610505245626 ], [ 288648.39976375119295, 2765349.324982410296798 ], [ 286507.345761429169215, 2765382.563001481350511 ] ] ], [ [ [ 323031.740784860565327, 2768582.414807848632336 ], [ 322731.776431836478878, 2767656.026608636137098 ], [ 321661.471750706667081, 2767669.948970234952867 ], [ 321361.57429845945444, 2766743.606948781758547 ], [ 322431.907545050082263, 2766729.666052721440792 ], [ 321532.873706552491058, 2763950.750020505394787 ], [ 320462.454813801858108, 2763964.746378043666482 ], [ 320162.939284410036635, 2763038.51461103418842 ], [ 318022.032437618880067, 2763066.795486587565392 ], [ 319520.850506622344255, 2767698.045382452197373 ], [ 320591.163116876152344, 2767683.955227538011968 ], [ 321191.301614180090837, 2769536.685066279023886 ], [ 320121.046190751716495, 2769550.738190149888396 ], [ 320421.287263735779561, 2770477.126008501742035 ], [ 321491.514081195462495, 2770463.091435676906258 ], [ 321791.822023860411718, 2771389.525468368083239 ], [ 322862.016281358432025, 2771375.593476787209511 ], [ 323162.391082215530332, 2772302.073820918332785 ], [ 324232.552810467779636, 2772288.244486847892404 ], [ 323631.95587985496968, 2770435.274225965607911 ], [ 322561.736945333774202, 2770449.14084212994203 ], [ 321961.464677562587894, 2768596.318611316382885 ], [ 323031.740784860565327, 2768582.414807848632336 ] ] ], [ [ [ 289216.409858599188738, 2773714.916897817049176 ], [ 288312.526858793629799, 2770937.223436473403126 ], [ 289382.883299820241518, 2770920.668546314351261 ], [ 288780.830974765471183, 2769068.972140315454453 ], [ 286639.998044438078068, 2769102.236805101390928 ], [ 286339.057822538015898, 2768176.464325215201825 ], [ 283127.686367048125248, 2768227.044086837209761 ], [ 283428.713130867690779, 2769152.763746175449342 ], [ 284499.146202769712545, 2769135.837436920963228 ], [ 284800.239875916973688, 2770061.601489803753793 ], [ 283729.835667594976258, 2770078.510195691138506 ], [ 284031.053974802838638, 2771004.283457486890256 ], [ 281890.288928917259909, 2771038.317776190117002 ], [ 282794.691852194431704, 2773815.692854397930205 ], [ 283864.990065090707503, 2773798.686527803074569 ], [ 283563.455556148197502, 2772872.850367339793593 ], [ 284633.777890935423784, 2772855.910506399348378 ], [ 285236.884859825193416, 2774707.645070038735867 ], [ 287377.399662836687639, 2774674.08856127364561 ], [ 286774.408282497199252, 2772822.283103693742305 ], [ 287844.716386666870676, 2772805.595557353459299 ], [ 288146.135323725815397, 2773731.502564364112914 ], [ 289216.409858599188738, 2773714.916897817049176 ] ] ], [ [ [ 290754.375988902640529, 2771830.104105116799474 ], [ 290453.235076281824149, 2770904.197697672061622 ], [ 289382.883299820241518, 2770920.668546314351261 ], [ 289684.053053086739965, 2771846.557167363353074 ], [ 290754.375988902640529, 2771830.104105116799474 ] ] ], [ [ [ 325603.123687712301034, 2773201.044639307074249 ], [ 325302.710648176376708, 2772274.49918273370713 ], [ 324232.552810467779636, 2772288.244486847892404 ], [ 324532.99445801472757, 2773214.771239572204649 ], [ 325603.123687712301034, 2773201.044639307074249 ] ] ], [ [ [ 324833.531557122827508, 2774141.325770516414195 ], [ 324532.99445801472757, 2773214.771239572204649 ], [ 323462.861345456680283, 2773228.58189702546224 ], [ 323763.427068633376621, 2774155.117727626115084 ], [ 324833.531557122827508, 2774141.325770516414195 ] ] ], [ [ [ 348074.982514480419923, 2772932.200040479656309 ], [ 347775.168480702792294, 2772005.255507778376341 ], [ 346705.086871929001063, 2772017.236596907489002 ], [ 347004.929353979416192, 2772944.161853268742561 ], [ 345934.872807960025966, 2772956.207686455920339 ], [ 346234.839029685244896, 2773883.141946697607636 ], [ 347304.867111498839222, 2773871.11538630630821 ], [ 347604.900142024620436, 2774798.097218769602478 ], [ 348674.896380788995884, 2774786.174029910005629 ], [ 348374.891815329960082, 2773859.172873604577035 ], [ 349444.913164851721376, 2773847.314406969584525 ], [ 349145.032313143019564, 2772920.322246465831995 ], [ 348074.982514480419923, 2772932.200040479656309 ] ] ], [ [ [ 325903.632170433877036, 2774127.617897828109562 ], [ 324833.531557122827508, 2774141.325770516414195 ], [ 325134.164105344330892, 2775067.908102222718298 ], [ 326204.236093893647194, 2775054.218980848323554 ], [ 325903.632170433877036, 2774127.617897828109562 ] ] ], [ [ [ 327274.304238618758973, 2775040.613969266414642 ], [ 326204.236093893647194, 2775054.218980848323554 ], [ 326504.935455639380962, 2775980.847910936921835 ], [ 327574.974974898272194, 2775967.261701654177159 ], [ 327274.304238618758973, 2775040.613969266414642 ] ] ], [ [ [ 264385.722383495420218, 2809508.396186668425798 ], [ 263316.388881895574741, 2809527.185282271355391 ], [ 263622.537197074037977, 2810453.540766594000161 ], [ 266830.433854276023339, 2810397.482635816559196 ], [ 266524.373927090782672, 2809471.073703680187464 ], [ 267593.692015942826401, 2809452.540311234537512 ], [ 267287.757428130833432, 2808526.140614090953022 ], [ 264079.699456993257627, 2808582.049946435261518 ], [ 264385.722383495420218, 2809508.396186668425798 ] ] ], [ [ [ 354508.563055684382562, 2702233.683355287183076 ], [ 353436.46951695549069, 2702244.831251065712422 ], [ 353728.410903862561099, 2703170.182143518235534 ], [ 354800.476825325982645, 2703159.052507263142616 ], [ 354508.563055684382562, 2702233.683355287183076 ] ] ], [ [ [ 359380.606556915969122, 2704040.823053372558206 ], [ 360452.628751568263397, 2704030.121466881129891 ], [ 360160.757776222249959, 2703104.63323293812573 ], [ 354800.476825325982645, 2703159.052507263142616 ], [ 355092.48581782047404, 2704084.448918831069022 ], [ 354020.447522004251368, 2704095.560272529255599 ], [ 354312.579368982231244, 2705020.965659947600216 ], [ 352168.548165122163482, 2705043.39771344140172 ], [ 352460.83054562122561, 2705968.793805726803839 ], [ 350316.841343685751781, 2705991.517346311360598 ], [ 350609.274318559444509, 2706916.904182280879468 ], [ 352753.208166916738264, 2706894.217154040466994 ], [ 353045.6810266074026, 2707819.667780259158462 ], [ 357333.398438792093657, 2707775.351671166252345 ], [ 357918.40846004942432, 2709626.48201104812324 ], [ 360062.137167793232948, 2709604.890258236322552 ], [ 358600.602545720757917, 2704977.085363985039294 ], [ 359672.600307825021446, 2704966.320241854060441 ], [ 359380.606556915969122, 2704040.823053372558206 ] ], [ [ 357041.036230652360246, 2706849.827600385062397 ], [ 358112.985130677989218, 2706838.935307856183499 ], [ 358405.319694459089078, 2707764.477808041963726 ], [ 357333.398438792093657, 2707775.351671166252345 ], [ 357041.036230652360246, 2706849.827600385062397 ] ], [ [ 353532.820145067176782, 2705957.555059641599655 ], [ 355676.789461772073992, 2705935.323608198203146 ], [ 355969.084108428098261, 2706860.801929761189967 ], [ 353825.170100725139491, 2706882.996705071534961 ], [ 353532.820145067176782, 2705957.555059641599655 ] ], [ [ 356164.520845036720857, 2704073.419521570205688 ], [ 357236.552627834142186, 2704062.472079236060381 ], [ 357528.60159496194683, 2704987.932465369813144 ], [ 356456.597431371919811, 2704998.861547493375838 ], [ 356164.520845036720857, 2704073.419521570205688 ] ] ], [ [ [ 350609.274318559444509, 2706916.904182280879468 ], [ 348465.327001450466923, 2706939.919394618831575 ], [ 348757.910631598439068, 2707865.297013039235026 ], [ 350901.802548588835634, 2707842.31825001584366 ], [ 350609.274318559444509, 2706916.904182280879468 ] ] ], [ [ [ 351194.426031369250268, 2708767.759571387432516 ], [ 353338.2491222898243, 2708745.145706274546683 ], [ 353045.6810266074026, 2707819.667780259158462 ], [ 350901.802548588835634, 2707842.31825001584366 ], [ 351194.426031369250268, 2708767.759571387432516 ] ] ], [ [ [ 363764.878596395312343, 2707711.339403105899692 ], [ 363472.682143577490933, 2706785.704346181359142 ], [ 361328.812739207700361, 2706806.750636515207589 ], [ 361913.411258251115214, 2708657.974025532137603 ], [ 360841.527132594375871, 2708668.583170633763075 ], [ 361426.561603980255313, 2710519.87944730790332 ], [ 362498.390443324926309, 2710509.307440369389951 ], [ 362205.853268738428596, 2709583.626968726050109 ], [ 363277.706652020860929, 2709573.118494067806751 ], [ 362692.97305233636871, 2707721.802967531606555 ], [ 363764.878596395312343, 2707711.339403105899692 ] ] ], [ [ [ 364741.205833962187171, 2714201.889848354738206 ], [ 364448.31570062157698, 2713276.080342128872871 ], [ 363376.572927584289573, 2713286.514246223494411 ], [ 363669.490734463906847, 2714212.305051967967302 ], [ 364741.205833962187171, 2714201.889848354738206 ] ] ], [ [ [ 363669.490734463906847, 2714212.305051967967302 ], [ 362597.772568418295123, 2714222.802505111321807 ], [ 362011.97675568429986, 2712371.285833392292261 ], [ 364155.520713344682008, 2712350.298475650139153 ], [ 363570.216186631412711, 2710498.817573667503893 ], [ 362498.390443324926309, 2710509.307440369389951 ], [ 362791.022779603488743, 2711435.015462477691472 ], [ 360647.417299599735998, 2711456.204437855631113 ], [ 361526.051311716903001, 2714233.382209220901132 ], [ 359382.599429905763827, 2714254.788376130629331 ], [ 360262.256258318433538, 2717032.102571841329336 ], [ 359190.60876671038568, 2717042.873206965625286 ], [ 359484.045813474454917, 2717968.681144076865166 ], [ 358412.42290840257192, 2717979.515488722827286 ], [ 358705.982899311580695, 2718905.332384582143277 ], [ 359777.578044573543593, 2718894.516692359466106 ], [ 360071.205457593430765, 2719820.37987391743809 ], [ 357928.067536711983848, 2719842.056329294107854 ], [ 357340.796821762342006, 2717990.432200920302421 ], [ 356269.167529471567832, 2718001.431282160338014 ], [ 356856.493802072596736, 2719853.01819173572585 ], [ 353641.753212518058717, 2719886.398336071055382 ], [ 353935.642575799371116, 2720812.177389695774764 ], [ 361436.4645153057063, 2720735.574841121211648 ], [ 361730.254507327335887, 2721661.512104969937354 ], [ 362801.760091107571498, 2721650.917458470910788 ], [ 362214.330807743128389, 2719799.033101361244917 ], [ 361142.769691974972375, 2719809.66527801938355 ], [ 360555.665561063913628, 2717957.929165500216186 ], [ 361627.282175252679735, 2717947.259551525581628 ], [ 361333.900609130971134, 2717021.414274 ], [ 362405.541843237704597, 2717010.808311983011663 ], [ 362112.283167930552736, 2716084.971981898881495 ], [ 363183.949022883083671, 2716074.42963893013075 ], [ 362890.813216640613973, 2715148.602253219578415 ], [ 363962.503693385049701, 2715138.123496386688203 ], [ 363669.490734463906847, 2714212.305051967967302 ] ] ], [ [ [ 363477.179984728281852, 2717000.284684340469539 ], [ 362405.541843237704597, 2717010.808311983011663 ], [ 362698.89568012394011, 2717936.672300694976002 ], [ 361627.282175252679735, 2717947.259551525581628 ], [ 361920.758908929070458, 2718873.132486605085433 ], [ 365135.507001175428741, 2718841.67410287912935 ], [ 364842.113458246109076, 2717915.74488269072026 ], [ 363770.506099761638325, 2717926.167411561589688 ], [ 363477.179984728281852, 2717000.284684340469539 ] ] ], [ [ [ 365263.156687707058154, 2732774.928011020179838 ], [ 364968.224860427435488, 2731848.656605340540409 ], [ 363897.02228022844065, 2731859.125947365537286 ], [ 364191.981985833030194, 2732785.378324276767671 ], [ 365263.156687707058154, 2732774.928011020179838 ] ] ], [ [ [ 359833.424379010975827, 2739333.570963580161333 ], [ 359241.932657639263198, 2737480.930858010426164 ], [ 361384.036649482732173, 2737459.308845392894 ], [ 361088.489485261496156, 2736532.992720529437065 ], [ 357875.244896441872697, 2736565.607106530573219 ], [ 357579.709032640792429, 2735639.375819098204374 ], [ 356508.593209236976691, 2735650.432028274983168 ], [ 356804.157044221297838, 2736576.644412073772401 ], [ 354661.971712175756693, 2736598.967797487974167 ], [ 354957.686731619643979, 2737525.170278307050467 ], [ 353886.61720580549445, 2737536.437516133766621 ], [ 354182.455452894093469, 2738462.648973152972758 ], [ 356324.535249707405455, 2738440.23521637590602 ], [ 356620.41269016492879, 2739366.512328052893281 ], [ 357691.419757383293472, 2739355.448867521714419 ], [ 357395.570320726721548, 2738429.152809355407953 ], [ 358466.602205399831291, 2738418.153381228912622 ], [ 358762.42364569043275, 2739344.468413196038455 ], [ 359833.424379010975827, 2739333.570963580161333 ] ] ], [ [ [ 353407.372175771160983, 2739400.200762026943266 ], [ 353999.580854198662564, 2741252.725184113252908 ], [ 356141.498958504467737, 2741230.258871713653207 ], [ 355845.403084284393117, 2740303.944878150708973 ], [ 356916.385334705468267, 2740292.817352489568293 ], [ 356620.41269016492879, 2739366.512328052893281 ], [ 353407.372175771160983, 2739400.200762026943266 ] ] ], [ [ [ 351675.95905651547946, 2744065.873369087465107 ], [ 351379.437188903859351, 2743139.570277995895594 ], [ 352450.351553952554241, 2743128.084112950135022 ], [ 352153.953013153281063, 2742201.790007193572819 ], [ 353224.892160260933451, 2742190.368063132278621 ], [ 352632.436921434069518, 2740337.825680515728891 ], [ 351561.441650216467679, 2740349.285361563786864 ], [ 350969.311261718394235, 2738496.891988169401884 ], [ 349898.256569999619387, 2738508.472300683613867 ], [ 350194.302189782843925, 2739434.636306845583022 ], [ 349123.27220021415269, 2739446.280853693373501 ], [ 349419.441138854017481, 2740372.453853409271687 ], [ 348348.435850866371766, 2740384.162667364813387 ], [ 348941.115675874170847, 2742236.554429593961686 ], [ 347870.163185103272554, 2742248.30877239909023 ], [ 348463.280283286469057, 2744100.774092104751617 ], [ 347392.380629361374304, 2744112.573980803135782 ], [ 347985.93506335397251, 2745965.11290375282988 ], [ 349056.778451195335947, 2745953.350666616577655 ], [ 348759.981734743108973, 2745027.04846133152023 ], [ 349830.849886631360278, 2745015.350572218187153 ], [ 349534.176556523772888, 2744089.057361648418009 ], [ 351675.95905651547946, 2744065.873369087465107 ] ] ], [ [ [ 343225.884044283535331, 2747877.634692566469312 ], [ 342928.727768395794556, 2746951.389645448885858 ], [ 341857.891875652130693, 2746963.632496311329305 ], [ 341560.802719462953974, 2746037.433886447455734 ], [ 339419.063930027536117, 2746062.206657267641276 ], [ 339716.209490347886458, 2746988.367954388726503 ], [ 338645.362950036302209, 2747000.860564973205328 ], [ 338942.632067730068229, 2747927.030892713926733 ], [ 340013.450386262091342, 2747914.556921067647636 ], [ 340905.745063222711906, 2750693.290061729494482 ], [ 341976.475123282463755, 2750680.955511823762208 ], [ 341678.976474564871751, 2749754.664665811695158 ], [ 342749.7312474520877, 2749742.394714281894267 ], [ 342155.076350670191459, 2747889.858822676353157 ], [ 343225.884044283535331, 2747877.634692566469312 ] ] ], [ [ [ 347475.44971645710757, 2771078.33925275458023 ], [ 347175.826224206248298, 2770151.451252681203187 ], [ 346105.687744075316004, 2770163.470823295414448 ], [ 346405.339667806634679, 2771090.339594489429146 ], [ 347475.44971645710757, 2771078.33925275458023 ] ] ], [ [ [ 348845.246720107970759, 2771993.358410131651908 ], [ 348545.556388209224679, 2771066.42287521250546 ], [ 347475.44971645710757, 2771078.33925275458023 ], [ 347775.168480702792294, 2772005.255507778376341 ], [ 348845.246720107970759, 2771993.358410131651908 ] ] ], [ [ [ 350514.931183737004176, 2773835.539984789211303 ], [ 349444.913164851721376, 2773847.314406969584525 ], [ 349744.889272770611569, 2774774.334914410021156 ], [ 350814.878841637982987, 2774762.579870660789311 ], [ 350514.931183737004176, 2773835.539984789211303 ] ] ], [ [ [ 357275.243013571482152, 2797959.127281995490193 ], [ 356205.964291445154231, 2797970.474869383964688 ], [ 356508.444868999649771, 2798898.220469243358821 ], [ 357577.694914998952299, 2798886.892854130361229 ], [ 357275.243013571482152, 2797959.127281995490193 ] ] ] ] } }
]
}
