{
"type": "FeatureCollection",
"name": "urban-2070",
"crs": { "type": "name", "properties": { "name": "urn:ogc:def:crs:EPSG::32642" } },
"features": [
{ "type": "Feature", "properties": { "year": 2070 }, "geometry": { "type": "MultiPolygon", "coordinates": [ [ [ [ 283506.370798361429479, 2756126.93697384186089 ], [ 283206.800016249588225, 2755201.520903820637614 ], [ 282135.949602854903787, 2755218.457669675350189 ], [ 282435.549099687545095, 2756143.856408692430705 ], [ 283506.370798361429479, 2756126.93697384186089 ] ] ], [ [ [ 269285.359775895893108, 2755428.219143331050873 ], [ 268214.444495263276622, 2755446.242695332039148 ], [ 267914.566874719806947, 2754521.093017205130309 ], [ 266843.617619324941188, 2754539.217112965881824 ], [ 266543.807083863241132, 2753614.110543064773083 ], [ 265472.823822124104481, 2753632.335107383318245 ], [ 266372.629614377627149, 2756407.68267705431208 ], [ 265301.727634981158189, 2756425.940186619292945 ], [ 265902.135410919669084, 2758276.268999804742634 ], [ 266972.979680242831819, 2758258.045355306006968 ], [ 267273.298567248042673, 2759183.266049274709076 ], [ 268344.108796942338813, 2759165.143101705703884 ], [ 268043.818769417703152, 2758239.905412829481065 ], [ 270185.481502564856783, 2758203.876624071970582 ], [ 269285.359775895893108, 2755428.219143331050873 ] ] ], [ [ [ 265131.662567725172266, 2759219.763134233187884 ], [ 266202.483165444806218, 2759201.472725957166404 ], [ 265902.135410919669084, 2758276.268999804742634 ], [ 264831.285937633831054, 2758294.576348808594048 ], [ 265131.662567725172266, 2759219.763134233187884 ] ] ], [ [ [ 276440.101552868145518, 2760891.420885645318776 ], [ 276740.477279941376764, 2761816.857725105248392 ], [ 275669.789048677426763, 2761834.34294222574681 ], [ 275970.289438104024157, 2762759.78902249224484 ], [ 277040.948832646827213, 2762742.321084207389504 ], [ 277341.51620856433874, 2763667.810984892770648 ], [ 281623.989226480363868, 2763598.846870362758636 ], [ 281323.537151046330109, 2762673.287488837260753 ], [ 279182.252796250686515, 2762707.636659685987979 ], [ 278581.520798824261874, 2760856.66723022563383 ], [ 276440.101552868145518, 2760891.420885645318776 ] ] ], [ [ [ 284235.157414066488855, 2761696.8072220236063 ], [ 283164.503387511358596, 2761713.705951339099556 ], [ 283464.802087230375037, 2762639.273552955128253 ], [ 284535.427332780207507, 2762622.392292329575866 ], [ 284235.157414066488855, 2761696.8072220236063 ] ] ], [ [ [ 277341.51620856433874, 2763667.810984892770648 ], [ 276270.885659071791451, 2763685.261620761360973 ], [ 276571.577709162374958, 2764610.760758976917714 ], [ 277642.179405270901043, 2764593.327449114527553 ], [ 277341.51620856433874, 2763667.810984892770648 ] ] ], [ [ [ 279013.506328926247079, 2765501.538438063580543 ], [ 278712.776167584699579, 2764575.978011619765311 ], [ 277642.179405270901043, 2764593.327449114527553 ], [ 277942.938420348451473, 2765518.870498838368803 ], [ 279013.506328926247079, 2765501.538438063580543 ] ] ], [ [ [ 277775.304152302327566, 2768313.023150720167905 ], [ 278076.475311665330082, 2769238.655318366363645 ], [ 279146.932615885918494, 2769221.308992700185627 ], [ 278845.790351565927267, 2768295.659380958881229 ], [ 277775.304152302327566, 2768313.023150720167905 ] ] ], [ [ [ 280518.59420135745313, 2770129.740477176848799 ], [ 280217.385026189207565, 2769204.046674991492182 ], [ 279146.932615885918494, 2769221.308992700185627 ], [ 279448.170686456491239, 2770146.985300023574382 ], [ 280518.59420135745313, 2770129.740477176848799 ] ] ], [ [ [ 269950.731600779108703, 2774026.332280929200351 ], [ 271021.089057466131635, 2774008.316131567116827 ], [ 269814.136338516138494, 2770305.970569448079914 ], [ 270884.604680825956166, 2770287.969345066696405 ], [ 270583.135159417171963, 2769362.432020544540137 ], [ 269512.637849695864134, 2769380.450495803263038 ], [ 268909.928518122294918, 2767529.489774898160249 ], [ 267839.368175016948953, 2767547.626656416337937 ], [ 269045.286248165532015, 2771249.585181508213282 ], [ 267974.836675096070394, 2771267.737301432527602 ], [ 268880.36905310745351, 2774044.432597843930125 ], [ 267810.001390758669004, 2774062.617084773723036 ], [ 268414.227150168153457, 2775913.845373289193958 ], [ 267343.9124402012676, 2775932.079487312585115 ], [ 267646.19821280502947, 2776857.716161006595939 ], [ 268716.483864906127565, 2776839.499355236534029 ], [ 269926.469567398657091, 2780542.381382420193404 ], [ 270996.63382276071934, 2780524.31840908061713 ], [ 271602.143754877673928, 2782375.954323515761644 ], [ 272672.24477671761997, 2782358.010695901699364 ], [ 270554.841226975782774, 2775877.629822794813663 ], [ 269484.536737865884788, 2775895.695485939271748 ], [ 269182.404953829129227, 2774970.050758159253746 ], [ 270252.738476383499801, 2774951.967756279744208 ], [ 269950.731600779108703, 2774026.332280929200351 ] ] ], [ [ [ 278953.105978552717716, 2778531.041607017163187 ], [ 281093.456306680454873, 2778496.447595094330609 ], [ 280791.327110784477554, 2777570.547713852487504 ], [ 281861.52398458722746, 2777553.359450338408351 ], [ 281559.519551461213268, 2776627.468782797455788 ], [ 278348.827434740727767, 2776679.339229329489172 ], [ 278953.105978552717716, 2778531.041607017163187 ] ] ], [ [ [ 290258.748347400454804, 2780213.6080726319924 ], [ 288118.590046940254979, 2780246.782119208015501 ], [ 289025.605218202457763, 2783025.126092958264053 ], [ 291165.58975794329308, 2782992.05976098170504 ], [ 290258.748347400454804, 2780213.6080726319924 ] ] ], [ [ [ 299889.234106040734332, 2780068.498321304097772 ], [ 298819.198128231568262, 2780084.284407185856253 ], [ 299121.151584738865495, 2781010.552327754441649 ], [ 296981.124051712104119, 2781042.341109547298402 ], [ 297585.433515304233879, 2782894.886267766356468 ], [ 299725.345443659694865, 2782863.170212252531201 ], [ 299423.2006906971219, 2781936.847588639706373 ], [ 301563.152717860415578, 2781905.43256307952106 ], [ 301261.161374461837113, 2780979.100854174233973 ], [ 300191.158685697126202, 2780994.784428510814905 ], [ 299889.234106040734332, 2780068.498321304097772 ] ] ], [ [ [ 277861.146399496356025, 2785064.998885313980281 ], [ 277255.352256651269272, 2783213.026252783834934 ], [ 275115.243274974811357, 2783248.287402529269457 ], [ 275721.153755786013789, 2785100.189398100599647 ], [ 277861.146399496356025, 2785064.998885313980281 ] ] ], [ [ [ 315006.080952418327797, 2783577.215692210476846 ], [ 312866.346428128133994, 2783606.532224690075964 ], [ 313168.33606084366329, 2784533.130817201454192 ], [ 315308.012959737505298, 2784503.851528130006045 ], [ 315006.080952418327797, 2783577.215692210476846 ] ] ], [ [ [ 265301.093255350715481, 2805765.70856078248471 ], [ 267439.959715017001145, 2805728.584416877944022 ], [ 266829.01242209848715, 2803875.992876393254846 ], [ 265759.522968709934503, 2803894.547917902935296 ], [ 266064.97805513383355, 2804820.812426739837974 ], [ 264995.512858926202171, 2804839.434809132944793 ], [ 265301.093255350715481, 2805765.70856078248471 ] ] ], [ [ [ 266981.918735690182075, 2807599.767999547533691 ], [ 265912.541778915852774, 2807618.33706006128341 ], [ 265301.093255350715481, 2805765.70856078248471 ], [ 264231.65231739054434, 2805784.39831674983725 ], [ 264537.358046120498329, 2806710.681312704924494 ], [ 263467.941367495805025, 2806729.438474934082478 ], [ 263773.77245084347669, 2807655.730716676451266 ], [ 262704.380032661720179, 2807674.555317849386483 ], [ 263928.781436021730769, 2811379.923282289411873 ], [ 262859.501716107479297, 2811398.762069743126631 ], [ 263165.871371919638477, 2812325.15382939716801 ], [ 267442.841402564314194, 2812250.38183327531442 ], [ 267136.589680252480321, 2811323.918671507388353 ], [ 268205.84886787016876, 2811305.421043339651078 ], [ 267899.722496674512513, 2810378.967113478109241 ], [ 268969.006056442274712, 2810360.536847575102001 ], [ 268663.005014068679884, 2809434.092148134484887 ], [ 267593.692015942826401, 2809452.540311234537512 ], [ 266981.918735690182075, 2807599.767999547533691 ] ] ], [ [ [ 269275.102980950381607, 2811287.008698696270585 ], [ 268205.84886787016876, 2811305.421043339651078 ], [ 268512.071127074304968, 2812231.90212334971875 ], [ 269581.295785137801431, 2812213.507724037859589 ], [ 269275.102980950381607, 2811287.008698696270585 ] ] ], [ [ [ 340554.908941632078495, 2739542.426033553201705 ], [ 339483.847757620271295, 2739554.817806252278388 ], [ 339780.269613930257037, 2740480.823024785146117 ], [ 340851.30266586644575, 2740468.449785333126783 ], [ 340554.908941632078495, 2739542.426033553201705 ] ] ], [ [ [ 315442.639950022683479, 2741713.949329614173621 ], [ 315145.473429711651988, 2740788.335832771845162 ], [ 314074.347899240674451, 2740802.703019822947681 ], [ 314371.542743103229441, 2741728.298613725230098 ], [ 315442.639950022683479, 2741713.949329614173621 ] ] ], [ [ [ 317287.712129338178784, 2740759.850764510687441 ], [ 316216.594831768597942, 2740774.051748317666352 ], [ 316513.73303623625543, 2741699.683175307698548 ], [ 317584.822025663743261, 2741685.500148859340698 ], [ 317287.712129338178784, 2740759.850764510687441 ] ] ], [ [ [ 329069.738349275372457, 2740609.124039622489363 ], [ 327998.664621959498618, 2740622.411041628103703 ], [ 328295.491858921712264, 2741548.241496697999537 ], [ 329366.537362355273217, 2741534.972751536406577 ], [ 329069.738349275372457, 2740609.124039622489363 ] ] ], [ [ [ 317584.822025663743261, 2741685.500148859340698 ], [ 317882.027431183261797, 2742611.176624499261379 ], [ 318953.084038933971897, 2742597.094731943216175 ], [ 318655.906942224770319, 2741671.400248335674405 ], [ 317584.822025663743261, 2741685.500148859340698 ] ] ], [ [ [ 321392.401138399145566, 2743494.938163325656205 ], [ 321095.185154569917358, 2742569.180398576427251 ], [ 318953.084038933971897, 2742597.094731943216175 ], [ 319250.356634055147879, 2743522.816352289635688 ], [ 321392.401138399145566, 2743494.938163325656205 ] ] ], [ [ [ 348103.453048654599115, 2749682.29492433462292 ], [ 347032.71555066696601, 2749694.148225441109389 ], [ 347330.073115597944707, 2750620.533164009451866 ], [ 348400.78241939417785, 2750608.698763266205788 ], [ 348103.453048654599115, 2749682.29492433462292 ] ] ], [ [ [ 345308.646463292883709, 2754362.128620913252234 ], [ 344238.036398375639692, 2754374.221047698985785 ], [ 343642.428422948345542, 2752521.406984427943826 ], [ 342571.758370688767172, 2752533.620573558378965 ], [ 343465.398080140119419, 2755312.826926538720727 ], [ 344535.983336297736969, 2755300.669911583419889 ], [ 345132.163100344012491, 2757153.651416170410812 ], [ 348343.728591643914115, 2757117.795176179613918 ], [ 347449.856293417746201, 2754338.194170088972896 ], [ 346379.253087034216151, 2754350.119662254583091 ], [ 346081.457956568221562, 2753423.66089606564492 ], [ 345010.823082526563667, 2753435.688767340965569 ], [ 345308.646463292883709, 2754362.128620913252234 ] ] ], [ [ [ 299587.405169921345077, 2779142.239555792417377 ], [ 299285.671879785950296, 2778216.008109582588077 ], [ 300355.761150492704473, 2778200.269965141545981 ], [ 300657.465588334016502, 2779126.519577616360039 ], [ 301727.521602498949505, 2779110.883867870550603 ], [ 301425.846009106840938, 2778184.616061959415674 ], [ 302495.926479281624779, 2778169.046397909522057 ], [ 301892.919838249450549, 2776316.556427077390254 ], [ 304033.182957229320891, 2776285.596904946956784 ], [ 303430.674011676688679, 2774433.143514834344387 ], [ 301290.2957102052751, 2774464.175750012975186 ], [ 300989.127094655414112, 2773538.026340757496655 ], [ 305269.98140364617575, 2773476.225687373429537 ], [ 306173.4287437411258, 2776254.974096646066755 ], [ 305103.308005210419651, 2776270.243412612937391 ], [ 305706.141795699426439, 2778122.842819441109896 ], [ 306776.204948646714911, 2778107.610090868081897 ], [ 306474.769050004077144, 2777181.278373349457979 ], [ 307544.856721943011507, 2777166.111540681216866 ], [ 307243.545196487801149, 2776239.788954970892519 ], [ 308313.657387116923928, 2776224.687985523603857 ], [ 308614.940139562240802, 2777151.02890742989257 ], [ 311825.165103091392666, 2777106.286183728370816 ], [ 312126.457133798161522, 2778032.709836970083416 ], [ 313196.495020475238562, 2778017.982449731789529 ], [ 313497.853840686380863, 2778944.452177538536489 ], [ 312427.844712627003901, 2778959.161072275135666 ], [ 312729.327837133896537, 2779885.639912137296051 ], [ 313799.308198210783303, 2779870.949533678591251 ], [ 314100.858090596040711, 2780797.474540672264993 ], [ 315170.805571339093149, 2780782.887000374961644 ], [ 315472.422220180509612, 2781709.458271825686097 ], [ 316542.336851364583708, 2781694.97364591807127 ], [ 316844.020245222374797, 2782621.591279196552932 ], [ 317913.902057594445068, 2782607.209643939044327 ], [ 318215.652185022016056, 2783533.873736472334713 ], [ 320355.34624631353654, 2783505.400971739087254 ], [ 320657.134325733233709, 2784432.130392378661782 ], [ 321726.94663668028079, 2784418.039364520926028 ], [ 321123.523477450245991, 2782564.570810103323311 ], [ 323263.251312460168265, 2782536.566628212109208 ], [ 322660.324981918674894, 2780683.134399965405464 ], [ 323730.240473468671553, 2780669.221174054313451 ], [ 323127.753407871350646, 2778815.862854740582407 ], [ 324197.722394876356702, 2778801.996308816596866 ], [ 324498.889508215244859, 2779728.680324436165392 ], [ 326638.758497334900312, 2779701.237562290392816 ], [ 326036.634420173824765, 2777847.822127581574023 ], [ 329246.581173404760193, 2777807.176525530871004 ], [ 328945.748219225148205, 2776880.454106647521257 ], [ 327875.741138633457012, 2776893.937327451072633 ], [ 327274.304238618758973, 2775040.613969266414642 ], [ 329414.42909127031453, 2775013.656268096528947 ], [ 329113.910996079794131, 2774086.998767707496881 ], [ 330183.996345455700066, 2774073.627214180771261 ], [ 329883.602251597680151, 2773146.97877297597006 ], [ 330953.712422261829488, 2773133.672430887818336 ], [ 330653.442307779565454, 2772207.033046504016966 ], [ 331723.577299744996708, 2772193.791883283294737 ], [ 331123.380383450421505, 2770340.559122549369931 ], [ 332193.568734414584469, 2770327.364258513320237 ], [ 331893.64190472534392, 2769400.770880911964923 ], [ 332963.855061064357869, 2769387.641127043403685 ], [ 333263.753369104349986, 2770314.253355299588293 ], [ 334333.934311222285032, 2770301.226411124225706 ], [ 334633.899480358348228, 2771227.885464996099472 ], [ 335704.048238816787489, 2771214.961406959220767 ], [ 336904.748474521678872, 2774921.953504353761673 ], [ 337974.779482828511391, 2774909.189490876626223 ], [ 337374.295719289162662, 2773055.599285262171179 ], [ 340584.538466208148748, 2773017.697216110769659 ], [ 340284.525135998323094, 2772090.887044822797179 ], [ 339214.419278367073275, 2772103.456120574381202 ], [ 338614.621628068503924, 2770249.958189554512501 ], [ 337544.455219194060192, 2770262.649315174669027 ], [ 337244.670921589247882, 2769335.961411736439914 ], [ 339385.05712489906, 2769310.625109625514597 ], [ 338187.10115396254696, 2765604.001701362431049 ], [ 339257.402696714736521, 2765591.383504095021635 ], [ 338659.053618780570105, 2763738.201787375379354 ], [ 337588.695231421035714, 2763750.857807154301554 ], [ 337887.850518740422558, 2764677.4157888982445 ], [ 335747.179768931120634, 2764702.941386250779033 ], [ 336345.890153120213654, 2766556.065588390920311 ], [ 335275.606232009129599, 2766568.916362623218447 ], [ 334676.838940882589668, 2764715.829866726882756 ], [ 333606.494445740943775, 2764728.80213740374893 ], [ 333307.225410031096544, 2763802.319480758626014 ], [ 332236.848767934017815, 2763815.394306534901261 ], [ 331638.539963499642909, 2761962.549867016263306 ], [ 332708.973492696532048, 2761949.437585877254605 ], [ 332409.990615961025469, 2761023.038302704226226 ], [ 333480.448854835820384, 2761009.991012270562351 ], [ 333181.589784296462312, 2760083.600779449101537 ], [ 334252.072733009816147, 2760070.618447049055248 ], [ 334849.829433798673563, 2761923.464152446016669 ], [ 335920.251893236010801, 2761910.602996618952602 ], [ 335322.552000359981321, 2760057.719766808208078 ], [ 336393.027610124147031, 2760044.904736970551312 ], [ 336990.67071028391365, 2761897.825545713771135 ], [ 339131.497512281290255, 2761872.521751722786576 ], [ 337936.819765217602253, 2758166.640953054651618 ], [ 334725.23358153749723, 2758204.947715470101684 ], [ 335023.845105470216367, 2759131.319855053443462 ], [ 333953.337446735065896, 2759144.237262095790356 ], [ 333654.697539798507933, 2758217.883825722150505 ], [ 332584.157801480730996, 2758230.90353362262249 ], [ 331987.107379284920171, 2756378.317098134197295 ], [ 329845.903159846435301, 2756404.681712847203016 ], [ 329249.120826900238171, 2754552.280119001399726 ], [ 331390.438537220819853, 2754525.841293901670724 ], [ 331688.725259517785162, 2755452.065378292929381 ], [ 334900.588704769616015, 2755413.089141219854355 ], [ 334602.3870309490012, 2754486.809229992330074 ], [ 335673.029138343408704, 2754473.965514587704092 ], [ 335971.202477875747718, 2755400.264089270494878 ], [ 337041.812603016209323, 2755387.52254793792963 ], [ 336743.667590180120897, 2754461.205282540991902 ], [ 337814.302410280914046, 2754448.52853211434558 ], [ 337516.28106619004393, 2753522.220303100068122 ], [ 338586.940581529750489, 2753509.608310872223228 ], [ 337991.240533161442727, 2751657.037653595674783 ], [ 343344.767390323628206, 2751595.041740161832422 ], [ 343047.20166434510611, 2750668.704324246384203 ], [ 345188.644284879032057, 2750644.452029411215335 ], [ 344891.230309019680135, 2749718.104809708893299 ], [ 347032.71555066696601, 2749694.148225441109389 ], [ 346141.214533479127567, 2746915.160585575737059 ], [ 342928.727768395794556, 2746951.389645448885858 ], [ 342334.701150387292728, 2745098.982748800888658 ], [ 343405.589899722952396, 2745086.785722177475691 ], [ 343108.747728911112063, 2744160.605150358751416 ], [ 344179.66114452551119, 2744148.472612493205816 ], [ 343882.942433599790093, 2743222.301055667456239 ], [ 341741.055793625419028, 2743246.686633463017642 ], [ 342037.830813133972697, 2744172.820854621939361 ], [ 340966.910373302875087, 2744185.119726947508752 ], [ 339780.269613930257037, 2740480.823024785146117 ], [ 338709.232983849477023, 2740493.279324897099286 ], [ 339005.778324005194008, 2741419.29357461258769 ], [ 335792.731215047941078, 2741457.105431389529258 ], [ 335496.101385508896783, 2740531.146606238093227 ], [ 332282.936722632264718, 2740569.761495349463075 ], [ 331986.31772998906672, 2739643.885246199090034 ], [ 329844.13287361280527, 2739670.080469736363739 ], [ 330437.579056026181206, 2741521.787111772689968 ], [ 329366.537362355273217, 2741534.972751536406577 ], [ 329960.42163759667892, 2743386.752243620809168 ], [ 328889.432607038121205, 2743399.984404869377613 ], [ 329186.546113346237689, 2744325.896902261767536 ], [ 323831.684565448667854, 2744393.21394342975691 ], [ 324129.034891325514764, 2745319.062488549854606 ], [ 319845.188309859950095, 2745374.341091473586857 ], [ 319250.356634055147879, 2743522.816352289635688 ], [ 317108.295995413092896, 2743551.027255002874881 ], [ 316513.73303623625543, 2741699.683175307698548 ], [ 315442.639950022683479, 2741713.949329614173621 ], [ 315739.901996246364433, 2742639.589870956260711 ], [ 313597.76010931644123, 2742668.335745473392308 ], [ 313300.441391558037139, 2741742.731029597111046 ], [ 311158.226158909732476, 2741771.84526450606063 ], [ 310860.946298074442893, 2740846.303216205909848 ], [ 308718.657483230635989, 2740875.785563001874834 ], [ 308421.416484214074444, 2739950.305957971140742 ], [ 311634.928396634524688, 2739906.153792268130928 ], [ 311337.867991733714007, 2738980.647805352695286 ], [ 309195.47429685224779, 2739010.035019801929593 ], [ 308898.452799139893614, 2738084.591416550800204 ], [ 307827.221231228904799, 2738099.427306777331978 ], [ 308124.271066074841656, 2739024.853213202208281 ], [ 307053.063547819561791, 2739039.754466744139791 ], [ 306755.985368085443042, 2738114.346229955554008 ], [ 304613.500660311023239, 2738144.433183321263641 ], [ 304910.635553102940321, 2739069.806162395980209 ], [ 303839.415028759045526, 2739084.956608605571091 ], [ 304136.673906431125943, 2740010.338744500186294 ], [ 303065.477383153454866, 2740025.55467478884384 ], [ 303362.860267772804946, 2740950.945969835855067 ], [ 302291.687745538074523, 2740966.227417269255966 ], [ 302589.194659176748246, 2741891.627873783465475 ], [ 301518.046137983037625, 2741906.974871424026787 ], [ 301815.677102719782852, 2742832.384491708129644 ], [ 300744.552582577161957, 2742847.797072613611817 ], [ 301042.307620490784757, 2743773.215858954470605 ], [ 297828.992647706530988, 2743819.900096815079451 ], [ 297531.152239705610555, 2742894.533936226274818 ], [ 294317.711220928817056, 2742942.019525920040905 ], [ 294615.637069430609699, 2743867.333305241074413 ], [ 293544.509408319368958, 2743883.310822655446827 ], [ 293842.559449115942698, 2744808.633792879991233 ], [ 291700.347312841098756, 2744840.803735127672553 ], [ 291998.550096296123229, 2745766.118499843869358 ], [ 290927.465605238452554, 2745782.310987114906311 ], [ 291225.792641441919841, 2746707.634950842242688 ], [ 290154.732039349619299, 2746723.893358882982284 ], [ 290453.183350444363896, 2747649.226523777004331 ], [ 288311.105229196604341, 2747681.9585948032327 ], [ 288609.709422073618043, 2748607.283602711278945 ], [ 286467.669616958941333, 2748640.314432461280376 ], [ 286766.426754114567302, 2749565.631320052780211 ], [ 284624.425153954536654, 2749598.961096776183695 ], [ 284923.335297933313996, 2750524.269900656770915 ], [ 281710.382792358170263, 2750574.838434359058738 ], [ 281411.386701811454259, 2749649.581363572739065 ], [ 280340.364175105642062, 2749666.621622150298208 ], [ 280041.435218547179829, 2748741.408141456544399 ], [ 273615.024334067711607, 2748845.504067874047905 ], [ 273914.125395988638047, 2749770.615118094254285 ], [ 271772.005756160244346, 2749805.947080939542502 ], [ 271173.784635546500795, 2747955.819024414289743 ], [ 269031.529742164071649, 2747991.552340838126838 ], [ 269330.649816203047521, 2748916.569502417929471 ], [ 270401.751097742351703, 2748898.678021701052785 ], [ 271299.600383234035689, 2751673.937213261146098 ], [ 273441.615223582601175, 2751638.506256274878979 ], [ 273741.032561444328167, 2752563.679102456197143 ], [ 278024.886985578981694, 2752493.887434625998139 ], [ 277426.377929924579803, 2750643.431412420235574 ], [ 278497.386523018707521, 2750626.157989520113915 ], [ 278796.564444511313923, 2751551.389946220442653 ], [ 279867.539414429222234, 2751534.21713645895943 ], [ 280166.784449195140041, 2752459.492672623600811 ], [ 279095.838176549994387, 2752476.648299597669393 ], [ 279395.20771672250703, 2753401.933071463834494 ], [ 278324.285239311633632, 2753419.155027348548174 ], [ 278623.779307095333934, 2754344.449036908335984 ], [ 280765.561915720929392, 2754310.123092694208026 ], [ 281065.094342654163484, 2755235.478020299226046 ], [ 282135.949602854903787, 2755218.457669675350189 ], [ 281836.445890245726332, 2754293.085461699869484 ], [ 283978.1992989028804, 2754259.260870328173041 ], [ 284876.82552244985709, 2757035.561176712624729 ], [ 285947.60890765232034, 2757018.826367537491024 ], [ 286247.313795291003771, 2757944.3304498847574 ], [ 285176.559125631058123, 2757961.047826747409999 ], [ 285476.388489113480318, 2758886.561120635829866 ], [ 286547.114434895920567, 2758869.8611996229738 ], [ 287447.0908412913559, 2761646.613672988023609 ], [ 286376.451117175922263, 2761663.261085131205618 ], [ 286976.971626347745769, 2763514.528017133940011 ], [ 285906.384697174478788, 2763531.224129883572459 ], [ 285606.047795001417398, 2762605.594833513721824 ], [ 284535.427332780207507, 2762622.392292329575866 ], [ 285737.464632121264003, 2766324.999860396143049 ], [ 283596.439780455781147, 2766358.706072877626866 ], [ 283295.729180150141474, 2765433.049142798874527 ], [ 281154.627463647339027, 2765467.126005542930216 ], [ 280853.954985874355771, 2764541.530744299758226 ], [ 279783.368019866407849, 2764558.7124441312626 ], [ 280384.866450296249241, 2766409.894759404007345 ], [ 282525.920167837408371, 2766375.685050368309021 ], [ 282826.755378562258556, 2767301.351195591967553 ], [ 279615.254072025010828, 2767352.739206254016608 ], [ 280217.385026189207565, 2769204.046674991492182 ], [ 281287.832566304015927, 2769186.868362890556455 ], [ 281589.012854034779593, 2770112.579687060322613 ], [ 280518.59420135745313, 2770129.740477176848799 ], [ 281121.299935725692194, 2771981.208327542059124 ], [ 282191.660788525070529, 2771964.082652378827333 ], [ 282493.128430426237173, 2772889.874337739311159 ], [ 281422.796490071807057, 2772906.982419912703335 ], [ 281724.388832619646564, 2773832.78331989608705 ], [ 279583.768278673407622, 2773867.216676908079535 ], [ 279282.118070671800524, 2772941.450928905047476 ], [ 278211.771544229297433, 2772958.81136041181162 ], [ 278815.225660384574439, 2774810.334544459357858 ], [ 280955.798048072785605, 2774775.768043103162199 ], [ 281559.519551461213268, 2776627.468782797455788 ], [ 283699.956772370787803, 2776593.309613701887429 ], [ 282794.691852194431704, 2773815.692854397930205 ], [ 283864.990065090707503, 2773798.686527803074569 ], [ 284468.346387831144966, 2775650.439502329565585 ], [ 287679.038966690073721, 2775600.031734624877572 ], [ 287980.77400975371711, 2776526.001900631934404 ], [ 289050.966539583867416, 2776509.385505902115256 ], [ 288749.260402617743239, 2775583.397516421042383 ], [ 289819.477166158496402, 2775566.847479953896254 ], [ 290422.927363816881552, 2777418.8862224961631 ], [ 292563.231406484381296, 2777386.11029859026894 ], [ 293166.948846025275998, 2779238.329182349145412 ], [ 294237.036186507320963, 2779222.103548319078982 ], [ 294539.009543765918352, 2780148.271771165076643 ], [ 296679.112817924120463, 2780116.109480754472315 ], [ 296075.377358575526159, 2778263.728011910337955 ], [ 295005.270202961633913, 2778279.803142895456403 ], [ 294703.517106889397837, 2777353.67129198461771 ], [ 295773.653137897141278, 2777337.578127149958163 ], [ 295472.024593137728516, 2776411.455445718485862 ], [ 296542.184968734683935, 2776395.428466342389584 ], [ 297749.157706739322748, 2780100.154792950488627 ], [ 298819.198128231568262, 2780084.284407185856253 ], [ 298517.340323614364024, 2779158.04380453703925 ], [ 299587.405169921345077, 2779142.239555792417377 ] ], [ [ 322057.780513156612869, 2778829.813626878429204 ], [ 321756.651483078137971, 2777903.194979494437575 ], [ 322826.65306681394577, 2777889.225469923578203 ], [ 323127.753407871350646, 2778815.862854740582407 ], [ 322057.780513156612869, 2778829.813626878429204 ] ], [ [ 333905.858862886438146, 2765655.312630172818899 ], [ 332835.539141409681179, 2765668.349906036164612 ], [ 332536.146259764500428, 2764741.858200048096478 ], [ 333606.494445740943775, 2764728.80213740374893 ], [ 333905.858862886438146, 2765655.312630172818899 ] ], [ [ 333434.611064361932222, 2767521.41684545064345 ], [ 332364.344605309306644, 2767534.500352273695171 ], [ 332664.052138983621262, 2768461.056800218299031 ], [ 331593.810469374642707, 2768474.205381047911942 ], [ 330994.433791483752429, 2766621.157924375496805 ], [ 332064.732462489511818, 2766607.971760672517121 ], [ 331765.215712973265909, 2765681.471002894453704 ], [ 332835.539141409681179, 2765668.349906036164612 ], [ 333434.611064361932222, 2767521.41684545064345 ] ], [ [ 330568.102696850837674, 2761975.745860146358609 ], [ 330269.062950526364148, 2761049.383934223093092 ], [ 329198.593476418871433, 2761062.682278894819319 ], [ 328600.743342759495135, 2759210.078706424683332 ], [ 329671.26968421851052, 2759196.743157052900642 ], [ 329970.118612169229891, 2760123.049707328900695 ], [ 331040.612747654959094, 2760109.816407804843038 ], [ 331638.539963499642909, 2761962.549867016263306 ], [ 330568.102696850837674, 2761975.745860146358609 ] ], [ [ 327530.21319339441834, 2759223.497889662627131 ], [ 327231.402828424004838, 2758297.256100299302489 ], [ 328301.96140654431656, 2758283.818377337884158 ], [ 328600.743342759495135, 2759210.078706424683332 ], [ 327530.21319339441834, 2759223.497889662627131 ] ], [ [ 294401.859695084567647, 2776427.566620659548789 ], [ 294100.297969984123483, 2775501.489106613211334 ], [ 295170.49172673386056, 2775485.359945300966501 ], [ 295472.024593137728516, 2776411.455445718485862 ], [ 294401.859695084567647, 2776427.566620659548789 ] ], [ [ 317310.688312396465335, 2780753.964806153438985 ], [ 318380.623619968362618, 2780739.630148300435394 ], [ 318682.153987416531891, 2781666.257356214802712 ], [ 317612.247432568925433, 2781680.573341366834939 ], [ 317310.688312396465335, 2780753.964806153438985 ] ], [ [ 319616.636474784230813, 2777931.386603196151555 ], [ 320686.645960284571629, 2777917.248689948581159 ], [ 320987.803687089006416, 2778843.848627124913037 ], [ 319917.822906025336124, 2778857.967857387382537 ], [ 319616.636474784230813, 2777931.386603196151555 ] ], [ [ 323763.427068633376621, 2774155.117727626115084 ], [ 324833.531557122827508, 2774141.325770516414195 ], [ 325134.164105344330892, 2775067.908102222718298 ], [ 324064.08824929909315, 2775081.681335250847042 ], [ 324364.844885000959039, 2776008.272742451168597 ], [ 323294.793786294525489, 2776022.111368409823626 ], [ 322994.008502086042427, 2775095.538681805599481 ], [ 321923.924840037128888, 2775109.480143770109862 ], [ 322525.648190187755972, 2776962.615904869977385 ], [ 320385.583714658627287, 2776990.676524990238249 ], [ 319783.745676743215881, 2775137.615421519149095 ], [ 320853.837239480286371, 2775123.505723039153963 ], [ 320252.43847378261853, 2773270.518231350462884 ], [ 323462.861345456680283, 2773228.58189702546224 ], [ 323763.427068633376621, 2774155.117727626115084 ] ], [ [ 312761.311451959656551, 2773371.312035670969635 ], [ 314901.653819893486798, 2773342.093443157617003 ], [ 315804.325370158534497, 2776121.337850763462484 ], [ 313664.155236804974265, 2776150.445650248322636 ], [ 312761.311451959656551, 2773371.312035670969635 ] ], [ [ 297009.486164380447008, 2774527.249777242075652 ], [ 298079.695227900170721, 2774511.355070487130433 ], [ 298381.045909692591522, 2775437.477463087998331 ], [ 297310.865672913671006, 2775453.354125714395195 ], [ 297009.486164380447008, 2774527.249777242075652 ] ], [ [ 291356.944958432926796, 2773681.997938070446253 ], [ 292427.20557077426929, 2773665.664640393573791 ], [ 292728.604765037423931, 2774591.669994958210737 ], [ 291658.373010474024341, 2774607.98540801089257 ], [ 291356.944958432926796, 2773681.997938070446253 ] ], [ [ 296875.249106943723746, 2770807.137352998368442 ], [ 297477.280841306434013, 2772659.191885730717331 ], [ 295336.742950834683143, 2772691.137416037265211 ], [ 295035.621639658696949, 2771765.132498153019696 ], [ 293965.317093439167365, 2771781.249308020342141 ], [ 294266.467222043662332, 2772707.236307217739522 ], [ 293196.186939286650158, 2772723.419285332784057 ], [ 292895.007985375414137, 2771797.450177665334195 ], [ 291824.694291764288209, 2771813.735109292902052 ], [ 291523.582211887813173, 2770887.810888306703418 ], [ 293664.262655373895541, 2770855.289378497749567 ], [ 293363.303910280228592, 2769929.356496429536492 ], [ 294433.666066316072829, 2769913.203920240048319 ], [ 294132.83180901495507, 2768987.280215764418244 ], [ 296273.600044295424595, 2768955.19129422865808 ], [ 296574.376740437641274, 2769881.150775487534702 ], [ 297644.725305957836099, 2769865.250202565453947 ], [ 297945.56889533076901, 2770791.254732878878713 ], [ 296875.249106943723746, 2770807.137352998368442 ] ], [ [ 290921.645183551299851, 2769036.043424458242953 ], [ 290320.09101331513375, 2767184.383783617988229 ], [ 292461.001857149065472, 2767151.719912979286164 ], [ 292761.673508736537769, 2768077.571785851381719 ], [ 293832.09324120398378, 2768061.383538007270545 ], [ 294132.83180901495507, 2768987.280215764418244 ], [ 290921.645183551299851, 2769036.043424458242953 ] ], [ [ 325472.283934791688807, 2769481.312072408851236 ], [ 324402.044213179964572, 2769495.029399410821497 ], [ 323802.077183993067592, 2767642.188140849582851 ], [ 325942.666996292071417, 2767614.762879192363471 ], [ 325642.883759779972024, 2766688.346556519158185 ], [ 322431.907545050082263, 2766729.666052721440792 ], [ 322132.134126946912147, 2765803.333117668516934 ], [ 323202.491986273380462, 2765789.457550162449479 ], [ 322902.842580322700087, 2764863.133699177298695 ], [ 323973.225052383379079, 2764849.323427532799542 ], [ 324272.845924988738261, 2765775.665820127818733 ], [ 326413.542135541210882, 2765748.333864977117628 ], [ 327012.956103884789627, 2767601.176081591285765 ], [ 329153.522840587655082, 2767574.254143601749092 ], [ 329453.315911830635741, 2768500.754263467621058 ], [ 328383.062976458226331, 2768514.154568668920547 ], [ 328682.979997432907112, 2769440.663751142565161 ], [ 329753.20439662138233, 2769427.282191159203649 ], [ 330353.267597044585273, 2771280.421560131479055 ], [ 328212.929213938652538, 2771307.193550533615053 ], [ 328513.161054963245988, 2772233.767431499902159 ], [ 326372.864619036321528, 2772260.83790670754388 ], [ 326072.575617095571943, 2771334.301522180903703 ], [ 327142.754329084651545, 2771320.705537784378976 ], [ 326842.589342767256312, 2770394.178222964983433 ], [ 325772.382054865942337, 2770407.79291825229302 ], [ 325472.283934791688807, 2769481.312072408851236 ] ], [ [ 283080.4350050961948, 2751483.19956943904981 ], [ 284151.3905084785074, 2751466.36066012782976 ], [ 284450.520833560847677, 2752391.70519869402051 ], [ 283379.593995702278335, 2752408.526816712226719 ], [ 283080.4350050961948, 2751483.19956943904981 ] ], [ [ 292296.848588058026507, 2746691.459858442656696 ], [ 293367.899903083394747, 2746675.368079479318112 ], [ 294561.936675231321715, 2750377.069812576286495 ], [ 291349.111595071270131, 2750425.385650415439159 ], [ 290751.730381703586318, 2748574.58627941319719 ], [ 291822.733854153484572, 2748558.362677104771137 ], [ 291524.215391884848941, 2747632.985506884288043 ], [ 292595.242785717593506, 2747616.827832783572376 ], [ 292296.848588058026507, 2746691.459858442656696 ] ], [ [ 296879.306362594477832, 2747553.030520404223353 ], [ 297950.310876612900756, 2747537.289527445100248 ], [ 298248.658089909760747, 2748462.771755420602858 ], [ 297177.682097779703327, 2748478.495170854497701 ], [ 296879.306362594477832, 2747553.030520404223353 ] ] ], [ [ [ 336990.67071028391365, 2761897.825545713771135 ], [ 335920.251893236010801, 2761910.602996618952602 ], [ 336518.333240618929267, 2763763.597584642935544 ], [ 337588.695231421035714, 2763750.857807154301554 ], [ 336990.67071028391365, 2761897.825545713771135 ] ] ], [ [ [ 334849.829433798673563, 2761923.464152446016669 ], [ 333779.403308207460213, 2761936.409014944918454 ], [ 334676.838940882589668, 2764715.829866726882756 ], [ 335747.179768931120634, 2764702.941386250779033 ], [ 334849.829433798673563, 2761923.464152446016669 ] ] ], [ [ [ 340754.943747361307032, 2770224.827787487301975 ], [ 340455.244877803139389, 2769298.082841395866126 ], [ 339385.05712489906, 2769310.625109625514597 ], [ 339684.784462889074348, 2770237.351014229934663 ], [ 340754.943747361307032, 2770224.827787487301975 ] ] ], [ [ [ 357234.747794794966467, 2774693.815026279073209 ], [ 356164.777667608228512, 2774705.065672670025378 ], [ 355565.261832644464448, 2772850.819787020795047 ], [ 356635.288761502946727, 2772839.530079856980592 ], [ 356036.210527644958347, 2770985.359095119405538 ], [ 354966.126830737106502, 2770996.687768046278507 ], [ 354666.702148344018497, 2770069.664401538670063 ], [ 353596.586861496441998, 2770081.096447524148971 ], [ 354794.970426408923231, 2773789.282708781305701 ], [ 353724.965493323921692, 2773800.720969031564891 ], [ 353425.198363027651794, 2772873.651226030662656 ], [ 352355.16177490982227, 2772885.192960979416966 ], [ 352654.957324300543405, 2773812.243267403915524 ], [ 351584.945895662298426, 2773823.849605463445187 ], [ 351285.121919676079415, 2772896.81870831316337 ], [ 350215.078773646964692, 2772908.528469611424953 ], [ 349615.659706754260696, 2771054.590460239909589 ], [ 350685.75969579233788, 2771042.842006231192499 ], [ 350985.393185565364547, 2771969.816182826645672 ], [ 353125.526457803091034, 2771946.609902191907167 ], [ 352825.949780115974136, 2771019.596974723041058 ], [ 351755.85637901420705, 2771031.177511587273329 ], [ 351456.3465374361258, 2770104.212323066778481 ], [ 350386.221452819299884, 2770115.896155767142773 ], [ 350086.778459107736126, 2769188.97860869532451 ], [ 345806.131103189371061, 2769236.630260625388473 ], [ 345506.669747608539183, 2768309.817883791401982 ], [ 343366.268818427110091, 2768334.185451806057245 ], [ 343665.787026022793725, 2769260.959547577425838 ], [ 342595.609804653970059, 2769273.250062060542405 ], [ 344094.772637406305876, 2773907.447217101696879 ], [ 346234.839029685244896, 2773883.141946697607636 ], [ 346534.900532813975587, 2774810.104482610244304 ], [ 348674.896380788995884, 2774786.174029910005629 ], [ 348974.996208395110443, 2775713.203532172832638 ], [ 350044.960634438786656, 2775701.383791573345661 ], [ 349744.889272770611569, 2774774.334914410021156 ], [ 350814.878841637982987, 2774762.579870660789311 ], [ 351415.059891016338952, 2776616.744845686946064 ], [ 353554.915348663751502, 2776593.564787219744176 ], [ 353254.834113644203171, 2775666.429157699923962 ], [ 354324.785419269755948, 2775654.945803772192448 ], [ 354624.838209984649438, 2776582.100941177457571 ], [ 355694.757857843360398, 2776570.721215182449669 ], [ 355994.877418544259854, 2777497.92442206852138 ], [ 357064.765438857313711, 2777486.648400872480124 ], [ 357665.233270075346809, 2779341.17975304974243 ], [ 361944.526547517394647, 2779297.074618371669203 ], [ 361644.358778722351417, 2778369.715831499546766 ], [ 360574.511667554615997, 2778380.6355652641505 ], [ 359074.958272819174454, 2773744.370018080342561 ], [ 356934.970679452409968, 2773766.658296440728009 ], [ 357234.747794794966467, 2774693.815026279073209 ] ] ], [ [ [ 330785.070752392406575, 2775927.007877572439611 ], [ 329715.042599611741025, 2775940.341686801053584 ], [ 330015.751518647768535, 2776867.055046434048563 ], [ 331085.751060559763573, 2776853.740144991315901 ], [ 330785.070752392406575, 2775927.007877572439611 ] ] ], [ [ [ 334897.202542257204186, 2778667.962882412131876 ], [ 334596.417273894883692, 2777741.11758816242218 ], [ 333526.457458923920058, 2777754.161010796669871 ], [ 333225.738966471340973, 2776827.362811186816543 ], [ 331085.751060559763573, 2776853.740144991315901 ], [ 331386.526768590672873, 2777780.500399739015847 ], [ 332456.49396503996104, 2777767.288614060729742 ], [ 333058.27432249271078, 2779620.931165139190853 ], [ 334128.180583282839507, 2779607.841605344321579 ], [ 334429.185210268828087, 2780534.724045681767166 ], [ 335499.059185902005993, 2780521.737805718556046 ], [ 335198.083180414163508, 2779594.836280691437423 ], [ 336267.982137519866228, 2779581.915189414285123 ], [ 335967.130104854470119, 2778655.022702989168465 ], [ 334897.202542257204186, 2778667.962882412131876 ] ] ], [ [ [ 354155.363487061113119, 2778447.921529234852642 ], [ 352015.621902053127997, 2778471.023577242624015 ], [ 352316.045762024179567, 2779398.205658833961934 ], [ 354455.730385499424301, 2779375.142687470652163 ], [ 354756.192500134930015, 2780302.392401047516614 ], [ 355826.001500186452176, 2780291.006824542302638 ], [ 355225.229434558306821, 2778436.496770342811942 ], [ 356295.092183573404327, 2778425.156186119187623 ], [ 355994.877418544259854, 2777497.92442206852138 ], [ 353855.091807292890735, 2777520.728903444018215 ], [ 354155.363487061113119, 2778447.921529234852642 ] ] ], [ [ [ 315472.422220180509612, 2781709.458271825686097 ], [ 314402.503515393531416, 2781724.027221057098359 ], [ 315006.080952418327797, 2783577.215692210476846 ], [ 316075.942080186505336, 2783562.683996540494263 ], [ 315472.422220180509612, 2781709.458271825686097 ] ] ], [ [ [ 356368.458470045938157, 2795176.004140152595937 ], [ 355299.093770032166503, 2795187.411500321235508 ], [ 355601.288739471812733, 2796115.070408090017736 ], [ 354531.949516400636639, 2796126.54256935371086 ], [ 354834.268357831111643, 2797054.210454380139709 ], [ 353764.954611620050855, 2797065.747448927722871 ], [ 354975.296844984637573, 2800776.628235675860196 ], [ 357113.69161478173919, 2800753.798523347824812 ], [ 357416.457778026233427, 2801681.631024024449289 ], [ 358485.621745146578178, 2801670.363469923380762 ], [ 357880.242005731444806, 2799814.687394015025347 ], [ 358949.460246725473553, 2799803.464584291912615 ], [ 357739.957687303074636, 2796092.380188090261072 ], [ 356670.624788604560308, 2796103.68294818373397 ], [ 356368.458470045938157, 2795176.004140152595937 ] ] ], [ [ [ 345552.692997324396856, 2718115.952728065196425 ], [ 347696.014897665590979, 2718092.389400295913219 ], [ 347108.624734677257948, 2716241.207699925638735 ], [ 346036.90984955476597, 2716252.984806245658547 ], [ 346330.585116470407229, 2717178.543683579191566 ], [ 345258.894602280110121, 2717190.384841416962445 ], [ 345552.692997324396856, 2718115.952728065196425 ] ] ], [ [ [ 354846.576193840475753, 2733809.267567459028214 ], [ 352704.216499105794355, 2733831.869677981361747 ], [ 353295.226391265226994, 2735684.098043660633266 ], [ 352224.097589504439384, 2735695.485849841497838 ], [ 352519.773383668856695, 2736621.622892175335437 ], [ 350377.561867114505731, 2736644.609708494972438 ], [ 350673.388938963995315, 2737570.736972764134407 ], [ 348531.220113818300888, 2737594.01807876303792 ], [ 348827.198524390929379, 2738520.135602908674628 ], [ 347756.137100959778763, 2738531.881896433420479 ], [ 348052.238840310368687, 2739458.008419134654105 ], [ 346981.202086145582143, 2739469.819004766177386 ], [ 347277.427176112309098, 2740395.954528800211847 ], [ 346206.41509067005245, 2740407.829439324792475 ], [ 346502.763553099706769, 2741333.973967449739575 ], [ 345431.776135856111068, 2741345.913235647603869 ], [ 346915.088285941630602, 2745976.958355316426605 ], [ 347985.93506335397251, 2745965.11290375282988 ], [ 348579.870581140217837, 2747817.763166586402804 ], [ 350721.441406841739081, 2747794.397450590506196 ], [ 350127.618473343900405, 2745941.671642305329442 ], [ 352269.288516088272445, 2745918.563225801568478 ], [ 351972.576166390208527, 2744992.204344225581735 ], [ 353043.434342036489397, 2744980.756002191454172 ], [ 352746.845331057906151, 2744054.406103821936995 ], [ 354888.608048705442343, 2744031.721027507446706 ], [ 354295.828031221753918, 2742179.029214836191386 ], [ 357508.616226296755485, 2742145.511229135561734 ], [ 357212.453180893498939, 2741219.150312054436654 ], [ 358283.404215326183476, 2741208.124814732465893 ], [ 357987.364389727765229, 2740281.772861854173243 ], [ 360129.313009260047693, 2740259.932979648467153 ], [ 360425.296815969515592, 2741186.323001100216061 ], [ 361496.238430009456351, 2741175.546681817620993 ], [ 360608.6565114405239, 2738396.403455668594688 ], [ 362750.698359304165933, 2738374.985427829436958 ], [ 362455.083986403653398, 2737448.622258276678622 ], [ 364597.169461950543337, 2737427.497915143612772 ], [ 364892.727940459211823, 2738353.899286029860377 ], [ 365963.73819085129071, 2738343.480668793898076 ], [ 364782.186831265455112, 2734637.967000483069569 ], [ 365853.305751288717147, 2734627.554814811330289 ], [ 364968.224860427435488, 2731848.656605340540409 ], [ 366039.424418040667661, 2731838.270037781912833 ], [ 364860.759928870829754, 2728133.387877537403256 ], [ 363789.44897146394942, 2728143.850436211563647 ], [ 363494.992866410524584, 2727217.718645793851465 ], [ 362423.651020547724329, 2727228.282781797461212 ], [ 362129.262239282717928, 2726302.197736462578177 ], [ 364271.998520008521155, 2726281.114297166932374 ], [ 364566.331652772496454, 2727207.237147613428533 ], [ 365637.667403648607433, 2727196.838285823818296 ], [ 364755.036859413143247, 2724418.496523073408753 ], [ 365826.452991045138333, 2724408.123453453648835 ], [ 364944.762043401831761, 2721629.975581335369498 ], [ 366016.258460027049296, 2721619.628347838763148 ], [ 364842.113458246109076, 2717915.74488269072026 ], [ 365913.717779659840744, 2717905.404712658375502 ], [ 364741.205833962187171, 2714201.889848354738206 ], [ 365812.917891026707366, 2714191.556892849504948 ], [ 364934.615904954494908, 2711414.15515734674409 ], [ 366006.407894960604608, 2711403.848252552561462 ], [ 365713.858481683360878, 2710478.08425524784252 ], [ 364642.038858039188199, 2710488.409845768008381 ], [ 364349.556956036307383, 2709562.692130888346583 ], [ 365421.404204925638624, 2709552.347877761814743 ], [ 364836.781070603989065, 2707700.957894082181156 ], [ 365908.680499119160231, 2707690.658439041581005 ], [ 364448.925600697635673, 2703062.572412983048707 ], [ 365520.959850596147589, 2703052.262001399416476 ], [ 365229.321846870821901, 2702126.708752171136439 ], [ 362013.127245777461212, 2702157.941252146847546 ], [ 363180.580845304124523, 2705860.096797910984606 ], [ 362108.620094759040512, 2705870.597471229266375 ], [ 360941.056182916101534, 2702168.515866500325501 ], [ 351292.272492400428746, 2702267.372754232957959 ], [ 351584.269136113580316, 2703192.687209533061832 ], [ 350512.193241445289459, 2703204.062642372678965 ], [ 350220.168958177906461, 2702278.766364706680179 ], [ 348075.9517248502234, 2702301.799311226699501 ], [ 348660.206167391967028, 2704152.346441162750125 ], [ 347588.147752068762202, 2704163.949565793853253 ], [ 347295.945223956892733, 2703238.68055892502889 ], [ 346223.855692990939133, 2703250.383742383215576 ], [ 346516.085898842953611, 2704175.63465773826465 ], [ 345444.02058352844324, 2704187.401718593668193 ], [ 345151.762692468590103, 2703262.168867472093552 ], [ 344079.666198196762707, 2703274.035935802385211 ], [ 345249.380348970531486, 2706975.057585901580751 ], [ 346321.366022259695455, 2706963.262803645804524 ], [ 346614.005082362855319, 2707888.604081900324672 ], [ 344470.085707610240206, 2707912.239469348452985 ], [ 344762.875530571909621, 2708837.57163174264133 ], [ 345834.809216180758085, 2708825.731022344902158 ], [ 346127.666589346714318, 2709751.108469783328474 ], [ 347199.569058961118571, 2709739.368144240230322 ], [ 346906.739428729284555, 2708813.972521482035518 ], [ 347978.666192370117642, 2708802.296127546112984 ], [ 347685.959573090542108, 2707876.909508447628468 ], [ 348757.910631598439068, 2707865.297013039235026 ], [ 349343.363698024768382, 2709716.1338941892609 ], [ 348271.468087138608098, 2709727.7099529071711 ], [ 348564.365254989999812, 2710653.151006400585175 ], [ 349636.233129497384652, 2710641.593200668692589 ], [ 350222.25777695432771, 2712492.593654926400632 ], [ 345934.987804570177104, 2712539.17186989588663 ], [ 346228.25410659739282, 2713464.639935911167413 ], [ 345156.455797012662515, 2713476.471820635255426 ], [ 345743.329872401722241, 2715327.453217934817076 ], [ 346815.072574055986479, 2715315.657828998286277 ], [ 347108.624734677257948, 2716241.207699925638735 ], [ 348180.336182438884862, 2716229.512922007124871 ], [ 348473.955807013087906, 2717155.108438179362565 ], [ 349545.636031548783649, 2717143.51434741448611 ], [ 350426.983039035054389, 2719920.520347961224616 ], [ 349355.386294671101496, 2719932.059218605980277 ], [ 350237.674152596038766, 2722709.256809190381318 ], [ 349166.157602855586447, 2722720.822768732905388 ], [ 348871.938523152726702, 2721795.08125069597736 ], [ 347800.390713184024207, 2721806.748174597974867 ], [ 348683.417394109535962, 2724583.999745042528957 ], [ 347611.94984072475927, 2724595.693839983548969 ], [ 347906.510514847468585, 2725521.480821018107235 ], [ 348977.950160416774452, 2725509.805213452316821 ], [ 349272.578192363260314, 2726435.638191137462854 ], [ 348201.166462990513537, 2726447.295288070105016 ], [ 348790.764171672402881, 2728299.006768638733774 ], [ 349862.120043499046005, 2728287.386762783396989 ], [ 349567.301487529883161, 2727361.498700205702335 ], [ 350638.681920613104012, 2727349.942794622853398 ], [ 351228.358431568776723, 2729201.783687655813992 ], [ 349085.705927372036967, 2729224.903826402500272 ], [ 349971.102770856581628, 2732002.760535409208387 ], [ 351042.346826979715843, 2731991.214991230983287 ], [ 351337.641650637087878, 2732917.241153771523386 ], [ 354551.270028964849189, 2732883.157463408540934 ], [ 354846.576193840475753, 2733809.267567459028214 ] ], [ [ 364084.000225821044296, 2729070.010105084162205 ], [ 363012.714061032456812, 2729080.536393428687006 ], [ 362718.134961939824279, 2728154.395660033915192 ], [ 363789.44897146394942, 2728143.850436211563647 ], [ 364084.000225821044296, 2729070.010105084162205 ] ], [ [ 349252.044216936454177, 2716217.9004708933644 ], [ 350323.748862268403172, 2716206.370344997383654 ], [ 350617.312874382769223, 2717132.002609157003462 ], [ 349545.636031548783649, 2717143.51434741448611 ], [ 349252.044216936454177, 2716217.9004708933644 ] ], [ [ 352299.679672528465744, 2729190.347684761509299 ], [ 352594.632865782652516, 2730116.328210199717432 ], [ 351523.339559617685154, 2730127.745554743334651 ], [ 351228.358431568776723, 2729201.783687655813992 ], [ 352299.679672528465744, 2729190.347684761509299 ] ], [ [ 353665.922870649723336, 2730104.993601856287569 ], [ 353960.943364944425412, 2731031.020502844825387 ], [ 352889.681295801827218, 2731042.336402230896056 ], [ 352594.632865782652516, 2730116.328210199717432 ], [ 353665.922870649723336, 2730104.993601856287569 ] ], [ [ 352969.253906681085937, 2724538.04910527355969 ], [ 353263.675116424623411, 2725463.928796104155481 ], [ 352192.248873301199637, 2725475.274001646786928 ], [ 351897.79978560807649, 2724549.412907364778221 ], [ 352969.253906681085937, 2724538.04910527355969 ] ], [ [ 355301.154982261359692, 2721726.811986872926354 ], [ 355595.206967495556455, 2722652.664747770410031 ], [ 353452.203732096008025, 2722675.054031296633184 ], [ 353158.096078503294848, 2721749.238460547290742 ], [ 355301.154982261359692, 2721726.811986872926354 ] ], [ [ 354125.899231604067609, 2718023.676557789556682 ], [ 354419.570335895055905, 2718949.419117055367678 ], [ 353347.959079067048151, 2718960.646798598114401 ], [ 352467.148081826337148, 2716183.557062565349042 ], [ 353538.842704249371309, 2716172.273902912158519 ], [ 353832.323353583633434, 2717097.961493754759431 ], [ 354903.986910521925893, 2717086.779149909038097 ], [ 355197.535007446655072, 2718012.512733945157379 ], [ 354125.899231604067609, 2718023.676557789556682 ] ], [ [ 352173.734891823551152, 2715257.91536924848333 ], [ 351880.416943710413761, 2714332.301081936340779 ], [ 352952.167101278086193, 2714320.981052721850574 ], [ 353245.457286010263488, 2715246.613763236906379 ], [ 352173.734891823551152, 2715257.91536924848333 ] ], [ [ 352658.972152460948564, 2713395.375749371014535 ], [ 353730.746749935555272, 2713384.119557186495513 ], [ 354023.913951194321271, 2714309.743287891149521 ], [ 352952.167101278086193, 2714320.981052721850574 ], [ 352658.972152460948564, 2713395.375749371014535 ] ], [ [ 354995.522199461469427, 2710585.036515639629215 ], [ 354702.791338169947267, 2709659.485534838400781 ], [ 355774.666952358558774, 2709648.40223897062242 ], [ 357239.1348961534095, 2714276.523564399220049 ], [ 355095.657517571467906, 2714298.587785909418017 ], [ 354802.518056439934298, 2713372.945600549224764 ], [ 355874.286096089053899, 2713361.853877931367606 ], [ 355581.26958082919009, 2712436.220665216911584 ], [ 354509.473816863726825, 2712447.330846652854234 ], [ 353923.671012017293833, 2710596.183545334264636 ], [ 354995.522199461469427, 2710585.036515639629215 ] ] ], [ [ [ 345281.745797951531131, 2727408.548912977799773 ], [ 347424.530482223723084, 2727384.858485308475792 ], [ 347129.751330413564574, 2726459.035016752779484 ], [ 346058.332770607201383, 2726470.857378788758069 ], [ 345469.004455407266505, 2724619.329763002227992 ], [ 344397.526575396594126, 2724631.271594306454062 ], [ 345281.745797951531131, 2727408.548912977799773 ] ] ], [ [ [ 348201.166462990513537, 2726447.295288070105016 ], [ 347906.510514847468585, 2725521.480821018107235 ], [ 346835.067458590376191, 2725533.23903304617852 ], [ 347129.751330413564574, 2726459.035016752779484 ], [ 348201.166462990513537, 2726447.295288070105016 ] ] ], [ [ [ 345281.745797951531131, 2727408.548912977799773 ], [ 344210.348266161745414, 2727420.518121810164303 ], [ 344505.306561825564131, 2728346.313671366777271 ], [ 345576.676130688574631, 2728334.362910571042448 ], [ 345281.745797951531131, 2727408.548912977799773 ] ] ], [ [ [ 345910.161913788644597, 2739481.712612200062722 ], [ 344839.118299313238822, 2739493.689243056811392 ], [ 345135.399570619105361, 2740419.787400555796921 ], [ 346206.41509067005245, 2740407.829439324792475 ], [ 345910.161913788644597, 2739481.712612200062722 ] ] ], [ [ [ 357508.616226296755485, 2742145.511229135561734 ], [ 357804.874468472553417, 2743071.900126134045422 ], [ 358875.769436534610577, 2743060.91268573096022 ], [ 359172.094827270542737, 2743987.348648690152913 ], [ 360242.958607803098857, 2743976.463414694648236 ], [ 359354.35208571376279, 2741197.182378245517612 ], [ 358283.404215326183476, 2741208.124814732465893 ], [ 358579.539231741800904, 2742134.504748554900289 ], [ 357508.616226296755485, 2742145.511229135561734 ] ] ], [ [ [ 346915.088285941630602, 2745976.958355316426605 ], [ 345844.238095076289028, 2745988.887022922281176 ], [ 346141.214533479127567, 2746915.160585575737059 ], [ 347212.036563706817105, 2746903.250724371057004 ], [ 346915.088285941630602, 2745976.958355316426605 ] ] ], [ [ [ 348579.870581140217837, 2747817.763166586402804 ], [ 347509.080118372687139, 2747829.570927296765149 ], [ 347806.218947501038201, 2748755.91898648487404 ], [ 348876.981240363908, 2748744.130106425378472 ], [ 348579.870581140217837, 2747817.763166586402804 ] ] ], [ [ [ 358775.333125720266253, 2772817.202682538423687 ], [ 359074.958272819174454, 2773744.370018080342561 ], [ 360144.947381304809824, 2773733.351925348863006 ], [ 359545.84901021089172, 2771879.006615029647946 ], [ 357405.754180628457107, 2771901.205130638089031 ], [ 357705.31251796730794, 2772828.32437887089327 ], [ 358775.333125720266253, 2772817.202682538423687 ] ] ], [ [ [ 362884.281897315639071, 2775566.106182224117219 ], [ 361814.35569686209783, 2775576.916836983989924 ], [ 362114.209586803452112, 2776504.209294407162815 ], [ 363184.107402685738634, 2776493.418366085737944 ], [ 362884.281897315639071, 2775566.106182224117219 ] ] ], [ [ [ 361644.358778722351417, 2778369.715831499546766 ], [ 362714.202833238581661, 2778358.880263330880553 ], [ 362114.209586803452112, 2776504.209294407162815 ], [ 361044.308723023859784, 2776515.084332192316651 ], [ 361644.358778722351417, 2778369.715831499546766 ] ] ], [ [ [ 364084.154796466114931, 2779275.527214542031288 ], [ 361944.526547517394647, 2779297.074618371669203 ], [ 362545.147554616094567, 2781151.878381378483027 ], [ 361475.385742782324087, 2781162.738814066164196 ], [ 362377.116265101183672, 2783945.100760985631496 ], [ 364516.466126641957089, 2783923.58325654361397 ], [ 364817.176334485935513, 2784851.134634624235332 ], [ 365886.818310544011183, 2784840.522316286806017 ], [ 364985.058454732527025, 2782057.894990799482912 ], [ 366054.782806825940497, 2782047.307193190790713 ], [ 365754.414878668962047, 2781119.802562979515642 ], [ 364684.662098942324519, 2781130.41025729291141 ], [ 364084.154796466114931, 2779275.527214542031288 ] ] ], [ [ [ 363881.903502848523203, 2788582.947245801333338 ], [ 366020.968481338117272, 2788561.629218861460686 ], [ 365418.88214978663018, 2786706.324066162575036 ], [ 364349.294153515715152, 2786716.980841042008251 ], [ 364048.36519550421508, 2785789.391633089631796 ], [ 362978.745717529440299, 2785800.15275362925604 ], [ 363881.903502848523203, 2788582.947245801333338 ] ] ], [ [ [ 360372.050177814380731, 2787687.990517498925328 ], [ 360673.283488426415715, 2788615.557797761168331 ], [ 361742.826530873891897, 2788604.60314361192286 ], [ 361441.621751468861476, 2787677.015963456127793 ], [ 360372.050177814380731, 2787687.990517498925328 ] ] ], [ [ [ 364183.146383130108006, 2789510.603236423805356 ], [ 363881.903502848523203, 2788582.947245801333338 ], [ 361742.826530873891897, 2788604.60314361192286 ], [ 362044.126468045869842, 2789532.219204612076283 ], [ 363113.637932830606587, 2789521.368972261436284 ], [ 363415.004484695848078, 2790449.033912293147296 ], [ 365553.961335520434659, 2790427.626967828255147 ], [ 365252.651842498918995, 2789499.921995637472719 ], [ 364183.146383130108006, 2789510.603236423805356 ] ] ] ] } }
]
}
