{
"type": "FeatureCollection",
"name": "urban-2025",
"crs": { "type": "name", "properties": { "name": "urn:ogc:def:crs:EPSG::32642" } },
"features": [
{ "type": "Feature", "properties": { "year": 2025 }, "geometry": { "type": "MultiPolygon", "coordinates": [ [ [ [ 307053.063547819561791, 2739039.754466744139791 ], [ 306755.985368085443042, 2738114.346229955554008 ], [ 304613.500660311023239, 2738144.433183321263641 ], [ 304910.635553102940321, 2739069.806162395980209 ], [ 307053.063547819561791, 2739039.754466744139791 ] ] ], [ [ [ 277899.31812131946208, 2748775.7731789550744 ], [ 273615.024334067711607, 2748845.504067874047905 ], [ 274812.003664218995254, 2752546.105911597143859 ], [ 275882.969753265380859, 2752528.616238259710371 ], [ 275583.609881652402692, 2751603.409270538948476 ], [ 277725.584548312763218, 2751568.646236917469651 ], [ 277127.26713282498531, 2749718.242939339950681 ], [ 278198.304414484533481, 2749700.952407694421709 ], [ 277899.31812131946208, 2748775.7731789550744 ] ] ], [ [ [ 282781.371791703975759, 2750557.898812711704522 ], [ 281710.382792358170263, 2750574.838434359058738 ], [ 281411.386701811454259, 2749649.581363572739065 ], [ 280340.364175105642062, 2749666.621622150298208 ], [ 280041.435218547179829, 2748741.408141456544399 ], [ 278970.379133066977374, 2748758.548961589578539 ], [ 279568.390181879221927, 2750608.968020437285304 ], [ 280639.38893037091475, 2750591.861502826679498 ], [ 281237.725827370304614, 2752442.420551367569715 ], [ 280166.784449195140041, 2752459.492672623600811 ], [ 280765.561915720929392, 2754310.123092694208026 ], [ 281836.445890245726332, 2754293.085461699869484 ], [ 281537.037964280694723, 2753367.739762885961682 ], [ 282607.945782114285976, 2753350.768405533395708 ], [ 282009.474670865631197, 2751500.121950391680002 ], [ 283080.4350050961948, 2751483.19956943904981 ], [ 282781.371791703975759, 2750557.898812711704522 ] ] ], [ [ [ 285647.999774397118017, 2756093.348930622451007 ], [ 285947.60890765232034, 2757018.826367537491024 ], [ 287018.38753337005619, 2757002.175190514419228 ], [ 286718.807099403406028, 2756076.680317678488791 ], [ 285647.999774397118017, 2756093.348930622451007 ] ] ], [ [ [ 288988.391067738411948, 2759762.304893923923373 ], [ 290059.074145457241684, 2759745.873586230445653 ], [ 289459.549390086496715, 2757894.680265977978706 ], [ 288388.808903711964376, 2757911.146671759430319 ], [ 288988.391067738411948, 2759762.304893923923373 ] ] ], [ [ [ 289118.131324867077637, 2763481.387262527830899 ], [ 289418.47765940631507, 2764407.096103004645556 ], [ 288347.928928201203234, 2764423.606944826431572 ], [ 288648.39976375119295, 2765349.324982410296798 ], [ 290789.435012942645699, 2765316.422468981239945 ], [ 290489.021718180039898, 2764390.6691082008183 ], [ 291559.561128282919526, 2764374.325958179309964 ], [ 292160.425908258126583, 2766225.894998834934086 ], [ 291089.944023599964567, 2766242.202720603439957 ], [ 291390.5487477282295, 2767168.009885185863823 ], [ 293531.450365314492956, 2767135.513864783104509 ], [ 292930.451699020224623, 2765283.855443280190229 ], [ 295071.450011997949332, 2765251.62388757802546 ], [ 295371.844002368627116, 2766177.475205857306719 ], [ 294301.375873897690326, 2766193.531243664212525 ], [ 294902.508404031046666, 2768045.27923912089318 ], [ 295972.919020949455444, 2768029.258887003175914 ], [ 295672.33367282897234, 2767103.353531608823687 ], [ 298883.624718126782682, 2767055.742407160811126 ], [ 299484.718599145824555, 2768907.687694658059627 ], [ 300555.082532837754115, 2768892.021094901487231 ], [ 301156.501506011816673, 2770744.111007408238947 ], [ 303297.101188156637363, 2770713.101948158349842 ], [ 303597.896627344365697, 2771639.223910580854863 ], [ 304668.16118357819505, 2771623.863541446160525 ], [ 304969.023491318686865, 2772550.030949956271797 ], [ 307109.482182786858175, 2772519.598732690792531 ], [ 307711.378618974238634, 2774372.088516958989203 ], [ 308781.544076508143917, 2774357.0350621342659 ], [ 309082.606921808095649, 2775283.33939058938995 ], [ 308012.470212772721425, 2775298.374529505614191 ], [ 308313.657387116923928, 2776224.687985523603857 ], [ 311523.968622958869673, 2776179.890090073924512 ], [ 310921.862324185902253, 2774327.180491690523922 ], [ 309851.705303684633691, 2774342.065721056424081 ], [ 309249.923795756185427, 2772489.502761102281511 ], [ 311390.348519777180627, 2772459.743018818553537 ], [ 310789.064095581357833, 2770607.216550201643258 ], [ 311859.327559721132275, 2770592.426076600328088 ], [ 312159.893309438135475, 2771518.693916377145797 ], [ 314300.350416776025668, 2771489.4016990698874 ], [ 313999.842011667555198, 2770563.097118005156517 ], [ 315070.09304688940756, 2770548.558629021514207 ], [ 315671.148059161496349, 2772401.232157599180937 ], [ 314600.954353664827067, 2772415.733799980022013 ], [ 314901.653819893486798, 2773342.093443157617003 ], [ 315971.818847978312988, 2773327.610259640961885 ], [ 316874.404315812746063, 2776106.910186196677387 ], [ 315804.325370158534497, 2776121.337850763462484 ], [ 316406.584005526616238, 2777974.305578966625035 ], [ 318546.623002924141474, 2777945.608721158001572 ], [ 317944.47921233845409, 2776092.566675793845206 ], [ 319014.550083400215954, 2776078.307317605707794 ], [ 318713.650128158507869, 2775151.809241129085422 ], [ 319783.745676743215881, 2775137.615421519149095 ], [ 319182.28959294129163, 2773284.665136448573321 ], [ 318112.136710818042047, 2773298.896108237560838 ], [ 317811.52325361216208, 2772372.481006839778274 ], [ 318881.704789951210842, 2772358.231494549661875 ], [ 318581.21548283030279, 2771431.82548976643011 ], [ 316440.791078040725552, 2771460.445562116336077 ], [ 316140.339986550738104, 2770534.104130941443145 ], [ 317210.582854360691272, 2770519.733621797990054 ], [ 316910.255917202797718, 2769593.40129326749593 ], [ 317980.5233659746591, 2769579.096301715821028 ], [ 317380.213261926779523, 2767726.477392790839076 ], [ 316309.888580034195911, 2767740.819252083543688 ], [ 316009.848184905131347, 2766814.569494635798037 ], [ 317080.201470808591694, 2766800.209236974362284 ], [ 316780.285190216498449, 2765873.968583738431334 ], [ 317850.663008709438145, 2765859.673800330609083 ], [ 317550.870820635231212, 2764933.442249026149511 ], [ 318621.273171648266725, 2764919.212907147128135 ], [ 320421.287263735779561, 2770477.126008501742035 ], [ 321491.514081195462495, 2770463.091435676906258 ], [ 322092.225439729460049, 2772315.987186826765537 ], [ 323162.391082215530332, 2772302.073820918332785 ], [ 323763.427068633376621, 2774155.117727626115084 ], [ 324833.531557122827508, 2774141.325770516414195 ], [ 324532.99445801472757, 2773214.771239572204649 ], [ 327743.370593269297387, 2773173.843602887820452 ], [ 327443.01474673487246, 2772247.260656911879778 ], [ 324232.552810467779636, 2772288.244486847892404 ], [ 323631.95587985496968, 2770435.274225965607911 ], [ 322561.736945333774202, 2770449.14084212994203 ], [ 322261.553076587151736, 2769522.715894463472068 ], [ 323331.800601682509296, 2769508.830672803800553 ], [ 322731.776431836478878, 2767656.026608636137098 ], [ 323802.077183993067592, 2767642.188140849582851 ], [ 323502.236854978371412, 2766715.809023244772106 ], [ 322431.907545050082263, 2766729.666052721440792 ], [ 321832.456179966800846, 2764877.027781064156443 ], [ 322902.842580322700087, 2764863.133699177298695 ], [ 322603.288639566162601, 2763936.837447876576334 ], [ 324744.106721403775737, 2763909.263649785891175 ], [ 325043.603619892906863, 2764835.596964253578335 ], [ 326113.978306599368807, 2764821.954307470470667 ], [ 326713.201402117614634, 2766674.741115532349795 ], [ 328853.825185334309936, 2766647.781809057109058 ], [ 329453.315911830635741, 2768500.754263467621058 ], [ 330523.565068229276221, 2768487.437868196517229 ], [ 330223.800517145835329, 2767560.918999552726746 ], [ 331294.074430812732317, 2767547.667736377101392 ], [ 329796.825275451410562, 2762915.396553071215749 ], [ 326585.564796581980772, 2762955.682154015637934 ], [ 326286.31578040641034, 2762029.366988665889949 ], [ 327356.768234529532492, 2762015.836129498668015 ], [ 326758.613451683660969, 2760163.251568936742842 ], [ 325688.10406757669989, 2760176.81951656518504 ], [ 325389.141375797451474, 2759250.587165056727827 ], [ 326459.679212337185163, 2759237.000708593521267 ], [ 325862.097049992415123, 2757384.581715954001993 ], [ 326932.687895485432819, 2757371.041895627975464 ], [ 326634.068397019000258, 2756444.855253303889185 ], [ 325563.449131865752861, 2756458.413538974709809 ], [ 325264.896659017307684, 2755532.272878456395119 ], [ 322052.930217763525434, 2755573.504239851608872 ], [ 321754.387937889085151, 2754647.446164839435369 ], [ 322825.075770028925035, 2754633.600509452167898 ], [ 322526.657382953795604, 2753707.551522688008845 ], [ 321455.941133266780525, 2753721.415491093881428 ], [ 321157.589806326082908, 2752795.412196375895292 ], [ 323299.075167299248278, 2752767.731131219305098 ], [ 323895.759660750976764, 2754619.838359164074063 ], [ 324966.439633880276233, 2754606.159712100867182 ], [ 324668.078058887040243, 2753680.074017615523189 ], [ 326809.483129088650458, 2753652.93040907336399 ], [ 327107.787922644929495, 2754579.052920205518603 ], [ 329249.120826900238171, 2754552.280119001399726 ], [ 328652.720160574885085, 2752699.988789259456098 ], [ 329723.437622634810396, 2752686.690646811854094 ], [ 329425.408767763990909, 2751760.567818603944033 ], [ 330496.150779502291698, 2751747.334630030207336 ], [ 330794.151294778974261, 2752673.475942092016339 ], [ 337218.355074170394801, 2752595.939806058071554 ], [ 336622.789156092563644, 2750743.461918409448117 ], [ 337693.533530604909174, 2750730.793902274686843 ], [ 337395.921879047644325, 2749804.577839359641075 ], [ 335254.372944949078374, 2749830.034470429643989 ], [ 334956.800116742611863, 2748903.883254546672106 ], [ 333885.991880693007261, 2748916.755136791151017 ], [ 333588.486157066596206, 2747990.650043789763004 ], [ 334659.322661162586883, 2747977.759635434951633 ], [ 334361.940580639056861, 2747051.663590812589973 ], [ 333291.075816874508746, 2747064.572501801420003 ], [ 332993.760862545517739, 2746138.52248856285587 ], [ 335135.543192625977099, 2746112.750944547820836 ], [ 334244.340053583146073, 2743334.655179595574737 ], [ 336386.276972479303367, 2743309.105571345426142 ], [ 336683.192895517626312, 2744235.146930578630418 ], [ 338825.058825893560424, 2744209.966982504818588 ], [ 339716.209490347886458, 2746988.367954388726503 ], [ 338645.362950036302209, 2747000.860564973205328 ], [ 339537.456325307604857, 2749779.454575716983527 ], [ 340608.21817513438873, 2749767.017952396068722 ], [ 340905.745063222711906, 2750693.290061729494482 ], [ 341976.475123282463755, 2750680.955511823762208 ], [ 341678.976474564871751, 2749754.664665811695158 ], [ 342749.7312474520877, 2749742.394714281894267 ], [ 342155.076350670191459, 2747889.858822676353157 ], [ 343225.884044283535331, 2747877.634692566469312 ], [ 342928.727768395794556, 2746951.389645448885858 ], [ 341857.891875652130693, 2746963.632496311329305 ], [ 341560.802719462953974, 2746037.433886447455734 ], [ 340489.935103115625679, 2746049.778658874798566 ], [ 339302.419005955918692, 2742345.335383710451424 ], [ 336089.456411513441708, 2742383.091745690908283 ], [ 335496.101385508896783, 2740531.146606238093227 ], [ 334425.050203618477099, 2740543.935166090261191 ], [ 334721.708211430930533, 2741469.875570906326175 ], [ 333650.681517637160141, 2741482.728806945029646 ], [ 333353.995323967130389, 2740556.806795208714902 ], [ 332282.936722632264718, 2740569.761495349463075 ], [ 331986.31772998906672, 2739643.885246199090034 ], [ 329844.13287361280527, 2739670.080469736363739 ], [ 330437.579056026181206, 2741521.787111772689968 ], [ 331508.616963851964101, 2741508.684575608465821 ], [ 331805.454952441970818, 2742434.597278454806656 ], [ 330734.445261640124954, 2742447.68147988198325 ], [ 331031.406873625819571, 2743373.603242255747318 ], [ 329960.42163759667892, 2743386.752243620809168 ], [ 330257.506894910242409, 2744312.683068102225661 ], [ 331328.463889559730887, 2744299.552421069238335 ], [ 331922.864123571314849, 2746151.533116780221462 ], [ 329781.059378338686656, 2746177.804094504099339 ], [ 329483.755037922703195, 2745251.836791411973536 ], [ 328412.818710539955646, 2745265.115491221658885 ], [ 328115.5815209755674, 2744339.193925352301449 ], [ 327044.613093897234648, 2744352.574139183852822 ], [ 327639.23945084225852, 2746204.408045898657292 ], [ 325497.404150012822356, 2746231.344985469710082 ], [ 324902.664640032104217, 2744379.584146382287145 ], [ 323831.684565448667854, 2744393.21394342975691 ], [ 324129.034891325514764, 2745319.062488549854606 ], [ 319845.188309859950095, 2745374.341091473586857 ], [ 319250.356634055147879, 2743522.816352289635688 ], [ 317108.295995413092896, 2743551.027255002874881 ], [ 316810.966758257010952, 2742625.341670192312449 ], [ 313597.76010931644123, 2742668.335745473392308 ], [ 313300.441391558037139, 2741742.731029597111046 ], [ 311158.226158909732476, 2741771.84526450606063 ], [ 310860.946298074442893, 2740846.303216205909848 ], [ 308718.657483230635989, 2740875.785563001874834 ], [ 308421.416484214074444, 2739950.305957971140742 ], [ 309492.59136950323591, 2739935.505484759341925 ], [ 309195.47429685224779, 2739010.035019801929593 ], [ 307053.063547819561791, 2739039.754466744139791 ], [ 307647.50667980738217, 2740890.651407177560031 ], [ 305505.192161312676035, 2740920.632447220385075 ], [ 304910.635553102940321, 2739069.806162395980209 ], [ 303839.415028759045526, 2739084.956608605571091 ], [ 304136.673906431125943, 2740010.338744500186294 ], [ 303065.477383153454866, 2740025.55467478884384 ], [ 303362.860267772804946, 2740950.945969835855067 ], [ 302291.687745538074523, 2740966.227417269255966 ], [ 302589.194659176748246, 2741891.627873783465475 ], [ 301518.046137983037625, 2741906.974871424026787 ], [ 301815.677102719782852, 2742832.384491708129644 ], [ 300744.552582577161957, 2742847.797072613611817 ], [ 301042.307620490784757, 2743773.215858954470605 ], [ 297828.992647706530988, 2743819.900096815079451 ], [ 297531.152239705610555, 2742894.533936226274818 ], [ 294317.711220928817056, 2742942.019525920040905 ], [ 294615.637069430609699, 2743867.333305241074413 ], [ 293544.509408319368958, 2743883.310822655446827 ], [ 293842.559449115942698, 2744808.633792879991233 ], [ 291700.347312841098756, 2744840.803735127672553 ], [ 291998.550096296123229, 2745766.118499843869358 ], [ 290927.465605238452554, 2745782.310987114906311 ], [ 291225.792641441919841, 2746707.634950842242688 ], [ 290154.732039349619299, 2746723.893358882982284 ], [ 290453.183350444363896, 2747649.226523777004331 ], [ 288311.105229196604341, 2747681.9585948032327 ], [ 288609.709422073618043, 2748607.283602711278945 ], [ 286467.669616958941333, 2748640.314432461280376 ], [ 286766.426754114567302, 2749565.631320052780211 ], [ 284624.425153954536654, 2749598.961096776183695 ], [ 285222.341204869095236, 2751449.605220163241029 ], [ 287364.228272102132905, 2751416.344739149790257 ], [ 287663.272648107027635, 2752341.74131440045312 ], [ 284450.520833560847677, 2752391.70519869402051 ], [ 285049.068780709174462, 2754242.473905341699719 ], [ 286119.933479279919993, 2754225.770491101779044 ], [ 286718.807099403406028, 2756076.680317678488791 ], [ 288860.407542502915021, 2756043.593897767364979 ], [ 289459.549390086496715, 2757894.680265977978706 ], [ 290530.285196316079237, 2757878.297512722201645 ], [ 291129.75255881389603, 2759729.525985354091972 ], [ 290059.074145457241684, 2759745.873586230445653 ], [ 290658.981789240147918, 2761597.174034604802728 ], [ 288517.725845487497281, 2761630.050028687808663 ], [ 288817.880719418521039, 2762555.705245108809322 ], [ 287747.27446454577148, 2762572.251312172971666 ], [ 288047.55382765782997, 2763497.915728768799454 ], [ 289118.131324867077637, 2763481.387262527830899 ] ], [ [ 324318.599659989005886, 2759264.257260899990797 ], [ 324019.703962830652017, 2758338.070927289780229 ], [ 325090.274130361736752, 2758324.382373428437859 ], [ 325389.141375797451474, 2759250.587165056727827 ], [ 324318.599659989005886, 2759264.257260899990797 ] ], [ [ 328254.716132589615881, 2764794.920405980665237 ], [ 328554.222948519862257, 2765721.337237342260778 ], [ 327483.884454857558012, 2765734.793636142276227 ], [ 327184.349136249045841, 2764808.395455328281969 ], [ 328254.716132589615881, 2764794.920405980665237 ] ], [ [ 315410.05395376146771, 2764962.152394163887948 ], [ 315110.300122622807976, 2764035.98500644043088 ], [ 316180.73917036363855, 2764021.569695557001978 ], [ 316480.464422587887384, 2764947.755410716868937 ], [ 315410.05395376146771, 2764962.152394163887948 ] ], [ [ 315881.109435978229158, 2763095.411415921524167 ], [ 318022.032437618880067, 2763066.795486587565392 ], [ 318321.605054079089314, 2763992.990455478895456 ], [ 316180.73917036363855, 2764021.569695557001978 ], [ 315881.109435978229158, 2763095.411415921524167 ] ], [ [ 317722.55532470473554, 2762140.627978133969009 ], [ 319863.519241831090767, 2762112.310351698193699 ], [ 320162.939284410036635, 2763038.51461103418842 ], [ 318022.032437618880067, 2763066.795486587565392 ], [ 317722.55532470473554, 2762140.627978133969009 ] ], [ [ 321233.386709142127074, 2763024.499813606962562 ], [ 320933.995190174609888, 2762098.277138001751155 ], [ 322004.467163394321688, 2762084.327654767315835 ], [ 322303.83016644307645, 2763010.568773865699768 ], [ 321233.386709142127074, 2763024.499813606962562 ] ], [ [ 321406.027577273547649, 2760231.927991866134107 ], [ 323547.07366076298058, 2760204.206413524691015 ], [ 323846.188741046586074, 2761130.429364114999771 ], [ 322775.696154586272314, 2761144.229866440873593 ], [ 323074.935185262002051, 2762070.461900098249316 ], [ 322004.467163394321688, 2762084.327654767315835 ], [ 321406.027577273547649, 2760231.927991866134107 ] ], [ [ 324916.677416011691093, 2761116.71255936101079 ], [ 325215.859469999326393, 2762042.981568917632103 ], [ 324145.399279541103169, 2762056.679872107226402 ], [ 323846.188741046586074, 2761130.429364114999771 ], [ 324916.677416011691093, 2761116.71255936101079 ] ], [ [ 292595.242785717593506, 2747616.827832783572376 ], [ 292296.848588058026507, 2746691.459858442656696 ], [ 293367.899903083394747, 2746675.368079479318112 ], [ 294561.936675231321715, 2750377.069812576286495 ], [ 291349.111595071270131, 2750425.385650415439159 ], [ 291050.373130718246102, 2749499.972647665068507 ], [ 289979.393579857831355, 2749516.262211244087666 ], [ 289680.722245636628941, 2748590.893253873568028 ], [ 291822.733854153484572, 2748558.362677104771137 ], [ 291524.215391884848941, 2747632.985506884288043 ], [ 292595.242785717593506, 2747616.827832783572376 ] ], [ [ 297950.310876612900756, 2747537.289527445100248 ], [ 298248.658089909760747, 2748462.771755420602858 ], [ 297177.682097779703327, 2748478.495170854497701 ], [ 296879.306362594477832, 2747553.030520404223353 ], [ 297950.310876612900756, 2747537.289527445100248 ] ] ], [ [ [ 286507.345761429169215, 2765382.563001481350511 ], [ 287409.505471203359775, 2768159.772336958441883 ], [ 288479.948407840158325, 2768143.164311048574746 ], [ 288179.161574552650563, 2767217.383368086535484 ], [ 289249.628630168910604, 2767200.841610505245626 ], [ 288648.39976375119295, 2765349.324982410296798 ], [ 286507.345761429169215, 2765382.563001481350511 ] ] ], [ [ [ 294902.508404031046666, 2768045.27923912089318 ], [ 293832.09324120398378, 2768061.383538007270545 ], [ 294132.83180901495507, 2768987.280215764418244 ], [ 295203.218195674824528, 2768971.193768034223467 ], [ 294902.508404031046666, 2768045.27923912089318 ] ] ], [ [ [ 298715.069388737494592, 2769849.433626390527934 ], [ 297644.725305957836099, 2769865.250202565453947 ], [ 297945.56889533076901, 2770791.254732878878713 ], [ 299015.884208830539137, 2770775.45613667042926 ], [ 298715.069388737494592, 2769849.433626390527934 ] ] ], [ [ [ 289985.318530270189513, 2772772.47276334837079 ], [ 289684.053053086739965, 2771846.557167363353074 ], [ 290754.375988902640529, 2771830.104105116799474 ], [ 290152.189881667261943, 2769978.318266657181084 ], [ 289081.8092729030177, 2769994.806878020986915 ], [ 288780.830974765471183, 2769068.972140315454453 ], [ 287710.416861657635309, 2769085.562477964442223 ], [ 287409.505471203359775, 2768159.772336958441883 ], [ 283127.686367048125248, 2768227.044086837209761 ], [ 284031.053974802838638, 2771004.283457486890256 ], [ 281890.288928917259909, 2771038.317776190117002 ], [ 282794.691852194431704, 2773815.692854397930205 ], [ 283864.990065090707503, 2773798.686527803074569 ], [ 283563.455556148197502, 2772872.850367339793593 ], [ 284633.777890935423784, 2772855.910506399348378 ], [ 285236.884859825193416, 2774707.645070038735867 ], [ 287377.399662836687639, 2774674.08856127364561 ], [ 287075.856100628618151, 2773748.172358362935483 ], [ 289216.409858599188738, 2773714.916897817049176 ], [ 288915.019794692110736, 2772788.992111324332654 ], [ 289985.318530270189513, 2772772.47276334837079 ] ] ], [ [ [ 298547.543050378444605, 2772643.345242260955274 ], [ 300688.054114671016578, 2772611.904187912587076 ], [ 300086.195071155030746, 2770759.741562226321548 ], [ 299015.884208830539137, 2770775.45613667042926 ], [ 299316.794680151855573, 2771701.505812796298414 ], [ 298246.508144282503054, 2771717.286405357066542 ], [ 298547.543050378444605, 2772643.345242260955274 ] ] ], [ [ [ 307711.378618974238634, 2774372.088516958989203 ], [ 306641.208907404216006, 2774387.226087577175349 ], [ 306942.32925749279093, 2775313.49381140479818 ], [ 308012.470212772721425, 2775298.374529505614191 ], [ 307711.378618974238634, 2774372.088516958989203 ] ] ], [ [ [ 326204.236093893647194, 2775054.218980848323554 ], [ 325903.632170433877036, 2774127.617897828109562 ], [ 324833.531557122827508, 2774141.325770516414195 ], [ 325134.164105344330892, 2775067.908102222718298 ], [ 326204.236093893647194, 2775054.218980848323554 ] ] ], [ [ [ 324197.722394876356702, 2778801.996308816596866 ], [ 326337.648740328615531, 2778774.515888080000877 ], [ 326036.634420173824765, 2777847.822127581574023 ], [ 324966.644511711900122, 2777861.539045847952366 ], [ 324364.844885000959039, 2776008.272742451168597 ], [ 323294.793786294525489, 2776022.111368409823626 ], [ 324197.722394876356702, 2778801.996308816596866 ] ] ], [ [ [ 319616.636474784230813, 2777931.386603196151555 ], [ 318546.623002924141474, 2777945.608721158001572 ], [ 318847.838146322290413, 2778872.171319583430886 ], [ 319917.822906025336124, 2778857.967857387382537 ], [ 319616.636474784230813, 2777931.386603196151555 ] ] ], [ [ [ 314567.858848242787644, 2778929.827526488341391 ], [ 314266.528778887004592, 2778003.33927897689864 ], [ 313196.495020475238562, 2778017.982449731789529 ], [ 313799.308198210783303, 2779870.949533678591251 ], [ 314869.284446544595994, 2779856.343426110688597 ], [ 315170.805571339093149, 2780782.887000374961644 ], [ 317310.688312396465335, 2780753.964806153438985 ], [ 317009.224699532147497, 2779827.384015723597258 ], [ 319149.14878519193735, 2779798.761665236204863 ], [ 318847.838146322290413, 2778872.171319583430886 ], [ 314567.858848242787644, 2778929.827526488341391 ] ] ], [ [ [ 264385.722383495420218, 2809508.396186668425798 ], [ 263316.388881895574741, 2809527.185282271355391 ], [ 263622.537197074037977, 2810453.540766594000161 ], [ 266830.433854276023339, 2810397.482635816559196 ], [ 266524.373927090782672, 2809471.073703680187464 ], [ 267593.692015942826401, 2809452.540311234537512 ], [ 267287.757428130833432, 2808526.140614090953022 ], [ 264079.699456993257627, 2808582.049946435261518 ], [ 264385.722383495420218, 2809508.396186668425798 ] ] ], [ [ [ 358138.252561788773164, 2727271.365733047947288 ], [ 359209.606885806308128, 2727260.471031220629811 ], [ 358620.757454580045305, 2725408.441686874255538 ], [ 355406.517755087756086, 2725441.486173294018954 ], [ 355700.978446595836431, 2726367.430787963792682 ], [ 357843.752394755312707, 2726345.355970077216625 ], [ 358138.252561788773164, 2727271.365733047947288 ] ] ], [ [ [ 356584.931788848247379, 2729145.430746756494045 ], [ 357174.710049221932422, 2730997.569370301906019 ], [ 358245.959182897116989, 2730986.584509585984051 ], [ 357951.050357070809696, 2730060.48249971261248 ], [ 359022.324215392814949, 2730049.561549391131848 ], [ 358727.538474533474073, 2729123.468500479590148 ], [ 356584.931788848247379, 2729145.430746756494045 ] ] ], [ [ [ 354737.209598217566963, 2730093.74172816472128 ], [ 355622.47294653672725, 2732871.961868467740715 ], [ 356693.67263313184958, 2732860.849088563583791 ], [ 356398.517572026699781, 2731934.729147981386632 ], [ 357469.741981796454638, 2731923.680344069376588 ], [ 357174.710049221932422, 2730997.569370301906019 ], [ 356103.45771766564576, 2731008.636988407932222 ], [ 355808.493072479264811, 2730082.57258759252727 ], [ 354737.209598217566963, 2730093.74172816472128 ] ] ], [ [ [ 358355.408959925523959, 2734702.180180528666824 ], [ 357764.86911272269208, 2732849.819122177083045 ], [ 356693.67263313184958, 2732860.849088563583791 ], [ 357284.268365868134424, 2734713.172401830554008 ], [ 358355.408959925523959, 2734702.180180528666824 ] ] ], [ [ [ 357691.419757383293472, 2739355.448867521714419 ], [ 357395.570320726721548, 2738429.152809355407953 ], [ 358466.602205399831291, 2738418.153381228912622 ], [ 358762.42364569043275, 2739344.468413196038455 ], [ 360904.421981277118903, 2739322.756517186295241 ], [ 360608.6565114405239, 2738396.403455668594688 ], [ 359537.630927658057772, 2738407.236930496059358 ], [ 359241.932657639263198, 2737480.930858010426164 ], [ 361384.036649482732173, 2737459.308845392894 ], [ 361088.489485261496156, 2736532.992720529437065 ], [ 360017.411093013070058, 2736543.781262246891856 ], [ 359721.9311492908746, 2735617.512085603550076 ], [ 362935.240858201519586, 2735585.338175231125206 ], [ 363230.636977418093011, 2736511.66439058445394 ], [ 364301.706125220633112, 2736501.124599448405206 ], [ 363415.886990049853921, 2733722.172759560402483 ], [ 361273.578104916028678, 2733743.449440350756049 ], [ 361568.811828902922571, 2734669.700710525270551 ], [ 360497.680667481152341, 2734680.444336357992142 ], [ 360202.419018788379617, 2733754.212032350711524 ], [ 359131.256804998381995, 2733765.057460707146674 ], [ 359426.546385809429921, 2734691.270825866609812 ], [ 358355.408959925523959, 2734702.180180528666824 ], [ 358650.821671339333989, 2735628.402505372650921 ], [ 356508.593209236976691, 2735650.432028274983168 ], [ 356213.124579676019493, 2734724.247491273563355 ], [ 355141.977577386423945, 2734735.405450367834419 ], [ 355733.065990782808512, 2736587.764641887042671 ], [ 354661.971712175756693, 2736598.967797487974167 ], [ 354957.686731619643979, 2737525.170278307050467 ], [ 353886.61720580549445, 2737536.437516133766621 ], [ 354478.388923286343925, 2739388.888273780234158 ], [ 353407.372175771160983, 2739400.200762026943266 ], [ 353999.580854198662564, 2741252.725184113252908 ], [ 356141.498958504467737, 2741230.258871713653207 ], [ 355845.403084284393117, 2740303.944878150708973 ], [ 356916.385334705468267, 2740292.817352489568293 ], [ 356620.41269016492879, 2739366.512328052893281 ], [ 357691.419757383293472, 2739355.448867521714419 ] ] ], [ [ [ 330437.579056026181206, 2741521.787111772689968 ], [ 329366.537362355273217, 2741534.972751536406577 ], [ 329663.431792604038492, 2742460.848812153562903 ], [ 330734.445261640124954, 2742447.68147988198325 ], [ 330437.579056026181206, 2741521.787111772689968 ] ] ], [ [ [ 352632.436921434069518, 2740337.825680515728891 ], [ 351561.441650216467679, 2740349.285361563786864 ], [ 350969.311261718394235, 2738496.891988169401884 ], [ 349898.256569999619387, 2738508.472300683613867 ], [ 350194.302189782843925, 2739434.636306845583022 ], [ 349123.27220021415269, 2739446.280853693373501 ], [ 349419.441138854017481, 2740372.453853409271687 ], [ 348348.435850866371766, 2740384.162667364813387 ], [ 348941.115675874170847, 2742236.554429593961686 ], [ 346799.207298647030257, 2742260.146218866575509 ], [ 347095.746324876789004, 2743186.346215877216309 ], [ 348166.674099261406809, 2743174.5275365752168 ], [ 348463.280283286469057, 2744100.774092104751617 ], [ 347392.380629361374304, 2744112.573980803135782 ], [ 347985.93506335397251, 2745965.11290375282988 ], [ 349056.778451195335947, 2745953.350666616577655 ], [ 349353.670430206693709, 2746879.680730337277055 ], [ 350424.482314227963798, 2746868.020594296045601 ], [ 349534.176556523772888, 2744089.057361648418009 ], [ 352746.845331057906151, 2744054.406103821936995 ], [ 352153.953013153281063, 2742201.790007193572819 ], [ 353224.892160260933451, 2742190.368063132278621 ], [ 352632.436921434069518, 2740337.825680515728891 ] ] ], [ [ [ 347392.380629361374304, 2744112.573980803135782 ], [ 347095.746324876789004, 2743186.346215877216309 ], [ 346024.815138407866471, 2743198.248027743306011 ], [ 346321.477570857852697, 2744124.457029352430254 ], [ 347392.380629361374304, 2744112.573980803135782 ] ] ], [ [ [ 330257.506894910242409, 2744312.683068102225661 ], [ 329186.546113346237689, 2744325.896902261767536 ], [ 329483.755037922703195, 2745251.836791411973536 ], [ 330554.687562119564973, 2745238.641307773534209 ], [ 330257.506894910242409, 2744312.683068102225661 ] ] ], [ [ [ 339537.456325307604857, 2749779.454575716983527 ], [ 338466.690901230322197, 2749791.974537469446659 ], [ 338764.274290732108057, 2750718.209255258087069 ], [ 339835.011460322188213, 2750705.707975643221289 ], [ 339537.456325307604857, 2749779.454575716983527 ] ] ], [ [ [ 327704.683807528053876, 2756431.380521613638848 ], [ 327406.188149602443445, 2755505.202950282022357 ], [ 326335.544335456797853, 2755518.696150996722281 ], [ 326634.068397019000258, 2756444.855253303889185 ], [ 327704.683807528053876, 2756431.380521613638848 ] ] ], [ [ [ 338785.888458323839586, 2767457.257408660836518 ], [ 335575.132931034662761, 2767495.501456540543586 ], [ 334676.838940882589668, 2764715.829866726882756 ], [ 333606.494445740943775, 2764728.80213740374893 ], [ 335404.111584475031123, 2770288.283424217253923 ], [ 336474.285212564864196, 2770275.424392816610634 ], [ 337374.295719289162662, 2773055.599285262171179 ], [ 338444.380202010041103, 2773042.881228963844478 ], [ 337244.670921589247882, 2769335.961411736439914 ], [ 338314.86581406625919, 2769323.25129916658625 ], [ 338015.205344099260401, 2768396.57242869772017 ], [ 339085.425122560351156, 2768383.927248639520258 ], [ 338785.888458323839586, 2767457.257408660836518 ] ] ], [ [ [ 346405.339667806634679, 2771090.339594489429146 ], [ 345335.226218562747817, 2771102.423902046401054 ], [ 345635.001870098640211, 2772029.301679147407413 ], [ 346705.086871929001063, 2772017.236596907489002 ], [ 347004.929353979416192, 2772944.161853268742561 ], [ 345934.872807960025966, 2772956.207686455920339 ], [ 346234.839029685244896, 2773883.141946697607636 ], [ 347304.867111498839222, 2773871.11538630630821 ], [ 347604.900142024620436, 2774798.097218769602478 ], [ 348674.896380788995884, 2774786.174029910005629 ], [ 348374.891815329960082, 2773859.172873604577035 ], [ 349444.913164851721376, 2773847.314406969584525 ], [ 348245.961319906811696, 2770139.515618968755007 ], [ 346105.687744075316004, 2770163.470823295414448 ], [ 346405.339667806634679, 2771090.339594489429146 ] ] ], [ [ [ 350814.878841637982987, 2774762.579870660789311 ], [ 350514.931183737004176, 2773835.539984789211303 ], [ 349444.913164851721376, 2773847.314406969584525 ], [ 349744.889272770611569, 2774774.334914410021156 ], [ 350814.878841637982987, 2774762.579870660789311 ] ] ], [ [ [ 327274.304238618758973, 2775040.613969266414642 ], [ 326204.236093893647194, 2775054.218980848323554 ], [ 326504.935455639380962, 2775980.847910936921835 ], [ 327574.974974898272194, 2775967.261701654177159 ], [ 327274.304238618758973, 2775040.613969266414642 ] ] ], [ [ [ 356972.886303942941595, 2797031.390654407907277 ], [ 355903.578914106765296, 2797042.758190057706088 ], [ 356508.444868999649771, 2798898.220469243358821 ], [ 357577.694914998952299, 2798886.892854130361229 ], [ 356972.886303942941595, 2797031.390654407907277 ] ] ], [ [ [ 356811.020644275005907, 2799825.995012828614563 ], [ 356508.444868999649771, 2798898.220469243358821 ], [ 355439.191671561449766, 2798909.632867662236094 ], [ 355741.79613887751475, 2799837.387442265637219 ], [ 356811.020644275005907, 2799825.995012828614563 ] ] ], [ [ [ 353436.46951695549069, 2702244.831251065712422 ], [ 353728.410903862561099, 2703170.182143518235534 ], [ 354800.476825325982645, 2703159.052507263142616 ], [ 354508.563055684382562, 2702233.683355287183076 ], [ 353436.46951695549069, 2702244.831251065712422 ] ] ], [ [ [ 362791.022779603488743, 2711435.015462477691472 ], [ 360647.417299599735998, 2711456.204437855631113 ], [ 361526.051311716903001, 2714233.382209220901132 ], [ 359382.599429905763827, 2714254.788376130629331 ], [ 359968.942133933887817, 2716106.303590445313603 ], [ 358897.266906696662772, 2716117.092858938500285 ], [ 359484.045813474454917, 2717968.681144076865166 ], [ 358412.42290840257192, 2717979.515488722827286 ], [ 358705.982899311580695, 2718905.332384582143277 ], [ 359777.578044573543593, 2718894.516692359466106 ], [ 360071.205457593430765, 2719820.37987391743809 ], [ 357928.067536711983848, 2719842.056329294107854 ], [ 357340.796821762342006, 2717990.432200920302421 ], [ 356269.167529471567832, 2718001.431282160338014 ], [ 356856.493802072596736, 2719853.01819173572585 ], [ 353641.753212518058717, 2719886.398336071055382 ], [ 353935.642575799371116, 2720812.177389695774764 ], [ 356078.750595880381297, 2720789.878684838302433 ], [ 356372.67954986152472, 2721715.722474996000528 ], [ 357444.200893350935075, 2721704.715444403234869 ], [ 357150.299746585544199, 2720778.853014132939279 ], [ 361436.4645153057063, 2720735.574841121211648 ], [ 361730.254507327335887, 2721661.512104969937354 ], [ 362801.760091107571498, 2721650.917458470910788 ], [ 362507.997869275393896, 2720724.961417932063341 ], [ 363579.528136087930761, 2720714.430439852178097 ], [ 363285.888828968745656, 2719788.483342489227653 ], [ 362214.330807743128389, 2719799.033101361244917 ], [ 361920.758908929070458, 2718873.132486605085433 ], [ 365135.507001175428741, 2718841.67410287912935 ], [ 364842.113458246109076, 2717915.74488269072026 ], [ 363770.506099761638325, 2717926.167411561589688 ], [ 362890.813216640613973, 2715148.602253219578415 ], [ 363962.503693385049701, 2715138.123496386688203 ], [ 363669.490734463906847, 2714212.305051967967302 ], [ 362597.772568418295123, 2714222.802505111321807 ], [ 362304.827080628252588, 2713297.030372524168342 ], [ 363376.572927584289573, 2713286.514246223494411 ], [ 363083.75027515925467, 2712360.75105708045885 ], [ 364155.520713344682008, 2712350.298475650139153 ], [ 362692.97305233636871, 2707721.802967531606555 ], [ 363764.878596395312343, 2707711.339403105899692 ], [ 363472.682143577490933, 2706785.704346181359142 ], [ 361328.812739207700361, 2706806.750636515207589 ], [ 361621.064414271677379, 2707732.348588790278882 ], [ 360549.152658041391987, 2707742.976268324069679 ], [ 360841.527132594375871, 2708668.583170633763075 ], [ 359769.639871999737807, 2708679.274402781389654 ], [ 358600.602545720757917, 2704977.085363985039294 ], [ 359672.600307825021446, 2704966.320241854060441 ], [ 359380.606556915969122, 2704040.823053372558206 ], [ 360452.628751568263397, 2704030.121466881129891 ], [ 360160.757776222249959, 2703104.63323293812573 ], [ 359088.707992927636951, 2703115.353238525334746 ], [ 358796.904618261847645, 2702189.910775414668024 ], [ 357724.824068073532544, 2702200.731072902213782 ], [ 358016.655030382797122, 2703126.155167267657816 ], [ 354800.476825325982645, 2703159.052507263142616 ], [ 355092.48581782047404, 2704084.448918831069022 ], [ 354020.447522004251368, 2704095.560272529255599 ], [ 354312.579368982231244, 2705020.965659947600216 ], [ 352168.548165122163482, 2705043.39771344140172 ], [ 352460.83054562122561, 2705968.793805726803839 ], [ 350316.841343685751781, 2705991.517346311360598 ], [ 350024.503626367542893, 2705066.157720249611884 ], [ 348952.476295956526883, 2705077.660710031632334 ], [ 348660.206167391967028, 2704152.346441162750125 ], [ 347588.147752068762202, 2704163.949565793853253 ], [ 348172.838643212686293, 2706014.568961827084422 ], [ 349244.841692851972766, 2706003.002143918536603 ], [ 349537.302355681371409, 2706928.370764655526727 ], [ 348465.327001450466923, 2706939.919394618831575 ], [ 348757.910631598439068, 2707865.297013039235026 ], [ 350901.802548588835634, 2707842.31825001584366 ], [ 351194.426031369250268, 2708767.759571387432516 ], [ 353338.2491222898243, 2708745.145706274546683 ], [ 353045.6810266074026, 2707819.667780259158462 ], [ 356261.473968331119977, 2707786.30759844603017 ], [ 356846.539318269817159, 2709637.401064875535667 ], [ 360062.137167793232948, 2709604.890258236322552 ], [ 360354.729644461767748, 2710530.533595928922296 ], [ 362498.390443324926309, 2710509.307440369389951 ], [ 362791.022779603488743, 2711435.015462477691472 ] ], [ [ 351973.743455390445888, 2707830.951979258097708 ], [ 351681.242914250295144, 2706905.519645928405225 ], [ 352753.208166916738264, 2706894.217154040466994 ], [ 353045.6810266074026, 2707819.667780259158462 ], [ 351973.743455390445888, 2707830.951979258097708 ] ], [ [ 362405.541843237704597, 2717010.808311983011663 ], [ 362698.89568012394011, 2717936.672300694976002 ], [ 361627.282175252679735, 2717947.259551525581628 ], [ 361333.900609130971134, 2717021.414274 ], [ 362405.541843237704597, 2717010.808311983011663 ] ], [ [ 354604.806442394386977, 2705946.398327640723437 ], [ 354897.128739840583876, 2706871.858297485858202 ], [ 353825.170100725139491, 2706882.996705071534961 ], [ 353532.820145067176782, 2705957.555059641599655 ], [ 354604.806442394386977, 2705946.398327640723437 ] ] ], [ [ [ 364741.205833962187171, 2714201.889848354738206 ], [ 364448.31570062157698, 2713276.080342128872871 ], [ 363376.572927584289573, 2713286.514246223494411 ], [ 363669.490734463906847, 2714212.305051967967302 ], [ 364741.205833962187171, 2714201.889848354738206 ] ] ], [ [ [ 358604.02023584744893, 2715191.340077920351177 ], [ 357532.314101680589374, 2715202.230240739416331 ], [ 357825.588507172418758, 2716127.96443887334317 ], [ 358897.266906696662772, 2716117.092858938500285 ], [ 358604.02023584744893, 2715191.340077920351177 ] ] ], [ [ [ 355975.647206213441677, 2717075.679150818381459 ], [ 358118.958110217994545, 2717053.726180846337229 ], [ 357825.588507172418758, 2716127.96443887334317 ], [ 356753.906911263125949, 2716138.918331735301763 ], [ 356460.604763715702575, 2715213.202689175494015 ], [ 354317.176379983953666, 2715235.394448907580227 ], [ 354610.534033898205962, 2716161.073062241077423 ], [ 355682.222094870288856, 2716149.954539022408426 ], [ 355975.647206213441677, 2717075.679150818381459 ] ] ], [ [ [ 364944.762043401831761, 2721629.975581335369498 ], [ 364651.055339804501273, 2720703.981905443128198 ], [ 363579.528136087930761, 2720714.430439852178097 ], [ 363873.262595113774296, 2721640.405284404754639 ], [ 364944.762043401831761, 2721629.975581335369498 ] ] ], [ [ [ 364167.092203624546528, 2722566.407898327335715 ], [ 363095.61747081723297, 2722576.901245149318129 ], [ 363389.570005987479817, 2723502.912800149992108 ], [ 364461.016959198284894, 2723492.438303813803941 ], [ 364167.092203624546528, 2722566.407898327335715 ] ] ], [ [ [ 359881.174741863040254, 2722608.8762899460271 ], [ 358809.687575201620348, 2722619.699644507374614 ], [ 358515.719036786060315, 2721693.790893590077758 ], [ 357444.200893350935075, 2721704.715444403234869 ], [ 357738.197239951812662, 2722630.60550467018038 ], [ 356666.703712066810112, 2722641.593871924560517 ], [ 356960.823080080095679, 2723567.492897746618837 ], [ 358032.28878397133667, 2723556.523217067122459 ], [ 358620.757454580045305, 2725408.441686874255538 ], [ 360763.568028914742172, 2725386.824976913165301 ], [ 360469.34175663132919, 2724460.814345690887421 ], [ 359397.910216693242546, 2724471.600194602273405 ], [ 359103.751302644144744, 2723545.636070790700614 ], [ 360175.210660139855463, 2723534.831457430031151 ], [ 359881.174741863040254, 2722608.8762899460271 ] ] ], [ [ [ 365826.452991045138333, 2724408.123453453648835 ], [ 365532.460871444898658, 2723482.046333129517734 ], [ 364461.016959198284894, 2723492.438303813803941 ], [ 364755.036859413143247, 2724418.496523073408753 ], [ 365826.452991045138333, 2724408.123453453648835 ] ] ], [ [ [ 360870.132501256535761, 2729101.837053306866437 ], [ 359798.837058263481595, 2729112.611427748110145 ], [ 360093.59491639060434, 2730038.723326158244163 ], [ 361164.86248406174127, 2730027.967828533612192 ], [ 360870.132501256535761, 2729101.837053306866437 ] ] ], [ [ [ 364084.000225821044296, 2729070.010105084162205 ], [ 363012.714061032456812, 2729080.536393428687006 ], [ 363602.157722605275922, 2730932.901514797005802 ], [ 364673.388172731501982, 2730922.413167341612279 ], [ 364084.000225821044296, 2729070.010105084162205 ] ] ], [ [ [ 360093.59491639060434, 2730038.723326158244163 ], [ 359022.324215392814949, 2730049.561549391131848 ], [ 359612.181253956048749, 2731901.831088855862617 ], [ 360683.396164307952859, 2731891.030634572729468 ], [ 360093.59491639060434, 2730038.723326158244163 ] ] ], [ [ [ 365744.615592890884727, 2730912.00756702106446 ], [ 364673.388172731501982, 2730922.413167341612279 ], [ 364968.224860427435488, 2731848.656605340540409 ], [ 366039.424418040667661, 2731838.270037781912833 ], [ 365744.615592890884727, 2730912.00756702106446 ] ] ], [ [ [ 360978.439549240865745, 2732817.226089140865952 ], [ 363120.804244782077149, 2732795.911440756171942 ], [ 362530.924218525760807, 2730943.472610818687826 ], [ 361459.687636501388624, 2730954.126456848811358 ], [ 361754.607956151128747, 2731880.31296053621918 ], [ 360683.396164307952859, 2731891.030634572729468 ], [ 360978.439549240865745, 2732817.226089140865952 ] ] ], [ [ [ 364968.224860427435488, 2731848.656605340540409 ], [ 363897.02228022844065, 2731859.125947365537286 ], [ 364191.981985833030194, 2732785.378324276767671 ], [ 365263.156687707058154, 2732774.928011020179838 ], [ 364968.224860427435488, 2731848.656605340540409 ] ] ] ] } }
]
}
