{
"type": "FeatureCollection",
"name": "urban-2010",
"crs": { "type": "name", "properties": { "name": "urn:ogc:def:crs:EPSG::32737" } },
"features": [
{ "type": "Feature", "properties": { "year": 2010 }, "geometry": { "type": "MultiPolygon", "coordinates": [ [ [ [ 505115.172962163516786, 9219695.203553847968578 ], [ 506222.274584913102444, 9219695.081661812961102 ], [ 506268.856989793712273, 9218798.395675783976912 ], [ 505161.762667527713347, 9218798.518711362034082 ], [ 505115.172962163516786, 9219695.203553847968578 ] ] ], [ [ [ 506454.571188668138348, 9236730.785713301971555 ], [ 507561.810276930686086, 9236730.63832275941968 ], [ 507516.307780634379014, 9237627.200177982449532 ], [ 508623.554223473765887, 9237627.030657907947898 ], [ 508714.598220142826904, 9235833.898378290235996 ], [ 506500.134092263819184, 9235834.218739552423358 ], [ 506454.571188668138348, 9236730.785713301971555 ] ] ], [ [ [ 490051.18306969612604, 9254660.191623762249947 ], [ 492265.944356426829472, 9254660.554745323956013 ], [ 492176.942461452970747, 9256453.402201170101762 ], [ 493284.336687928240281, 9256453.551118511706591 ], [ 493373.324635823315475, 9254660.702195594087243 ], [ 495588.084632479818538, 9254660.928875230252743 ], [ 495632.644704538513906, 9253764.493771536275744 ], [ 496740.017505985160824, 9253764.572180513292551 ], [ 496829.283741106279194, 9251971.682097679004073 ], [ 495721.924929156724829, 9251971.605339467525482 ], [ 495766.645080983755179, 9251075.151995800435543 ], [ 493551.941058435419109, 9251074.931591494008899 ], [ 493507.206887844949961, 9251971.383356394246221 ], [ 490185.128285021986812, 9251970.879214884713292 ], [ 490140.426477796630934, 9252867.322745410725474 ], [ 489033.059392967901658, 9252867.108390469104052 ], [ 488988.403989115497097, 9253763.545197699218988 ], [ 484558.904026515840087, 9253762.457460829988122 ], [ 484514.274059100542217, 9254658.885862469673157 ], [ 482299.507440988731105, 9254658.204374158754945 ], [ 482254.916939948219806, 9255554.62573804333806 ], [ 481147.525861151749268, 9255554.25042081438005 ], [ 481102.981839323241729, 9256450.665308438241482 ], [ 485532.571022005577106, 9256452.032296247780323 ], [ 485443.699136558745522, 9258244.848017672076821 ], [ 486551.10919572878629, 9258245.13417587056756 ], [ 486684.476272808737122, 9255555.89987370185554 ], [ 490006.641469552880153, 9255556.616986839100718 ], [ 490051.18306969612604, 9254660.191623762249947 ] ] ], [ [ [ 470073.578550725302193, 9255549.247998490929604 ], [ 469895.444182032195386, 9259134.859394703060389 ], [ 472110.29561776900664, 9259136.043145090341568 ], [ 472333.027592728671152, 9254654.012005347758532 ], [ 469010.853924420604017, 9254652.205207984894514 ], [ 468966.179437853512354, 9255548.622829578816891 ], [ 470073.578550725302193, 9255549.247998490929604 ] ] ], [ [ [ 477780.784126250015106, 9256449.401863453909755 ], [ 477825.349104771448765, 9255552.988188276067376 ], [ 476717.955568772216793, 9255552.522016931325197 ], [ 476673.383601957000792, 9256448.935342583805323 ], [ 475565.9823790891096, 9256448.446135327219963 ], [ 475476.985005534952506, 9258241.25417935103178 ], [ 477691.814657991519198, 9258242.211231214925647 ], [ 477736.272643868636806, 9257345.809541909024119 ], [ 479951.085685013327748, 9257346.675299171358347 ], [ 479995.583211768476758, 9256450.266846315935254 ], [ 477780.784126250015106, 9256449.401863453909755 ] ] ], [ [ [ 508347.080678476835601, 9265417.265849132090807 ], [ 510562.008410511480179, 9265416.883172124624252 ], [ 510649.708662772551179, 9263624.124642290174961 ], [ 508434.808406872034539, 9263624.511815711855888 ], [ 508347.080678476835601, 9265417.265849132090807 ] ] ], [ [ [ 506934.200163802073803, 9271691.866227047517896 ], [ 508041.711470656271558, 9271691.715987086296082 ], [ 508085.175845882855356, 9270795.383904002606869 ], [ 506977.671347077237442, 9270795.535202773287892 ], [ 507021.195805116847623, 9269899.198215637356043 ], [ 505913.698333163862117, 9269899.328300446271896 ], [ 505870.167057390091941, 9270795.664252854883671 ], [ 504762.6629436291405, 9270795.771054267883301 ], [ 504719.178140375181101, 9271692.100042859092355 ], [ 502504.15668270282913, 9271692.244973303750157 ], [ 502417.319752326759044, 9273484.881278386339545 ], [ 504632.368409952672664, 9273484.74018145725131 ], [ 504675.746629030036274, 9272588.423082703724504 ], [ 506890.782255649450235, 9272588.191296122968197 ], [ 506934.200163802073803, 9271691.866227047517896 ] ] ], [ [ [ 500072.375120956392493, 9276173.838358446955681 ], [ 497857.286072310816962, 9276173.797075305134058 ], [ 497684.78359961847309, 9279758.91410443559289 ], [ 498792.355161154817324, 9279758.949053265154362 ], [ 498878.486213864933234, 9277966.400664675980806 ], [ 499986.044247732905205, 9277966.411957329139113 ], [ 500072.375120956392493, 9276173.838358446955681 ] ] ], [ [ [ 494062.10190623725066, 9286032.391233671456575 ], [ 494104.79414085613098, 9285136.1638557408005 ], [ 492997.181790913629811, 9285136.036858538165689 ], [ 492954.482867140322924, 9286032.263556525111198 ], [ 494062.10190623725066, 9286032.391233671456575 ] ] ], [ [ [ 491846.863616726361215, 9286032.114094987511635 ], [ 491804.211392500030342, 9286928.334348678588867 ], [ 492911.837324950785842, 9286928.484459687024355 ], [ 492954.482867140322924, 9286032.263556525111198 ], [ 491846.863616726361215, 9286032.114094987511635 ] ] ], [ [ [ 490653.979705421777908, 9287824.376331176608801 ], [ 491761.612558616441675, 9287824.548818293958902 ], [ 491804.211392500030342, 9286928.334348678588867 ], [ 490696.585214223188814, 9286928.162480566650629 ], [ 490781.956427731725853, 9285135.71742900274694 ], [ 488566.729958696290851, 9285135.310752460733056 ], [ 488524.004265383817255, 9286031.535003781318665 ], [ 486308.763032195274718, 9286031.040020510554314 ], [ 486223.445157003472559, 9287823.469084192067385 ], [ 487331.079330902837683, 9287823.728490781039 ], [ 487288.507213938748464, 9288719.934884365648031 ], [ 488396.147678205859847, 9288720.17309495806694 ], [ 488353.635647895222064, 9289616.374263007193804 ], [ 489461.282424756267574, 9289616.591329108923674 ], [ 489503.787794391973875, 9288720.389602975919843 ], [ 490611.427595722489059, 9288720.584408454596996 ], [ 490653.979705421777908, 9287824.376331176608801 ] ] ], [ [ [ 514044.322658597375266, 9197274.571016654372215 ], [ 516258.160770014277659, 9197273.900630094110966 ], [ 516353.92239822470583, 9195480.175762813538313 ], [ 514140.114303822920192, 9195480.851901426911354 ], [ 514044.322658597375266, 9197274.571016654372215 ] ] ], [ [ [ 520116.099554820568301, 9208034.133598940446973 ], [ 519009.088862953998614, 9208034.560558684170246 ], [ 518867.827217491751071, 9210724.875385159626603 ], [ 521081.893455648096278, 9210724.006444504484534 ], [ 521175.985218478890602, 9208930.463660838082433 ], [ 520068.966542471549474, 9208930.91324127279222 ], [ 520116.099554820568301, 9208034.133598940446973 ] ] ], [ [ [ 521034.927322652714793, 9211620.768060924485326 ], [ 520988.014355792081915, 9212517.523170799016953 ], [ 519880.966230479010846, 9212517.966624261811376 ], [ 519834.099088786228094, 9213414.713712377473712 ], [ 520941.154555457062088, 9213414.271781915798783 ], [ 520894.347922037763055, 9214311.013902070000768 ], [ 522001.411345987580717, 9214310.549521090462804 ], [ 521954.665203091222793, 9215207.28670141659677 ], [ 524168.808698574721348, 9215206.28919773362577 ], [ 524215.540199125825893, 9214309.548848757520318 ], [ 523108.475427323544864, 9214310.061170011758804 ], [ 523249.010792103945278, 9211619.805944981053472 ], [ 521034.927322652714793, 9211620.768060924485326 ] ] ], [ [ [ 536021.584637976950034, 9221476.226862024515867 ], [ 535975.35798777861055, 9222372.934618568047881 ], [ 537082.499062819057144, 9222372.151855636388063 ], [ 537174.99093326588627, 9220578.72607365436852 ], [ 534960.738827458582819, 9220580.275418723002076 ], [ 534914.451877047307789, 9221476.987770281732082 ], [ 536021.584637976950034, 9221476.226862024515867 ] ] ], [ [ [ 523612.1759211900644, 9225966.669720523059368 ], [ 524719.335911545436829, 9225966.154287628829479 ], [ 524765.422457447391935, 9225069.4896703325212 ], [ 523658.269685658102389, 9225070.006687028333545 ], [ 523612.1759211900644, 9225966.669720523059368 ] ] ], [ [ [ 513647.763804327521939, 9225970.24594515003264 ], [ 512540.609384052164387, 9225970.525229945778847 ], [ 512494.496590791386552, 9226867.167569914832711 ], [ 513601.65823475481011, 9226866.889592308551073 ], [ 513647.763804327521939, 9225970.24594515003264 ] ] ], [ [ [ 513509.606765117438044, 9228660.157833294942975 ], [ 515723.960142470721621, 9228659.536488423123956 ], [ 515815.982775848940946, 9226866.262875325977802 ], [ 513601.65823475481011, 9226866.889592308551073 ], [ 513509.606765117438044, 9228660.157833294942975 ] ] ], [ [ [ 546225.102781504858285, 9238504.039553621783853 ], [ 545117.821907574543729, 9238504.997845297679305 ], [ 545072.666999852284789, 9239401.601655919104815 ], [ 542858.095131084090099, 9239403.444458620622754 ], [ 542812.979088158113882, 9240300.037856478244066 ], [ 543920.271425844519399, 9240299.130079934373498 ], [ 543830.212445475859568, 9242092.301929831504822 ], [ 544937.520191836752929, 9242091.375060053542256 ], [ 544982.516141603467986, 9241194.790255453437567 ], [ 546089.81819096300751, 9241193.838191105052829 ], [ 546225.102781504858285, 9238504.039553621783853 ] ] ], [ [ [ 514643.415197361260653, 9272586.680928649380803 ], [ 514730.209088936680928, 9270794.008887378498912 ], [ 516945.223347592283972, 9270793.372557550668716 ], [ 516988.68650407314999, 9269897.025028767064214 ], [ 518096.187573706323747, 9269896.672182485461235 ], [ 518139.697115877526812, 9269000.317342968657613 ], [ 520354.687292621762026, 9268999.542117044329643 ], [ 520398.236385581607465, 9268103.178556332364678 ], [ 521505.725554527889472, 9268102.756091387942433 ], [ 521549.32099440775346, 9267206.385106382891536 ], [ 522656.803982903715223, 9267205.938883397728205 ], [ 522744.140680445299949, 9265413.175935043022037 ], [ 523851.610675500531215, 9265412.704435415565968 ], [ 523939.146288200805429, 9263619.914338253438473 ], [ 525046.60329462273512, 9263619.417439628392458 ], [ 525222.284763861796819, 9260033.758294956758618 ], [ 526329.715018790680915, 9260033.232808457687497 ], [ 526550.477853940450586, 9255551.013679716736078 ], [ 527657.874338308465667, 9255550.4577556271106 ], [ 527746.537475393852219, 9253757.523945299908519 ], [ 529961.305205227341503, 9253756.337456753477454 ], [ 529872.669824956916273, 9255549.277765322476625 ], [ 532087.46888990898151, 9255548.00691824965179 ], [ 532487.875353424111381, 9247479.550179397687316 ], [ 534702.552921906346455, 9247478.15705693513155 ], [ 534747.293928260914981, 9246581.62726366519928 ], [ 536961.961646703071892, 9246580.138665925711393 ], [ 537006.741695022326894, 9245683.598982155323029 ], [ 539221.399822183069773, 9245682.014682989567518 ], [ 539311.090975073399022, 9243888.908994136378169 ], [ 540418.407745061558671, 9243888.078479882329702 ], [ 540553.3210733741289, 9241198.366985712200403 ], [ 541660.617937323870137, 9241197.507531942799687 ], [ 541750.811136804288253, 9239404.331049075350165 ], [ 539536.246862790896557, 9239406.034608863294125 ], [ 539581.437123967567459, 9238509.440784141421318 ], [ 538474.163852536235936, 9238510.259668948128819 ], [ 538564.717629704624414, 9236717.056849820539355 ], [ 537457.459686207352206, 9236717.856286525726318 ], [ 537502.823227814165875, 9235821.247259294614196 ], [ 539717.326067944872193, 9235819.621273828670382 ], [ 539808.183827163768001, 9234026.376491889357567 ], [ 538700.946053946157917, 9234027.205003498122096 ], [ 538837.65177922998555, 9231337.295828206464648 ], [ 537730.436566792195663, 9231338.106704035773873 ], [ 537776.118358106235974, 9230441.459454394876957 ], [ 535561.705591557198204, 9230443.014603653922677 ], [ 535516.009494101279415, 9231339.658098401501775 ], [ 533301.586670220014639, 9231341.115683820098639 ], [ 533393.06056167150382, 9229547.829601401463151 ], [ 534500.257137984037399, 9229547.10891305282712 ], [ 534637.844479971099645, 9226857.12637204118073 ], [ 536852.197684005368501, 9226855.60331267118454 ], [ 537036.332695161923766, 9223268.855045419186354 ], [ 535929.184391118353233, 9223269.635913703590631 ], [ 535975.35798777861055, 9222372.934618568047881 ], [ 533761.079030839959159, 9222374.428968200460076 ], [ 533853.614358569146134, 9220581.014421232044697 ], [ 532746.490901564713567, 9220581.729643873870373 ], [ 532700.189453029073775, 9221478.438328942283988 ], [ 531593.059723753482103, 9221479.127979563549161 ], [ 531639.368423352367245, 9220582.421086760237813 ], [ 530532.246890839072876, 9220583.088749995455146 ], [ 530439.668081832583994, 9222376.492553735151887 ], [ 529332.532962816418149, 9222377.132965626195073 ], [ 529286.315964198089205, 9223273.823466623201966 ], [ 534822.037161160958931, 9223270.393083861097693 ], [ 534775.909396460978314, 9224167.086061537265778 ], [ 532561.603578491485678, 9224168.525662124156952 ], [ 532469.478391889366321, 9225961.88502743281424 ], [ 533576.645221733022481, 9225961.180670587345958 ], [ 533484.746746532386169, 9227754.517951164394617 ], [ 531270.385273660416715, 9227755.895914815366268 ], [ 531132.892555760103278, 9230445.843148369342089 ], [ 530025.691707252641208, 9230446.491586472839117 ], [ 529979.959821398486383, 9231343.126172102987766 ], [ 528872.752709198044613, 9231343.749431315809488 ], [ 528918.491756695904769, 9230447.116545548662543 ], [ 526704.094416983192787, 9230448.29602699354291 ], [ 526795.760538014699705, 9228655.017792209982872 ], [ 524581.395108180586249, 9228656.109796103090048 ], [ 524673.302504444844089, 9226862.812509166076779 ], [ 523566.135303903080057, 9226863.326361691579223 ], [ 523612.1759211900644, 9225966.669720523059368 ], [ 520290.700053535983898, 9225968.074328884482384 ], [ 520244.637797631439753, 9226864.726392855867743 ], [ 519137.473216975689866, 9226865.145894676446915 ], [ 519091.456926600716542, 9227761.790116719901562 ], [ 517984.285709626798052, 9227762.184590682387352 ], [ 518122.515774398576468, 9225072.23713562451303 ], [ 517015.366749977518339, 9225072.612298842519522 ], [ 516785.213207985274494, 9229555.819180933758616 ], [ 515678.028636124625336, 9229556.163773529231548 ], [ 515586.325246025924571, 9231349.39933960698545 ], [ 512264.731103644531686, 9231350.284170564264059 ], [ 512356.477601146616507, 9229557.05651918426156 ], [ 513463.660865815065335, 9229556.782442606985569 ], [ 513509.606765117438044, 9228660.157833294942975 ], [ 512402.430698957236018, 9228660.433206792920828 ], [ 512448.437028965621721, 9227763.803559616208076 ], [ 511341.26854193204781, 9227764.0566735714674 ], [ 511479.628596481517889, 9225074.133485559374094 ], [ 510372.482127800176386, 9225074.366797352209687 ], [ 510418.715867830615025, 9224177.714279793202877 ], [ 509311.576953826937824, 9224177.925181938335299 ], [ 509357.871193907165434, 9223281.267533313483 ], [ 508250.739812616084237, 9223281.455974649637938 ], [ 508297.094570531742647, 9222384.793166790157557 ], [ 510511.343088749155868, 9222384.390137089416385 ], [ 510604.183294919901527, 9220591.040466003119946 ], [ 508389.963875314570032, 9220591.448417738080025 ], [ 508343.502591559081338, 9221488.123983731493354 ], [ 507236.385993543546647, 9221488.291100906208158 ], [ 507329.376393633428961, 9219694.935964230448008 ], [ 506222.274584913102444, 9219695.081661812961102 ], [ 505990.161749661201611, 9224178.415874224156141 ], [ 507097.299927839601878, 9224178.2759791277349 ], [ 506958.693312650430016, 9226868.203650653362274 ], [ 508065.853419735736679, 9226868.043608698993921 ], [ 507881.819267235114239, 9230454.529857829213142 ], [ 508989.008448060718365, 9230454.350986283272505 ], [ 508943.140262495784555, 9231350.957945929840207 ], [ 510050.336897930654231, 9231350.756804700940847 ], [ 510004.529148282774258, 9232247.35866773314774 ], [ 511111.73326032969635, 9232247.13530801050365 ], [ 511020.291839820449241, 9234040.322604604065418 ], [ 512127.510608383337967, 9234040.078330151736736 ], [ 511899.874477493111044, 9238522.942931618541479 ], [ 513007.12926564575173, 9238522.681637067347765 ], [ 512826.006987578759436, 9242108.865794593468308 ], [ 515040.574497289955616, 9242108.283872999250889 ], [ 514950.360999307828024, 9243901.343729199841619 ], [ 512735.765223862719722, 9243901.920509161427617 ], [ 512780.859490798960906, 9243005.396259125322104 ], [ 511673.569255603593774, 9243005.651289485394955 ], [ 511628.467924432537984, 9243902.174296766519547 ], [ 510521.17097301321337, 9243902.405016170814633 ], [ 510431.113920909643639, 9245695.430007342249155 ], [ 508216.492709629004821, 9245695.817563913762569 ], [ 508171.529970233503263, 9246592.31844980828464 ], [ 505956.895652527862694, 9246592.611732877790928 ], [ 505867.101838981732726, 9248385.590582398697734 ], [ 502545.109402009169571, 9248385.851892119273543 ], [ 502590.000762548064813, 9247489.368649832904339 ], [ 500375.353643976792227, 9247489.430132169276476 ], [ 500330.448213540366851, 9248385.911441342905164 ], [ 499223.117650716274511, 9248385.906818794086576 ], [ 499268.030118117574602, 9247489.426435207948089 ], [ 497053.382967522426043, 9247489.350165026262403 ], [ 496963.583226462476887, 9249282.301272165030241 ], [ 495856.245461834943853, 9249282.227014966309071 ], [ 495811.418591999274213, 9250178.692556850612164 ], [ 498026.108077378477901, 9250178.81986840441823 ], [ 497891.98966241790913, 9252868.184971109032631 ], [ 500106.720935479912441, 9252868.22616720199585 ], [ 500151.359739980194718, 9251971.775439143180847 ], [ 501258.718371128663421, 9251971.760908592492342 ], [ 501303.403499551233836, 9251075.303140038624406 ], [ 503518.106908064975869, 9251075.2036512196064 ], [ 503384.253425304603297, 9253764.564515488222241 ], [ 504491.626239774166606, 9253764.483551502227783 ], [ 504447.121987399237696, 9254660.92598333209753 ], [ 505554.501907834375743, 9254660.823290683329105 ], [ 505643.549754291365389, 9252867.930247070267797 ], [ 506750.915892359800637, 9252867.802678344771266 ], [ 506706.372305350610986, 9253764.253320747986436 ], [ 507813.745622774411459, 9253764.104053946211934 ], [ 507769.262280847295187, 9254660.549684496596456 ], [ 508876.642799742228817, 9254660.378770917654037 ], [ 508832.219685155549087, 9255556.819418009370565 ], [ 509939.607427652634215, 9255556.626908952370286 ], [ 509895.244522669760045, 9256453.062600990757346 ], [ 511002.639510903507471, 9256452.848547756671906 ], [ 510825.7481248472468, 9260038.535113096237183 ], [ 511933.171145790780429, 9260038.303126005455852 ], [ 511889.088316317589488, 9260934.710765991359949 ], [ 512996.518598222231958, 9260934.457409422844648 ], [ 513084.72367858805228, 9259141.633643951267004 ], [ 514192.140536958992016, 9259141.355265997350216 ], [ 514015.97088371188147, 9262726.983473557978868 ], [ 512908.526433211110998, 9262727.256920428946614 ], [ 512864.610194874636363, 9263623.647599751129746 ], [ 518401.871350339322817, 9263622.061813987791538 ], [ 518358.042672427138314, 9264518.452832590788603 ], [ 517250.582607938267756, 9264518.813594127073884 ], [ 517163.071115730155725, 9266311.574840262532234 ], [ 511625.709333953098394, 9266313.029607981443405 ], [ 511669.472734617069364, 9265416.658214662224054 ], [ 510562.008410511480179, 9265416.883172124624252 ], [ 510518.238155345257837, 9266313.253405254334211 ], [ 509410.767291893425863, 9266313.454817188903689 ], [ 509279.75549752736697, 9269002.526102468371391 ], [ 507064.773537561239209, 9269002.855257976800203 ], [ 507021.195805116847623, 9269899.198215637356043 ], [ 510343.689616212563124, 9269898.674305103719234 ], [ 510300.185603615653235, 9270795.014560298994184 ], [ 511407.690928926924244, 9270794.796515308320522 ], [ 511364.24697010422824, 9271691.131938703358173 ], [ 513579.272284074395429, 9271690.631465721875429 ], [ 513492.571250184613746, 9273483.289123414084315 ], [ 515707.625340549275279, 9273482.704690216109157 ], [ 515750.935679071873892, 9272586.376385005190969 ], [ 514643.415197361260653, 9272586.680928649380803 ] ], [ [ 538655.483545241411775, 9234923.828645056113601 ], [ 537548.239811990992166, 9234924.631881218403578 ], [ 537593.709438359132037, 9234028.010144479572773 ], [ 538700.946053946157917, 9234027.205003498122096 ], [ 538655.483545241411775, 9234923.828645056113601 ] ], [ [ 517558.548509569140151, 9258243.958382993936539 ], [ 516451.13719155092258, 9258244.305895896628499 ], [ 516495.352023587329313, 9257347.87499706633389 ], [ 515387.948123057896737, 9257348.201177475973964 ], [ 515343.726366246643011, 9258244.630777422338724 ], [ 513128.906061116489582, 9258245.21264654584229 ], [ 513217.43050903553376, 9256452.352383878082037 ], [ 515432.223090475890785, 9256451.765476528555155 ], [ 515476.551268132578116, 9255555.323666866868734 ], [ 517691.331816414138302, 9255554.643377436324954 ], [ 517558.548509569140151, 9258243.958382993936539 ] ], [ [ 535288.324875277467072, 9235822.779981300234795 ], [ 535333.755681975511834, 9234926.168324111029506 ], [ 536440.997201943653636, 9234925.411774197593331 ], [ 536214.409241143730469, 9239408.415897661820054 ], [ 533999.856299752253108, 9239409.887391017749906 ], [ 534181.077299046446569, 9235823.511368799954653 ], [ 535288.324875277467072, 9235822.779981300234795 ] ], [ [ 534226.51521896594204, 9234926.90153107047081 ], [ 534317.550260260235518, 9233133.662802340462804 ], [ 535424.776471735211089, 9233132.925946276634932 ], [ 535333.755681975511834, 9234926.168324111029506 ], [ 534226.51521896594204, 9234926.90153107047081 ] ] ], [ [ [ 512385.044828238256741, 9273483.54808958619833 ], [ 512428.375517446023878, 9272587.22343310341239 ], [ 511320.856252848636359, 9272587.461393995210528 ], [ 511364.24697010422824, 9271691.131938703358173 ], [ 510256.734840613615233, 9271691.34884294308722 ], [ 510300.185603615653235, 9270795.014560298994184 ], [ 509192.680586999165826, 9270795.210356520488858 ], [ 509105.818708401871845, 9272587.870733285322785 ], [ 510213.337327565881424, 9272587.677160710096359 ], [ 510169.993064829497598, 9273483.999521275982261 ], [ 512385.044828238256741, 9273483.54808958619833 ] ] ] ] } }
]
}
