{
"type": "FeatureCollection",
"name": "urban-2030",
"crs": { "type": "name", "properties": { "name": "urn:ogc:def:crs:EPSG::32737" } },
"features": [
{ "type": "Feature", "properties": { "year": 2030 }, "geometry": { "type": "MultiPolygon", "coordinates": [ [ [ [ 469083.98222868272569, 9231342.580960843712091 ], [ 467976.773435995506588, 9231341.914423257112503 ], [ 467838.689768154057674, 9234031.621781324967742 ], [ 470053.149746888491791, 9234032.932631146162748 ], [ 470099.10964286501985, 9233136.369272477924824 ], [ 468991.887328444980085, 9233135.725747158750892 ], [ 469083.98222868272569, 9231342.580960843712091 ] ] ], [ [ [ 489482.550943706941325, 9243902.405752779915929 ], [ 489437.361452243931126, 9244798.903504496440291 ], [ 490544.66517060744809, 9244799.111771330237389 ], [ 490499.536160643969197, 9245695.604084052145481 ], [ 493821.466965383093338, 9245696.092872980982065 ], [ 493866.574760333984159, 9244799.598327027633786 ], [ 491651.968605983012822, 9244799.296997345983982 ], [ 491697.1439331775764, 9243902.797832053154707 ], [ 489482.550943706941325, 9243902.405752779915929 ] ] ], [ [ [ 476059.294035957078449, 9246587.571974135935307 ], [ 476104.461611520382576, 9245691.09257934987545 ], [ 473889.825852583977394, 9245690.053292313590646 ], [ 473844.644107918604277, 9246586.53205162845552 ], [ 476059.294035957078449, 9246587.571974135935307 ] ] ], [ [ [ 497098.362862193142064, 9246592.865421449765563 ], [ 497143.396105797379278, 9245696.374540992081165 ], [ 496036.086522013705689, 9245696.303665060549974 ], [ 495991.046220582677051, 9246592.793695198372006 ], [ 497098.362862193142064, 9246592.865421449765563 ] ] ], [ [ [ 494793.794835394190159, 9248385.659014154225588 ], [ 494838.735464122495614, 9247489.182059783488512 ], [ 495946.059276495245285, 9247489.277591792866588 ], [ 495991.046220582677051, 9246592.793695198372006 ], [ 494883.729458978225011, 9246592.698982859030366 ], [ 494928.776819590537343, 9245696.209775727242231 ], [ 493821.466965383093338, 9245696.092872980982065 ], [ 493686.46382481866749, 9248385.539734333753586 ], [ 494793.794835394190159, 9248385.659014154225588 ] ] ], [ [ [ 491426.892831362027209, 9249281.700944513082504 ], [ 491516.762967462593224, 9247488.757710946723819 ], [ 490409.438338243518956, 9247488.570343660190701 ], [ 490319.554115005594213, 9249281.512166386470199 ], [ 491426.892831362027209, 9249281.700944513082504 ] ] ], [ [ [ 470387.375543860136531, 9249274.197487218305469 ], [ 470432.417897882754914, 9248377.737623939290643 ], [ 468217.731328479130752, 9248376.467124998569489 ], [ 468172.674842115840875, 9249272.92664591409266 ], [ 470387.375543860136531, 9249274.197487218305469 ] ] ], [ [ [ 465912.953291007259395, 9250168.017449337989092 ], [ 465957.970329185947776, 9249271.564182346686721 ], [ 463743.261739859648515, 9249270.110095685347915 ], [ 463698.230575079040136, 9250166.563245451077819 ], [ 464805.5924598678248, 9250167.301786679774523 ], [ 464670.841728502360638, 9252856.625341355800629 ], [ 465778.223696731962264, 9252857.341200914233923 ], [ 465688.671904405695386, 9254650.193736186251044 ], [ 466796.066894315066747, 9254650.886968554928899 ], [ 466706.743467681575567, 9256443.715757679194212 ], [ 467814.151473082310986, 9256444.386459002271295 ], [ 467948.195955618575681, 9253755.133989691734314 ], [ 466840.808977565728128, 9253754.463609455153346 ], [ 467020.313101651379839, 9250168.71023353561759 ], [ 465912.953291007259395, 9250168.017449337989092 ] ] ], [ [ [ 481505.058411568985321, 9270792.874440049752593 ], [ 481417.855622416944243, 9272585.496978491544724 ], [ 483632.898607826966327, 9272586.197344424203038 ], [ 483545.936960226390511, 9274378.798134064301848 ], [ 484653.471329518943094, 9274379.115979880094528 ], [ 484783.973522968648467, 9271690.204542906954885 ], [ 482568.945207506767474, 9271689.549502532929182 ], [ 482612.566498114087153, 9270793.234862158074975 ], [ 481505.058411568985321, 9270792.874440049752593 ] ] ], [ [ [ 485631.004420658980962, 9277068.271800894290209 ], [ 485761.005238795245532, 9274379.411685997620225 ], [ 484653.471329518943094, 9274379.115979880094528 ], [ 484350.83677923551295, 9280653.037641420960426 ], [ 485458.418115611711983, 9280653.336778206750751 ], [ 485587.777688069618307, 9277964.546798910945654 ], [ 486695.338316976965871, 9277964.822454188019037 ], [ 486738.558275582909118, 9277068.546938773244619 ], [ 485631.004420658980962, 9277068.271800894290209 ] ] ], [ [ [ 495598.977591587987263, 9277069.953968139365315 ], [ 495555.811777697643265, 9277966.23460591584444 ], [ 496663.370012052648235, 9277966.311988975852728 ], [ 496577.211968664836604, 9279758.857180094346404 ], [ 499899.926686482562218, 9279758.96202658675611 ], [ 500072.375120956392493, 9276173.838358446955681 ], [ 497857.286072310816962, 9276173.797075305134058 ], [ 497814.080437120748684, 9277070.085150415077806 ], [ 495598.977591587987263, 9277069.953968139365315 ] ] ], [ [ [ 494319.055899348226376, 9280654.939730303362012 ], [ 494405.134202702611219, 9278862.409228175878525 ], [ 493297.56891224894207, 9278862.287079418078065 ], [ 493254.496327206143178, 9279758.554553899914026 ], [ 492146.924086491984781, 9279758.409727394580841 ], [ 492190.003420842054766, 9278862.142927782610059 ], [ 491082.437695275526494, 9278861.976773247122765 ], [ 490996.318921301164664, 9280654.503235714510083 ], [ 489888.739432953239884, 9280654.313840944319963 ], [ 489845.753405147930607, 9281550.567703440785408 ], [ 488738.166877222713083, 9281550.355773773044348 ], [ 488695.227526500530075, 9282446.603229619562626 ], [ 492018.006410060217604, 9282447.175087669864297 ], [ 492060.925580748124048, 9281550.925799740478396 ], [ 493168.51129484991543, 9281551.071966426447034 ], [ 493211.477121288829949, 9280654.816180368885398 ], [ 494319.055899348226376, 9280654.939730303362012 ] ] ], [ [ [ 491846.863616726361215, 9286032.114094987511635 ], [ 491804.211392500030342, 9286928.334348678588867 ], [ 494019.463044795847964, 9286928.612813614308834 ], [ 494104.79414085613098, 9285136.1638557408005 ], [ 492997.181790913629811, 9285136.036858538165689 ], [ 492954.482867140322924, 9286032.263556525111198 ], [ 491846.863616726361215, 9286032.114094987511635 ] ] ], [ [ [ 490568.928885472530965, 9289616.786719981580973 ], [ 490653.979705421777908, 9287824.376331176608801 ], [ 491761.612558616441675, 9287824.548818293958902 ], [ 491804.211392500030342, 9286928.334348678588867 ], [ 490696.585214223188814, 9286928.162480566650629 ], [ 490867.54123345395783, 9283343.249193079769611 ], [ 489759.941565074201208, 9283343.057966221123934 ], [ 489717.115753507532645, 9284239.294381676241755 ], [ 488609.509066886617802, 9284239.0807113815099 ], [ 488566.729958696290851, 9285135.310752460733056 ], [ 487459.116226434300188, 9285135.07469648681581 ], [ 487501.902038662752602, 9284238.845201963558793 ], [ 485286.686824532982428, 9284238.308665610849857 ], [ 485201.141816249873955, 9286030.759852029383183 ], [ 486308.763032195274718, 9286031.040020510554314 ], [ 486266.077378396352287, 9286927.25743649713695 ], [ 485158.449472645821515, 9286926.976782403886318 ], [ 485115.810569866094738, 9287823.187947645783424 ], [ 486223.445157003472559, 9287823.469084192067385 ], [ 486180.866368365415838, 9288719.674971165135503 ], [ 487288.507213938748464, 9288719.934884365648031 ], [ 487245.988521662249696, 9289616.13552164286375 ], [ 488353.635647895222064, 9289616.374263007193804 ], [ 488311.17703420430189, 9290512.56967917829752 ], [ 489418.830463327816688, 9290512.7873002178967 ], [ 489461.282424756267574, 9289616.591329108923674 ], [ 490568.928885472530965, 9289616.786719981580973 ] ] ], [ [ [ 486138.34101283038035, 9289615.875104978680611 ], [ 486095.869090744643472, 9290512.06949320435524 ], [ 487203.523254419502337, 9290512.330410186201334 ], [ 487245.988521662249696, 9289616.13552164286375 ], [ 486138.34101283038035, 9289615.875104978680611 ] ] ], [ [ [ 512022.342509466921911, 9193687.689825277775526 ], [ 512070.439666285295971, 9192790.809862667694688 ], [ 510963.559604234294966, 9192791.066084438934922 ], [ 510915.454908818530384, 9193687.944692149758339 ], [ 512022.342509466921911, 9193687.689825277775526 ] ] ], [ [ [ 513129.230468915309757, 9193687.410360537469387 ], [ 512022.342509466921911, 9193687.689825277775526 ], [ 511974.298586440971121, 9194584.563157379627228 ], [ 513081.194074668164831, 9194584.285071281716228 ], [ 513129.230468915309757, 9193687.410360537469387 ] ] ], [ [ [ 512937.404248255945276, 9197274.869476890191436 ], [ 514044.322658597375266, 9197274.571016654372215 ], [ 513996.506663659238257, 9198171.420660628005862 ], [ 516210.359758390521165, 9198170.753139406442642 ], [ 516114.917342093947809, 9199964.438348351046443 ], [ 517221.859552725451067, 9199964.070832200348377 ], [ 517460.827161091146991, 9195479.800878405570984 ], [ 516353.92239822470583, 9195480.175762813538313 ], [ 516449.89683040039381, 9193686.424378672614694 ], [ 515343.007596347015351, 9193686.777637284249067 ], [ 515294.986255418742076, 9194583.655187264084816 ], [ 513081.194074668164831, 9194584.285071281716228 ], [ 513033.210906211228576, 9195481.153155729174614 ], [ 511926.307897606748156, 9195481.429866760969162 ], [ 511878.370443360763602, 9196378.289961203932762 ], [ 512985.280963941127993, 9196378.01462166942656 ], [ 512937.404248255945276, 9197274.869476890191436 ] ] ], [ [ [ 524122.130340564879589, 9216103.023060884326696 ], [ 524075.505125486815814, 9216999.750446004793048 ], [ 525182.592553083552048, 9216999.219019973650575 ], [ 525275.881513052852824, 9215205.754531532526016 ], [ 524168.808698574721348, 9215206.28919773362577 ], [ 524356.053552134544589, 9211619.288808846846223 ], [ 522141.968726635386702, 9211620.299028981477022 ], [ 522188.927502869279124, 9210723.535855252295732 ], [ 521081.893455648096278, 9210724.006444504484534 ], [ 521175.985218478890602, 9208930.463660838082433 ], [ 520068.966542471549474, 9208930.91324127279222 ], [ 520116.099554820568301, 9208034.133598940446973 ], [ 519009.088862953998614, 9208034.560558684170246 ], [ 518961.948465930589009, 9208931.33868782967329 ], [ 517854.930955787946004, 9208931.740000575780869 ], [ 517807.836362841015216, 9209828.510124446824193 ], [ 518914.861250646761619, 9209828.110294058918953 ], [ 518867.827217491751071, 9210724.875385159626603 ], [ 519974.860038211918436, 9210724.452954450622201 ], [ 519927.886547084257472, 9211621.213040880858898 ], [ 518820.846366858342662, 9211621.63396891951561 ], [ 518773.918699135072529, 9212518.386053122580051 ], [ 517666.871728685509879, 9212518.781457448378205 ], [ 517619.989900163607672, 9213415.525581520050764 ], [ 520941.154555457062088, 9213414.271781915798783 ], [ 520847.594455924292561, 9215207.749539049342275 ], [ 521954.665203091222793, 9215207.28670141659677 ], [ 521907.972219503484666, 9216104.017402876168489 ], [ 524122.130340564879589, 9216103.023060884326696 ] ] ], [ [ [ 516512.936112057708669, 9213415.895520323887467 ], [ 516466.100138534035068, 9214312.631726339459419 ], [ 517573.161263723333832, 9214312.26322509162128 ], [ 517619.989900163607672, 9213415.525581520050764 ], [ 516512.936112057708669, 9213415.895520323887467 ] ] ], [ [ [ 524028.933053728658706, 9217896.471360895782709 ], [ 524075.505125486815814, 9216999.750446004793048 ], [ 522968.418417358014267, 9217000.257983742281795 ], [ 522921.839050256297924, 9217896.977311078459024 ], [ 524028.933053728658706, 9217896.471360895782709 ] ] ], [ [ [ 526196.618889906210825, 9218792.105580117553473 ], [ 526289.680733232176863, 9216998.663705568760633 ], [ 525182.592553083552048, 9216999.219019973650575 ], [ 525089.516132869408466, 9218792.657613603398204 ], [ 526196.618889906210825, 9218792.105580117553473 ] ] ], [ [ [ 514847.274969553633127, 9224176.63398008979857 ], [ 514893.532958450319711, 9223279.969880551099777 ], [ 513786.399847473774571, 9223280.27680404111743 ], [ 513740.134611069865059, 9224176.939558763056993 ], [ 514847.274969553633127, 9224176.63398008979857 ] ] ], [ [ [ 561210.432098371908069, 9226832.621929101645947 ], [ 561256.22831014462281, 9225935.896227834746242 ], [ 560149.026451019919477, 9225937.19102462567389 ], [ 560240.791822212398984, 9224143.725061353296041 ], [ 559133.606122978497297, 9224145.001158295199275 ], [ 559225.597371395211667, 9222351.514042645692825 ], [ 558118.427837432478555, 9222352.77134438790381 ], [ 557980.498699513496831, 9225042.984923750162125 ], [ 556873.309315555379726, 9225044.211265847086906 ], [ 556644.449365462176502, 9229527.758553536608815 ], [ 557751.674561638734303, 9229526.544194599613547 ], [ 557797.333611536072567, 9228629.845306335017085 ], [ 558904.553390332381241, 9228628.605020398274064 ], [ 558996.015843435772695, 9226835.182966336607933 ], [ 561210.432098371908069, 9226832.621929101645947 ] ] ], [ [ [ 556644.449365462176502, 9229527.758553536608815 ], [ 555537.225863278727047, 9229528.949402764439583 ], [ 555491.605426852940582, 9230425.637078493833542 ], [ 556598.836067748605274, 9230424.448588298633695 ], [ 556644.449365462176502, 9229527.758553536608815 ] ] ], [ [ [ 556507.76816771668382, 9232217.809298239648342 ], [ 557615.014751172740944, 9232216.602088144049048 ], [ 557706.068401355063543, 9230423.236615721136332 ], [ 556598.836067748605274, 9230424.448588298633695 ], [ 556507.76816771668382, 9232217.809298239648342 ] ] ], [ [ [ 505392.902336557628587, 9235834.34394933655858 ], [ 505347.332293500250671, 9236730.909817267209291 ], [ 506454.571188668138348, 9236730.785713301971555 ], [ 506409.061562662711367, 9237627.346438774839044 ], [ 508623.554223473765887, 9237627.030657907947898 ], [ 508760.200109290017281, 9234937.32284820266068 ], [ 506545.750273072335403, 9234937.645509820431471 ], [ 506500.134092263819184, 9235834.218739552423358 ], [ 505392.902336557628587, 9235834.34394933655858 ] ] ], [ [ [ 510126.702052763546817, 9274380.315932312980294 ], [ 512341.76737292931648, 9274379.866790104657412 ], [ 512385.044828238256741, 9273483.54808958619833 ], [ 514600.098076556168962, 9273483.007990304380655 ], [ 514556.834172883478459, 9274379.329089555889368 ], [ 515664.368210779037327, 9274379.027029806748033 ], [ 515707.625340549275279, 9273482.704690216109157 ], [ 517922.681314188113902, 9273482.031588912010193 ], [ 517965.97809197276365, 9272585.700714644044638 ], [ 515750.935679071873892, 9272586.376385005190969 ], [ 515837.715980938985012, 9270793.701846949756145 ], [ 518052.731222091475502, 9270793.021019134670496 ], [ 518009.32806139375316, 9271689.363860620185733 ], [ 519116.843272141122725, 9271688.991405079141259 ], [ 519247.191915858944412, 9268999.940881885588169 ], [ 520354.687292621762026, 9268999.542117044329643 ], [ 520398.236385581607465, 9268103.178556332364678 ], [ 521505.725554527889472, 9268102.756091387942433 ], [ 521549.32099440775346, 9267206.385106382891536 ], [ 522656.803982903715223, 9267205.938883397728205 ], [ 522700.445753869775217, 9266309.560432571917772 ], [ 523807.922589278663509, 9266309.090393600985408 ], [ 523895.351908596523572, 9264516.312419544905424 ], [ 525002.815770836663432, 9264515.817015405744314 ], [ 525222.284763861796819, 9260033.758294956758618 ], [ 526329.715018790680915, 9260033.232808457687497 ], [ 526550.477853940450586, 9255551.013679716736078 ], [ 527657.874338308465667, 9255550.4577556271106 ], [ 527746.537475393852219, 9253757.523945299908519 ], [ 528853.920908317784779, 9253756.942085394635797 ], [ 528809.56972512381617, 9254653.413683351129293 ], [ 529916.960964777390473, 9254652.810694580897689 ], [ 529828.431786136236042, 9256445.738676749169827 ], [ 532043.244699263479561, 9256444.471178166568279 ], [ 532443.173417696962133, 9248376.070212597027421 ], [ 533550.518696556566283, 9248375.386876612901688 ], [ 533595.21363485197071, 9247478.865098346024752 ], [ 535809.893247736035846, 9247477.426055058836937 ], [ 535854.627250876743346, 9246580.894458744674921 ], [ 536961.961646703071892, 9246580.138665925711393 ], [ 537006.741695022326894, 9245683.598982155323029 ], [ 538114.070188207319006, 9245682.818340299651027 ], [ 538069.297148885671049, 9246579.359885092824697 ], [ 539176.633790572639555, 9246578.558116126805544 ], [ 539311.090975073399022, 9243888.908994136378169 ], [ 540418.407745061558671, 9243888.078479882329702 ], [ 540553.3210733741289, 9241198.366985712200403 ], [ 541660.617937323870137, 9241197.507531942799687 ], [ 541615.600854524294846, 9242094.086293356493115 ], [ 542722.906010750564747, 9242093.205674219876528 ], [ 542812.979088158113882, 9240300.037856478244066 ], [ 543920.271425844519399, 9240299.130079934373498 ], [ 543830.212445475859568, 9242092.301929831504822 ], [ 544937.520191836752929, 9242091.375060053542256 ], [ 544982.516141603467986, 9241194.790255453437567 ], [ 546089.81819096300751, 9241193.838191105052829 ], [ 546179.954940608353354, 9239400.645443391054869 ], [ 547287.244263122556731, 9239399.666023217141628 ], [ 547242.156456675147638, 9240296.267669526860118 ], [ 549456.753490061615594, 9240294.243493815883994 ], [ 549546.95383408118505, 9238501.025268184021115 ], [ 550654.240438976092264, 9238499.97403572499752 ], [ 550789.916857658070512, 9235810.092357981950045 ], [ 551897.183746799244545, 9235809.011222347617149 ], [ 551851.912416500039399, 9236705.647055201232433 ], [ 554066.465052593266591, 9236703.419364392757416 ], [ 554157.032296380843036, 9234910.132229395210743 ], [ 551942.5080111019779, 9234912.36899458989501 ], [ 552033.31534018763341, 9233119.065322859212756 ], [ 553140.56247930158861, 9233117.954089429229498 ], [ 553231.567296379595064, 9231324.620206519961357 ], [ 554338.801784145063721, 9231323.480981513857841 ], [ 554384.376445551402867, 9230426.802086489275098 ], [ 552169.923329258919694, 9230429.061656583100557 ], [ 552124.334400687948801, 9231325.735977003350854 ], [ 551017.10306395299267, 9231326.82829313352704 ], [ 550971.559940298786387, 9232223.493936363607645 ], [ 548757.087553017307073, 9232225.60380239225924 ], [ 548575.387604480376467, 9235812.184676725417376 ], [ 546360.864163932041265, 9235814.183726493269205 ], [ 546225.102781504858285, 9238504.039553621783853 ], [ 545117.821907574543729, 9238504.997845297679305 ], [ 545163.029800523421727, 9237608.387683652341366 ], [ 542948.486223480897024, 9237610.238645762205124 ], [ 542858.095131084090099, 9239403.444458620622754 ], [ 541750.811136804288253, 9239404.331049075350165 ], [ 541886.498515040846542, 9236714.518807213753462 ], [ 540779.237010994693264, 9236715.388110291212797 ], [ 540915.422791132936254, 9234025.524609522894025 ], [ 539808.183827163768001, 9234026.376491889357567 ], [ 539853.692244600853883, 9233129.744544912129641 ], [ 538746.461596100707538, 9233130.574992056936026 ], [ 538792.030171322752722, 9232233.938602903857827 ], [ 539899.253686745883897, 9232233.106216821819544 ], [ 539944.868153218063526, 9231336.461499782279134 ], [ 538837.65177922998555, 9231337.295828206464648 ], [ 538883.326419439981692, 9230440.646660137921572 ], [ 536668.91142651590053, 9230442.248768860474229 ], [ 536714.653418884845451, 9229545.597015948966146 ], [ 535607.454746017465368, 9229546.364717939868569 ], [ 535561.705591557198204, 9230443.014603653922677 ], [ 534454.500820116372779, 9230443.756958888843656 ], [ 534546.066520838532597, 9228650.454471845179796 ], [ 535653.256957099889405, 9228649.70843343809247 ], [ 535745.020547592779621, 9226856.376636777073145 ], [ 537959.375922314706258, 9226854.80639960616827 ], [ 538189.64124636980705, 9222371.345367133617401 ], [ 537082.499062819057144, 9222372.151855636388063 ], [ 537174.99093326588627, 9220578.72607365436852 ], [ 534960.738827458582819, 9220580.275418723002076 ], [ 534868.217988151707686, 9222373.693656051531434 ], [ 533761.079030839959159, 9222374.428968200460076 ], [ 533853.614358569146134, 9220581.014421232044697 ], [ 531639.368423352367245, 9220582.421086760237813 ], [ 531685.730209189234301, 9219685.707730708643794 ], [ 529471.502579656196758, 9219687.022787107154727 ], [ 529194.041279773460701, 9225067.185177700594068 ], [ 531408.355795460403897, 9225065.891074635088444 ], [ 531362.312532844836824, 9225962.565768448635936 ], [ 532469.478391889366321, 9225961.88502743281424 ], [ 532423.495418672217056, 9226858.555076496675611 ], [ 533530.669448032742366, 9226857.852518577128649 ], [ 533484.746746532386169, 9227754.517951164394617 ], [ 531270.385273660416715, 9227755.895914815366268 ], [ 531178.670371764805168, 9229549.200458239763975 ], [ 530071.47669194790069, 9229549.85062693990767 ], [ 530117.314775103703141, 9228653.203285701572895 ], [ 527902.944438290549442, 9228654.436490217223763 ], [ 527994.80866489186883, 9226861.129424080252647 ], [ 525780.470442719524726, 9226862.275068776682019 ], [ 525872.57596965203993, 9225068.949011135846376 ], [ 523658.269685658102389, 9225070.006687028333545 ], [ 523704.416596922616009, 9224173.337253421545029 ], [ 522597.271760736650322, 9224173.832187613472342 ], [ 522551.117621182231233, 9225070.500061303377151 ], [ 518122.515774398576468, 9225072.23713562451303 ], [ 518168.698840598925017, 9224175.575228428468108 ], [ 515954.41577190317912, 9224176.304732177406549 ], [ 515862.073902117845137, 9225969.616531832143664 ], [ 513647.763804327521939, 9225970.24594515003264 ], [ 513693.922596560267266, 9225073.595936549827456 ], [ 512586.775408367568161, 9225073.876531971618533 ], [ 512679.267148627841379, 9223280.560031021013856 ], [ 513786.399847473774571, 9223280.27680404111743 ], [ 513832.718305388232693, 9222383.607664631679654 ], [ 512725.592863806523383, 9222383.892212554812431 ], [ 512771.97180850605946, 9221487.218005096539855 ], [ 510557.736568870139308, 9221487.718496464192867 ], [ 510650.68326651561074, 9219694.356037963181734 ], [ 509543.580701346159913, 9219694.573152333498001 ], [ 509590.141213064314798, 9218797.883571777492762 ], [ 507375.951499412709381, 9218798.248807342723012 ], [ 507329.376393633428961, 9219694.935964230448008 ], [ 506222.274584913102444, 9219695.081661812961102 ], [ 506268.856989793712273, 9218798.395675783976912 ], [ 505161.762667527713347, 9218798.518711362034082 ], [ 505022.153413327061571, 9221488.554082466289401 ], [ 506129.269611830764916, 9221488.434467144310474 ], [ 506082.847044396738056, 9222385.101301901042461 ], [ 504975.723570622969419, 9222385.21978404559195 ], [ 504929.347016239946242, 9223281.879120768979192 ], [ 506036.477756879350636, 9223281.761768354102969 ], [ 505990.161749661201611, 9224178.415874224156141 ], [ 507097.299927839601878, 9224178.2759791277349 ], [ 507051.044449986831751, 9225074.924882302060723 ], [ 505943.899023125413805, 9225075.063627235591412 ], [ 505851.533413629455026, 9226868.340105563402176 ], [ 506958.693312650430016, 9226868.203650653362274 ], [ 506912.597653927979991, 9227764.833531273528934 ], [ 508019.764983121247496, 9227764.674656504765153 ], [ 507973.729811913508456, 9228661.299375480040908 ], [ 506866.5552690125769, 9228661.457086488604546 ], [ 506774.630322120676283, 9230454.685251569375396 ], [ 507881.819267235114239, 9230454.529857829213142 ], [ 507835.943894524709322, 9231351.135636644437909 ], [ 508943.140262495784555, 9231350.957945929840207 ], [ 508805.855258476687595, 9234040.741047641262412 ], [ 509913.073400890629273, 9234040.543510422110558 ], [ 509867.425403902947437, 9234937.126505523920059 ], [ 512081.876911742961966, 9234936.663796283304691 ], [ 511854.506958892568946, 9239419.497071785852313 ], [ 512961.768853236164432, 9239419.237036807462573 ], [ 512916.461669171636458, 9240315.786191157996655 ], [ 510701.924038234923501, 9240316.280571253970265 ], [ 510521.17097301321337, 9243902.405016170814633 ], [ 509413.8743364646798, 9243902.612667411565781 ], [ 509368.812128217308782, 9244799.127074401825666 ], [ 508261.508713558607269, 9244799.310500049963593 ], [ 508216.492709629004821, 9245695.817563913762569 ], [ 507109.182489441765938, 9245695.976821972057223 ], [ 507064.212705658806954, 9246592.476584412157536 ], [ 505956.895652527862694, 9246592.611732877790928 ], [ 505911.972104719257914, 9247489.104235587641597 ], [ 503697.324421550612897, 9247489.303470525890589 ], [ 503652.440093950135633, 9248385.787720341235399 ], [ 502545.109402009169571, 9248385.851892119273543 ], [ 502590.000762548064813, 9247489.368649832904339 ], [ 501482.677181072183885, 9247489.410870378836989 ], [ 501617.692258093738928, 9244799.927198097109795 ], [ 500510.389878288377076, 9244799.949338609352708 ], [ 500555.508602823305409, 9243903.443426502868533 ], [ 499448.213308883772697, 9243903.443465271964669 ], [ 499493.39243501360761, 9243006.932325547561049 ], [ 498386.10420491109835, 9243006.910211296752095 ], [ 498250.705604081507772, 9245696.42240353487432 ], [ 499358.015050008893013, 9245696.447252692654729 ], [ 499268.030118117574602, 9247489.426435207948089 ], [ 498160.706570348178502, 9247489.399779494851828 ], [ 498205.679416952771135, 9246592.914161624386907 ], [ 497098.362862193142064, 9246592.865421449765563 ], [ 496963.583226462476887, 9249282.301272165030241 ], [ 495856.245461834943853, 9249282.227014966309071 ], [ 495811.418591999274213, 9250178.692556850612164 ], [ 492489.383340589760337, 9250178.330013196915388 ], [ 492534.231291073316243, 9249281.866818411275744 ], [ 491426.892831362027209, 9249281.700944513082504 ], [ 491382.037851291650441, 9250178.163411557674408 ], [ 490274.69210399419535, 9250177.97393300011754 ], [ 490140.426477796630934, 9252867.322745410725474 ], [ 489033.059392967901658, 9252867.108390469104052 ], [ 489077.768207234621514, 9251970.665523108094931 ], [ 487970.407802432775497, 9251970.429008977487683 ], [ 487925.691979771247134, 9252866.871240487322211 ], [ 485710.956035643233918, 9252866.32855524495244 ], [ 485755.685879165423103, 9251969.887513505294919 ], [ 484648.324294390913565, 9251969.58253207989037 ], [ 484558.904026515840087, 9253762.457460829988122 ], [ 483451.527962874271907, 9253762.128606984391809 ], [ 483406.890998481540009, 9254658.556488631293178 ], [ 481192.123353462317027, 9254657.829518998041749 ], [ 481147.525861151749268, 9255554.25042081438005 ], [ 477825.349104771448765, 9255552.988188276067376 ], [ 477914.639548784412909, 9253760.142817437648773 ], [ 476807.260014677362051, 9253759.677355041727424 ], [ 476717.955568772216793, 9255552.522016931325197 ], [ 474503.16637198952958, 9255551.521533075720072 ], [ 474458.580424482468516, 9256447.934241607785225 ], [ 473351.177704971050844, 9256447.399661349132657 ], [ 473395.770644880423788, 9255550.987220412120223 ], [ 472288.37412107543787, 9255550.43019381724298 ], [ 472422.495148487796541, 9252861.157634723931551 ], [ 473529.87064031988848, 9252861.713920671492815 ], [ 473574.677696157654282, 9251965.277469903230667 ], [ 474682.045369261060841, 9251965.810679180547595 ], [ 474906.84830482036341, 9247483.536499628797174 ], [ 473799.515889128437266, 9247483.004744151607156 ], [ 473754.441196582571138, 9248379.471377454698086 ], [ 472647.100926870945841, 9248378.916392147541046 ], [ 472512.176851758675184, 9251068.279222119599581 ], [ 471404.814600488520227, 9251067.700595904141665 ], [ 471270.351263951684814, 9253757.008516730740666 ], [ 470162.96706565155182, 9253756.406443234533072 ], [ 470342.38674214418279, 9250170.651316395029426 ], [ 469235.02979406650411, 9250170.027166962623596 ], [ 469190.087496441905387, 9251066.474791405722499 ], [ 468082.722577358479612, 9251065.82761293835938 ], [ 468037.82679969468154, 9251962.269074145704508 ], [ 469145.198760300932918, 9251962.91640017926693 ], [ 468876.991154984221794, 9257341.440146530047059 ], [ 469984.404255220142659, 9257342.065628852695227 ], [ 469895.444182032195386, 9259134.859394703060389 ], [ 472110.29561776900664, 9259136.043145090341568 ], [ 472154.734935375512578, 9258239.648862553760409 ], [ 473262.152415182907134, 9258240.206600124016404 ], [ 473306.638294950767886, 9257343.806118734180927 ], [ 475521.456935624533799, 9257344.853148624300957 ], [ 475432.566589181718882, 9259137.64923507347703 ], [ 476539.98873041535262, 9259138.139389237388968 ], [ 476584.400182416080497, 9258241.744021166115999 ], [ 478799.228465428459458, 9258242.655809570103884 ], [ 478843.679481245344505, 9257346.253750007599592 ], [ 479951.085685013327748, 9257346.675299171358347 ], [ 479995.583211768476758, 9256450.266846315935254 ], [ 481102.981839323241729, 9256450.665308438241482 ], [ 481058.491288338671438, 9257347.074189459905028 ], [ 484380.704827317968011, 9257348.134907677769661 ], [ 484336.288641425198875, 9258244.539228180423379 ], [ 486551.10919572878629, 9258245.13417587056756 ], [ 486639.967151612625457, 9256452.317328291013837 ], [ 488854.758243696182035, 9256452.819334799423814 ], [ 488677.311684400425293, 9260038.433804612606764 ], [ 490892.157054594252259, 9260038.850310996174812 ], [ 490936.424697289068718, 9259142.454410461708903 ], [ 492043.840019576018676, 9259142.62810748629272 ], [ 491955.371996291622054, 9260935.415282368659973 ], [ 494170.229682350123767, 9260935.697788137942553 ], [ 494126.089589554700069, 9261832.083821333944798 ], [ 495233.52507024462102, 9261832.192017359659076 ], [ 495366.084689318027813, 9259143.01357601955533 ], [ 494258.669982422317844, 9259142.907690243795514 ], [ 494302.970188973413315, 9258246.503610283136368 ], [ 493195.562252869596705, 9258246.375870106741786 ], [ 493284.336687928240281, 9256453.551118511706591 ], [ 494391.73071328754304, 9256453.677350167185068 ], [ 494436.191030321933795, 9255557.255154743790627 ], [ 493328.803972953814082, 9255557.129682283848524 ], [ 493373.324635823315475, 9254660.702195594087243 ], [ 496695.464416059083305, 9254661.008104629814625 ], [ 496740.017505985160824, 9253764.572180513292551 ], [ 497847.390209817269351, 9253764.627821914851665 ], [ 497802.844100686488673, 9254661.064593767747283 ], [ 498910.22371952055255, 9254661.098342651501298 ], [ 498821.305466832651291, 9256453.955420283600688 ], [ 499928.698984063928947, 9256453.968223737552762 ], [ 500106.720935479912441, 9252868.22616720199585 ], [ 501214.086560226918664, 9252868.212572939693928 ], [ 501169.508067211834714, 9253764.658140745013952 ], [ 502276.880712169164326, 9253764.622711900621653 ], [ 502187.897623782162555, 9255557.497499223798513 ], [ 503295.284276772406884, 9255557.441268108785152 ], [ 503250.879655599128455, 9256453.870520368218422 ], [ 504358.273363269923721, 9256453.79258131608367 ], [ 504225.400134121591691, 9259143.046929202973843 ], [ 503117.985608842747752, 9259143.121872967109084 ], [ 503073.794200061820447, 9260039.526881329715252 ], [ 504181.215647745702881, 9260039.452929427847266 ], [ 504137.084456980403047, 9260935.852884562686086 ], [ 505244.512942592671607, 9260935.757372161373496 ], [ 505288.637220668490045, 9260039.35640113055706 ], [ 506396.058952002145816, 9260039.237296424806118 ], [ 506351.94158530223649, 9260935.639310663565993 ], [ 508566.79947469686158, 9260935.335540305823088 ], [ 508522.749189209134784, 9261831.733672384172678 ], [ 507415.313232431886718, 9261831.895737569779158 ], [ 507283.461303249117918, 9264521.050643429160118 ], [ 508390.917910751246382, 9264520.891842322424054 ], [ 508259.566006921115331, 9267209.995834060013294 ], [ 507152.088824224076234, 9267210.151400411501527 ], [ 507195.826377722609323, 9266313.790485171601176 ], [ 506088.356260638451204, 9266313.924741268157959 ], [ 506044.611855833092704, 9267210.284608822315931 ], [ 504937.135068563453387, 9267210.395459309220314 ], [ 504893.43710126040969, 9268106.748319452628493 ], [ 506000.920732744736597, 9268106.638486092910171 ], [ 505870.167057390091941, 9270795.664252854883671 ], [ 503655.158972604142036, 9270795.855607025325298 ], [ 503611.667357416707091, 9271692.183618744835258 ], [ 502504.15668270282913, 9271692.244973303750157 ], [ 502373.981251084886026, 9274381.19053659774363 ], [ 503481.512315113446675, 9274381.132011380046606 ], [ 503524.844028313586023, 9273484.821813274174929 ], [ 504632.368409952672664, 9273484.74018145725131 ], [ 504589.04348350019427, 9274381.051346771419048 ], [ 505696.574789444275666, 9274380.948542758822441 ], [ 505653.309933034819551, 9275277.254773588851094 ], [ 507868.38664064637851, 9275276.984811836853623 ], [ 507954.942520755983423, 9273484.36228564940393 ], [ 510169.993064829497598, 9273483.999521275982261 ], [ 510126.702052763546817, 9274380.315932312980294 ] ], [ [ 530025.691707252641208, 9230446.491586472839117 ], [ 528918.491756695904769, 9230447.116545548662543 ], [ 528964.283911406761035, 9229550.477289291098714 ], [ 530071.47669194790069, 9229549.85062693990767 ], [ 530025.691707252641208, 9230446.491586472839117 ] ], [ [ 508610.903022580838297, 9260038.931357709690928 ], [ 507503.480874915840104, 9260039.095615291967988 ], [ 507680.455402046442032, 9256453.422650214284658 ], [ 508787.849830771447159, 9256453.253968466073275 ], [ 508832.219685155549087, 9255556.819418009370565 ], [ 509939.607427652634215, 9255556.626908952370286 ], [ 509850.934869863616768, 9257349.492200788110495 ], [ 510958.336797793919686, 9257349.279313154518604 ], [ 510869.891104400565382, 9259142.122588129714131 ], [ 509762.475322247366421, 9259142.333154430612922 ], [ 509674.228787728061434, 9260935.149831399321556 ], [ 508566.79947469686158, 9260935.335540305823088 ], [ 508610.903022580838297, 9260038.931357709690928 ] ], [ [ 509630.185401292459574, 9261831.549085352569818 ], [ 509586.195269223593641, 9262727.94229320064187 ], [ 508478.752166479709558, 9262728.125761626288295 ], [ 508522.749189209134784, 9261831.733672384172678 ], [ 509630.185401292459574, 9261831.549085352569818 ] ], [ [ 505739.892930442059878, 9273484.636382926255465 ], [ 506847.417622977809515, 9273484.51041766256094 ], [ 506804.106266144895926, 9274380.823599327355623 ], [ 505696.574789444275666, 9274380.948542758822441 ], [ 505739.892930442059878, 9273484.636382926255465 ] ], [ [ 510649.708662772551179, 9263624.124642290174961 ], [ 511757.159252710058354, 9263623.897354677319527 ], [ 511713.289374323969241, 9264520.280799455940723 ], [ 510605.831913108529989, 9264520.506920365616679 ], [ 510649.708662772551179, 9263624.124642290174961 ] ], [ [ 491069.548000698850956, 9256453.23059812374413 ], [ 492176.942461452970747, 9256453.402201170101762 ], [ 492088.154112971329596, 9258246.225498871877789 ], [ 490980.745736113574822, 9258246.052496552467346 ], [ 491069.548000698850956, 9256453.23059812374413 ] ], [ [ 523612.1759211900644, 9225966.669720523059368 ], [ 524719.335911545436829, 9225966.154287628829479 ], [ 524673.302504444844089, 9226862.812509166076779 ], [ 523566.135303903080057, 9226863.326361691579223 ], [ 523612.1759211900644, 9225966.669720523059368 ] ] ], [ [ [ 499814.022440036467742, 9281551.488627247512341 ], [ 499771.150310749013443, 9282447.743145920336246 ], [ 498663.558611235115677, 9282447.727675503119826 ], [ 498577.960934834321961, 9284240.217538811266422 ], [ 500793.171139347483404, 9284240.229938369244337 ], [ 500835.929910516308155, 9283343.986250480636954 ], [ 501943.528334880829789, 9283343.958814382553101 ], [ 502029.192422888008878, 9281551.452147072181106 ], [ 499814.022440036467742, 9281551.488627247512341 ] ] ], [ [ [ 496362.750559732259717, 9284240.117783449590206 ], [ 496320.01834354159655, 9285136.352415112778544 ], [ 498535.24210475361906, 9285136.453727865591645 ], [ 498577.960934834321961, 9284240.217538811266422 ], [ 496362.750559732259717, 9284240.117783449590206 ] ] ] ] } }
]
}
