{
"type": "FeatureCollection",
"name": "urban-1980",
"crs": { "type": "name", "properties": { "name": "urn:ogc:def:crs:EPSG::32737" } },
"features": [
{ "type": "Feature", "properties": { "year": 1980 }, "geometry": { "type": "MultiPolygon", "coordinates": [ [ [ [ 507607.366042418405414, 9235834.070215877145529 ], [ 507516.307780634379014, 9237627.200177982449532 ], [ 508623.554223473765887, 9237627.030657907947898 ], [ 508714.598220142826904, 9235833.898378290235996 ], [ 507607.366042418405414, 9235834.070215877145529 ] ] ], [ [ [ 499223.117650716274511, 9248385.906818794086576 ], [ 497008.456422156130429, 9248385.828779377043247 ], [ 496963.583226462476887, 9249282.301272165030241 ], [ 498070.920900192053523, 9249282.352625224739313 ], [ 497936.642458123911638, 9251971.73603368923068 ], [ 500151.359739980194718, 9251971.775439143180847 ], [ 500285.596107552468311, 9249282.38661895878613 ], [ 499178.258516171365045, 9249282.381074154749513 ], [ 499223.117650716274511, 9248385.906818794086576 ] ] ], [ [ [ 493507.206887844949961, 9251971.383356394246221 ], [ 494614.565989122085739, 9251971.505759043619037 ], [ 494659.29314965714002, 9251075.05321841686964 ], [ 493551.941058435419109, 9251074.931591494008899 ], [ 493507.206887844949961, 9251971.383356394246221 ] ] ], [ [ [ 494569.89219655416673, 9252867.952215349301696 ], [ 495677.258136886113789, 9252868.052595496177673 ], [ 495721.924929156724829, 9251971.605339467525482 ], [ 494614.565989122085739, 9251971.505759043619037 ], [ 494569.89219655416673, 9252867.952215349301696 ] ] ], [ [ [ 491203.15185945428675, 9253763.952459592372179 ], [ 493417.898676172655541, 9253764.268650807440281 ], [ 493507.206887844949961, 9251971.383356394246221 ], [ 491292.488068950246088, 9251971.070084339007735 ], [ 491247.793267413158901, 9252867.514305341988802 ], [ 489033.059392967901658, 9252867.108390469104052 ], [ 488988.403989115497097, 9253763.545197699218988 ], [ 486773.654799891985022, 9253763.046864880248904 ], [ 486729.038822356960736, 9254659.476388435810804 ], [ 484514.274059100542217, 9254658.885862469673157 ], [ 484469.697536519379355, 9255555.308232421055436 ], [ 487791.865026254323311, 9255556.161624545231462 ], [ 487836.42059131647693, 9254659.737540654838085 ], [ 491158.563845438009594, 9254660.384554721415043 ], [ 491203.15185945428675, 9253763.952459592372179 ] ] ], [ [ [ 514860.799045816063881, 9268104.955915194004774 ], [ 512645.827459405176342, 9268105.510542333126068 ], [ 512689.477544462482911, 9267209.14998871460557 ], [ 510474.521147970983293, 9267209.617627434432507 ], [ 510430.857388750591781, 9268105.975846350193024 ], [ 509323.372838866547681, 9268106.17500227689743 ], [ 509279.75549752736697, 9269002.526102468371391 ], [ 511494.738569835782982, 9269002.107733495533466 ], [ 511451.188128957292065, 9269898.455116134136915 ], [ 513666.186217154550832, 9269897.949909809976816 ], [ 513709.723019992292393, 9269001.600150803104043 ], [ 514817.215844734339043, 9269001.312904216349125 ], [ 514860.799045816063881, 9268104.955915194004774 ] ] ], [ [ [ 489631.624349069665186, 9286031.749818643555045 ], [ 486308.763032195274718, 9286031.040020510554314 ], [ 486266.077378396352287, 9286927.25743649713695 ], [ 487373.704872205504216, 9286927.516333322972059 ], [ 487288.507213938748464, 9288719.934884365648031 ], [ 490611.427595722489059, 9288720.584408454596996 ], [ 490696.585214223188814, 9286928.162480566650629 ], [ 489588.958756897016428, 9286927.968855321407318 ], [ 489631.624349069665186, 9286031.749818643555045 ] ] ], [ [ [ 522141.968726635386702, 9211620.299028981477022 ], [ 521954.665203091222793, 9215207.28670141659677 ], [ 523061.736606280843262, 9215206.799921002238989 ], [ 523249.010792103945278, 9211619.805944981053472 ], [ 522141.968726635386702, 9211620.299028981477022 ] ] ], [ [ [ 522505.016636804677546, 9225967.161538315936923 ], [ 520290.700053535983898, 9225968.074328884482384 ], [ 520198.628714436432347, 9227761.372082566842437 ], [ 522412.974135119409766, 9227760.465333431959152 ], [ 522321.144258743617684, 9229553.743635190650821 ], [ 524535.521119783050381, 9229552.748877074569464 ], [ 524673.302504444844089, 9226862.812509166076779 ], [ 522458.968807990080677, 9226863.816626433283091 ], [ 522505.016636804677546, 9225967.161538315936923 ] ] ], [ [ [ 525642.710634329123423, 9229552.21623919531703 ], [ 526749.900915708392859, 9229551.660095328465104 ], [ 526795.760538014699705, 9228655.017792209982872 ], [ 525688.577439014101401, 9228655.575560810044408 ], [ 525642.710634329123423, 9229552.21623919531703 ] ] ], [ [ [ 526658.341042217682116, 9231344.925594992935658 ], [ 528872.752709198044613, 9231343.749431315809488 ], [ 528918.491756695904769, 9230447.116545548662543 ], [ 526704.094416983192787, 9230448.29602699354291 ], [ 526658.341042217682116, 9231344.925594992935658 ] ] ], [ [ [ 524443.932564369635656, 9231346.007952932268381 ], [ 523336.729438583424781, 9231346.51395495608449 ], [ 523291.007712418038864, 9232243.132405543699861 ], [ 524398.217998117092066, 9232242.627963379025459 ], [ 524352.556573341134936, 9233139.241632543504238 ], [ 526566.99366610031575, 9233138.165671147406101 ], [ 526658.341042217682116, 9231344.925594992935658 ], [ 525551.136421209434047, 9231345.478499636054039 ], [ 525642.710634329123423, 9229552.21623919531703 ], [ 524535.521119783050381, 9229552.748877074569464 ], [ 524443.932564369635656, 9231346.007952932268381 ] ] ], [ [ [ 513439.673095070873387, 9251970.094805162400007 ], [ 513484.281289260601625, 9251073.624898262321949 ], [ 516806.345489494444337, 9251072.687352862209082 ], [ 516672.743370289972518, 9253762.090281652286649 ], [ 517780.119987121259328, 9253761.736104805022478 ], [ 517913.701185028010514, 9251072.329137997701764 ], [ 520128.414218203106429, 9251071.544158348813653 ], [ 519994.874851125525311, 9253760.959447037428617 ], [ 522209.632109974161722, 9253760.091716768220067 ], [ 522165.239243223681115, 9254656.554049164056778 ], [ 517735.699305398506112, 9254658.19280649535358 ], [ 517691.331816414138302, 9255554.643377436324954 ], [ 521013.506695131072775, 9255553.452592827379704 ], [ 520969.213212158705574, 9256449.90120299346745 ], [ 519861.814064528560266, 9256450.319429935887456 ], [ 519773.372756423370447, 9258243.195462848991156 ], [ 518665.960353470989503, 9258243.588238663971424 ], [ 518577.717938545276411, 9260036.437094023451209 ], [ 520792.570967316918541, 9260035.634469088166952 ], [ 520748.543329702632036, 9260932.052530623972416 ], [ 519641.109626051853411, 9260932.463733250275254 ], [ 519597.128272536152508, 9261828.874313224107027 ], [ 518489.688269860518631, 9261829.261598547920585 ], [ 518401.871350339322817, 9263622.061813987791538 ], [ 519509.325102607253939, 9263621.67725426889956 ], [ 519465.503286924213171, 9264518.069630779325962 ], [ 518358.042672427138314, 9264518.452832590788603 ], [ 518314.267182898125611, 9265414.837802071124315 ], [ 517206.800263271084987, 9265415.197236273437738 ], [ 517163.071115730155725, 9266311.574840262532234 ], [ 516055.597863599890843, 9266311.910564795136452 ], [ 515968.285490397247486, 9268104.645105350762606 ], [ 518183.259848243556917, 9268103.956492876634002 ], [ 518226.875770443759393, 9267207.589624501764774 ], [ 520441.838651623053011, 9267206.808970851823688 ], [ 520529.202701499278191, 9265414.051694720983505 ], [ 522744.140680445299949, 9265413.175935043022037 ], [ 522787.888762266258709, 9264516.785383081063628 ], [ 521680.42629866336938, 9264517.235906086862087 ], [ 521724.234393742633983, 9263620.84073181822896 ], [ 525046.60329462273512, 9263619.417439628392458 ], [ 525090.443956183968112, 9262723.011787436902523 ], [ 523982.993813951616175, 9262723.510183809325099 ], [ 524026.89448548166547, 9261827.099948477 ], [ 522919.451935558929108, 9261827.577323313802481 ], [ 522963.412634718231857, 9260931.162476323544979 ], [ 524070.848302426631562, 9260930.683624517172575 ], [ 524114.855264421494212, 9260034.261204194277525 ], [ 525222.284763861796819, 9260033.758294956758618 ], [ 525266.337972866138443, 9259137.328259687870741 ], [ 526373.761331405839883, 9259136.801235031336546 ], [ 526639.15487329591997, 9253758.083036558702588 ], [ 527746.537475393852219, 9253757.523945299908519 ], [ 527790.948719611391425, 9252861.047791659832001 ], [ 528898.325200136750937, 9252860.464315893128514 ], [ 528853.920908317784779, 9253756.942085394635797 ], [ 529961.305205227341503, 9253756.337456753477454 ], [ 529916.960964777390473, 9254652.810694580897689 ], [ 532131.746164825046435, 9254651.536492416635156 ], [ 532220.459965991671197, 9252858.577111897990108 ], [ 531113.080790168838575, 9252859.228976106271148 ], [ 531202.020846140920185, 9251066.248244164511561 ], [ 532309.38609979627654, 9251065.592974385246634 ], [ 532487.875353424111381, 9247479.550179397687316 ], [ 533595.21363485197071, 9247478.865098346024752 ], [ 533639.961645709350705, 9246582.337080797180533 ], [ 535854.627250876743346, 9246580.894458744674921 ], [ 535899.414309480460361, 9245684.356608677655458 ], [ 537006.741695022326894, 9245683.598982155323029 ], [ 537051.574790071696043, 9244787.053033486008644 ], [ 539266.218883808585815, 9244785.464978264644742 ], [ 539400.994245013454929, 9242095.778156409040093 ], [ 538293.692725452710874, 9242096.589400582015514 ], [ 538203.775381590705365, 9243889.716438172385097 ], [ 535989.147591580986045, 9243891.262116078287363 ], [ 536124.145421321620233, 9241201.573278961703181 ], [ 535016.85429356538225, 9241202.316972425207496 ], [ 535061.966738803312182, 9240305.74326247908175 ], [ 532847.401721033267677, 9240307.164765452966094 ], [ 532892.581371571985073, 9239410.588328283280134 ], [ 533999.856299752253108, 9239409.887391017749906 ], [ 534045.081946759019047, 9238513.302869156002998 ], [ 532937.814099649898708, 9238514.00558502972126 ], [ 533073.830745339510031, 9235824.219440780580044 ], [ 531966.585181032889523, 9235824.904197350144386 ], [ 532240.094335330533795, 9230445.171231139451265 ], [ 530025.691707252641208, 9230446.491586472839117 ], [ 529979.959821398486383, 9231343.126172102987766 ], [ 528872.752709198044613, 9231343.749431315809488 ], [ 528827.066769296536222, 9232240.375954387709498 ], [ 527719.853366011520848, 9232240.974092852324247 ], [ 527674.213387864059769, 9233137.592595295980573 ], [ 526566.99366610031575, 9233138.165671147406101 ], [ 526475.858790403464809, 9234931.38038607686758 ], [ 527583.092782141873613, 9234930.810576850548387 ], [ 527537.612155328970402, 9235827.410071538761258 ], [ 526430.371041163336486, 9235827.978252539411187 ], [ 526384.936418166849762, 9236724.569802043959498 ], [ 524170.442296612774953, 9236725.63305189833045 ], [ 524215.891151679679751, 9235829.044670106843114 ], [ 523108.652310114761349, 9235829.54290683567524 ], [ 523199.723710034915712, 9234036.350300857797265 ], [ 522092.499823591380846, 9234036.828264273703098 ], [ 522046.930412026238628, 9234933.426202204078436 ], [ 517618.01258554647211, 9234935.098548704758286 ], [ 517572.467809133464471, 9235831.684372838586569 ], [ 516465.232618444599211, 9235832.042722970247269 ], [ 516510.784529250639025, 9234935.458281196653843 ], [ 515403.556966843549162, 9234935.794672152027488 ], [ 515449.169223063741811, 9234039.205294605344534 ], [ 514341.949266887211706, 9234039.519675195217133 ], [ 514296.329865204461385, 9234936.10772162117064 ], [ 512081.876911742961966, 9234936.663796283304691 ], [ 512036.29644995671697, 9235833.242981769144535 ], [ 513143.529869183723349, 9235832.97788823209703 ], [ 513052.542906024493277, 9237626.119984211400151 ], [ 511945.295232454955112, 9237626.38254171051085 ], [ 511899.874477493111044, 9238522.942931618541479 ], [ 513007.12926564575173, 9238522.681637067347765 ], [ 512961.768853236164432, 9239419.237036807462573 ], [ 514069.031135399825871, 9239418.95379701256752 ], [ 514023.731047797773499, 9240315.504234880208969 ], [ 515131.000846037175506, 9240315.199101060628891 ], [ 515040.574497289955616, 9242108.283872999250889 ], [ 516147.858910703798756, 9242107.958227790892124 ], [ 516193.038401898229495, 9241211.417628735303879 ], [ 517300.3162228387082, 9241211.067501785233617 ], [ 517210.024587750725914, 9243004.145181711763144 ], [ 516102.732623812858947, 9243004.492594553157687 ], [ 516012.639664442569483, 9244797.542662128806114 ], [ 517119.945737837231718, 9244797.197949977591634 ], [ 517164.958564459695481, 9243900.674675934016705 ], [ 519379.558184428547975, 9243899.913348956033587 ], [ 519334.559454911504872, 9244796.439402285963297 ], [ 520441.86716487351805, 9244796.025566631928086 ], [ 520396.928653823910281, 9245692.546828094869852 ], [ 521504.244012467330322, 9245692.111405737698078 ], [ 521414.540556162770372, 9247485.138191336765885 ], [ 520307.211148903239518, 9247485.570714544504881 ], [ 520262.432155777758453, 9248382.073355020955205 ], [ 519155.096343328303192, 9248382.481501637026668 ], [ 519244.721537076460663, 9246589.472859274595976 ], [ 518137.400335139594972, 9246589.860857138410211 ], [ 518047.76110428001266, 9248382.866716293618083 ], [ 514725.75849606905831, 9248383.884769067168236 ], [ 514905.334070289623924, 9244797.864333221688867 ], [ 512690.724187144078314, 9244798.438552424311638 ], [ 512735.765223862719722, 9243901.920509161427617 ], [ 510521.17097301321337, 9243902.405016170814633 ], [ 510431.113920909643639, 9245695.430007342249155 ], [ 509323.803175736626144, 9245695.635292379185557 ], [ 509278.847479395277333, 9246592.137329045683146 ], [ 508171.529970233503263, 9246592.31844980828464 ], [ 508126.620495742710773, 9247488.813165439292789 ], [ 511448.594989554781932, 9247488.20436879992485 ], [ 511403.759855147858616, 9248384.69643609970808 ], [ 508081.764286529272795, 9248385.301718503236771 ], [ 507992.211665412236471, 9250178.260367717593908 ], [ 506884.866307247488294, 9250178.414041839540005 ], [ 506929.622995600628201, 9249281.938900945708156 ], [ 505822.284855683858041, 9249282.070781 ], [ 505867.101838981732726, 9248385.590582398697734 ], [ 503652.440093950135633, 9248385.787720341235399 ], [ 503607.609065589436796, 9249282.265828607603908 ], [ 502500.271349111979362, 9249282.328996190801263 ], [ 502590.000762548064813, 9247489.368649832904339 ], [ 501482.677181072183885, 9247489.410870378836989 ], [ 501437.778786255512387, 9248385.893132451921701 ], [ 500330.448213540366851, 9248385.911441342905164 ], [ 500285.596107552468311, 9249282.38661895878613 ], [ 501392.93370748317102, 9249282.36925963871181 ], [ 501348.141945125826169, 9250178.83925960958004 ], [ 502455.48660422564717, 9250178.799969719722867 ], [ 502410.755167720199097, 9251075.264820381999016 ], [ 503518.106908064975869, 9251075.2036512196064 ], [ 503562.831336837727576, 9250178.737803008407354 ], [ 504670.176176111621317, 9250178.652759466320276 ], [ 504625.458753736922517, 9251075.119632540270686 ], [ 506840.162893676373642, 9251074.883046578615904 ], [ 506795.512755257543176, 9251971.345922850072384 ], [ 505688.153604131890461, 9251971.474564433097839 ], [ 505643.549754291365389, 9252867.930247070267797 ], [ 507858.282232561788987, 9252867.652314683422446 ], [ 507902.872109843126964, 9251971.194459017366171 ], [ 511224.951725899823941, 9251970.603133765980601 ], [ 511180.382797532191034, 9252867.064453829079866 ], [ 510073.015651991474442, 9252867.283202452585101 ], [ 509939.607427652634215, 9255556.626908952370286 ], [ 511046.995467799017206, 9255556.411686822772026 ], [ 511135.867111481493339, 9253763.519647559151053 ], [ 512243.241563724528532, 9253763.279310002923012 ], [ 512287.75027783313999, 9252866.822910156100988 ], [ 515609.855058859393466, 9252865.961508456617594 ], [ 515654.396073792362586, 9251969.495186788961291 ], [ 513439.673095070873387, 9251970.094805162400007 ] ], [ [ 532802.275148413726129, 9241203.734904339537024 ], [ 531694.987064746208489, 9241204.409143006429076 ], [ 531740.120703011169098, 9240307.840748669579625 ], [ 532847.401721033267677, 9240307.164765452966094 ], [ 532802.275148413726129, 9241203.734904339537024 ] ], [ [ 529934.281034769723192, 9232239.754391629248857 ], [ 529888.655347747495398, 9233136.376252854242921 ], [ 528781.433937372756191, 9233136.996122561395168 ], [ 528827.066769296536222, 9232240.375954387709498 ], [ 529934.281034769723192, 9232239.754391629248857 ] ], [ [ 513753.048162232793402, 9245694.676070887595415 ], [ 513618.425219149736222, 9248384.178256433457136 ], [ 512511.092349891900085, 9248384.44881209731102 ], [ 512600.801805849070661, 9246591.45604950375855 ], [ 510386.165266289492138, 9246591.933222096413374 ], [ 510431.113920909643639, 9245695.430007342249155 ], [ 513753.048162232793402, 9245694.676070887595415 ] ], [ [ 523272.625804106646683, 9254656.087507644668221 ], [ 523361.450787098496221, 9252863.153735911473632 ], [ 525576.198221752885729, 9252862.146355383098125 ], [ 525487.401049708831124, 9254655.086201502010226 ], [ 523272.625804106646683, 9254656.087507644668221 ] ], [ [ 522343.129661874554586, 9251070.667778404429555 ], [ 523450.4883705311222, 9251070.195313157513738 ], [ 523405.943003944412339, 9251966.677609784528613 ], [ 522298.57731966895517, 9251967.148589130491018 ], [ 522343.129661874554586, 9251070.667778404429555 ] ], [ [ 521235.771622149564791, 9251071.117393447086215 ], [ 521280.384107398160268, 9250174.631869692355394 ], [ 522387.735161824850366, 9250174.180792747065425 ], [ 522343.129661874554586, 9251070.667778404429555 ], [ 521235.771622149564791, 9251071.117393447086215 ] ], [ [ 534971.79490989621263, 9242098.884385155513883 ], [ 534836.935132067534141, 9244788.548918087035418 ], [ 533729.616883608861826, 9244789.262296689674258 ], [ 533684.762728752801195, 9245685.802816176787019 ], [ 532577.438467277679592, 9245686.491397375240922 ], [ 532712.181238436955027, 9242996.856318451464176 ], [ 533819.484407256008126, 9242996.162461942061782 ], [ 533864.497775295050815, 9242099.603131087496877 ], [ 534971.79490989621263, 9242098.884385155513883 ] ], [ [ 519469.715182795538567, 9242106.842553908005357 ], [ 519424.610093848255929, 9243003.381068745627999 ], [ 518317.317066716321278, 9243003.774673128500581 ], [ 518407.594561459147371, 9241210.694224458187819 ], [ 520622.152924277761485, 9241209.878218445926905 ], [ 520577.001727895170916, 9242106.424416340887547 ], [ 519469.715182795538567, 9242106.842553908005357 ] ], [ [ 524125.046584920724854, 9237622.215131279081106 ], [ 524079.70401698135538, 9238518.790916018188 ], [ 522972.443846484587993, 9238519.284534255042672 ], [ 522927.147329787549097, 9239415.852499384433031 ], [ 524034.414593173249159, 9239415.360413886606693 ], [ 523943.995179455552716, 9241208.480580072849989 ], [ 522836.713755424192641, 9241208.969610203057528 ], [ 522881.903965974808671, 9240312.414188778027892 ], [ 521774.630302747245878, 9240312.881566895172 ], [ 521910.541135095758364, 9237623.18218001909554 ], [ 524125.046584920724854, 9237622.215131279081106 ] ], [ [ 517481.537836539093405, 9237624.837159289047122 ], [ 517436.152641112566926, 9238521.404137097299099 ], [ 514114.384442955488339, 9238522.397110383957624 ], [ 514250.76368159300182, 9235832.689480617642403 ], [ 515357.997920305118896, 9235832.377758879214525 ], [ 515267.039457781123929, 9237625.525090826675296 ], [ 517481.537836539093405, 9237624.837159289047122 ] ] ], [ [ [ 514324.826585259812418, 9256452.070273157209158 ], [ 514369.16170576272998, 9255555.62974165007472 ], [ 515476.551268132578116, 9255555.323666866868734 ], [ 515520.932655660668388, 9254658.875740777701139 ], [ 514413.550044522795361, 9254659.183097014203668 ], [ 514457.991601171437651, 9253762.730331538245082 ], [ 512243.241563724528532, 9253763.279310002923012 ], [ 512198.786083909741137, 9254659.729587912559509 ], [ 513306.167864993098192, 9254659.467712711542845 ], [ 513217.43050903553376, 9256452.352383878082037 ], [ 514324.826585259812418, 9256452.070273157209158 ] ] ] ] } }
]
}
