{
"type": "FeatureCollection",
"name": "urban-1995",
"crs": { "type": "name", "properties": { "name": "urn:ogc:def:crs:EPSG::32737" } },
"features": [
{ "type": "Feature", "properties": { "year": 1995 }, "geometry": { "type": "MultiPolygon", "coordinates": [ [ [ [ 506222.274584913102444, 9219695.081661812961102 ], [ 506268.856989793712273, 9218798.395675783976912 ], [ 505161.762667527713347, 9218798.518711362034082 ], [ 505115.172962163516786, 9219695.203553847968578 ], [ 506222.274584913102444, 9219695.081661812961102 ] ] ], [ [ [ 506222.274584913102444, 9219695.081661812961102 ], [ 506082.847044396738056, 9222385.101301901042461 ], [ 507189.970700000936631, 9222384.959096156060696 ], [ 507329.376393633428961, 9219694.935964230448008 ], [ 506222.274584913102444, 9219695.081661812961102 ] ] ], [ [ [ 508297.094570531742647, 9222384.793166790157557 ], [ 509404.218689083121717, 9222384.603513777256012 ], [ 509497.073443186469376, 9220591.256331024691463 ], [ 508389.963875314570032, 9220591.448417738080025 ], [ 508297.094570531742647, 9222384.793166790157557 ] ] ], [ [ [ 511203.387649289914407, 9230453.922809666022658 ], [ 511387.335320412414148, 9226867.421960318461061 ], [ 510280.174390512402169, 9226867.652763560414314 ], [ 510418.715867830615025, 9224177.714279793202877 ], [ 508204.438318195403554, 9224178.112415039911866 ], [ 508297.094570531742647, 9222384.793166790157557 ], [ 507189.970700000936631, 9222384.959096156060696 ], [ 506958.693312650430016, 9226868.203650653362274 ], [ 508065.853419735736679, 9226868.043608698993921 ], [ 507973.729811913508456, 9228661.299375480040908 ], [ 509080.904593250888865, 9228661.118132034316659 ], [ 508943.140262495784555, 9231350.957945929840207 ], [ 511157.533833943190984, 9231350.532212922349572 ], [ 511111.73326032969635, 9232247.13530801050365 ], [ 513326.142514547915198, 9232246.618318732827902 ], [ 513371.928740150819067, 9231350.01267758756876 ], [ 512264.731103644531686, 9231350.284170564264059 ], [ 512310.577735916303936, 9230453.673504529520869 ], [ 511203.387649289914407, 9230453.922809666022658 ] ] ], [ [ [ 507561.810276930686086, 9236730.63832275941968 ], [ 507516.307780634379014, 9237627.200177982449532 ], [ 508623.554223473765887, 9237627.030657907947898 ], [ 508714.598220142826904, 9235833.898378290235996 ], [ 506500.134092263819184, 9235834.218739552423358 ], [ 506454.571188668138348, 9236730.785713301971555 ], [ 507561.810276930686086, 9236730.63832275941968 ] ] ], [ [ [ 504536.18378520081751, 9252868.035020878538489 ], [ 504580.79462331085233, 9251971.580383783206344 ], [ 503473.435779639810789, 9251971.663380919024348 ], [ 503428.817951930337586, 9252868.116999784484506 ], [ 504536.18378520081751, 9252868.035020878538489 ] ] ], [ [ [ 505598.999188736779615, 9253764.379819925874472 ], [ 505643.549754291365389, 9252867.930247070267797 ], [ 504536.18378520081751, 9252868.035020878538489 ], [ 504491.626239774166606, 9253764.483551502227783 ], [ 505598.999188736779615, 9253764.379819925874472 ] ] ], [ [ [ 491158.563845438009594, 9254660.384554721415043 ], [ 491203.15185945428675, 9253763.952459592372179 ], [ 492310.52538293635007, 9253764.121939022094011 ], [ 492221.416715810075402, 9255556.981496829539537 ], [ 493328.803972953814082, 9255557.129682283848524 ], [ 493417.898676172655541, 9253764.268650807440281 ], [ 495632.644704538513906, 9253764.493771536275744 ], [ 495766.645080983755179, 9251075.151995800435543 ], [ 493551.941058435419109, 9251074.931591494008899 ], [ 493507.206887844949961, 9251971.383356394246221 ], [ 491292.488068950246088, 9251971.070084339007735 ], [ 491247.793267413158901, 9252867.514305341988802 ], [ 489033.059392967901658, 9252867.108390469104052 ], [ 488988.403989115497097, 9253763.545197699218988 ], [ 486773.654799891985022, 9253763.046864880248904 ], [ 486729.038822356960736, 9254659.476388435810804 ], [ 484514.274059100542217, 9254658.885862469673157 ], [ 484425.174459137604572, 9256451.72457829117775 ], [ 485532.571022005577106, 9256452.032296247780323 ], [ 485488.10836053075036, 9257348.443163046613336 ], [ 486595.511459131259471, 9257348.728759810328484 ], [ 486684.476272808737122, 9255555.89987370185554 ], [ 488899.25341411435511, 9255556.400662245228887 ], [ 488943.801996041845996, 9254659.975952418521047 ], [ 491158.563845438009594, 9254660.384554721415043 ] ] ], [ [ [ 469939.897440655564424, 9258238.465491069480777 ], [ 471047.316621589940041, 9258239.068492896854877 ], [ 471002.870334160630591, 9259135.462572328746319 ], [ 472110.29561776900664, 9259136.043145090341568 ], [ 472288.37412107543787, 9255550.43019381724298 ], [ 470073.578550725302193, 9255549.247998490929604 ], [ 469939.897440655564424, 9258238.465491069480777 ] ] ], [ [ [ 506977.671347077237442, 9270795.535202773287892 ], [ 507021.195805116847623, 9269899.198215637356043 ], [ 505913.698333163862117, 9269899.328300446271896 ], [ 505826.68906477233395, 9271691.994245631620288 ], [ 503611.667357416707091, 9271692.183618744835258 ], [ 503568.229042533959728, 9272588.505684945732355 ], [ 506890.782255649450235, 9272588.191296122968197 ], [ 506934.200163802073803, 9271691.866227047517896 ], [ 508041.711470656271558, 9271691.715987086296082 ], [ 508085.175845882855356, 9270795.383904002606869 ], [ 506977.671347077237442, 9270795.535202773287892 ] ] ], [ [ [ 502460.711562984855846, 9272588.566093169152737 ], [ 502417.319752326759044, 9273484.881278386339545 ], [ 503524.844028313586023, 9273484.821813274174929 ], [ 503568.229042533959728, 9272588.505684945732355 ], [ 502460.711562984855846, 9272588.566093169152737 ] ] ], [ [ [ 490739.244121776660904, 9286031.942849036306143 ], [ 486308.763032195274718, 9286031.040020510554314 ], [ 486223.445157003472559, 9287823.469084192067385 ], [ 487331.079330902837683, 9287823.728490781039 ], [ 487288.507213938748464, 9288719.934884365648031 ], [ 488396.147678205859847, 9288720.17309495806694 ], [ 488353.635647895222064, 9289616.374263007193804 ], [ 489461.282424756267574, 9289616.591329108923674 ], [ 489503.787794391973875, 9288720.389602975919843 ], [ 490611.427595722489059, 9288720.584408454596996 ], [ 490739.244121776660904, 9286031.942849036306143 ] ] ], [ [ [ 516306.014983424684033, 9196377.041507162153721 ], [ 516353.92239822470583, 9195480.175762813538313 ], [ 514140.114303822920192, 9195480.851901426911354 ], [ 514092.191872117226012, 9196377.714766183868051 ], [ 516306.014983424684033, 9196377.041507162153721 ] ] ], [ [ [ 519880.966230479010846, 9212517.966624261811376 ], [ 519834.099088786228094, 9213414.713712377473712 ], [ 522048.210647803905886, 9213413.805854104459286 ], [ 521954.665203091222793, 9215207.28670141659677 ], [ 523061.736606280843262, 9215206.799921002238989 ], [ 523249.010792103945278, 9211619.805944981053472 ], [ 522141.968726635386702, 9211620.299028981477022 ], [ 522095.063108149915934, 9212517.055692667141557 ], [ 519880.966230479010846, 9212517.966624261811376 ] ] ], [ [ [ 531593.059723753482103, 9221479.127979563549161 ], [ 531639.368423352367245, 9220582.421086760237813 ], [ 530532.246890839072876, 9220583.088749995455146 ], [ 530439.668081832583994, 9222376.492553735151887 ], [ 529332.532962816418149, 9222377.132965626195073 ], [ 529286.315964198089205, 9223273.823466623201966 ], [ 532607.745791106252, 9223271.836330246180296 ], [ 532653.941082747769542, 9222375.140555124729872 ], [ 533761.079030839959159, 9222374.428968200460076 ], [ 533853.614358569146134, 9220581.014421232044697 ], [ 532746.490901564713567, 9220581.729643873870373 ], [ 532700.189453029073775, 9221478.438328942283988 ], [ 531593.059723753482103, 9221479.127979563549161 ] ] ], [ [ [ 535929.184391118353233, 9223269.635913703590631 ], [ 535975.35798777861055, 9222372.934618568047881 ], [ 533761.079030839959159, 9222374.428968200460076 ], [ 533714.890972189721651, 9223271.126556003466249 ], [ 535929.184391118353233, 9223269.635913703590631 ] ] ], [ [ [ 536852.197684005368501, 9226855.60331267118454 ], [ 536990.219373064814135, 9224165.551778178662062 ], [ 532561.603578491485678, 9224168.525662124156952 ], [ 532423.495418672217056, 9226858.555076496675611 ], [ 536852.197684005368501, 9226855.60331267118454 ] ] ], [ [ [ 531270.385273660416715, 9227755.895914815366268 ], [ 531178.670371764805168, 9229549.200458239763975 ], [ 532285.864983968203887, 9229548.526783095672727 ], [ 532331.6887143276399, 9228651.875946514308453 ], [ 533438.877117617521435, 9228651.176976168528199 ], [ 533484.746746532386169, 9227754.517951164394617 ], [ 531270.385273660416715, 9227755.895914815366268 ] ] ], [ [ [ 533347.297079078387469, 9230444.475834680721164 ], [ 533393.06056167150382, 9229547.829601401463151 ], [ 532285.864983968203887, 9229548.526783095672727 ], [ 532240.094335330533795, 9230445.171231139451265 ], [ 533347.297079078387469, 9230444.475834680721164 ] ] ], [ [ [ 537730.436566792195663, 9231338.106704035773873 ], [ 537776.118358106235974, 9230441.459454394876957 ], [ 535561.705591557198204, 9230443.014603653922677 ], [ 535516.009494101279415, 9231339.658098401501775 ], [ 537730.436566792195663, 9231338.106704035773873 ] ] ], [ [ [ 515707.625340549275279, 9273482.704690216109157 ], [ 515750.935679071873892, 9272586.376385005190969 ], [ 514643.415197361260653, 9272586.680928649380803 ], [ 514773.685858987853862, 9269897.66389238089323 ], [ 515881.185943564225454, 9269897.355598714202642 ], [ 515837.715980938985012, 9270793.701846949756145 ], [ 516945.223347592283972, 9270793.372557550668716 ], [ 517032.20285948808305, 9269000.671500349417329 ], [ 518139.697115877526812, 9269000.317342968657613 ], [ 518183.259848243556917, 9268103.956492876634002 ], [ 519290.747827882994898, 9268103.578690141439438 ], [ 519334.356921364204027, 9267207.210476871579885 ], [ 520441.838651623053011, 9267206.808970851823688 ], [ 520485.494090382650029, 9266310.433352887630463 ], [ 522700.445753869775217, 9266309.560432571917772 ], [ 522831.689998967456631, 9263620.388768959790468 ], [ 525046.60329462273512, 9263619.417439628392458 ], [ 525090.443956183968112, 9262723.011787436902523 ], [ 523982.993813951616175, 9262723.510183809325099 ], [ 524026.89448548166547, 9261827.099948477 ], [ 525134.337755154701881, 9261826.600051086395979 ], [ 525222.284763861796819, 9260033.758294956758618 ], [ 526329.715018790680915, 9260033.232808457687497 ], [ 526550.477853940450586, 9255551.013679716736078 ], [ 527657.874338308465667, 9255550.4577556271106 ], [ 527746.537475393852219, 9253757.523945299908519 ], [ 529961.305205227341503, 9253756.337456753477454 ], [ 529872.669824956916273, 9255549.277765322476625 ], [ 532087.46888990898151, 9255548.00691824965179 ], [ 532487.875353424111381, 9247479.550179397687316 ], [ 534702.552921906346455, 9247478.15705693513155 ], [ 534747.293928260914981, 9246581.62726366519928 ], [ 535854.627250876743346, 9246580.894458744674921 ], [ 535899.414309480460361, 9245684.356608677655458 ], [ 538114.070188207319006, 9245682.818340299651027 ], [ 538158.89626590127591, 9244786.270527262240648 ], [ 539266.218883808585815, 9244785.464978264644742 ], [ 539400.994245013454929, 9242095.778156409040093 ], [ 540508.2969436586136, 9242094.943787377327681 ], [ 540553.3210733741289, 9241198.366985712200403 ], [ 541660.617937323870137, 9241197.507531942799687 ], [ 541705.688031543046236, 9240300.922453124076128 ], [ 540598.398222864605486, 9240301.783870011568069 ], [ 540643.528391751693562, 9239405.194432444870472 ], [ 539536.246862790896557, 9239406.034608863294125 ], [ 539491.109628986683674, 9240302.622107265517116 ], [ 538383.822216775035486, 9240303.437165018171072 ], [ 538564.717629704624414, 9236717.056849820539355 ], [ 537457.459686207352206, 9236717.856286525726318 ], [ 537366.891732230549678, 9238511.055319733917713 ], [ 536259.620729918708093, 9238511.827736619859934 ], [ 536169.250804818002507, 9240304.9977425057441 ], [ 535061.966738803312182, 9240305.74326247908175 ], [ 535107.132245231419802, 9239409.163247514516115 ], [ 533999.856299752253108, 9239409.887391017749906 ], [ 534090.360662563471124, 9237616.712030036374927 ], [ 532983.099904889939353, 9237617.416527897119522 ], [ 533210.325075241853483, 9233134.376260923221707 ], [ 535424.776471735211089, 9233132.925946276634932 ], [ 535516.009494101279415, 9231339.658098401501775 ], [ 533301.586670220014639, 9231341.115683820098639 ], [ 533255.929335480555892, 9232237.749156631529331 ], [ 532148.712284744717181, 9232238.440992850810289 ], [ 532240.094335330533795, 9230445.171231139451265 ], [ 530025.691707252641208, 9230446.491586472839117 ], [ 529979.959821398486383, 9231343.126172102987766 ], [ 528872.752709198044613, 9231343.749431315809488 ], [ 528918.491756695904769, 9230447.116545548662543 ], [ 526704.094416983192787, 9230448.29602699354291 ], [ 526795.760538014699705, 9228655.017792209982872 ], [ 524581.395108180586249, 9228656.109796103090048 ], [ 524673.302504444844089, 9226862.812509166076779 ], [ 522458.968807990080677, 9226863.816626433283091 ], [ 522505.016636804677546, 9225967.161538315936923 ], [ 520290.700053535983898, 9225968.074328884482384 ], [ 520244.637797631439753, 9226864.726392855867743 ], [ 519137.473216975689866, 9226865.145894676446915 ], [ 519091.456926600716542, 9227761.790116719901562 ], [ 521305.80110624054214, 9227760.930488159880042 ], [ 521259.852393590437714, 9228657.571302941069007 ], [ 519045.493817704205867, 9228658.427975695580244 ], [ 518999.583890667709056, 9229555.059479366987944 ], [ 517892.398281796311494, 9229555.451082898303866 ], [ 517846.53435363312019, 9230452.07480893842876 ], [ 516739.342095106898341, 9230452.441504200920463 ], [ 516693.524181623011827, 9231349.057494511827826 ], [ 517800.723616477334872, 9231348.692198611795902 ], [ 517663.610554866318125, 9234038.506426963955164 ], [ 514341.949266887211706, 9234039.519675195217133 ], [ 514387.621886261971667, 9233142.925333600491285 ], [ 512173.197539499320555, 9233143.48657564073801 ], [ 512127.510608383337967, 9234040.078330151736736 ], [ 513234.729739699570928, 9234039.810687027871609 ], [ 513189.103191210480873, 9234936.397429650649428 ], [ 512081.876911742961966, 9234936.663796283304691 ], [ 511899.874477493111044, 9238522.942931618541479 ], [ 513007.12926564575173, 9238522.681637067347765 ], [ 512871.207713827374391, 9241212.329107845202088 ], [ 513978.484180526749697, 9241212.048431716859341 ], [ 513933.290533960738685, 9242108.586395252496004 ], [ 516147.858910703798756, 9242107.958227790892124 ], [ 516012.639664442569483, 9244797.542662128806114 ], [ 517119.945737837231718, 9244797.197949977591634 ], [ 517074.986108255514409, 9245693.715011578053236 ], [ 515967.672992710198741, 9245694.058378407731652 ], [ 515922.75952677760506, 9246590.567893318831921 ], [ 514815.439854063617531, 9246590.886931743472815 ], [ 514905.334070289623924, 9244797.864333221688867 ], [ 513798.028922237048391, 9244798.162963304668665 ], [ 513843.062904441787396, 9243901.643653320148587 ], [ 510521.17097301321337, 9243902.405016170814633 ], [ 510431.113920909643639, 9245695.430007342249155 ], [ 509323.803175736626144, 9245695.635292379185557 ], [ 509278.847479395277333, 9246592.137329045683146 ], [ 508171.529970233503263, 9246592.31844980828464 ], [ 508126.620495742710773, 9247488.813165439292789 ], [ 505911.972104719257914, 9247489.104235587641597 ], [ 505867.101838981732726, 9248385.590582398697734 ], [ 502545.109402009169571, 9248385.851892119273543 ], [ 502590.000762548064813, 9247489.368649832904339 ], [ 500375.353643976792227, 9247489.430132169276476 ], [ 500330.448213540366851, 9248385.911441342905164 ], [ 499223.117650716274511, 9248385.906818794086576 ], [ 499268.030118117574602, 9247489.426435207948089 ], [ 498160.706570348178502, 9247489.399779494851828 ], [ 498115.787064638047013, 9248385.879264807328582 ], [ 497008.456422156130429, 9248385.828779377043247 ], [ 496963.583226462476887, 9249282.301272165030241 ], [ 498070.920900192053523, 9249282.352625224739313 ], [ 497891.98966241790913, 9252868.184971109032631 ], [ 500106.720935479912441, 9252868.22616720199585 ], [ 500196.051870403869543, 9251075.318610195070505 ], [ 504625.458753736922517, 9251075.119632540270686 ], [ 504580.79462331085233, 9251971.580383783206344 ], [ 505688.153604131890461, 9251971.474564433097839 ], [ 505643.549754291365389, 9252867.930247070267797 ], [ 508965.648808053054381, 9252867.47915606200695 ], [ 508876.642799742228817, 9254660.378770917654037 ], [ 509984.023584445181768, 9254660.185116980224848 ], [ 509939.607427652634215, 9255556.626908952370286 ], [ 511046.995467799017206, 9255556.411686822772026 ], [ 511002.639510903507471, 9256452.848547756671906 ], [ 512110.034828637726605, 9256452.61180873028934 ], [ 512065.739053914148826, 9257349.043767044320703 ], [ 513173.141671387653332, 9257348.785562422126532 ], [ 513217.43050903553376, 9256452.352383878082037 ], [ 515432.223090475890785, 9256451.765476528555155 ], [ 515520.932655660668388, 9254658.875740777701139 ], [ 516628.315731565526221, 9254658.545643955469131 ], [ 516583.941293962299824, 9255554.994878811761737 ], [ 517691.331816414138302, 9255554.643377436324954 ], [ 517558.548509569140151, 9258243.958382993936539 ], [ 518665.960353470989503, 9258243.588238663971424 ], [ 518577.717938545276411, 9260036.437094023451209 ], [ 517470.292275434185285, 9260036.804541179910302 ], [ 517514.393795214302372, 9259140.384508160874248 ], [ 516406.975562103674747, 9259140.730698149651289 ], [ 516451.13719155092258, 9258244.305895896628499 ], [ 514236.316000490973238, 9258244.933027623221278 ], [ 514192.140536958992016, 9259141.355265997350216 ], [ 515299.55782040808117, 9259141.054284079000354 ], [ 515255.442485907638911, 9260037.471705155447125 ], [ 514148.018293150118552, 9260037.771422075107694 ], [ 514103.949269429082051, 9260934.181503558531404 ], [ 515211.380363111442421, 9260933.883048361167312 ], [ 515167.371452385035809, 9261830.28832140006125 ], [ 516274.80989295989275, 9261829.968602582812309 ], [ 516230.861077528388705, 9262726.369095653295517 ], [ 517338.306887195969466, 9262726.028164524585009 ], [ 517294.418149367091246, 9263622.423906113952398 ], [ 518401.871350339322817, 9263622.061813987791538 ], [ 518314.267182898125611, 9265414.837802071124315 ], [ 517206.800263271084987, 9265415.197236273437738 ], [ 517163.071115730155725, 9266311.574840262532234 ], [ 516055.597863599890843, 9266311.910564795136452 ], [ 516011.915073882963043, 9267208.280844822525978 ], [ 512689.477544462482911, 9267209.14998871460557 ], [ 512733.180860900029074, 9266312.783425338566303 ], [ 510518.238155345257837, 9266313.253405254334211 ], [ 510474.521147970983293, 9267209.617627434432507 ], [ 509367.04343710874673, 9267209.817909743636847 ], [ 509236.191413451277185, 9269898.871217992156744 ], [ 511451.188128957292065, 9269898.455116134136915 ], [ 511407.690928926924244, 9270794.796515308320522 ], [ 512515.196596123278141, 9270794.556221516802907 ], [ 512471.759440193534829, 9271690.892812974750996 ], [ 513579.272284074395429, 9271690.631465721875429 ], [ 513492.571250184613746, 9273483.289123414084315 ], [ 515707.625340549275279, 9273482.704690216109157 ] ], [ [ 537276.535953097627498, 9240304.229043390601873 ], [ 537231.437630044994876, 9241200.806433675810695 ], [ 538338.730952869751491, 9241200.016436453908682 ], [ 538293.692725452710874, 9242096.589400582015514 ], [ 536079.093091031769291, 9242098.142514836043119 ], [ 536169.250804818002507, 9240304.9977425057441 ], [ 537276.535953097627498, 9240304.229043390601873 ] ], [ [ 533954.683721919544041, 9240306.465603426098824 ], [ 532847.401721033267677, 9240307.164765452966094 ], [ 532892.581371571985073, 9239410.588328283280134 ], [ 533999.856299752253108, 9239409.887391017749906 ], [ 533954.683721919544041, 9240306.465603426098824 ] ], [ [ 511091.404668114089873, 9254659.968722656369209 ], [ 513306.167864993098192, 9254659.467712711542845 ], [ 513261.772573692840524, 9255555.913103209808469 ], [ 511046.995467799017206, 9255556.411686822772026 ], [ 511091.404668114089873, 9254659.968722656369209 ] ], [ [ 514413.550044522795361, 9254659.183097014203668 ], [ 514457.991601171437651, 9253762.730331538245082 ], [ 515565.367252692230977, 9253762.421690545976162 ], [ 515520.932655660668388, 9254658.875740777701139 ], [ 514413.550044522795361, 9254659.183097014203668 ] ], [ [ 512558.686984874890186, 9269898.213651048019528 ], [ 513666.186217154550832, 9269897.949909809976816 ], [ 513622.702638394956011, 9270794.293678887188435 ], [ 512515.196596123278141, 9270794.556221516802907 ], [ 512558.686984874890186, 9269898.213651048019528 ] ], [ [ 518754.415511708823033, 9256450.714970702305436 ], [ 518798.722868651617318, 9255554.269162684679031 ], [ 519906.114483837212902, 9255553.87223450280726 ], [ 519861.814064528560266, 9256450.319429935887456 ], [ 518754.415511708823033, 9256450.714970702305436 ] ], [ [ 523272.625804106646683, 9254656.087507644668221 ], [ 523317.011720362759661, 9253759.623699281364679 ], [ 524424.392028939095326, 9253759.132913468405604 ], [ 524380.013061880366877, 9254655.598225116729736 ], [ 523272.625804106646683, 9254656.087507644668221 ] ], [ [ 520128.414218203106429, 9251071.544158348813653 ], [ 519994.874851125525311, 9253760.959447037428617 ], [ 517780.119987121259328, 9253761.736104805022478 ], [ 517869.12092730490258, 9251968.804278282448649 ], [ 518976.484139996173326, 9251968.424590099602938 ], [ 519021.057416880212259, 9251071.948073178529739 ], [ 520128.414218203106429, 9251071.544158348813653 ] ], [ [ 522298.57731966895517, 9251967.148589130491018 ], [ 522343.129661874554586, 9251070.667778404429555 ], [ 523450.4883705311222, 9251070.195313157513738 ], [ 523405.943003944412339, 9251966.677609784528613 ], [ 522298.57731966895517, 9251967.148589130491018 ] ], [ [ 533774.524109901627526, 9243892.715514544397593 ], [ 533819.484407256008126, 9242996.162461942061782 ], [ 534926.788588172406889, 9242995.445508474484086 ], [ 534881.835328770102933, 9243892.000350184738636 ], [ 533774.524109901627526, 9243892.715514544397593 ] ], [ [ 535989.147591580986045, 9243891.262116078287363 ], [ 536034.093814326217398, 9242994.70545794069767 ], [ 537141.400118856108747, 9242993.94231022708118 ], [ 537096.460931474459358, 9243890.500812113285065 ], [ 535989.147591580986045, 9243891.262116078287363 ] ], [ [ 515221.640042550978251, 9238522.089351527392864 ], [ 515267.039457781123929, 9237625.525090826675296 ], [ 516374.288402221980505, 9237625.192754851654172 ], [ 516328.896097560878843, 9238521.758360447362065 ], [ 515221.640042550978251, 9238522.089351527392864 ] ], [ [ 514205.250716428738087, 9236729.264959920197725 ], [ 514250.76368159300182, 9235832.689480617642403 ], [ 515357.997920305118896, 9235832.377758879214525 ], [ 515312.492083824239671, 9236728.954562522470951 ], [ 514205.250716428738087, 9236729.264959920197725 ] ], [ [ 525414.173597874119878, 9234035.324266234412789 ], [ 525323.130717654712498, 9235828.523118702694774 ], [ 524215.891151679679751, 9235829.044670106843114 ], [ 524261.393149742856622, 9234932.449978133663535 ], [ 523154.161434577545151, 9234932.949761128053069 ], [ 523199.723710034915712, 9234036.350300857797265 ], [ 525414.173597874119878, 9234035.324266234412789 ] ], [ [ 522183.798123326268978, 9232243.613423835486174 ], [ 522275.309056004160084, 9230450.373245498165488 ], [ 523382.50431422406109, 9230449.8891587164253 ], [ 523291.007712418038864, 9232243.132405543699861 ], [ 522183.798123326268978, 9232243.613423835486174 ] ], [ [ 526612.640791796962731, 9232241.548807114362717 ], [ 526658.341042217682116, 9231344.925594992935658 ], [ 527765.546460509533063, 9231344.349238915368915 ], [ 527719.853366011520848, 9232240.974092852324247 ], [ 526612.640791796962731, 9232241.548807114362717 ] ], [ [ 518907.923583701078314, 9231348.303451849147677 ], [ 518953.72714587347582, 9230451.684635499492288 ], [ 520060.920504941313993, 9230451.270983820781112 ], [ 520015.124116410734132, 9231347.891254168003798 ], [ 518907.923583701078314, 9231348.303451849147677 ] ] ], [ [ [ 521505.725554527889472, 9268102.756091387942433 ], [ 521549.32099440775346, 9267206.385106382891536 ], [ 520441.838651623053011, 9267206.808970851823688 ], [ 520398.236385581607465, 9268103.178556332364678 ], [ 521505.725554527889472, 9268102.756091387942433 ] ] ], [ [ [ 519290.747827882994898, 9268103.578690141439438 ], [ 519247.191915858944412, 9268999.940881885588169 ], [ 520354.687292621762026, 9268999.542117044329643 ], [ 520398.236385581607465, 9268103.178556332364678 ], [ 519290.747827882994898, 9268103.578690141439438 ] ] ] ] } }
]
}
