{
"type": "FeatureCollection",
"name": "urban-2065",
"crs": { "type": "name", "properties": { "name": "urn:ogc:def:crs:EPSG::32737" } },
"features": [
{ "type": "Feature", "properties": { "year": 2065 }, "geometry": { "type": "MultiPolygon", "coordinates": [ [ [ [ 482667.930785807198845, 9204448.057732244953513 ], [ 481560.950663890806027, 9204447.665598852559924 ], [ 481465.791777110775001, 9206241.196415591984987 ], [ 482572.786823369446211, 9206241.589742483571172 ], [ 482667.930785807198845, 9204448.057732244953513 ] ] ], [ [ [ 483679.781349152617622, 9206241.958853699266911 ], [ 482572.786823369446211, 9206241.589742483571172 ], [ 482525.295029300265014, 9207138.346098562702537 ], [ 483632.297003150801174, 9207138.715828562155366 ], [ 483679.781349152617622, 9206241.958853699266911 ] ] ], [ [ [ 481370.84675700427033, 9208034.701525846496224 ], [ 482477.856693849607836, 9208035.096032163128257 ], [ 482525.295029300265014, 9207138.346098562702537 ], [ 481418.292533528758213, 9207137.95218020118773 ], [ 481370.84675700427033, 9208034.701525846496224 ] ] ], [ [ [ 482383.140400351607241, 9209828.576662555336952 ], [ 480169.09025368373841, 9209827.761212680488825 ], [ 480074.558150271768682, 9211621.213996922597289 ], [ 482288.637945974303875, 9211622.03169491328299 ], [ 482383.140400351607241, 9209828.576662555336952 ] ] ], [ [ [ 493264.869592612260021, 9213418.12095901556313 ], [ 492157.819018020585645, 9213417.962968112900853 ], [ 492063.87692285887897, 9215211.379557302221656 ], [ 493170.942224548780359, 9215211.539217926561832 ], [ 493264.869592612260021, 9213418.12095901556313 ] ] ], [ [ [ 494278.007322182471398, 9215211.674936417490244 ], [ 493170.942224548780359, 9215211.539217926561832 ], [ 493077.228367671545129, 9217004.93192327208817 ], [ 494184.308155891660135, 9217005.069352196529508 ], [ 494278.007322182471398, 9215211.674936417490244 ] ] ], [ [ [ 467838.689768154057674, 9234031.621781324967742 ], [ 470053.149746888491791, 9234032.932631146162748 ], [ 470099.10964286501985, 9233136.369272477924824 ], [ 468991.887328444980085, 9233135.725747158750892 ], [ 469130.110021694563329, 9230445.999303380027413 ], [ 468022.908466285269242, 9230445.332963349297643 ], [ 467838.689768154057674, 9234031.621781324967742 ] ] ], [ [ [ 487313.213779975194484, 9243005.4188237413764 ], [ 486205.923196082585491, 9243005.142659982666373 ], [ 486160.659015954181086, 9243901.644622545689344 ], [ 487267.956695196626242, 9243901.921400848776102 ], [ 487313.213779975194484, 9243005.4188237413764 ] ] ], [ [ [ 486160.659015954181086, 9243901.644622545689344 ], [ 483946.062381802417804, 9243901.021861055865884 ], [ 483900.837455704808235, 9244797.516556797549129 ], [ 485008.143086111173034, 9244797.840028276666999 ], [ 484872.810223100299481, 9247487.28912328928709 ], [ 485980.136619154538494, 9247487.591285344213247 ], [ 486160.659015954181086, 9243901.644622545689344 ] ] ], [ [ [ 489347.142690996057354, 9246591.88062921911478 ], [ 488239.824513401428703, 9246591.647999927401543 ], [ 488194.788185434299521, 9247488.126732403412461 ], [ 489302.113421948917676, 9247488.360017489641905 ], [ 489347.142690996057354, 9246591.88062921911478 ] ] ], [ [ [ 482388.848827771260403, 9252865.343563547357917 ], [ 481281.478748071996961, 9252864.969642428681254 ], [ 481236.77431589103071, 9253761.402595400810242 ], [ 482344.151403718162328, 9253761.776985192671418 ], [ 482388.848827771260403, 9252865.343563547357917 ] ] ], [ [ [ 476495.630784076405689, 9260034.528786588460207 ], [ 475388.201686927175615, 9260034.038323355838656 ], [ 475343.890299130929634, 9260930.421451762318611 ], [ 476451.326343760360032, 9260930.912220785394311 ], [ 476495.630784076405689, 9260034.528786588460207 ] ] ], [ [ [ 474236.453515937435441, 9260929.908132830634713 ], [ 473129.015961005643476, 9260929.372263912111521 ], [ 473040.525982766994275, 9262722.119631666690111 ], [ 474147.97741279337788, 9262722.655993113294244 ], [ 474236.453515937435441, 9260929.908132830634713 ] ] ], [ [ [ 475167.179899743874557, 9264515.894517848268151 ], [ 474059.715405555791222, 9264515.380117677152157 ], [ 474015.66468879871536, 9265411.733297951519489 ], [ 475123.136089643405285, 9265412.247960280627012 ], [ 475035.209019647852983, 9267204.937109129503369 ], [ 477250.177186363958754, 9267205.900386778637767 ], [ 477338.07668846368324, 9265413.21004494279623 ], [ 476230.606745137425605, 9265412.740209251642227 ], [ 476318.73406255687587, 9263620.026820117607713 ], [ 475211.277226101490669, 9263619.535153338685632 ], [ 475167.179899743874557, 9264515.894517848268151 ] ] ], [ [ [ 477118.729187574645039, 9269894.891624147072434 ], [ 478226.232838424970396, 9269895.340718362480402 ], [ 478313.797607370070182, 9268102.685130307450891 ], [ 476098.817081256594975, 9268101.765928532928228 ], [ 476054.994211326586083, 9268998.096034675836563 ], [ 477162.491686113760807, 9268998.567104995250702 ], [ 477118.729187574645039, 9269894.891624147072434 ] ] ], [ [ [ 479290.04054241697304, 9270792.086848489940166 ], [ 479333.735836749372538, 9269895.767535990104079 ], [ 478226.232838424970396, 9269895.340718362480402 ], [ 478182.530693426146172, 9270791.659678919240832 ], [ 479290.04054241697304, 9270792.086848489940166 ] ] ], [ [ [ 481417.855622416944243, 9272585.496978491544724 ], [ 483632.898607826966327, 9272586.197344424203038 ], [ 483545.936960226390511, 9274378.798134064301848 ], [ 484653.471329518943094, 9274379.115979880094528 ], [ 484783.973522968648467, 9271690.204542906954885 ], [ 482568.945207506767474, 9271689.549502532929182 ], [ 482612.566498114087153, 9270793.234862158074975 ], [ 481505.058411568985321, 9270792.874440049752593 ], [ 481417.855622416944243, 9272585.496978491544724 ] ] ], [ [ [ 486825.158478075929452, 9275275.978345492854714 ], [ 489040.237889862852171, 9275276.460195582360029 ], [ 489127.024597816402093, 9273483.865856803953648 ], [ 488019.498674416739959, 9273483.637154370546341 ], [ 487976.071810094348621, 9274379.936679314821959 ], [ 486868.538721254793927, 9274379.685252461582422 ], [ 486825.158478075929452, 9275275.978345492854714 ] ] ], [ [ [ 489461.282424756267574, 9289616.591329108923674 ], [ 490568.928885472530965, 9289616.786719981580973 ], [ 490653.979705421777908, 9287824.376331176608801 ], [ 491761.612558616441675, 9287824.548818293958902 ], [ 491804.211392500030342, 9286928.334348678588867 ], [ 494019.463044795847964, 9286928.612813614308834 ], [ 494104.79414085613098, 9285136.1638557408005 ], [ 492997.181790913629811, 9285136.036858538165689 ], [ 493039.934095922624692, 9284239.804358130320907 ], [ 491932.328234807704575, 9284239.656205022707582 ], [ 491846.863616726361215, 9286032.114094987511635 ], [ 490739.244121776660904, 9286031.942849036306143 ], [ 490910.413732518849429, 9282447.006362011656165 ], [ 492018.006410060217604, 9282447.175087669864297 ], [ 492060.925580748124048, 9281550.925799740478396 ], [ 494276.096804100321606, 9281551.196212166920304 ], [ 494491.425987514201552, 9277069.855290807783604 ], [ 493383.874218297947664, 9277069.734555996954441 ], [ 493340.69487606396433, 9277966.01374931819737 ], [ 492233.136142373201437, 9277965.870275747030973 ], [ 492190.003420842054766, 9278862.142927782610059 ], [ 487759.738781546242535, 9278861.346291979774833 ], [ 487802.898547000950202, 9277965.076079092919827 ], [ 486695.338316976965871, 9277964.822454188019037 ], [ 486738.558275582909118, 9277068.546938773244619 ], [ 485631.004420658980962, 9277068.271800894290209 ], [ 485674.284590213093907, 9276171.990954456850886 ], [ 486781.831662733573467, 9276172.265571735799313 ], [ 486825.158478075929452, 9275275.978345492854714 ], [ 485717.618196375959087, 9275275.704252017661929 ], [ 485761.005238795245532, 9274379.411685997620225 ], [ 484653.471329518943094, 9274379.115979880094528 ], [ 484566.737088235619012, 9276171.694252144545317 ], [ 482351.640663103957195, 9276171.034592241048813 ], [ 482394.994649650121573, 9275274.74929734878242 ], [ 480179.90970180358272, 9275274.002098545432091 ], [ 480136.542121718463022, 9276170.286591622978449 ], [ 481244.091673543502111, 9276170.671634547412395 ], [ 481157.530519490828738, 9277963.223873224109411 ], [ 482265.093075990269426, 9277963.587650431320071 ], [ 482308.340138432395179, 9277067.314040744677186 ], [ 483415.895385288167745, 9277067.655351927503943 ], [ 483372.65510078240186, 9277963.929397080093622 ], [ 484480.216627073066775, 9277964.249113224446774 ], [ 484393.909948857442942, 9279756.780623715370893 ], [ 483286.334894597064704, 9279756.459991602227092 ], [ 483243.254973621980753, 9280652.71655610948801 ], [ 485458.418115611711983, 9280653.336778206750751 ], [ 485544.604392796813045, 9278860.815956084057689 ], [ 486652.171787269879133, 9278861.092125561088324 ], [ 486609.058686814212706, 9279757.355960477143526 ], [ 487716.632436926709488, 9279757.610665213316679 ], [ 487673.579513493052218, 9280653.869206376373768 ], [ 488781.159641420526896, 9280654.102497842162848 ], [ 488824.205818742222618, 9279757.843394238501787 ], [ 491039.351610315905418, 9279758.242925299331546 ], [ 490996.318921301164664, 9280654.503235714510083 ], [ 489888.739432953239884, 9280654.313840944319963 ], [ 489845.753405147930607, 9281550.567703440785408 ], [ 488738.166877222713083, 9281550.355773773044348 ], [ 488695.227526500530075, 9282446.603229619562626 ], [ 489802.820782404101919, 9282446.815742671489716 ], [ 489717.115753507532645, 9284239.294381676241755 ], [ 485286.686824532982428, 9284238.308665610849857 ], [ 485243.887600328191184, 9285134.537148952484131 ], [ 484136.272640043927822, 9285134.235657310113311 ], [ 484093.520156441547442, 9286030.457898925989866 ], [ 485201.141816249873955, 9286030.759852029383183 ], [ 485073.225108258193359, 9288719.393355315551162 ], [ 486180.866368365415838, 9288719.674971165135503 ], [ 486095.869090744643472, 9290512.06949320435524 ], [ 487203.523254419502337, 9290512.330410186201334 ], [ 487245.988521662249696, 9289616.13552164286375 ], [ 488353.635647895222064, 9289616.374263007193804 ], [ 488311.17703420430189, 9290512.56967917829752 ], [ 489418.830463327816688, 9290512.7873002178967 ], [ 489461.282424756267574, 9289616.591329108923674 ] ] ], [ [ [ 478641.029529016290326, 9284236.174913184717298 ], [ 475318.192682084219996, 9284234.813203603029251 ], [ 475232.526912386296317, 9286027.258021529763937 ], [ 476340.153319060336798, 9286027.734253535047174 ], [ 476382.952735930797644, 9285131.514477480202913 ], [ 480813.424771636957303, 9285133.20031032525003 ], [ 480899.130372729385272, 9283340.740957772359252 ], [ 478683.922510806354694, 9283339.943039130419493 ], [ 478641.029529016290326, 9284236.174913184717298 ] ] ], [ [ [ 502060.363056268193759, 9193689.098107784986496 ], [ 503167.248975762107875, 9193689.040022768080235 ], [ 503215.406481196521781, 9192792.170134445652366 ], [ 504322.284946644911543, 9192792.086288090795279 ], [ 504370.488195756101049, 9191895.208622865378857 ], [ 505477.359234641480725, 9191895.098956948146224 ], [ 505573.910471673880238, 9190101.321355871856213 ], [ 504467.054569127853028, 9190101.43342169187963 ], [ 504418.744736717490014, 9190998.324336653575301 ], [ 503311.881393649382517, 9190998.410521101206541 ], [ 503263.617287291446701, 9191895.293636474758387 ], [ 502156.746476216474548, 9191895.353997787460685 ], [ 502060.363056268193759, 9193689.098107784986496 ] ] ], [ [ [ 508749.800428649818059, 9192791.504652576521039 ], [ 509856.679869366926141, 9192791.29768106341362 ], [ 509808.567633934027981, 9193688.174961194396019 ], [ 510915.454908818530384, 9193687.944692149758339 ], [ 510819.405244973255321, 9195481.682034563273191 ], [ 511926.307897606748156, 9195481.429866760969162 ], [ 511878.370443360763602, 9196378.289961203932762 ], [ 512985.280963941127993, 9196378.01462166942656 ], [ 512889.580759552947711, 9198171.717729171738029 ], [ 513996.506663659238257, 9198171.420660628005862 ], [ 513948.743887701828498, 9199068.263705890625715 ], [ 515055.677693593723234, 9199067.943591438233852 ], [ 515007.975612574955449, 9199964.781457675620914 ], [ 517221.859552725451067, 9199964.070832200348377 ], [ 517460.827161091146991, 9195479.800878405570984 ], [ 518567.732445120345801, 9195479.401450516656041 ], [ 518615.678032835887279, 9194582.526080947369337 ], [ 516401.883014015911613, 9194583.303389251232147 ], [ 516449.89683040039381, 9193686.424378672614694 ], [ 518663.676804354356136, 9193685.644067216664553 ], [ 518711.728759275458287, 9192788.755401516333222 ], [ 517604.846040436532348, 9192789.159375116229057 ], [ 517652.958716880821157, 9191892.265572028234601 ], [ 519866.709637338644825, 9191891.429927220568061 ], [ 519914.86041235976154, 9190994.526380846276879 ], [ 516594.257479117717594, 9190995.747446833178401 ], [ 516497.963846978906076, 9192789.538723278790712 ], [ 515391.08214586682152, 9192789.893446065485477 ], [ 515343.007596347015351, 9193686.777637284249067 ], [ 514236.118820196657907, 9193687.106297887861729 ], [ 514284.200904068886302, 9192790.223543524742126 ], [ 512070.439666285295971, 9192790.809862667694688 ], [ 512166.79367970401654, 9190997.030014777556062 ], [ 509953.064090437605046, 9190997.523219626396894 ], [ 510049.6613091211766, 9189203.722171420231462 ], [ 505622.266014347085729, 9189204.42259906232357 ], [ 505573.910471673880238, 9190101.321355871856213 ], [ 507787.6228087390773, 9190101.023103330284357 ], [ 507739.335689159343019, 9190997.917705480009317 ], [ 506632.471851443580817, 9190998.077928861603141 ], [ 506584.23043697810499, 9191894.964638706296682 ], [ 508797.973464126873296, 9191894.62204515747726 ], [ 508749.800428649818059, 9192791.504652576521039 ] ], [ [ 514188.089953314745799, 9194583.982414592057467 ], [ 513081.194074668164831, 9194584.285071281716228 ], [ 513129.230468915309757, 9193687.410360537469387 ], [ 514236.118820196657907, 9193687.106297887861729 ], [ 514188.089953314745799, 9194583.982414592057467 ] ] ], [ [ [ 520733.667310983990319, 9196375.400795424357057 ], [ 518519.840041605115402, 9196376.27018373273313 ], [ 518472.000822689791676, 9197273.132288401946425 ], [ 520685.843080964579713, 9197272.265991110354662 ], [ 520733.667310983990319, 9196375.400795424357057 ] ] ], [ [ [ 519103.52920064405771, 9206240.984700474888086 ], [ 517996.533873832901008, 9206241.390481363981962 ], [ 517902.078738863929175, 9208034.963357297703624 ], [ 519009.088862953998614, 9208034.560558684170246 ], [ 519103.52920064405771, 9206240.984700474888086 ] ] ], [ [ [ 517619.989900163607672, 9213415.525581520050764 ], [ 516512.936112057708669, 9213415.895520323887467 ], [ 516466.100138534035068, 9214312.631726339459419 ], [ 517573.161263723333832, 9214312.26322509162128 ], [ 517619.989900163607672, 9213415.525581520050764 ] ] ], [ [ [ 502121.269723461999092, 9213418.521004009991884 ], [ 501014.219832579081412, 9213418.554986847564578 ], [ 500967.280994680360891, 9214315.273935372009873 ], [ 503181.395551427325699, 9214315.184110552072525 ], [ 503087.707204229256604, 9216108.607008159160614 ], [ 504194.779290832811967, 9216108.528350720182061 ], [ 504335.369728439021856, 9213418.38104821741581 ], [ 503228.319677723979112, 9213418.463024469092488 ], [ 503275.29710530245211, 9212521.735503232106566 ], [ 502168.254514552245382, 9212521.794568696990609 ], [ 502121.269723461999092, 9213418.521004009991884 ] ] ], [ [ [ 500967.280994680360891, 9214315.273935372009873 ], [ 499860.223776198341511, 9214315.2828937061131 ], [ 499813.330907301220577, 9215211.994397446513176 ], [ 500920.395475271623582, 9215211.986463434994221 ], [ 500967.280994680360891, 9214315.273935372009873 ] ] ], [ [ [ 513051.36327507608803, 9216107.038157500326633 ], [ 514158.437680759234354, 9216106.744266208261251 ], [ 514205.181896891212091, 9215210.023770123720169 ], [ 516419.317365871975198, 9215209.361463118344545 ], [ 516466.100138534035068, 9214312.631726339459419 ], [ 513144.919582617003471, 9214313.593411585316062 ], [ 513051.36327507608803, 9216107.038157500326633 ] ] ], [ [ [ 499813.330907301220577, 9215211.994397446513176 ], [ 498706.266333751613274, 9215211.978389391675591 ], [ 498659.419449667562731, 9216108.682490335777402 ], [ 499766.491365693160333, 9216108.699491919949651 ], [ 499813.330907301220577, 9215211.994397446513176 ] ] ], [ [ [ 496305.010863699251786, 9218798.645014410838485 ], [ 498519.198815494484734, 9218798.756435507908463 ], [ 498565.885690154449549, 9217902.071505689993501 ], [ 497458.799071559333242, 9217902.028667349368334 ], [ 497552.347493582637981, 9216108.641574000939727 ], [ 496445.275464357575402, 9216108.5767429061234 ], [ 496305.010863699251786, 9218798.645014410838485 ] ] ], [ [ [ 512958.01987481478136, 9217900.4571303576231 ], [ 512864.889384928043, 9219693.850392213091254 ], [ 515079.097041368891951, 9219693.249523522332311 ], [ 515125.62109200732084, 9218796.55340575799346 ], [ 514018.524344461387955, 9218796.867105068638921 ], [ 514065.108904157415964, 9217900.165925920009613 ], [ 512958.01987481478136, 9217900.4571303576231 ] ] ], [ [ [ 503961.527780638658442, 9220591.978982046246529 ], [ 502854.419135717733297, 9220592.052177585661411 ], [ 502807.92143357929308, 9221488.722060434520245 ], [ 503915.037364941032138, 9221488.649946890771389 ], [ 503961.527780638658442, 9220591.978982046246529 ] ] ], [ [ [ 496118.738355002831668, 9222385.313593026250601 ], [ 497225.861565532919485, 9222385.384899331256747 ], [ 497133.059990784793627, 9224178.682953173294663 ], [ 498240.197663091705181, 9224178.732409529387951 ], [ 498379.458216517814435, 9221488.773005943745375 ], [ 497272.342373885796405, 9221488.726365165784955 ], [ 497318.876529047498479, 9220592.061482578516006 ], [ 496211.767899665050209, 9220591.992009038105607 ], [ 496118.738355002831668, 9222385.313593026250601 ] ] ], [ [ [ 505438.525665228778962, 9234937.77182880975306 ], [ 505529.932177908543963, 9233144.608799146488309 ], [ 502208.302177096251398, 9233144.854067042469978 ], [ 502162.550776165677235, 9234041.435531793162227 ], [ 504376.984991598001216, 9234041.29751106724143 ], [ 504331.301220066146925, 9234937.874806612730026 ], [ 505438.525665228778962, 9234937.77182880975306 ] ] ], [ [ [ 505438.525665228778962, 9234937.77182880975306 ], [ 505347.332293500250671, 9236730.909817267209291 ], [ 506454.571188668138348, 9236730.785713301971555 ], [ 506409.061562662711367, 9237627.346438774839044 ], [ 508623.554223473765887, 9237627.030657907947898 ], [ 508760.200109290017281, 9234937.32284820266068 ], [ 505438.525665228778962, 9234937.77182880975306 ] ] ], [ [ [ 486952.652982592815533, 9250177.268235521391034 ], [ 486863.04703746153973, 9251970.169672455638647 ], [ 485755.685879165423103, 9251969.887513505294919 ], [ 485890.196020150033291, 9249280.52801095508039 ], [ 484782.855523331963923, 9249280.224711179733276 ], [ 484827.806152079894673, 9248383.759959703311324 ], [ 483720.47224725590786, 9248383.434295356273651 ], [ 483675.514570971194189, 9249279.898506948724389 ], [ 481460.831167027761694, 9249279.177384926006198 ], [ 481415.912859486066736, 9250175.634531335905194 ], [ 482523.261864224390592, 9250176.007026560604572 ], [ 482478.40405838994775, 9251072.45859182998538 ], [ 484693.114594120706897, 9251073.13598975725472 ], [ 484648.324294390913565, 9251969.58253207989037 ], [ 483540.962249982287176, 9251969.254728136584163 ], [ 483451.527962874271907, 9253762.128606984391809 ], [ 482344.151403718162328, 9253761.776985192671418 ], [ 482299.507440988731105, 9254658.204374158754945 ], [ 481192.123353462317027, 9254657.829518998041749 ], [ 481236.77431589103071, 9253761.402595400810242 ], [ 480129.396666231856216, 9253761.005437551066279 ], [ 480040.134217798302416, 9255553.8523901514709 ], [ 478932.741976725461427, 9255553.43164599314332 ], [ 479066.736874116584659, 9252864.153414027765393 ], [ 480174.108107905893121, 9252864.572925942018628 ], [ 480398.467476260731928, 9248382.319711212068796 ], [ 479291.131423261074815, 9248381.902319271117449 ], [ 479156.334237576345913, 9251071.271120281890035 ], [ 478048.976426767592784, 9251070.829596286639571 ], [ 477914.639548784412909, 9253760.142817437648773 ], [ 476807.260014677362051, 9253759.677355041727424 ], [ 476762.581039800308645, 9254656.102690275758505 ], [ 475655.193804691603873, 9254655.61413074657321 ], [ 475610.561335565173067, 9255552.033131889998913 ], [ 473395.770644880423788, 9255550.987220412120223 ], [ 473440.417114316951483, 9254654.568788362666965 ], [ 472333.027592728671152, 9254654.012005347758532 ], [ 472422.495148487796541, 9252861.157634723931551 ], [ 473529.87064031988848, 9252861.713920671492815 ], [ 473574.677696157654282, 9251965.277469903230667 ], [ 474682.045369261060841, 9251965.810679180547595 ], [ 474726.898918569844682, 9251069.367922924458981 ], [ 475834.258800417068414, 9251069.877997681498528 ], [ 476104.461611520382576, 9245691.09257934987545 ], [ 473889.825852583977394, 9245690.053292313590646 ], [ 473844.644107918604277, 9246586.53205162845552 ], [ 472737.317986149166245, 9246585.977609854191542 ], [ 472692.182689167209901, 9247482.450028944760561 ], [ 473799.515889128437266, 9247483.004744151607156 ], [ 473754.441196582571138, 9248379.471377454698086 ], [ 472647.100926870945841, 9248378.916392147541046 ], [ 472602.072699626733083, 9249275.376707034185529 ], [ 471494.724548415164463, 9249274.798549765720963 ], [ 471449.742802338558249, 9250171.252587767317891 ], [ 470342.38674214418279, 9250170.651316395029426 ], [ 470477.513803845620714, 9247481.271719001233578 ], [ 468262.841383678489365, 9247480.001569082960486 ], [ 468172.674842115840875, 9249272.92664591409266 ], [ 469280.025652810232714, 9249273.573519298806787 ], [ 469190.087496441905387, 9251066.474791405722499 ], [ 468082.722577358479612, 9251065.82761293835938 ], [ 468037.82679969468154, 9251962.269074145704508 ], [ 466930.453882118745241, 9251961.598924482241273 ], [ 467065.323078624322079, 9249272.256866963580251 ], [ 463743.261739859648515, 9249270.110095685347915 ], [ 463698.230575079040136, 9250166.563245451077819 ], [ 464805.5924598678248, 9250167.301786679774523 ], [ 464670.841728502360638, 9252856.625341355800629 ], [ 465778.223696731962264, 9252857.341200914233923 ], [ 465643.97639048966812, 9255546.611036699265242 ], [ 466751.378390899801161, 9255547.304348783567548 ], [ 466706.743467681575567, 9256443.715757679194212 ], [ 467814.151473082310986, 9256444.386459002271295 ], [ 467903.460889933165163, 9254651.557459119707346 ], [ 469010.853924420604017, 9254652.205207984894514 ], [ 468876.991154984221794, 9257341.440146530047059 ], [ 469984.404255220142659, 9257342.065628852695227 ], [ 469895.444182032195386, 9259134.859394703060389 ], [ 472110.29561776900664, 9259136.043145090341568 ], [ 472065.909839577972889, 9260032.431470032781363 ], [ 469851.044479710282758, 9260031.247347302734852 ], [ 469806.698334050073754, 9260927.629356406629086 ], [ 470914.138403236167505, 9260928.232875786721706 ], [ 470869.852760462497827, 9261824.609114907681942 ], [ 471977.29890288511524, 9261825.190277323126793 ], [ 472021.577601163415238, 9260928.813844926655293 ], [ 473129.015961005643476, 9260929.372263912111521 ], [ 473173.34124784974847, 9260032.989665158092976 ], [ 475388.201686927175615, 9260034.038323355838656 ], [ 475432.566589181718882, 9259137.64923507347703 ], [ 476539.98873041535262, 9259138.139389237388968 ], [ 476495.630784076405689, 9260034.528786588460207 ], [ 477603.059177195769735, 9260034.996672676876187 ], [ 477647.410168980015442, 9259138.606938946992159 ], [ 478754.830938044877257, 9259139.051884273067117 ], [ 478799.228465428459458, 9258242.655809570103884 ], [ 479906.641637897002511, 9258243.077756298705935 ], [ 479951.085685013327748, 9257346.675299171358347 ], [ 481058.491288338671438, 9257347.074189459905028 ], [ 480969.670600357349031, 9259139.873962040990591 ], [ 482077.08955994254211, 9259140.251094609498978 ], [ 482121.466210593760479, 9258243.853755129501224 ], [ 483228.877677158685401, 9258244.207807350903749 ], [ 483273.300826325139496, 9257347.803993657231331 ], [ 484380.704827317968011, 9257348.134907677769661 ], [ 484336.288641425198875, 9258244.539228180423379 ], [ 488765.928138845774811, 9258245.638598557561636 ], [ 488633.08357698621694, 9260934.822405032813549 ], [ 489740.513346346735489, 9260935.04258000664413 ], [ 489784.734522485698108, 9260038.653346061706543 ], [ 491999.579313895257656, 9260039.024699443951249 ], [ 491911.218067127512768, 9261831.799863884225488 ], [ 493018.653932906803675, 9261831.953103516250849 ], [ 493062.800943220092449, 9260935.567809816449881 ], [ 494170.229682350123767, 9260935.697788137942553 ], [ 494126.089589554700069, 9261832.083821333944798 ], [ 495233.52507024462102, 9261832.192017359659076 ], [ 495366.084689318027813, 9259143.01357601955533 ], [ 494258.669982422317844, 9259142.907690243795514 ], [ 494302.970188973413315, 9258246.503610283136368 ], [ 493195.562252869596705, 9258246.375870106741786 ], [ 493284.336687928240281, 9256453.551118511706591 ], [ 495499.124570693529677, 9256453.780896158888936 ], [ 495543.577921076153871, 9255557.357914224267006 ], [ 496650.964678379532415, 9255557.437960743904114 ], [ 496562.125261218345258, 9257350.279499547556043 ], [ 497669.525837781315204, 9257350.338512094691396 ], [ 497713.911914303374942, 9256453.919931206852198 ], [ 498821.305466832651291, 9256453.955420283600688 ], [ 498732.600558790960349, 9258246.788260718807578 ], [ 499840.007973431260325, 9258246.802845817059278 ], [ 500017.603305722586811, 9254661.109351286664605 ], [ 502232.36251286638435, 9254661.063147818669677 ], [ 502187.897623782162555, 9255557.497499223798513 ], [ 503295.284276772406884, 9255557.441268108785152 ], [ 503029.656095290323719, 9260935.925847882404923 ], [ 506351.94158530223649, 9260935.639310663565993 ], [ 506307.877497785200831, 9261832.035280931740999 ], [ 504093.006562189781107, 9261832.246802276000381 ], [ 503961.092657297616825, 9264521.392407540231943 ], [ 505068.548709700990003, 9264521.300926018506289 ], [ 504893.43710126040969, 9268106.748319452628493 ], [ 503785.95361641101772, 9268106.835822222754359 ], [ 503742.302102460816968, 9269003.181716416031122 ], [ 504849.792424431594554, 9269003.095200221985579 ], [ 504806.201038434170187, 9269899.436109272763133 ], [ 501483.709885687683709, 9269899.625880004838109 ], [ 501223.15828581067035, 9275277.529351918026805 ], [ 505653.309933034819551, 9275277.254773588851094 ], [ 505566.940075407270342, 9277069.849478859454393 ], [ 507782.04383318516193, 9277069.583626953884959 ], [ 507911.637946798291523, 9274380.676516458392143 ], [ 509019.169864605937619, 9274380.507294127717614 ], [ 508932.734058472968172, 9276173.12010039575398 ], [ 511147.825806663255207, 9276172.719687681645155 ], [ 511191.003554068040103, 9275276.414028031751513 ], [ 513406.08311835519271, 9275275.922944370657206 ], [ 513449.300571333384141, 9274379.609009642153978 ], [ 515664.368210779037327, 9274379.027029806748033 ], [ 515707.625340549275279, 9273482.704690216109157 ], [ 517922.681314188113902, 9273482.031588912010193 ], [ 518009.32806139375316, 9271689.363860620185733 ], [ 519116.843272141122725, 9271688.991405079141259 ], [ 519247.191915858944412, 9268999.940881885588169 ], [ 520354.687292621762026, 9268999.542117044329643 ], [ 520398.236385581607465, 9268103.178556332364678 ], [ 521505.725554527889472, 9268102.756091387942433 ], [ 521549.32099440775346, 9267206.385106382891536 ], [ 522656.803982903715223, 9267205.938883397728205 ], [ 522700.445753869775217, 9266309.560432571917772 ], [ 523807.922589278663509, 9266309.090393600985408 ], [ 523895.351908596523572, 9264516.312419544905424 ], [ 525002.815770836663432, 9264515.817015405744314 ], [ 525222.284763861796819, 9260033.758294956758618 ], [ 526329.715018790680915, 9260033.232808457687497 ], [ 526550.477853940450586, 9255551.013679716736078 ], [ 527657.874338308465667, 9255550.4577556271106 ], [ 527746.537475393852219, 9253757.523945299908519 ], [ 528853.920908317784779, 9253756.942085394635797 ], [ 528809.56972512381617, 9254653.413683351129293 ], [ 529916.960964777390473, 9254652.810694580897689 ], [ 529828.431786136236042, 9256445.738676749169827 ], [ 532043.244699263479561, 9256444.471178166568279 ], [ 532443.173417696962133, 9248376.070212597027421 ], [ 533550.518696556566283, 9248375.386876612901688 ], [ 533595.21363485197071, 9247478.865098346024752 ], [ 535809.893247736035846, 9247477.426055058836937 ], [ 535854.627250876743346, 9246580.894458744674921 ], [ 536961.961646703071892, 9246580.138665925711393 ], [ 537006.741695022326894, 9245683.598982155323029 ], [ 538114.070188207319006, 9245682.818340299651027 ], [ 538069.297148885671049, 9246579.359885092824697 ], [ 540283.971604910679162, 9246577.733358906581998 ], [ 540328.730630092322826, 9245681.188010104000568 ], [ 539221.399822183069773, 9245682.014682989567518 ], [ 539311.090975073399022, 9243888.908994136378169 ], [ 540418.407745061558671, 9243888.078479882329702 ], [ 540463.325834094779566, 9242991.514282826334238 ], [ 544892.577228812500834, 9242987.953544992953539 ], [ 544937.520191836752929, 9242091.375060053542256 ], [ 546044.829282973892987, 9242090.4250647444278 ], [ 546089.81819096300751, 9241193.838191105052829 ], [ 549411.732746757101268, 9241190.843079475685954 ], [ 549501.82718596351333, 9239397.637559337541461 ], [ 550609.120852557593025, 9239396.588515322655439 ], [ 550654.240438976092264, 9238499.97403572499752 ], [ 551761.528559441678226, 9238498.899567678570747 ], [ 551716.416033446788788, 9239395.516263045370579 ], [ 552823.712761766160838, 9239394.420802343636751 ], [ 552868.818228613352403, 9238497.801863882690668 ], [ 553976.109479622915387, 9238496.680924171581864 ], [ 554111.722215826390311, 9235806.778997736051679 ], [ 555218.99386196618434, 9235805.627908417955041 ], [ 555264.296852562692948, 9234908.97882879525423 ], [ 553049.769360268604942, 9234911.26228460110724 ], [ 553140.56247930158861, 9233117.954089429229498 ], [ 554247.81120792159345, 9233116.819456124678254 ], [ 554293.280038140132092, 9232220.153435429558158 ], [ 553186.038425776874647, 9232221.290362881496549 ], [ 553231.567296379595064, 9231324.620206519961357 ], [ 554338.801784145063721, 9231323.480981513857841 ], [ 554430.004021972767077, 9229530.116742465645075 ], [ 553322.783808427513577, 9229531.26057281717658 ], [ 553277.149090725462884, 9230427.943612461909652 ], [ 552169.923329258919694, 9230429.061656583100557 ], [ 552124.334400687948801, 9231325.735977003350854 ], [ 551017.10306395299267, 9231326.82829313352704 ], [ 551062.699128035805188, 9230430.156219026073813 ], [ 549955.476453938172199, 9230431.227299956604838 ], [ 550001.132603210629895, 9229534.551009496673942 ], [ 547786.705998102552257, 9229536.627090295776725 ], [ 547741.03555465687532, 9230433.299017928540707 ], [ 546633.817263241508044, 9230434.299655282869935 ], [ 546588.192644199123606, 9231330.963017389178276 ], [ 547695.418076294357888, 9231329.964517045766115 ], [ 547604.342016361071728, 9233123.276261201128364 ], [ 548711.583128667087294, 9233122.258625600486994 ], [ 548620.733154014917091, 9234915.549054902046919 ], [ 547513.477821372449398, 9234916.562385659664869 ], [ 547558.883435557130724, 9234019.922521961852908 ], [ 545344.391216960037127, 9234021.883369863033295 ], [ 545253.604540575877763, 9235815.148275893181562 ], [ 546360.864163932041265, 9235814.183726493269205 ], [ 546315.557393547613174, 9236710.808703023940325 ], [ 545208.290678317658603, 9236711.771163132041693 ], [ 545163.029800523421727, 9237608.387683652341366 ], [ 544055.757352968328632, 9237609.324795708060265 ], [ 544101.025315575767308, 9236712.710333772003651 ], [ 541886.498515040846542, 9236714.518807213753462 ], [ 541931.833660671603866, 9235817.90202391333878 ], [ 540824.579253671341576, 9235818.773306990042329 ], [ 540869.974513844004832, 9234922.152142679318786 ], [ 541977.221815443248488, 9234921.278876211494207 ], [ 542022.662978974753059, 9234024.6493562720716 ], [ 539808.183827163768001, 9234026.376491889357567 ], [ 539990.535643633455038, 9230439.810385962948203 ], [ 541097.746063800062984, 9230438.950631743296981 ], [ 541143.459420929430053, 9229542.29113681614399 ], [ 540036.256157607538626, 9229543.152867522090673 ], [ 540082.029694758704863, 9228646.488936627283692 ], [ 537867.641061186906882, 9228648.145753907039762 ], [ 537913.481972186942585, 9227751.479287398979068 ], [ 539020.668530045542866, 9227750.66071735881269 ], [ 539112.495091588119976, 9225957.304645013064146 ], [ 540219.66844141902402, 9225956.458590805530548 ], [ 540265.654067425057292, 9225059.768931679427624 ], [ 542479.990011828020215, 9225058.001958608627319 ], [ 542526.014246409060434, 9224161.30182639323175 ], [ 543633.176902774604969, 9224160.380821855738759 ], [ 543725.369950189022347, 9222366.957036659121513 ], [ 541511.074779056827538, 9222368.783546963706613 ], [ 541418.852861411985941, 9224162.199159357696772 ], [ 540311.692714679520577, 9224163.072820888832211 ], [ 540357.784382797428407, 9223266.370250586420298 ], [ 539250.632657901733182, 9223267.222213983535767 ], [ 539296.7845715272706, 9222370.51515293866396 ], [ 538189.64124636980705, 9222371.345367133617401 ], [ 538282.118636370520107, 9220577.915730860084295 ], [ 537174.99093326588627, 9220578.72607365436852 ], [ 537267.694981303066015, 9218785.274369524791837 ], [ 536160.582905924180523, 9218786.064745584502816 ], [ 536114.197097438038327, 9219682.791933368891478 ], [ 532792.84542796574533, 9219685.01449210010469 ], [ 532839.253031845786609, 9218788.292865794152021 ], [ 529517.931990974466316, 9218790.306476386263967 ], [ 529471.502579656196758, 9219687.022787107154727 ], [ 528364.390102720004506, 9219687.644605098292232 ], [ 528271.676069714711048, 9221481.054417844861746 ], [ 527164.549919316661544, 9221481.649059735238552 ], [ 527072.033845561905764, 9223275.029736582189798 ], [ 524857.754964118706994, 9223276.141217306256294 ], [ 524904.000924117746763, 9222379.457365995272994 ], [ 523796.86985830363119, 9222379.979154728353024 ], [ 523750.616654599609319, 9223276.661411916837096 ], [ 522643.479055085510481, 9223277.157909469678998 ], [ 522597.271760736650322, 9224173.832187613472342 ], [ 521490.127600111532956, 9224174.303452141582966 ], [ 521536.342132479709107, 9223277.63071003742516 ], [ 520429.205853683291934, 9223278.079813692718744 ], [ 520475.480796595977154, 9222381.402174960821867 ], [ 519368.352377618837636, 9222381.829066619277 ], [ 519414.687748814118095, 9221485.146503057330847 ], [ 518307.567167656903621, 9221485.551131596788764 ], [ 518261.224537612986751, 9222382.232234181836247 ], [ 516046.970462130440865, 9222382.967397257685661 ], [ 516000.666514653596096, 9223279.63926050439477 ], [ 514893.532958450319711, 9223279.969880551099777 ], [ 514986.208575212338474, 9221486.622509324923158 ], [ 512771.97180850605946, 9221487.218005096539855 ], [ 512864.889384928043, 9219693.850392213091254 ], [ 511757.78615001385333, 9219694.115117933601141 ], [ 511711.293463608773891, 9220590.800822639837861 ], [ 510604.183294919901527, 9220591.040466003119946 ], [ 510650.68326651561074, 9219694.356037963181734 ], [ 509543.580701346159913, 9219694.573152333498001 ], [ 509590.141213064314798, 9218797.883571777492762 ], [ 508483.046229474013671, 9218798.078106015920639 ], [ 508576.341629927919712, 9217004.682169731706381 ], [ 507469.261520512576681, 9217004.855277804657817 ], [ 507515.996435063192621, 9216108.148889681324363 ], [ 504194.779290832811967, 9216108.528350720182061 ], [ 504101.318801953399088, 9217901.927795555442572 ], [ 505208.405659676354844, 9217901.827473130077124 ], [ 505022.153413327061571, 9221488.554082466289401 ], [ 503915.037364941032138, 9221488.649946890771389 ], [ 503868.600245585781522, 9222385.314542610198259 ], [ 504975.723570622969419, 9222385.21978404559195 ], [ 504929.347016239946242, 9223281.879120768979192 ], [ 506036.477756879350636, 9223281.761768354102969 ], [ 505851.533413629455026, 9226868.340105563402176 ], [ 506958.693312650430016, 9226868.203650653362274 ], [ 506774.630322120676283, 9230454.685251569375396 ], [ 507881.819267235114239, 9230454.529857829213142 ], [ 507790.121788739401381, 9232247.735117515549064 ], [ 508897.325335458153859, 9232247.558604225516319 ], [ 508805.855258476687595, 9234040.741047641262412 ], [ 509913.073400890629273, 9234040.543510422110558 ], [ 509867.425403902947437, 9234937.126505523920059 ], [ 510974.650993681396358, 9234936.906821563839912 ], [ 510929.063390789669938, 9235833.484761266037822 ], [ 512036.29644995671697, 9235833.242981769144535 ], [ 511854.506958892568946, 9239419.497071785852313 ], [ 510747.245419238635805, 9239419.733901990577579 ], [ 510701.924038234923501, 9240316.280571253970265 ], [ 508487.387688176590018, 9240316.682241648435593 ], [ 508442.105367167445365, 9241213.22031089104712 ], [ 507334.830494869558606, 9241213.385236455127597 ], [ 507289.594350158295128, 9242109.915949 ], [ 510611.441013117902912, 9242109.355224709957838 ], [ 510521.17097301321337, 9243902.405016170814633 ], [ 509413.8743364646798, 9243902.612667411565781 ], [ 509368.812128217308782, 9244799.127074401825666 ], [ 508261.508713558607269, 9244799.310500049963593 ], [ 508216.492709629004821, 9245695.817563913762569 ], [ 506001.872482034901623, 9245696.113066582009196 ], [ 505956.895652527862694, 9246592.611732877790928 ], [ 503742.262048021773808, 9246592.813071481883526 ], [ 503697.324421550612897, 9247489.303470525890589 ], [ 502590.000762548064813, 9247489.368649832904339 ], [ 502634.945430358871818, 9246592.879261650145054 ], [ 501527.628891564963851, 9246592.922465743497014 ], [ 501707.968882874585688, 9243006.907268095761538 ], [ 498386.10420491109835, 9243006.910211296752095 ], [ 498250.705604081507772, 9245696.42240353487432 ], [ 494928.776819590537343, 9245696.209775727242231 ], [ 494973.877545590803493, 9244799.71443073824048 ], [ 491651.968605983012822, 9244799.296997345983982 ], [ 491697.1439331775764, 9243902.797832053154707 ], [ 490589.847579253022559, 9243902.613326482474804 ], [ 490635.083386210899334, 9243006.10874187014997 ], [ 488420.503984202980064, 9243005.671891950070858 ], [ 488375.253993401536718, 9243902.175110913813114 ], [ 489482.550943706941325, 9243902.405752779915929 ], [ 489437.361452243931126, 9244798.903504496440291 ], [ 490544.66517060744809, 9244799.111771330237389 ], [ 490499.536160643969197, 9245695.604084052145481 ], [ 489392.225367883453146, 9245695.39512743242085 ], [ 489347.142690996057354, 9246591.88062921911478 ], [ 491561.77812275593169, 9246592.276929153129458 ], [ 491516.762967462593224, 9247488.757710946723819 ], [ 489302.113421948917676, 9247488.360017489641905 ], [ 489257.137561113457195, 9248384.833299873396754 ], [ 488149.80527409928618, 9248384.599362326785922 ], [ 488059.999702796339989, 9250177.526345016434789 ], [ 486952.652982592815533, 9250177.268235521391034 ] ], [ [ 518214.935095132270362, 9223278.906930536031723 ], [ 518168.698840598925017, 9224175.575228428468108 ], [ 515954.41577190317912, 9224176.304732177406549 ], [ 516000.666514653596096, 9223279.63926050439477 ], [ 518214.935095132270362, 9223278.906930536031723 ] ], [ [ 505255.101938224281184, 9217005.129831420257688 ], [ 506362.181634306791238, 9217005.004498358815908 ], [ 506315.492673053347971, 9217901.703290544450283 ], [ 505208.405659676354844, 9217901.827473130077124 ], [ 505255.101938224281184, 9217005.129831420257688 ] ], [ [ 507422.579875167750288, 9217901.555247779935598 ], [ 507375.951499412709381, 9218798.248807342723012 ], [ 506268.856989793712273, 9218798.395675783976912 ], [ 506315.492673053347971, 9217901.703290544450283 ], [ 507422.579875167750288, 9217901.555247779935598 ] ], [ [ 491606.846669052261859, 9245695.790027165785432 ], [ 492714.156926251249388, 9245695.952956799417734 ], [ 492669.095443207654171, 9246592.440599855035543 ], [ 491561.77812275593169, 9246592.276929153129458 ], [ 491606.846669052261859, 9245695.790027165785432 ] ], [ [ 507371.309317735023797, 9262728.286735519766808 ], [ 507239.617204184702132, 9265417.423568734899163 ], [ 506132.15394680108875, 9265417.558875769376755 ], [ 506263.86668981378898, 9262728.425214907154441 ], [ 507371.309317735023797, 9262728.286735519766808 ] ], [ [ 507415.313232431886718, 9261831.895737569779158 ], [ 507459.370418280013837, 9260935.498700052499771 ], [ 508566.79947469686158, 9260935.335540305823088 ], [ 508522.749189209134784, 9261831.733672384172678 ], [ 507415.313232431886718, 9261831.895737569779158 ] ], [ [ 508655.059832494822331, 9259142.52111691236496 ], [ 509762.475322247366421, 9259142.333154430612922 ], [ 509674.228787728061434, 9260935.149831399321556 ], [ 508566.79947469686158, 9260935.335540305823088 ], [ 508655.059832494822331, 9259142.52111691236496 ] ], [ [ 498910.22371952055255, 9254661.098342651501298 ], [ 498865.737925278604962, 9255557.529914943501353 ], [ 497758.351335393846966, 9255557.495294313877821 ], [ 497802.844100686488673, 9254661.064593767747283 ], [ 498910.22371952055255, 9254661.098342651501298 ] ], [ [ 467992.984592326683924, 9252858.704530550166965 ], [ 467948.195955618575681, 9253755.133989691734314 ], [ 466840.808977565728128, 9253754.463609455153346 ], [ 466885.604640287405346, 9252858.034263944253325 ], [ 467992.984592326683924, 9252858.704530550166965 ] ], [ [ 471404.814600488520227, 9251067.700595904141665 ], [ 471315.118830931023695, 9252860.578552827239037 ], [ 470207.74165448959684, 9252859.97667489387095 ], [ 470297.451493100612424, 9251067.099119029939175 ], [ 471404.814600488520227, 9251067.700595904141665 ] ], [ [ 494748.907573160890024, 9249282.129853617399931 ], [ 494704.073677792854141, 9250178.594585822895169 ], [ 493596.728605040290859, 9250178.473737945780158 ], [ 493641.56952729029581, 9249282.009788107126951 ], [ 494748.907573160890024, 9249282.129853617399931 ] ], [ [ 492579.132625249621924, 9248385.397523019462824 ], [ 492534.231291073316243, 9249281.866818411275744 ], [ 491426.892831362027209, 9249281.700944513082504 ], [ 491471.801203541690484, 9248385.23238018900156 ], [ 492579.132625249621924, 9248385.397523019462824 ] ], [ [ 497053.382967522426043, 9247489.350165026262403 ], [ 497008.456422156130429, 9248385.828779377043247 ], [ 494793.794835394190159, 9248385.659014154225588 ], [ 494838.735464122495614, 9247489.182059783488512 ], [ 497053.382967522426043, 9247489.350165026262403 ] ], [ [ 532469.478391889366321, 9225961.88502743281424 ], [ 532377.565526022692211, 9227755.218713585287333 ], [ 531270.385273660416715, 9227755.895914815366268 ], [ 531224.501277860021219, 9228652.55138299241662 ], [ 529010.129172950051725, 9228653.831654746085405 ], [ 529056.02754094125703, 9227757.179634114727378 ], [ 527948.849994371528737, 9227757.786152379587293 ], [ 527994.80866489186883, 9226861.129424080252647 ], [ 529101.97901499865111, 9226860.521219598129392 ], [ 529147.983594737364911, 9225963.856403393670917 ], [ 532469.478391889366321, 9225961.88502743281424 ] ], [ [ 527025.855489829438739, 9224171.710432078689337 ], [ 526979.730255374102853, 9225068.384709356352687 ], [ 525872.57596965203993, 9225068.949011135846376 ], [ 525918.708428368438035, 9224172.276375733315945 ], [ 527025.855489829438739, 9224171.710432078689337 ] ], [ [ 529286.315964198089205, 9223273.823466623201966 ], [ 529240.152069721836597, 9224170.507534710690379 ], [ 528133.003359247348271, 9224171.120818434283137 ], [ 528179.17448368226178, 9223274.438450301066041 ], [ 529286.315964198089205, 9223273.823466623201966 ] ] ], [ [ [ 495685.469302765501197, 9275277.375053277239203 ], [ 494577.931250952999108, 9275277.277857320383191 ], [ 494534.651934582565445, 9276173.569514885544777 ], [ 495642.19676672964124, 9276173.667453130707145 ], [ 495685.469302765501197, 9275277.375053277239203 ] ] ], [ [ [ 501136.734296937298495, 9277070.116492992267013 ], [ 500029.183020524971653, 9277070.128102906048298 ], [ 500115.620548670820426, 9275277.542716320604086 ], [ 497900.545051586581394, 9275277.503108937293291 ], [ 497857.286072310816962, 9276173.797075305134058 ], [ 495642.19676672964124, 9276173.667453130707145 ], [ 495512.699325411580503, 9278862.509374076500535 ], [ 496620.264313582214527, 9278862.587517132982612 ], [ 496577.211968664836604, 9279758.857180094346404 ], [ 497684.78359961847309, 9279758.91410443559289 ], [ 497598.852434877306223, 9281551.437423896044493 ], [ 498706.437456851010211, 9281551.473986014723778 ], [ 498792.355161154817324, 9279758.949053265154362 ], [ 499899.926686482562218, 9279758.96202658675611 ], [ 499942.958802933688276, 9278862.689929347485304 ], [ 501050.523585020622704, 9278862.680061114951968 ], [ 501136.734296937298495, 9277070.116492992267013 ] ] ], [ [ [ 498577.960934834321961, 9284240.217538811266422 ], [ 501900.776260676793754, 9284240.203379726037383 ], [ 502029.192422888008878, 9281551.452147072181106 ], [ 499814.022440036467742, 9281551.488627247512341 ], [ 499771.150310749013443, 9282447.743145920336246 ], [ 498663.558611235115677, 9282447.727675503119826 ], [ 498577.960934834321961, 9284240.217538811266422 ] ] ], [ [ [ 496362.750559732259717, 9284240.117783449590206 ], [ 495255.145225167507306, 9284240.03514732606709 ], [ 495212.406313992163632, 9285136.269041260704398 ], [ 496320.01834354159655, 9285136.352415112778544 ], [ 496277.339483369374648, 9286032.581234861165285 ], [ 498492.576613887154963, 9286032.684098673984408 ], [ 498577.960934834321961, 9284240.217538811266422 ], [ 497470.355785215157084, 9284240.178580608218908 ], [ 497513.134654973167926, 9283343.937361214309931 ], [ 496405.536131590779405, 9283343.877332264557481 ], [ 496362.750559732259717, 9284240.117783449590206 ] ] ], [ [ [ 521118.175158934842329, 9189200.239688955247402 ], [ 520011.321483423816971, 9189200.699243286624551 ], [ 519963.064361188618932, 9190097.616155473515391 ], [ 521069.925597584282514, 9190097.158188946545124 ], [ 521118.175158934842329, 9189200.239688955247402 ] ] ], [ [ [ 520925.495905224059243, 9192787.873577756807208 ], [ 523139.265549088595435, 9192786.893251467496157 ], [ 523091.243700631894171, 9193683.788265623152256 ], [ 519770.56761032534996, 9193685.217014253139496 ], [ 519722.576359132886864, 9194582.100570539012551 ], [ 520829.475274069409352, 9194581.650489207357168 ], [ 520733.667310983990319, 9196375.400795424357057 ], [ 521840.58185747457901, 9196374.929326778277755 ], [ 521888.451754566340242, 9195478.055905362591147 ], [ 522995.35945363168139, 9195477.558302920311689 ], [ 523043.275002012611367, 9194580.676613500341773 ], [ 525257.077480960055254, 9194579.604453232139349 ], [ 525305.031151516130194, 9193682.712774358689785 ], [ 526411.925993268727325, 9193682.138130832463503 ], [ 526556.083215577877127, 9190991.417881334200501 ], [ 524342.339463750948198, 9190992.552769646048546 ], [ 524294.218856712104753, 9191889.462802428752184 ], [ 523187.340546983119566, 9191889.991563204675913 ], [ 523235.468693915230688, 9190993.083193004131317 ], [ 522128.598617423907854, 9190993.588935939595103 ], [ 522080.462929198809434, 9191890.49567087739706 ], [ 520973.585970327025279, 9191890.975125525146723 ], [ 520925.495905224059243, 9192787.873577756807208 ] ], [ [ 525401.097891417215578, 9191888.909388471394777 ], [ 525353.037955135223456, 9192785.814422050490975 ], [ 524246.151390322076622, 9192786.366149690002203 ], [ 524294.218856712104753, 9191889.462802428752184 ], [ 525401.097891417215578, 9191888.909388471394777 ] ] ], [ [ [ 558768.39047069917433, 9209797.660732951015234 ], [ 557661.324407658074051, 9209798.92846386320889 ], [ 557614.54744508722797, 9210695.762527531012893 ], [ 556507.47578236926347, 9210697.003712341189384 ], [ 556414.06590743525885, 9212490.647098030894995 ], [ 557521.152189533459023, 9212489.410773061215878 ], [ 557474.533897341112606, 9213386.22497077845037 ], [ 558581.629193905857392, 9213384.967068869620562 ], [ 558628.240190227748826, 9212488.15041914768517 ], [ 559735.329942598822527, 9212486.866036100313067 ], [ 559781.986518199322745, 9211590.040285998955369 ], [ 558674.904068731586449, 9211591.3271518740803 ], [ 558768.39047069917433, 9209797.660732951015234 ] ] ], [ [ [ 527583.501652359263971, 9213411.116252215579152 ], [ 527536.738988115801476, 9214307.868063148111105 ], [ 528643.806852571200579, 9214307.259860381484032 ], [ 528690.562193375546485, 9213410.506338696926832 ], [ 527583.501652359263971, 9213411.116252215579152 ] ] ], [ [ [ 524215.540199125825893, 9214309.548848757520318 ], [ 524262.32484182988992, 9213412.802006151527166 ], [ 525369.383009663783014, 9213412.264085855334997 ], [ 525463.097039798973128, 9211618.747620498761535 ], [ 522141.968726635386702, 9211620.299028981477022 ], [ 522188.927502869279124, 9210723.535855252295732 ], [ 521081.893455648096278, 9210724.006444504484534 ], [ 521175.985218478890602, 9208930.463660838082433 ], [ 520068.966542471549474, 9208930.91324127279222 ], [ 520116.099554820568301, 9208034.133598940446973 ], [ 519009.088862953998614, 9208034.560558684170246 ], [ 518961.948465930589009, 9208931.33868782967329 ], [ 517854.930955787946004, 9208931.740000575780869 ], [ 517807.836362841015216, 9209828.510124446824193 ], [ 518914.861250646761619, 9209828.110294058918953 ], [ 518773.918699135072529, 9212518.386053122580051 ], [ 517666.871728685509879, 9212518.781457448378205 ], [ 517619.989900163607672, 9213415.525581520050764 ], [ 519834.099088786228094, 9213414.713712377473712 ], [ 519787.285122395958751, 9214311.454313019290566 ], [ 520894.347922037763055, 9214311.013902070000768 ], [ 520754.247027167526539, 9217001.201394639909267 ], [ 521861.332395614008419, 9217000.741633262485266 ], [ 521907.972219503484666, 9216104.017402876168489 ], [ 523015.050936162471771, 9216103.532189648598433 ], [ 522782.41986304015154, 9220587.096570460125804 ], [ 523889.535702251945622, 9220586.595362147316337 ], [ 523935.948341723356862, 9219689.893811173737049 ], [ 526150.167659052298404, 9219688.816821137443185 ], [ 526057.424580902326852, 9221482.219949679449201 ], [ 527164.549919316661544, 9221481.649059735238552 ], [ 527257.278473548707552, 9219688.242616411298513 ], [ 528364.390102720004506, 9219687.644605098292232 ], [ 528457.316579602542333, 9217894.208949599415064 ], [ 529564.414504499640316, 9217893.583693701773882 ], [ 529657.53883661411237, 9216100.118681183084846 ], [ 530764.623062212951481, 9216099.466057449579239 ], [ 530857.945182144641876, 9214305.97154294513166 ], [ 528643.806852571200579, 9214307.259860381484032 ], [ 528550.455497256363742, 9216100.747388862073421 ], [ 527443.373011055169627, 9216101.352180581539869 ], [ 527303.722429877030663, 9218791.529712811112404 ], [ 526196.618889906210825, 9218792.105580117553473 ], [ 526429.671946442453191, 9214308.4522954095155 ], [ 524215.540199125825893, 9214309.548848757520318 ] ] ], [ [ [ 548478.118196990806609, 9216085.771402077749372 ], [ 548571.206819696119055, 9214292.213130541145802 ], [ 546357.031575429718941, 9214294.268540339544415 ], [ 546263.91380280489102, 9216087.818077176809311 ], [ 548478.118196990806609, 9216085.771402077749372 ] ] ], [ [ [ 534085.881387286353856, 9216097.364688904955983 ], [ 535192.969488682458177, 9216096.616399921476841 ], [ 535053.471911282045767, 9218786.8312869053334 ], [ 536160.582905924180523, 9218786.064745584502816 ], [ 536440.011834888602607, 9213405.564996615052223 ], [ 535332.944598726811819, 9213406.342897733673453 ], [ 535239.574800035683438, 9215199.865089112892747 ], [ 534132.493997243233025, 9215200.615245807915926 ], [ 534085.881387286353856, 9216097.364688904955983 ] ] ], [ [ [ 541882.082887651631609, 9215194.861322585493326 ], [ 540774.995270628016442, 9215195.755144579336047 ], [ 540635.447807900607586, 9217886.018739484250546 ], [ 539528.339558609994128, 9217886.882614398375154 ], [ 539481.922506628325209, 9218783.622112708166242 ], [ 541696.154751977999695, 9218781.874515447765589 ], [ 541742.557271613739431, 9217885.131002007052302 ], [ 542849.667982838000171, 9217884.219401828944683 ], [ 542896.116239711875096, 9216987.467318426817656 ], [ 541789.012801031465642, 9216988.380970623344183 ], [ 541882.082887651631609, 9215194.861322585493326 ] ] ], [ [ [ 558349.367458844324574, 9217868.951331660151482 ], [ 557242.23580803303048, 9217870.197025839239359 ], [ 557195.934867258183658, 9218766.971705589443445 ], [ 558303.073763899505138, 9218765.728442527353764 ], [ 558256.832953893695958, 9219662.498991316184402 ], [ 559363.980829298612662, 9219661.234345398843288 ], [ 559410.214403109275736, 9218764.461341632530093 ], [ 560517.356817982974462, 9218763.170402714982629 ], [ 560609.968100204016082, 9216969.59971559792757 ], [ 558395.714038335951045, 9216972.167650792747736 ], [ 558349.367458844324574, 9217868.951331660151482 ] ] ], [ [ [ 520754.247027167526539, 9217001.201394639909267 ], [ 519647.162278935720678, 9217001.63726794347167 ], [ 519600.561017646745313, 9217898.351996527984738 ], [ 517386.378646552329883, 9217899.149149935692549 ], [ 517246.850219550949987, 9220589.245929311960936 ], [ 518353.962984879733995, 9220588.863615013659 ], [ 518400.411988895211834, 9219692.169676657766104 ], [ 519507.518027192680165, 9219691.762115798890591 ], [ 519554.012933603837155, 9218795.060276553034782 ], [ 520661.112272295402363, 9218794.627410978078842 ], [ 520754.247027167526539, 9217001.201394639909267 ] ] ], [ [ [ 523843.176207649987191, 9221483.290474068373442 ], [ 522736.053106622595806, 9221483.790108676999807 ], [ 522689.739503842836712, 9222380.477219084277749 ], [ 523796.86985830363119, 9222379.979154728353024 ], [ 523843.176207649987191, 9221483.290474068373442 ] ] ], [ [ [ 561347.979322471306659, 9224142.42529016546905 ], [ 559133.606122978497297, 9224145.001158295199275 ], [ 559179.575307908118702, 9223248.260863441973925 ], [ 561393.934122247155756, 9223245.68003792129457 ], [ 561439.94178390991874, 9222348.928252836689353 ], [ 559225.597371395211667, 9222351.514042645692825 ], [ 559317.800132480915636, 9220558.000791542232037 ], [ 558210.645029219449498, 9220559.26298594288528 ], [ 557980.498699513496831, 9225042.984923750162125 ], [ 556873.309315555379726, 9225044.211265847086906 ], [ 556735.834654356935062, 9227734.359084939584136 ], [ 555628.625454614288174, 9227735.554662493988872 ], [ 555582.899205995490775, 9228632.255266729742289 ], [ 556690.11556112812832, 9228631.062055049464107 ], [ 556644.449365462176502, 9229527.758553536608815 ], [ 558858.901484921923839, 9229525.306325769051909 ], [ 558996.015843435772695, 9226835.182966336607933 ], [ 560103.223072315449826, 9226833.914243848994374 ], [ 560057.472565389820375, 9227730.630965352058411 ], [ 561164.688750044559129, 9227729.341129217296839 ], [ 561347.979322471306659, 9224142.42529016546905 ] ] ], [ [ [ 548985.404029654804617, 9227742.233286123722792 ], [ 547878.205778708099388, 9227743.263918025419116 ], [ 547924.035115095437504, 9226846.572657652199268 ], [ 549031.22619326331187, 9226845.539847731590271 ], [ 549123.029385669971816, 9225052.133572829887271 ], [ 550230.207561914110556, 9225051.072751438245177 ], [ 550138.418737511034124, 9226844.483447320759296 ], [ 551245.612780946772546, 9226843.403456259518862 ], [ 551383.353876221575774, 9224153.270973864942789 ], [ 550276.181393414852209, 9224154.357683528214693 ], [ 550322.208170598722063, 9223257.636125130578876 ], [ 549215.044395749573596, 9223258.701381254941225 ], [ 549169.010413694544695, 9224155.420720564201474 ], [ 548061.840903957374394, 9224156.460085133090615 ], [ 548107.882092187413946, 9223259.74293758533895 ], [ 547000.721226809895597, 9223260.760794281959534 ], [ 546908.677406118367799, 9225054.184280345216393 ], [ 545801.503536600153893, 9225055.174166783690453 ], [ 545847.506162017118186, 9224158.467797502875328 ], [ 544740.340863610617816, 9224159.436145607382059 ], [ 544648.374197110533714, 9225952.838206060230732 ], [ 545755.553890652372502, 9225951.874067209661007 ], [ 545618.022833496099338, 9228641.935034008696675 ], [ 544510.821609898470342, 9228642.892884723842144 ], [ 544419.384831283707172, 9230436.230487495660782 ], [ 545526.600366488564759, 9230435.276811756193638 ], [ 545572.285109291900881, 9229538.609137654304504 ], [ 547786.705998102552257, 9229536.627090295776725 ], [ 547832.429406248964369, 9228639.94872628338635 ], [ 548939.634821626357734, 9228638.920268973335624 ], [ 548985.404029654804617, 9227742.233286123722792 ] ] ], [ [ [ 541235.045179259264842, 9227748.952891500666738 ], [ 540127.856254700804129, 9227749.818585436791182 ], [ 540082.029694758704863, 9228646.488936627283692 ], [ 541189.225792878074571, 9228645.625226017087698 ], [ 541235.045179259264842, 9227748.952891500666738 ] ] ], [ [ [ 553368.471449101576582, 9228634.571079704910517 ], [ 551154.050075946492143, 9228636.792746668681502 ], [ 551108.348132161190733, 9229533.477706164121628 ], [ 553322.783808427513577, 9229531.26057281717658 ], [ 553368.471449101576582, 9228634.571079704910517 ] ] ], [ [ [ 556644.449365462176502, 9229527.758553536608815 ], [ 555537.225863278727047, 9229528.949402764439583 ], [ 555491.605426852940582, 9230425.637078493833542 ], [ 556598.836067748605274, 9230424.448588298633695 ], [ 556644.449365462176502, 9229527.758553536608815 ] ] ], [ [ [ 557706.068401355063543, 9230423.236615721136332 ], [ 556598.836067748605274, 9230424.448588298633695 ], [ 556507.76816771668382, 9232217.809298239648342 ], [ 557615.014751172740944, 9232216.602088144049048 ], [ 557706.068401355063543, 9230423.236615721136332 ] ] ], [ [ [ 542022.662978974753059, 9234024.6493562720716 ], [ 543129.90442381228786, 9234023.750732004642487 ], [ 543175.391474908101372, 9233127.112814487889409 ], [ 544282.627090347814374, 9233126.188774237409234 ], [ 544328.160013216198422, 9232229.542417176067829 ], [ 542113.704330788343213, 9232231.371168326586485 ], [ 542022.662978974753059, 9234024.6493562720716 ] ] ], [ [ [ 556416.911864118068479, 9234011.144248044118285 ], [ 555309.652751758578233, 9234012.323336211964488 ], [ 555264.296852562692948, 9234908.97882879525423 ], [ 556371.563061942229979, 9234907.802082629874349 ], [ 556416.911864118068479, 9234011.144248044118285 ] ] ], [ [ [ 555083.402345602866262, 9238495.536748370155692 ], [ 553976.109479622915387, 9238496.680924171581864 ], [ 553931.011070649372414, 9239393.302133049815893 ], [ 555038.310993232182227, 9239392.160254992544651 ], [ 555083.402345602866262, 9238495.536748370155692 ] ] ] ] } }
]
}
