{
"type": "FeatureCollection",
"name": "urban-1980",
"crs": { "type": "name", "properties": { "name": "urn:ogc:def:crs:EPSG::32631" } },
"features": [
{ "type": "Feature", "properties": { "year": 1980 }, "geometry": { "type": "MultiPolygon", "coordinates": [ [ [ [ 491681.50315549178049, 707694.445838475134224 ], [ 491684.805302016437054, 708590.637280751485378 ], [ 490577.14585571869975, 708590.810396060580388 ], [ 490580.458799630927388, 709487.007730163633823 ], [ 493903.41652826522477, 709486.55286269960925 ], [ 493900.123479449946899, 708590.355911764316261 ], [ 492792.464498849934898, 708590.485785993863828 ], [ 492789.168975577515084, 707694.294471680885181 ], [ 491681.50315549178049, 707694.445838475134224 ] ] ], [ [ [ 497232.931290146196261, 711278.703696253011003 ], [ 497229.649888844811358, 710382.495384567882866 ], [ 493906.71372574189445, 710382.75555828306824 ], [ 493910.015071854693815, 711278.964005888090469 ], [ 492802.37601136311423, 711279.094180628075264 ], [ 492799.068016767676454, 710382.885633094585501 ], [ 491691.422091777494643, 710383.037383056129329 ], [ 491694.736734964535572, 711279.246057829237543 ], [ 490587.097209433210082, 711279.419637514743954 ], [ 490580.458799630927388, 709487.007730163633823 ], [ 489472.805702558660414, 709487.202648394741118 ], [ 489469.486126725503709, 708591.005131947109476 ], [ 486146.504911263356917, 708591.719063385738991 ], [ 486149.844383548246697, 709487.917290733195841 ], [ 487257.498527746764012, 709487.657428644830361 ], [ 487260.835567105736118, 710383.861134915263392 ], [ 486153.188063621462788, 710384.121261040214449 ], [ 486163.244350338878576, 713072.767703435034491 ], [ 489486.12583012401592, 713072.050224740058184 ], [ 489482.78952464601025, 712175.829689325182699 ], [ 491698.055543656286318, 712175.460491514648311 ], [ 491701.378517828008626, 713071.680691484943964 ], [ 495024.255765606183559, 713071.28956985170953 ], [ 495020.952787566464394, 712175.069668214651756 ], [ 499451.480510264984332, 712174.852786760544404 ], [ 499444.940193338494282, 710382.430310899741016 ], [ 498337.29506603081245, 710382.452010191744193 ], [ 498340.56981926842127, 711278.660331192193553 ], [ 497232.931290146196261, 711278.703696253011003 ] ] ], [ [ [ 498350.418767821218353, 713967.319885880686343 ], [ 498347.131670190196019, 713071.094261661404744 ], [ 495024.255765606183559, 713071.28956985170953 ], [ 495027.56288375845179, 713967.515245876042172 ], [ 498350.418767821218353, 713967.319885880686343 ] ] ], [ [ [ 506106.993424763611984, 714863.858740930561908 ], [ 503891.769165952806361, 714863.661840299610049 ], [ 503895.031043033523019, 715759.899499195860699 ], [ 502787.425795128569007, 715759.833619286189787 ], [ 502784.15722823725082, 714863.59610747534316 ], [ 499461.321783221559599, 714863.529778858064674 ], [ 499464.610420117212925, 715759.76701327948831 ], [ 501679.820630819129292, 715759.789578333962709 ], [ 501683.099976963480003, 716656.032768348464742 ], [ 500575.50156148057431, 716656.010473640519194 ], [ 500578.791703841707204, 717552.259376061148942 ], [ 498363.608305524161551, 717552.280281453975476 ], [ 498370.227762308553793, 719344.795321749290451 ], [ 503908.119275606470183, 719344.90819324052427 ], [ 503901.567014526459388, 717552.392219766159542 ], [ 509439.528648483450525, 717553.051498008659109 ], [ 509436.292158695578109, 716656.801087259547785 ], [ 507221.09347580303438, 716656.472236007684842 ], [ 507217.847620494023431, 715760.228172788629308 ], [ 506110.241922498913482, 715760.096775932121091 ], [ 506106.993424763611984, 714863.858740930561908 ] ] ], [ [ [ 511657.942141828883905, 718449.725340863922611 ], [ 510550.355496947013307, 718449.505571519141085 ], [ 510547.121691622771323, 717553.249034632928669 ], [ 509439.528648483450525, 717553.051498008659109 ], [ 509442.769168429833371, 718449.307723207050003 ], [ 508335.183123064925894, 718449.131795897730626 ], [ 508354.751340049901046, 723826.789952548337169 ], [ 509462.296919762971811, 723826.967591271968558 ], [ 509449.262298678746447, 720241.837646481231786 ], [ 510556.835172608611174, 720242.036118904361501 ], [ 510553.593323952401988, 719345.767930481932126 ], [ 511661.173245847166982, 719345.988039071206003 ], [ 511657.942141828883905, 718449.725340863922611 ] ] ], [ [ [ 499487.745851684245281, 722033.590397191932425 ], [ 501702.861928589176387, 722033.614079239079729 ], [ 501706.16989939409541, 722929.898061741725542 ], [ 502813.721240330196451, 722929.943069694680162 ], [ 502810.420027018408291, 722033.658965457696468 ], [ 505025.536509856698103, 722033.814828319824301 ], [ 505018.973304083046969, 720241.263512796838768 ], [ 499481.115197704639286, 720241.040295321145095 ], [ 499487.745851684245281, 722033.590397191932425 ] ] ], [ [ [ 507240.653595370589755, 722034.05881183303427 ], [ 507237.383458004100248, 721137.779798415023834 ], [ 506129.818074636277743, 721137.6470223038923 ], [ 506133.094960676564369, 722033.925804986967705 ], [ 507240.653595370589755, 722034.05881183303427 ] ] ], [ [ [ 505032.11597085185349, 723826.389545364072546 ], [ 507247.20601079496555, 723826.634398670867085 ], [ 507243.927779644029215, 722930.343676123535261 ], [ 506136.375902072933968, 722930.210438296664506 ], [ 506133.094960676564369, 722033.925804986967705 ], [ 505025.536509856698103, 722033.814828319824301 ], [ 505032.11597085185349, 723826.389545364072546 ] ] ], [ [ [ 476246.332499247102533, 726520.16423181258142 ], [ 472923.733774845837615, 726521.690261680167168 ], [ 472930.748581187974196, 728314.335610753274523 ], [ 471823.227708564023487, 728314.889851331710815 ], [ 471826.748394759953953, 729211.22197848581709 ], [ 472934.262447490531486, 729210.66712394123897 ], [ 472937.780622520542238, 730107.00453940173611 ], [ 474045.287035885325167, 730106.471348084975034 ], [ 474041.775689061440062, 729210.134519030456431 ], [ 475149.28815266554011, 729209.624163671978749 ], [ 475142.291990617988631, 727416.969324670033529 ], [ 476249.817339933651965, 727416.482283088495024 ], [ 476246.332499247102533, 726520.16423181258142 ] ] ], [ [ [ 491761.904321555513889, 729204.638734820997342 ], [ 492869.408851843443699, 729204.484364038333297 ], [ 492872.80413934122771, 730100.815403014537878 ], [ 495087.798940251988824, 730100.573245252016932 ], [ 495077.66645197494654, 727411.598329378291965 ], [ 493970.148689613793977, 727411.708067111321725 ], [ 493966.772672416118439, 726515.394821701105684 ], [ 491751.722971053561196, 726515.680660967365839 ], [ 491761.904321555513889, 729204.638734820997342 ] ] ], [ [ [ 472937.780622520542238, 730107.00453940173611 ], [ 471830.273398139048368, 730107.560007665189914 ], [ 471833.80271868139971, 731003.903946247301064 ], [ 472941.303106257750187, 731003.347864512470551 ], [ 472937.780622520542238, 730107.00453940173611 ] ] ], [ [ [ 472944.829898681957275, 731899.697106652311049 ], [ 471837.336356367100962, 731900.253801610786468 ], [ 471851.514078144391533, 735485.71253847470507 ], [ 472958.980154843069613, 735485.153393106069416 ], [ 472951.896409510227386, 733692.413371539558284 ], [ 474059.375425488047767, 733691.877837077714503 ], [ 474055.846877782372758, 732795.517324153450318 ], [ 472948.360999772907235, 732796.052273201523349 ], [ 472944.829898681957275, 731899.697106652311049 ] ] ], [ [ [ 472969.638087181781884, 738174.308098405366763 ], [ 474077.08266613795422, 738173.769640612532385 ], [ 474080.637014547246508, 739070.165900778840296 ], [ 475188.073904319142457, 739069.64940906688571 ], [ 475180.98332438012585, 737276.863978521083482 ], [ 474073.532617794116959, 737277.379356776596978 ], [ 474069.986869536456652, 736380.995041887625121 ], [ 472962.528490397729911, 736381.532331097056158 ], [ 472969.638087181781884, 738174.308098405366763 ] ] ], [ [ [ 500658.984379268134944, 739063.99376156728249 ], [ 500655.595898765895981, 738167.603321509552188 ], [ 499548.160800747806206, 738167.60124962462578 ], [ 499551.556191087584011, 739063.991618091473356 ], [ 497336.69974125578301, 739064.054978315136395 ], [ 497340.113074019609485, 739960.451274527353235 ], [ 496232.691664629674051, 739960.516788331675343 ], [ 496236.116046868439298, 740856.919090767856687 ], [ 497343.530529196199495, 740856.853567120619118 ], [ 497346.952106758195441, 741753.261863485211506 ], [ 499561.766995165671688, 741753.198690017918125 ], [ 499554.955686955829151, 739960.387976051541045 ], [ 501769.798246570513584, 739960.414983059279621 ], [ 501766.412587188067846, 739064.018454101169482 ], [ 500658.984379268134944, 739063.99376156728249 ] ] ], [ [ [ 488491.167976255936082, 742650.834945792681538 ], [ 489598.570063185528852, 742650.610794519889168 ], [ 489588.159677641117014, 739961.383975930861197 ], [ 487373.313540874514729, 739961.853650354663841 ], [ 487376.793343641911633, 740858.257014790549874 ], [ 488484.209656568884384, 740858.010660956264473 ], [ 488491.167976255936082, 742650.834945792681538 ] ] ], [ [ [ 502952.584119665436447, 759682.719271414680406 ], [ 501845.317114850797225, 759682.669056687736884 ], [ 501841.841513192397542, 758786.138876649783924 ], [ 500734.567459298181348, 758786.111943962750956 ], [ 500738.050165251072031, 759682.642019225400873 ], [ 499630.783237734925933, 759682.638159023597836 ], [ 499634.277152961178217, 760579.174316456075758 ], [ 498527.017327363195363, 760579.193583107553422 ], [ 498530.522468865267001, 761475.735856909421273 ], [ 499637.775173034227919, 761475.716640923870727 ], [ 499644.783527605526615, 763268.8198205815861 ], [ 501859.260400688741356, 763268.85145237960387 ], [ 501855.768447407579515, 762372.2965873159701 ], [ 504070.259818968072068, 762372.42107162962202 ], [ 504063.316677222435828, 760579.329295611707494 ], [ 502956.056696617975831, 760579.255743950372562 ], [ 502952.584119665436447, 759682.719271414680406 ] ] ], [ [ [ 481918.096102254407015, 760582.267142125521787 ], [ 481925.324296091101132, 762375.362895366735756 ], [ 480818.074044981214684, 762375.75421045278199 ], [ 480825.333488779724576, 764168.875445884186774 ], [ 481932.569450842333026, 764168.483359379228204 ], [ 481928.944753364252392, 763271.920034826733172 ], [ 484143.429386287403759, 763271.206493881647475 ], [ 484132.623524920432828, 760581.555671940324828 ], [ 481918.096102254407015, 760582.267142125521787 ] ] ], [ [ [ 498601.489049860800151, 779407.887761713471264 ], [ 496387.271895809099078, 779407.995391753618605 ], [ 496394.488251768168993, 781201.348634587018751 ], [ 498608.676191278093029, 781201.241065914975479 ], [ 498601.489049860800151, 779407.887761713471264 ] ] ], [ [ [ 528240.713448570575565, 709493.261003941646777 ], [ 527133.051317676552571, 709492.719889034167863 ], [ 527136.149356283713132, 710388.932279195985757 ], [ 528243.804849676438607, 710389.474140587262809 ], [ 528240.713448570575565, 709493.261003941646777 ] ] ], [ [ [ 513882.781477284093853, 721139.038516658241861 ], [ 513892.482407238392625, 723827.898995222756639 ], [ 515000.02973727369681, 723828.18705865170341 ], [ 514996.79886275267927, 722931.893952776794322 ], [ 516104.35340737295337, 722932.203651541145518 ], [ 516097.917126046260819, 721139.634113650303334 ], [ 513882.781477284093853, 721139.038516658241861 ] ] ], [ [ [ 526123.450042217620648, 737277.473383736098185 ], [ 523908.549107011465821, 737276.45712002646178 ], [ 523905.313551729253959, 736380.070835203281604 ], [ 522797.85728388314601, 736379.597090890049003 ], [ 522801.099730353453197, 737275.982731054769829 ], [ 521693.651036756229587, 737275.530837241210975 ], [ 521690.401699032634497, 736379.145814421121031 ], [ 520582.946763999236282, 736378.717005727929063 ], [ 520579.694479944650084, 735482.338545036735013 ], [ 519472.233278613828588, 735481.932766520534642 ], [ 519475.49244560446823, 736378.310664745396934 ], [ 518368.038710670138244, 736377.926791411591694 ], [ 518371.308722562971525, 737274.310126077616587 ], [ 517263.862429442699067, 737273.948212242452428 ], [ 517270.428147207014263, 739066.731808997807093 ], [ 521700.161521676229313, 739068.318829513737001 ], [ 521703.422668804239947, 739964.721813760697842 ], [ 522810.850637920841109, 739965.17556112294551 ], [ 522814.10879638051847, 740861.585165662923828 ], [ 523921.530523751687724, 740862.062135793617927 ], [ 523924.785676665487699, 741758.478395844809711 ], [ 522817.37088275118731, 741758.000779791618697 ], [ 522820.636896998155862, 742654.422410908504389 ], [ 523928.044749000866432, 742654.900673138559796 ], [ 523934.574651796545368, 744447.763309052330442 ], [ 522827.180708982457872, 744447.283753706375137 ], [ 522837.025885162991472, 747136.621080323006026 ], [ 526159.147115982021205, 747138.133958244463429 ], [ 526162.415719009004533, 748034.593871763325296 ], [ 527269.78399245836772, 748035.14448562823236 ], [ 527266.522381890099496, 747138.683842460042797 ], [ 529481.275396105484106, 747139.851998750935309 ], [ 529484.523021931061521, 748036.314183161361143 ], [ 530591.89384426700417, 748036.933267007698305 ], [ 530588.653210728545673, 747140.470271004363894 ], [ 531696.031941239256412, 747141.111339453607798 ], [ 531692.802159951068461, 746244.653567983652465 ], [ 530585.416445662849583, 746244.013338186428882 ], [ 530582.183549107052386, 745347.562461148714647 ], [ 531689.576238716836087, 745348.201852549682371 ], [ 531686.354177573928609, 744451.756185747683048 ], [ 532793.754782940377481, 744452.417453356669284 ], [ 532790.543540285434574, 743555.976962582906708 ], [ 535005.361646916018799, 743557.365828907699324 ], [ 534998.978499189717695, 741764.499319033697248 ], [ 536106.40299949189648, 741765.225889634573832 ], [ 536103.224110778304748, 740868.800721692619845 ], [ 537210.656625300529413, 740869.548951423028484 ], [ 537220.183946890523657, 743558.84544462012127 ], [ 539435.010705537279136, 743560.415810621227138 ], [ 539425.525031136232428, 740871.113227876136079 ], [ 540532.960988792823628, 740871.9292748371372 ], [ 540529.813623706577346, 739975.506061865948141 ], [ 541637.257719611865468, 739976.3436321093468 ], [ 541627.859102496411651, 737287.106754481676035 ], [ 542735.325167348957621, 737287.963574985042214 ], [ 542729.092116547632031, 735495.166705944691785 ], [ 543836.573233839008026, 735496.043751038727351 ], [ 543827.272572470130399, 732806.889795352937654 ], [ 544934.775597921106964, 732807.785794289316982 ], [ 544931.689760736189783, 731911.411885469336994 ], [ 546039.200980654917657, 731912.32905538554769 ], [ 546036.125742254080251, 731015.959897768567316 ], [ 548251.166033187531866, 731017.858777401852421 ], [ 548245.054116228944622, 729225.133335097925738 ], [ 547137.519610734074377, 729224.175229513784871 ], [ 547134.462439112365246, 728327.822634179727174 ], [ 546026.922532194643281, 728326.887996291043237 ], [ 546020.805813512764871, 726534.202964128460735 ], [ 544913.253683071932755, 726533.292927099275403 ], [ 544907.138399270712398, 724740.633856577216648 ], [ 546014.704098961199634, 724741.541517977020703 ], [ 546008.617388862301596, 722948.903598662931472 ], [ 544901.03815371368546, 722947.998311896575615 ], [ 544882.827649696380831, 717570.232241311226971 ], [ 543775.209356863400899, 717569.35596880398225 ], [ 543769.155867091263644, 715776.816251982469112 ], [ 542661.525486567639746, 715775.964137064758688 ], [ 542658.497706714435481, 714879.704123609233648 ], [ 545981.412882125820033, 714882.322520166519098 ], [ 545984.420599415665492, 715778.58600658387877 ], [ 547092.055017659091391, 715779.503646537661552 ], [ 547089.053987832390703, 714883.238947835983709 ], [ 548196.696505862171762, 714884.177190144080669 ], [ 548199.690848251804709, 715780.443128445185721 ], [ 550414.96687937353272, 715782.38761869748123 ], [ 550411.985911786323413, 714886.119119250564836 ], [ 553734.931443693116307, 714889.195626379689202 ], [ 553729.020709986914881, 713096.667933217715472 ], [ 557052.02079472085461, 713099.932197615853511 ], [ 557054.954304090351798, 713996.197437805822119 ], [ 559270.282854368793778, 713998.485418072901666 ], [ 559276.134142312803306, 715791.039288112777285 ], [ 565922.083326968480833, 715798.445471646497026 ], [ 565916.312235398916528, 714005.872302555595525 ], [ 563700.961554197245277, 714003.322848974145018 ], [ 563703.85865781607572, 714899.603205579682253 ], [ 562596.192878685542382, 714898.359541814192198 ], [ 562590.388938767835498, 713105.8078688577516 ], [ 563698.068067065440118, 713107.048289289232343 ], [ 563695.178196465363726, 712210.779519129893743 ], [ 559264.446167478570715, 712205.954731781152077 ], [ 559261.533299536560662, 711309.698064056108706 ], [ 558153.848166305571795, 711308.547715553548187 ], [ 558150.932303705834784, 710412.298333122977056 ], [ 559258.624081987538375, 710413.447170088533312 ], [ 559255.718514874461107, 709517.202042485703714 ], [ 557040.323429609881714, 709514.929043452837504 ], [ 557043.242269947542809, 710411.171175788040273 ], [ 554827.867303064558655, 710408.981899327482097 ], [ 554824.935189459007233, 709512.74265299225226 ], [ 544855.765688155894168, 709503.975642513250932 ], [ 544858.757532362942584, 710400.203253990621306 ], [ 543751.085840692860074, 710399.336239776574075 ], [ 543754.088090394390747, 711295.568458013702184 ], [ 542646.424356554402038, 711294.721992340637371 ], [ 542643.415461520897225, 710398.490903218626045 ], [ 540428.078507747268304, 710396.86526255926583 ], [ 540422.045518087921664, 708604.42471614619717 ], [ 539314.365611482760869, 708603.646505411015823 ], [ 539320.411866683745757, 710396.08495821012184 ], [ 538212.74640519474633, 710395.326331021962687 ], [ 538209.714739340823144, 709499.105246944818646 ], [ 537102.043787126312964, 709498.369289103080519 ], [ 537099.009303535334766, 708602.154951425036415 ], [ 534883.657447713892907, 708600.749886665726081 ], [ 534886.705188683466986, 709496.962322168634273 ], [ 535994.373947984538972, 709497.654980880673975 ], [ 535997.418888018932194, 710393.874107669224031 ], [ 537105.082090049982071, 710394.589380879071541 ], [ 537108.124212269089185, 711290.815234138513915 ], [ 532677.504333008080721, 711288.080504780402407 ], [ 532680.576890741125681, 712184.308428891352378 ], [ 531572.931108781369403, 712183.678150157793425 ], [ 531569.851896868553013, 711287.451082267914899 ], [ 529354.549832404823974, 711286.257348353392445 ], [ 529351.461190346046351, 710390.037678132182918 ], [ 528243.804849676438607, 710389.474140587262809 ], [ 528246.90013762540184, 711285.693036769283935 ], [ 524923.956004368257709, 711284.130322487442754 ], [ 524927.075142464018427, 712180.352826617308892 ], [ 523819.435292211710475, 712179.874663383001462 ], [ 523822.565005422744434, 713076.102275808807462 ], [ 519392.039069676480722, 713074.40453888673801 ], [ 519388.882703798764851, 712178.17931444523856 ], [ 518281.246093719557393, 712177.809802887844853 ], [ 518284.409122930956073, 713074.034498613327742 ], [ 513853.894488019519486, 713072.771911656484008 ], [ 513857.088167808426078, 713969.000544154900126 ], [ 511641.846820847655181, 713968.499037006753497 ], [ 511645.057858394575305, 714864.732697427854873 ], [ 512752.671660005988088, 714864.972924062982202 ], [ 512759.092388452030718, 716657.458362065604888 ], [ 511651.491973523166962, 716657.217404032009654 ], [ 511657.942141828883905, 718449.725340863922611 ], [ 514980.704306786763482, 718450.516175445984118 ], [ 514983.915242323069833, 719346.780055257841013 ], [ 518306.661282413580921, 719347.769607952097431 ], [ 518309.856012668227777, 720244.040746355894953 ], [ 519417.432348694012035, 720244.415025156456977 ], [ 519414.244349342654459, 719348.143356078653596 ], [ 520521.82799840637017, 719348.539052911335602 ], [ 520525.009266923530959, 720244.811279975692742 ], [ 522740.164982831920497, 720245.669717914657667 ], [ 522736.997175782802515, 719349.396292939665727 ], [ 523844.582770518318284, 719349.857836266164668 ], [ 523847.743846930214204, 720246.131901165121235 ], [ 524955.32342607085593, 720246.616060695494525 ], [ 524958.48168370872736, 721142.896632874035276 ], [ 522743.336718576494604, 721141.948982439818792 ], [ 522746.512382982764393, 722038.234093902166933 ], [ 523854.077760464453604, 722038.697557740146294 ], [ 523866.792629423376638, 725623.899184872047044 ], [ 524974.331647711922415, 725624.38735300838016 ], [ 524977.513375434791669, 726520.70312061032746 ], [ 527192.580111819552258, 726521.747297530528158 ], [ 527195.752154961810447, 727418.07037727534771 ], [ 526088.225193872349337, 727417.536481160670519 ], [ 526091.407938131713308, 728313.864736473071389 ], [ 523876.369941722718067, 728312.862162728444673 ], [ 523879.570219084038399, 729209.194958099746145 ], [ 524987.082027827622369, 729209.685803601401858 ], [ 524990.279401584528387, 730106.02518263400998 ], [ 526097.785135739366524, 730106.538974897819571 ], [ 526113.796431144233793, 734588.328328169300221 ], [ 527221.268703697132878, 734588.868024019990116 ], [ 527224.475797208375297, 735485.244466878590174 ], [ 526117.010398753336631, 735484.704044932615943 ], [ 526123.450042217620648, 737277.473383736098185 ] ], [ [ 559267.362685770378448, 713102.217180655454285 ], [ 560375.036281350185163, 713103.392314724973403 ], [ 560377.94977957510855, 713999.662091732374392 ], [ 559270.282854368793778, 713998.485418072901666 ], [ 559267.362685770378448, 713102.217180655454285 ] ], [ [ 523835.123063109989744, 716661.070606477907859 ], [ 522727.517327143461443, 716660.610981448320672 ], [ 522724.365235211211257, 715764.36084080953151 ], [ 523831.977668028906919, 715764.81982689735014 ], [ 523828.836193364928477, 714868.574850182165392 ], [ 524936.456029257969931, 714869.055009978241287 ], [ 524942.729513870435767, 716661.552098537096754 ], [ 526050.336712641525082, 716662.055457699229009 ], [ 526047.204711078549735, 715765.803318298188969 ], [ 528262.434878804255277, 715766.874169170041569 ], [ 528259.320157159818336, 714870.62636454240419 ], [ 529366.943183935945854, 714871.19377472193446 ], [ 529373.163129188120365, 716663.696738587110303 ], [ 530480.773652171832509, 716664.28756696137134 ], [ 530483.882737095933408, 717560.548565479693934 ], [ 526053.472617695922963, 717558.313407841604203 ], [ 526056.612426207400858, 718454.577176111168228 ], [ 527164.206987527315505, 718455.103844947996549 ], [ 527167.343977452721447, 719351.374160347622819 ], [ 523844.582770518318284, 719349.857836266164668 ], [ 523835.123063109989744, 716661.070606477907859 ] ], [ [ 526066.055272140190937, 721143.403463554219343 ], [ 526069.210694135632366, 722039.690578206325881 ], [ 524961.643853113171645, 722039.183052483480424 ], [ 524958.48168370872736, 721142.896632874035276 ], [ 526066.055272140190937, 721143.403463554219343 ] ], [ [ 528360.918845755863003, 743553.471474768361077 ], [ 528364.157922164537013, 744449.908668628544547 ], [ 526149.364720832323655, 744448.790561043890193 ], [ 526152.621616857824847, 745345.232310287887231 ], [ 525045.233174535562284, 745344.706625815131702 ], [ 525038.709359043161385, 743551.830570162041113 ], [ 528360.918845755863003, 743553.471474768361077 ] ], [ [ 528357.683654878172092, 742657.040313968784176 ], [ 529465.095421647070907, 742657.631872561061755 ], [ 529468.323662460315973, 743554.063816362409852 ], [ 528360.918845755863003, 743553.471474768361077 ], [ 528357.683654878172092, 742657.040313968784176 ] ] ], [ [ [ 523885.982533492846414, 731001.8782973253401 ], [ 524993.480686763417907, 731002.370483005652204 ], [ 524990.279401584528387, 730106.02518263400998 ], [ 523882.77441635215655, 730105.533667167997919 ], [ 523885.982533492846414, 731001.8782973253401 ] ] ], [ [ [ 560454.978883494390175, 737304.732391797471792 ], [ 559347.488352754851803, 737303.515601596562192 ], [ 559344.473291526432149, 736407.09426539868582 ], [ 558236.977648740517907, 736405.901493312208913 ], [ 558227.933740849373862, 733716.677895526052453 ], [ 559335.450003003235906, 733717.866112839546986 ], [ 559341.461879461887293, 735510.678910144371912 ], [ 560448.96618178638164, 735511.892608432215638 ], [ 560445.965292045613751, 734615.481681137811393 ], [ 562660.993109549628571, 734617.973239483195357 ], [ 562658.009589923894964, 733721.565105969202705 ], [ 560442.968043106840923, 733719.076720227836631 ], [ 560439.974435015115887, 732822.677718295832165 ], [ 563762.560123538831249, 732826.439083643374033 ], [ 563756.624891247600317, 731033.649331113672815 ], [ 562649.080774900154211, 731032.376432708231732 ], [ 562646.111751328106038, 730135.992092697299086 ], [ 561538.562681641546078, 730134.743101923842914 ], [ 561541.538536066771485, 731031.125842982670292 ], [ 560433.998141551623121, 731029.897561746882275 ], [ 560436.984467815142125, 731926.284667936852202 ], [ 559329.452723735477775, 731925.077150437398814 ], [ 559326.459558159462176, 731028.691588813671842 ], [ 558218.922752694925293, 731027.507923999335617 ], [ 558212.933716589701362, 729234.757636625668965 ], [ 559320.484175344812684, 729235.938267699908465 ], [ 559317.501958194887266, 728339.570493404753506 ], [ 558209.944685468450189, 728338.391378823900595 ], [ 558206.959312360151671, 727442.03103507484775 ], [ 559314.523390608839691, 727443.208633413305506 ], [ 559311.548472630791366, 726546.852680324926041 ], [ 557096.408466673339717, 726544.522686979849823 ], [ 557102.389157447614707, 728337.234490226954222 ], [ 555994.83534093236085, 728336.099827437778004 ], [ 555997.838000025134534, 729232.463134207297117 ], [ 554890.292675819713622, 729231.349262513802387 ], [ 554887.283202723134309, 728334.987390283611603 ], [ 553779.732709620497189, 728333.897178594954312 ], [ 553782.748996735317633, 729230.257643603370525 ], [ 552675.206929574487731, 729229.188277309644036 ], [ 552678.233730938751251, 730125.553282615030184 ], [ 551570.700065005803481, 730124.5048159371363 ], [ 551579.823188168345951, 732813.631367045338266 ], [ 552687.336335898493417, 732814.68389374576509 ], [ 552690.377937698969617, 733711.072653867769986 ], [ 551582.871646270388737, 733710.018773322808556 ], [ 551592.039271128247492, 736399.216763515723869 ], [ 549377.072531369631179, 736397.168288665241562 ], [ 549380.149603305617347, 737293.576939435559325 ], [ 552702.58134450064972, 737296.68734049575869 ], [ 552708.705247062142007, 739089.530575154582039 ], [ 554923.639969290350564, 739091.722252002102323 ], [ 554926.693639335222542, 739988.155661275261082 ], [ 556034.156536363298073, 739989.286767105339095 ], [ 556031.109781733946875, 739092.851920260582119 ], [ 558246.054475172306411, 739095.178917306824587 ], [ 558243.025208820123225, 738198.747116274549626 ], [ 560457.990695371641777, 738201.161262682406232 ], [ 560454.978883494390175, 737304.732391797471792 ] ], [ [ 556021.991564347408712, 736403.583364509511739 ], [ 556028.066701492294669, 738196.423075817641802 ], [ 554920.589982085861266, 738195.294844876276329 ], [ 554914.501056372188032, 736402.458007440320216 ], [ 556021.991564347408712, 736403.583364509511739 ] ], [ [ 556015.93112527905032, 734610.767573931487277 ], [ 556018.959507531835698, 735507.172482832102105 ], [ 554911.462117949966341, 735506.048562318785116 ], [ 554908.426862542051822, 734609.645089720841497 ], [ 556015.93112527905032, 734610.767573931487277 ] ] ], [ [ [ 509511.751000715186819, 737272.044668494490907 ], [ 510619.194370289973449, 737272.249119356856681 ], [ 510615.876116057042964, 736375.868767758365721 ], [ 511723.326695755356923, 736376.095368996611796 ], [ 511720.019346140965354, 735479.720643268665299 ], [ 509505.104737598565407, 735479.290568681433797 ], [ 509511.751000715186819, 737272.044668494490907 ] ] ], [ [ [ 556037.206965336226858, 740885.727623759652488 ], [ 554929.750992176588625, 740884.595080103492364 ], [ 554938.945147043792531, 743573.949467993690632 ], [ 556046.380297876661643, 743575.086326659773476 ], [ 556043.318846136913635, 742678.627396127791144 ], [ 558258.208114957436919, 742680.966224627103657 ], [ 558249.087399006821215, 739991.616721249651164 ], [ 556034.156536363298073, 739989.286767105339095 ], [ 556037.206965336226858, 740885.727623759652488 ] ] ], [ [ [ 522823.906839086848777, 743550.850066413520835 ], [ 521716.506620970496442, 743550.393844107049517 ], [ 521719.787449753901456, 744446.826912028598599 ], [ 522827.180708982457872, 744447.283753706375137 ], [ 522823.906839086848777, 743550.850066413520835 ] ] ], [ [ [ 546079.52038683288265, 743565.671420193975791 ], [ 546073.276146184187382, 741772.783516638330184 ], [ 544965.840719044557773, 741771.853246205137111 ], [ 544968.967905189143494, 742668.292990635731257 ], [ 543861.540765823679976, 742667.384188874973916 ], [ 543864.678660173434764, 743563.82879736891482 ], [ 544972.09885008528363, 743564.738764547160827 ], [ 544975.233553691999987, 744461.190575345652178 ], [ 546082.648132562055252, 744462.12442398222629 ], [ 546085.779628505930305, 745358.583472320344299 ], [ 544978.372015968081541, 745357.648430438362993 ], [ 544984.660216364078224, 747150.58230313542299 ], [ 547199.448905497556552, 747152.479959297110327 ], [ 547193.188621104112826, 745359.541257446398959 ], [ 548300.599026926793158, 745360.521785962511785 ], [ 548294.367633505142294, 743567.604797463980503 ], [ 546079.52038683288265, 743565.671420193975791 ] ] ], [ [ [ 521719.787449753901456, 744446.826912028598599 ], [ 520612.394840948283672, 744446.392783949384466 ], [ 520618.982250442670193, 746239.275859116693027 ], [ 521726.360915969882626, 746239.711172075127251 ], [ 521719.787449753901456, 744446.826912028598599 ] ] ], [ [ [ 547224.639705093461089, 754324.478040799847804 ], [ 551654.009629442007281, 754328.588227529660799 ], [ 551644.619526865077205, 751639.027709299349226 ], [ 548322.526499480009079, 751635.922287517925724 ], [ 548319.382804160239175, 750739.418247842346318 ], [ 547212.014373563695699, 750738.430226657656021 ], [ 547224.639705093461089, 754324.478040799847804 ] ] ], [ [ [ 521762.796408073161729, 756101.009032460860908 ], [ 521756.136349799635354, 754307.990857271244749 ], [ 522863.45250311557902, 754308.454528913018294 ], [ 522856.822283603192773, 752515.459591092774644 ], [ 525071.484866679413244, 752516.453324692090973 ], [ 525068.18971789511852, 751619.963692919467576 ], [ 522853.513065015140455, 751618.971284613362513 ], [ 522843.608974345959723, 748929.542926034540869 ], [ 523950.967996209219564, 748930.025718634366058 ], [ 523947.681488904752769, 748033.561113418196328 ], [ 521732.950126821058802, 748032.619647067505866 ], [ 521746.175781321304385, 751618.509478769265115 ], [ 520638.839148593659047, 751618.070605036569759 ], [ 520642.162437251128722, 752514.557695480412804 ], [ 519534.833457480242942, 752514.141186745720915 ], [ 519541.505963538191281, 754307.132556083728559 ], [ 520648.820847654831596, 754307.550199683872052 ], [ 520662.1849998474936, 757893.608708722051233 ], [ 521769.47220945043955, 757894.051748397294432 ], [ 521766.132340891344938, 756997.527319131768309 ], [ 522873.427287696511485, 756997.992858894518577 ], [ 522870.098432174941991, 756101.473949257982895 ], [ 521762.796408073161729, 756101.009032460860908 ] ] ], [ [ [ 519561.618346961389761, 759686.253777671721764 ], [ 519564.984245019149967, 760582.795513108372688 ], [ 520672.249527859559748, 760583.21713688201271 ], [ 520668.890741080627777, 759686.674832071061246 ], [ 519561.618346961389761, 759686.253777671721764 ] ] ], [ [ [ 521782.871040392143186, 761480.211039575515315 ], [ 521779.515429221326485, 760583.661965844687074 ], [ 520672.249527859559748, 760583.21713688201271 ], [ 520675.612258700013626, 761479.76561366347596 ], [ 521782.871040392143186, 761480.211039575515315 ] ] ], [ [ [ 521782.871040392143186, 761480.211039575515315 ], [ 521792.961487152380869, 764169.895368256955408 ], [ 524007.438219880568795, 764170.85974852682557 ], [ 524004.085092028020881, 763274.29083623108454 ], [ 522896.839238218672108, 763273.79764116439037 ], [ 522890.13047380495118, 761480.67969805910252 ], [ 521782.871040392143186, 761480.211039575515315 ] ] ], [ [ [ 525118.027540013310499, 765067.952705252100714 ], [ 522903.563710759102833, 765066.940363168716431 ], [ 522913.679871681088116, 767756.701036332175136 ], [ 525128.100679279421456, 767757.717379249748774 ], [ 525118.027540013310499, 765067.952705252100714 ] ] ], [ [ [ 556124.110579870059155, 765988.541683374089189 ], [ 555016.851908237789758, 765987.368775899754837 ], [ 555029.530535659636371, 769573.873879156075418 ], [ 556136.760479938238859, 769575.05256961309351 ], [ 556133.59249551454559, 768678.415484789875336 ], [ 557240.831313203438185, 768679.616184089682065 ], [ 557237.674187744036317, 767782.98387319361791 ], [ 556130.428183998097666, 767781.784647091757506 ], [ 556124.110579870059155, 765988.541683374089189 ] ] ], [ [ [ 544029.705617745756172, 789290.672233051853254 ], [ 541815.60043045564089, 789288.804979303502478 ], [ 541812.255701569723897, 788392.04532388295047 ], [ 540705.197617108817212, 788391.148915847297758 ], [ 540701.849297551438212, 787494.3967641138006 ], [ 541808.9147546881577, 787495.292075532954186 ], [ 541805.577589853550307, 786598.545226822141558 ], [ 539591.433163174195215, 786596.780795836821198 ], [ 539594.785056458553299, 787493.525479175033979 ], [ 538487.721998332068324, 787492.678220584173687 ], [ 538481.007290692883544, 785699.1973287218716 ], [ 535159.780722511932254, 785696.805631391587667 ], [ 535156.407037683995441, 784800.077724722097628 ], [ 534049.326312660938129, 784799.329366771620698 ], [ 534052.707345016417094, 785696.056341544142924 ], [ 531838.563609391450882, 785694.629675053874962 ], [ 531845.36663956346456, 787488.099215387250297 ], [ 530738.310936052701436, 787487.420137829263695 ], [ 530741.725611677742563, 788384.163649335270748 ], [ 529634.678199672489427, 788383.507773759891279 ], [ 529641.533922742004506, 790177.012369608739391 ], [ 530748.566563030239195, 790177.669892869191244 ], [ 530745.144154016626999, 789280.913565205410123 ], [ 531852.185102865332738, 789281.594344542245381 ], [ 531855.600121840834618, 790178.351523501449265 ], [ 532962.634632244124077, 790179.057261609123088 ], [ 532969.461439262144268, 791972.592643484240398 ], [ 541825.657308712252416, 791979.122462322702631 ], [ 541822.301234069629572, 791082.343541089911014 ], [ 542929.338398947729729, 791083.267376493196934 ], [ 542925.993504233076237, 790186.493759882403538 ], [ 544033.039349467959255, 790187.440579250105657 ], [ 544029.705617745756172, 789290.672233051853254 ] ] ], [ [ [ 583642.201610359363258, 714925.720082490821369 ], [ 582534.496354598901235, 714924.083678154856898 ], [ 582531.712791971978731, 714027.771571166114882 ], [ 578100.88947671384085, 714021.452341015799902 ], [ 578103.699755295063369, 714917.756266973796301 ], [ 575888.315644641523249, 714914.723481719032861 ], [ 575891.142804617644288, 715811.029288123711012 ], [ 576998.827017865260132, 715812.536720795556903 ], [ 577001.651005546795204, 716708.850291751907207 ], [ 581432.384501692606136, 716715.10656836326234 ], [ 581429.587297428166494, 715818.784923689090647 ], [ 582537.283390110940672, 715820.401593653601594 ], [ 582540.073898458736949, 716716.725325064151548 ], [ 583647.765770774101838, 716718.365957272704691 ], [ 583650.553047516848892, 717614.697626304929145 ], [ 584758.24072419013828, 717616.362275902065448 ], [ 584755.460151868173853, 716720.028465238516219 ], [ 586970.85657331161201, 716723.419109458802268 ], [ 586968.092848932254128, 715827.08675786468666 ], [ 583644.981958371470682, 715822.040111802052706 ], [ 583642.201610359363258, 714925.720082490821369 ] ] ], [ [ [ 570352.755216793855652, 715803.819821630255319 ], [ 573675.78117348998785, 715808.079962821793742 ], [ 573672.940638856031001, 714911.77797420648858 ], [ 575888.315644641523249, 714914.723481719032861 ], [ 575885.492008219007403, 714018.423482342623174 ], [ 571454.724120196187869, 714012.627268571988679 ], [ 571457.574472097447142, 714908.919742641039193 ], [ 567026.867592321592383, 714903.465100437868387 ], [ 567041.306794048869051, 719384.979253646335565 ], [ 568148.946894607623108, 719386.318846139125526 ], [ 568151.838778296019882, 720282.640905869542621 ], [ 569259.474192944238894, 720284.004212752450258 ], [ 569253.707458538818173, 718491.362416093354113 ], [ 568146.058593354886398, 718490.002628701040521 ], [ 568140.292738340445794, 716697.387691106181592 ], [ 570355.619379038223997, 716700.122101661050692 ], [ 570352.755216793855652, 715803.819821630255319 ] ] ], [ [ [ 560407.285054677748121, 722962.679872110020369 ], [ 559299.685297679738142, 722961.487788978847675 ], [ 559305.60958567506168, 724754.1584652508609 ], [ 560413.195807676063851, 724755.353633253951557 ], [ 560410.238610508618876, 723859.013813907164149 ], [ 561517.833415309432894, 723860.229529103380628 ], [ 561511.94346311991103, 722067.56437664933037 ], [ 560404.335140227805823, 722066.351800463278778 ], [ 560407.285054677748121, 722962.679872110020369 ] ] ], [ [ [ 559308.577204304863699, 725650.502626737812534 ], [ 559311.548472630791366, 726546.852680324926041 ], [ 561526.695590151590295, 726549.271359780919738 ], [ 561520.783840760355815, 724756.570918329292908 ], [ 560413.195807676063851, 724755.353633253951557 ], [ 560416.156646135961637, 725651.699337550904602 ], [ 559308.577204304863699, 725650.502626737812534 ] ] ], [ [ [ 568166.351931656943634, 724764.339097919873893 ], [ 564843.559138589771464, 724760.355477860663086 ], [ 564849.430181684787385, 726553.065668660216033 ], [ 563741.850084867561236, 726551.778726820950396 ], [ 563744.797814607503824, 727448.141017062822357 ], [ 564852.371114370645955, 727449.429611487896182 ], [ 564858.263801791123115, 729242.175229014246725 ], [ 565965.825426008668728, 729243.489383795531467 ], [ 565957.012222414603457, 726554.374782972503453 ], [ 567064.596240262268111, 726555.706069957348518 ], [ 567061.672492203535512, 725659.344641252886504 ], [ 568169.265308989211917, 725660.696366818156093 ], [ 568166.351931656943634, 724764.339097919873893 ] ] ], [ [ [ 579268.201861414476298, 732846.653470985242166 ], [ 578160.641661518369801, 732845.064210865297355 ], [ 578169.303903140360489, 735534.364423171151429 ], [ 579276.843508617719635, 735535.959712632698938 ], [ 579273.959462402504869, 734639.518330526887439 ], [ 580381.508316526422277, 734641.134031192166731 ], [ 580378.63463227218017, 733744.696582676144317 ], [ 579271.078913317993283, 733743.082919114734977 ], [ 579268.201861414476298, 732846.653470985242166 ] ] ], [ [ [ 573739.16857105283998, 735528.207746136235073 ], [ 573742.090522688813508, 736424.645328134065494 ], [ 572634.569177783560008, 736423.160404231399298 ], [ 572637.501558776479214, 737319.602096545160748 ], [ 573745.016013615066186, 737321.088894376996905 ], [ 573747.945043782819994, 738217.538452275563031 ], [ 574855.454809466493316, 738219.049653639202006 ], [ 574852.532677833223715, 737322.598194234771654 ], [ 575960.051584617234766, 737324.129996347939596 ], [ 575954.231685514212586, 735531.241188965272158 ], [ 573739.16857105283998, 735528.207746136235073 ] ] ], [ [ [ 559353.52942252450157, 739096.376246448955499 ], [ 558246.054475172306411, 739095.178917306824587 ], [ 558249.087399006821215, 739991.616721249651164 ], [ 559356.555430976208299, 739992.815569919301197 ], [ 559353.52942252450157, 739096.376246448955499 ] ] ], [ [ [ 580442.661492434097454, 753467.711156871635467 ], [ 581550.066640368662775, 753469.392691169399768 ], [ 581547.126746958587319, 752572.826225759112276 ], [ 582654.541378513793461, 752574.528658455936238 ], [ 582651.611998277483508, 751677.966215694905259 ], [ 580436.771108460146934, 751674.588484990061261 ], [ 580442.661492434097454, 753467.711156871635467 ] ] ], [ [ [ 572693.890803810791112, 754353.141067950171418 ], [ 572690.891024998622015, 753456.584271204890683 ], [ 569368.736984041403048, 753452.160514717688784 ], [ 569365.719625350902788, 752555.615314597962424 ], [ 567150.94661795895081, 752552.784619848243892 ], [ 567157.013093264074996, 754345.874121230910532 ], [ 568264.38448242994491, 754347.281470067449845 ], [ 568270.451187246246263, 756140.39898064895533 ], [ 569377.810493022669107, 756141.832889361889102 ], [ 569380.842140157008544, 757038.402630404918455 ], [ 568273.489910423522815, 757036.966951379668899 ], [ 568279.578098073485307, 758830.121360826771706 ], [ 572708.942898286739364, 758836.017184636904858 ], [ 572699.90100166760385, 756146.273065768531524 ], [ 573807.268812149413861, 756147.79927541106008 ], [ 573801.272741094697267, 754354.663519169786014 ], [ 572693.890803810791112, 754353.141067950171418 ] ] ], [ [ [ 583776.622148767695762, 757059.168843959458172 ], [ 585991.393322084564716, 757062.710212745820172 ], [ 585988.467817669967189, 756166.110638185869902 ], [ 584881.07388438435737, 756164.330581145826727 ], [ 584878.14475721528288, 755267.739336783066392 ], [ 583770.7462966152234, 755265.984510652138852 ], [ 583776.622148767695762, 757059.168843959458172 ] ] ], [ [ [ 578245.698103906470351, 758843.908010951825418 ], [ 577138.342512205825187, 758842.283529182313941 ], [ 577144.331330131622963, 760635.492481830297038 ], [ 578251.672710284590721, 760637.120943231624551 ], [ 578254.66526966181118, 761533.736684021307155 ], [ 577147.331007973407395, 761532.106232409831136 ], [ 577150.334198332740925, 762428.726175726857036 ], [ 578257.661333095515147, 762430.358617811813019 ], [ 578260.660900533781387, 763326.986752031021751 ], [ 580475.307956802658737, 763330.325504027307034 ], [ 580469.340850700973533, 761537.067309646168724 ], [ 579362.001872857683338, 761535.390376349445432 ], [ 579350.081083394354209, 757948.95642837556079 ], [ 578242.716057008947246, 757947.310804610373452 ], [ 578245.698103906470351, 758843.908010951825418 ] ] ], [ [ [ 574938.70779424381908, 763322.153338673058897 ], [ 573831.394620434497483, 763320.588790472480468 ], [ 573828.366511571919546, 762423.968455255148001 ], [ 572721.048411370604299, 762422.429082887829281 ], [ 572724.083655544091016, 763319.047536664525978 ], [ 571616.774866437539458, 763317.529577015317045 ], [ 571622.870289493119344, 765110.781402579625137 ], [ 572730.164782622363418, 765112.303071254165843 ], [ 572733.21066542621702, 766008.940166920074262 ], [ 573840.500173613894731, 766010.487066632485949 ], [ 573837.461451506358571, 765113.84808873408474 ], [ 574944.760329276323318, 765115.416455254890025 ], [ 574938.70779424381908, 763322.153338673058897 ] ] ], [ [ [ 571622.870289493119344, 765110.781402579625137 ], [ 570515.577938988339156, 765109.283082479028963 ], [ 570518.63814314303454, 766005.916495650424622 ], [ 569411.355062790331431, 766004.439723633462563 ], [ 569417.500506855896674, 767797.721640949486755 ], [ 571632.040083615109324, 767800.705817936686799 ], [ 571622.870289493119344, 765110.781402579625137 ] ] ], [ [ [ 573858.806795058888383, 771390.452004753984511 ], [ 574966.055370115558617, 771392.03374373994302 ], [ 574969.111634722677991, 772288.718392641399987 ], [ 573861.870279623311944, 772287.134742239373736 ], [ 573864.937301477068104, 773183.823760816012509 ], [ 574972.171428154339083, 773185.409322901279666 ], [ 574975.234750358737074, 774082.106541951885447 ], [ 576082.463881982141174, 774083.717638510977849 ], [ 576067.218659084639512, 769600.284663138794713 ], [ 573852.690438003162853, 769597.10534333169926 ], [ 573858.806795058888383, 771390.452004753984511 ] ] ], [ [ [ 573864.937301477068104, 773183.823760816012509 ], [ 572757.705383536987938, 773182.261793688754551 ], [ 572763.864521113457158, 774975.654934325953946 ], [ 574978.301601284416392, 774978.810057225869969 ], [ 574975.234750358737074, 774082.106541951885447 ], [ 573868.007860568817705, 774080.519067916320637 ], [ 573864.937301477068104, 773183.823760816012509 ] ] ] ] } }
]
}
