{
"type": "FeatureCollection",
"name": "urban-2045",
"crs": { "type": "name", "properties": { "name": "urn:ogc:def:crs:EPSG::32631" } },
"features": [
{ "type": "Feature", "properties": { "year": 2045 }, "geometry": { "type": "MultiPolygon", "coordinates": [ [ [ [ 471736.613695878419094, 705908.483259426080622 ], [ 473951.990126506891102, 705907.427174972486682 ], [ 473958.793493618548382, 707699.804413613746874 ], [ 475066.467294852656778, 707699.3075499702245 ], [ 475059.6771528335521, 705906.931441935012117 ], [ 476167.363430818018969, 705906.457248255377635 ], [ 476163.981398060335778, 705010.278302897699177 ], [ 471733.205263345036656, 705012.301996796275489 ], [ 471736.613695878419094, 705908.483259426080622 ] ] ], [ [ [ 503862.595537269546185, 706797.782623807899654 ], [ 502754.923771339294035, 706797.718203828437254 ], [ 502758.155608872824814, 707693.903863628627732 ], [ 503865.820761005044915, 707693.968428512220271 ], [ 503862.595537269546185, 706797.782623807899654 ] ] ], [ [ [ 509400.956769987533335, 706798.428211867343634 ], [ 504970.267419091949705, 706797.868609644123353 ], [ 504973.486029120977037, 707694.054586563375778 ], [ 509404.148926073103212, 707694.615150756086223 ], [ 509400.956769987533335, 706798.428211867343634 ] ] ], [ [ [ 497223.099456159165129, 708590.096012063208036 ], [ 495007.782277047634125, 708590.247658042935655 ], [ 495011.068694380111992, 709486.444535877904855 ], [ 497226.372610840364359, 709486.292825629352592 ], [ 497223.099456159165129, 708590.096012063208036 ] ] ], [ [ [ 480611.566765448020305, 709489.541322489269078 ], [ 478396.251879269257188, 709490.342472744290717 ], [ 478403.036483166681137, 711282.761387944454327 ], [ 479510.680942082719412, 711282.349078459315933 ], [ 479514.072985882288776, 712178.566711660241708 ], [ 480621.710171826765873, 712178.175677710096352 ], [ 480618.324786377430428, 711281.958471931051463 ], [ 481725.968049277493265, 711281.589568300521933 ], [ 481722.593563584669027, 710385.378519368823618 ], [ 480614.943650910514407, 710385.747022647876292 ], [ 480611.566765448020305, 709489.541322489269078 ] ] ], [ [ [ 477312.460933722439222, 715764.345955459750257 ], [ 476204.848524097760674, 715764.804215416312218 ], [ 476208.28196231124457, 716661.052182953455485 ], [ 477315.887670942698605, 716660.593414850765839 ], [ 477312.460933722439222, 715764.345955459750257 ] ] ], [ [ [ 486180.088981795881409, 717553.960654702270404 ], [ 485072.494493732170667, 717554.244778234628029 ], [ 485075.882759724278003, 718450.501056109904312 ], [ 486183.470530916005373, 718450.216643412946723 ], [ 486180.088981795881409, 717553.960654702270404 ] ] ], [ [ [ 478433.778408809681423, 719348.932280310895294 ], [ 477326.193533738143742, 719349.370622498798184 ], [ 477329.637371644668747, 720245.641326116863638 ], [ 478437.215512051945552, 720245.202504069311544 ], [ 478433.778408809681423, 719348.932280310895294 ] ] ], [ [ [ 495077.66645197494654, 727411.598329378291965 ], [ 493970.148689613793977, 727411.708067111321725 ], [ 493963.400803393335082, 725619.087461118469946 ], [ 490640.805520401103422, 725619.54910092020873 ], [ 490644.197766122350004, 726515.856830758508295 ], [ 491751.722971053561196, 726515.680660967365839 ], [ 491761.904321555513889, 729204.638734820997342 ], [ 492869.408851843443699, 729204.484364038333297 ], [ 492872.80413934122771, 730100.815403014537878 ], [ 495087.798940251988824, 730100.573245252016932 ], [ 495084.417304506758228, 729204.24236852908507 ], [ 496191.921293265128043, 729204.154743766062893 ], [ 496188.550614424457308, 728307.829814676661044 ], [ 495081.039808405621443, 728307.917399033089168 ], [ 495077.66645197494654, 727411.598329378291965 ] ] ], [ [ [ 478520.985940221464261, 741757.453763898578472 ], [ 477413.571968031174038, 741757.904028559685685 ], [ 477410.025533168867696, 740861.491380705032498 ], [ 479624.866709298919886, 740860.614403532352298 ], [ 479614.294576204265468, 738171.415190388448536 ], [ 478506.853548235783819, 738171.841035512392409 ], [ 478510.380246938788332, 739068.235233146580867 ], [ 477402.945487341552507, 739068.684075324097648 ], [ 477395.882540188729763, 737275.900707811466418 ], [ 476288.43328745267354, 737276.371095557697117 ], [ 476270.81633478339063, 732794.514502392965369 ], [ 475163.331978390633594, 732795.004733910085633 ], [ 475159.814584307721816, 731898.650711372494698 ], [ 476267.305793993757106, 731898.161010891664773 ], [ 476256.799871495459229, 729209.13605778850615 ], [ 477364.310878744057845, 729208.670201305532828 ], [ 477360.824290604796261, 728312.340870853280649 ], [ 478468.341438661445864, 728311.897741102031432 ], [ 478464.865936192043591, 727415.574784180382267 ], [ 477357.341977393021807, 727416.01743628224358 ], [ 477353.863939129980281, 726519.699890214833431 ], [ 479568.924815706035588, 726518.837709127692506 ], [ 479562.008722273167223, 724726.222111427108757 ], [ 481777.094306354236323, 724725.450239324825816 ], [ 481773.656199980119709, 723829.152065164176747 ], [ 480666.106921138998587, 723829.526548229740001 ], [ 480659.229904373874888, 722036.946978325489908 ], [ 481766.792710921727121, 722036.573289392981678 ], [ 481770.222334828402381, 722932.859750979347154 ], [ 482877.777835230750497, 722932.507722751703113 ], [ 482870.936339231324382, 721139.941384799196385 ], [ 483978.504836614185479, 721139.612099787336774 ], [ 483971.69374845630955, 719347.069800549419597 ], [ 485079.275241721537896, 719346.763150435406715 ], [ 485075.882759724278003, 718450.501056109904312 ], [ 482860.705841574934311, 718451.13564510375727 ], [ 482864.111774584453087, 719347.398399205878377 ], [ 481756.529286895005498, 719347.74894645542372 ], [ 481763.367328282271046, 721140.292673027492128 ], [ 479548.227632854948752, 721141.06125935097225 ], [ 479551.66651797387749, 722037.342697896878235 ], [ 477336.537872792803682, 722038.200229201116599 ], [ 477329.637371644668747, 720245.641326116863638 ], [ 476222.058551497699227, 720246.102124369819649 ], [ 476208.28196231124457, 716661.052182953455485 ], [ 473993.068371355009731, 716662.035320312483236 ], [ 473996.51951251871651, 717558.290185346151702 ], [ 475104.119971634645481, 717557.787120589404367 ], [ 475107.568695166206453, 718454.047229978954419 ], [ 473999.974954218429048, 718454.550857019610703 ], [ 474006.898739145428408, 720247.089649775763974 ], [ 471791.735809315461665, 720248.165080888546072 ], [ 471812.691553274169564, 725625.928808240685612 ], [ 472920.232834846479818, 725625.376411041128449 ], [ 472930.748581187974196, 728314.335610753274523 ], [ 471823.227708564023487, 728314.889851331710815 ], [ 471865.760872614686377, 739071.266534277237952 ], [ 474080.637014547246508, 739070.165900778840296 ], [ 474087.758611479133833, 740862.97637964063324 ], [ 475195.181650601443835, 740862.458775474922732 ], [ 475198.741961068590172, 741758.872453089221381 ], [ 474091.325859960110392, 741759.390613104915246 ], [ 474105.637853496475145, 745345.107679522479884 ], [ 477427.80045329517452, 745343.614760097232647 ], [ 477417.122677496750839, 742654.32268303912133 ], [ 478524.529703633161262, 742653.871944719925523 ], [ 478520.985940221464261, 741757.453763898578472 ] ], [ [ 476306.15731936955126, 741758.376924932701513 ], [ 476309.714975027134642, 742654.796080383472145 ], [ 475202.306563058111351, 742655.292136824922636 ], [ 475198.741961068590172, 741758.872453089221381 ], [ 476306.15731936955126, 741758.376924932701513 ] ], [ [ 477346.920687535603065, 724727.082434076117352 ], [ 477343.455474246933591, 723830.782509250217117 ], [ 478451.00659147510305, 723830.341770210536197 ], [ 478454.465027836908121, 724726.641216401825659 ], [ 477346.920687535603065, 724727.082434076117352 ] ], [ [ 478447.552421694097575, 722934.048183258273639 ], [ 479555.109661264461465, 722933.629981173900887 ], [ 479558.557062704872806, 723829.923116558464244 ], [ 478451.00659147510305, 723830.341770210536197 ], [ 478447.552421694097575, 722934.048183258273639 ] ] ], [ [ [ 482912.239279137575068, 731895.691763753886335 ], [ 481804.751838650787249, 731896.047477200278081 ], [ 481808.228115011530463, 732792.398723212536424 ], [ 482915.708703007840086, 732792.04264260630589 ], [ 482912.239279137575068, 731895.691763753886335 ] ] ], [ [ [ 481815.193390698870644, 734585.119023955077864 ], [ 482922.660248347150628, 734584.762209775974043 ], [ 482919.182359418657143, 733688.399455485981889 ], [ 481811.708632368477993, 733688.755903003155254 ], [ 481808.228115011530463, 732792.398723212536424 ], [ 479593.265270525531378, 732793.177959471940994 ], [ 479596.759510165138636, 733689.535955022322014 ], [ 480704.234360345057212, 733689.134736162610352 ], [ 480714.721992129867431, 736378.243133212206885 ], [ 481822.175630188896321, 736377.863118877867237 ], [ 481815.193390698870644, 734585.119023955077864 ] ] ], [ [ [ 480714.721992129867431, 736378.243133212206885 ], [ 479607.267776309279725, 736378.645615184679627 ], [ 479610.779047358431853, 737275.027417687582783 ], [ 480718.226368145435117, 737274.62451517698355 ], [ 480714.721992129867431, 736378.243133212206885 ] ] ], [ [ [ 485151.491219454153907, 738169.623798475950025 ], [ 482936.614128773915581, 738170.272788728005253 ], [ 482940.113179942767601, 739066.665360839338973 ], [ 481832.680796153494157, 739067.024004578590393 ], [ 481839.705444348801393, 740859.827843422535807 ], [ 482947.123979392461479, 740859.468469614395872 ], [ 482943.616463490063325, 739963.063918672502041 ], [ 486265.889921766065527, 739962.122352437698282 ], [ 486262.407397884060629, 739065.724726208020002 ], [ 485154.97644763533026, 739066.015721703530289 ], [ 485151.491219454153907, 738169.623798475950025 ] ] ], [ [ [ 490699.04128084378317, 740857.585764859220944 ], [ 489591.625624579843134, 740857.786910990485922 ], [ 489588.159677641117014, 739961.383975930861197 ], [ 487373.313540874514729, 739961.853650354663841 ], [ 487380.277344908972736, 741754.66638072906062 ], [ 488487.686721403792035, 741754.419798802235164 ], [ 488491.167976255936082, 742650.834945792681538 ], [ 489598.570063185528852, 742650.610794519889168 ], [ 489595.095753103028983, 741754.195848056697287 ], [ 492917.321111098397523, 741753.659782584407367 ], [ 492910.426626726519316, 739960.848788139643148 ], [ 490695.582261640869547, 739961.183003518497571 ], [ 490699.04128084378317, 740857.585764859220944 ] ] ], [ [ [ 480760.610322306689341, 748031.668906295788474 ], [ 478545.88187188655138, 748032.507587775820866 ], [ 478542.31251207657624, 747136.053210545098409 ], [ 477434.940343109832611, 747136.506313367281109 ], [ 477438.516699736006558, 748032.961162739084102 ], [ 474116.416997655585874, 748034.45882536098361 ], [ 474120.018645407399163, 748930.921312620630488 ], [ 476334.738488577422686, 748929.89896752522327 ], [ 476341.926610211434308, 750722.839985191705637 ], [ 477449.271416225994471, 750722.362090482260101 ], [ 477445.682236316089984, 749825.889043905655853 ], [ 478553.033389449527021, 749825.434525422402658 ], [ 478549.455497685004957, 748928.96802360448055 ], [ 480764.16993796027964, 748928.128480291343294 ], [ 480760.610322306689341, 748031.668906295788474 ] ] ], [ [ [ 486354.320224314869847, 762374.030231207958423 ], [ 487461.568102948309388, 762373.755213961238042 ], [ 487465.152860750211403, 763270.310833939001895 ], [ 489679.633246894925833, 763269.830161097692326 ], [ 489676.062767991039436, 762373.274957714020275 ], [ 488568.815606464981101, 762373.503456142731011 ], [ 488565.242177608713973, 761476.954237367375754 ], [ 484136.221255396318156, 761478.099772643647157 ], [ 484132.623524920432828, 760581.555671940324828 ], [ 481918.096102254407015, 760582.267142125521787 ], [ 481925.324296091101132, 762375.362895366735756 ], [ 480818.074044981214684, 762375.75421045278199 ], [ 480832.609927169629373, 765962.021450252970681 ], [ 483047.052665256895125, 765961.259105412405916 ], [ 483043.426652996335179, 765064.683746216702275 ], [ 484150.654410268063657, 765064.337957567186095 ], [ 484143.429386287403759, 763271.206493881647475 ], [ 486357.912121752975509, 763270.586100453976542 ], [ 486354.320224314869847, 762374.030231207958423 ] ] ], [ [ [ 504070.259818968072068, 762372.42107162962202 ], [ 505177.505670842132531, 762372.518202618695796 ], [ 505174.03919387148926, 761475.969039375893772 ], [ 506281.292329930642154, 761476.089214795734733 ], [ 506277.837036286364309, 760579.546012740815058 ], [ 505170.576779402035754, 760579.426051870337687 ], [ 505167.118427464214619, 759682.889232696848921 ], [ 502952.584119665436447, 759682.719271414680406 ], [ 502949.115622200188227, 758786.188959287595935 ], [ 501841.841513192397542, 758786.138876649783924 ], [ 501831.439236210542731, 756096.585223397705704 ], [ 500724.143920206755865, 756096.558603485696949 ], [ 500731.088849787192885, 757889.588021186762489 ], [ 498516.526582832331769, 757889.603732745046727 ], [ 498523.51629917131504, 759682.657476081745699 ], [ 497416.249316428846214, 759682.699970402871259 ], [ 497419.757457693282049, 760579.236054335604422 ], [ 495205.237453620124143, 760579.390610551112331 ], [ 495208.763960058509838, 761475.932896237820387 ], [ 496316.016895504959393, 761475.843984558130614 ], [ 496319.540410397399683, 762372.392412629560567 ], [ 499641.277297925320454, 762372.265139830647968 ], [ 499651.808301217621192, 765061.947757236775942 ], [ 501866.256570716854185, 765061.979759221780114 ], [ 501869.760787404666189, 765958.553215813823044 ], [ 502976.977825892914552, 765958.604362435871735 ], [ 502994.524280704092234, 770441.56564688985236 ], [ 504101.705464564845897, 770441.640972023480572 ], [ 504098.195220893656369, 769545.036083643091843 ], [ 505205.383732980058994, 769545.134723982657306 ], [ 505198.389843479031697, 767751.943287356407382 ], [ 504091.186945655790623, 767751.845025923801586 ], [ 504070.259818968072068, 762372.42107162962202 ] ] ], [ [ [ 506326.580053514800966, 773131.715553803835064 ], [ 504112.260619421082083, 773131.493164178100415 ], [ 504119.317742221290246, 774924.759305578540079 ], [ 501905.027775226393715, 774924.630663699703291 ], [ 501912.130223078478593, 776717.921349235344678 ], [ 506340.652564441901632, 776718.274622734286822 ], [ 506337.128356368339155, 775821.625421066302806 ], [ 507444.266597480571363, 775821.772733798599802 ], [ 507440.753699124266859, 774925.129580638022162 ], [ 506333.60820183501346, 774924.982513964641839 ], [ 506326.580053514800966, 773131.715553803835064 ] ] ], [ [ [ 496394.488251768168993, 781201.348634587018751 ], [ 498608.676191278093029, 781201.241065914975479 ], [ 498597.901648192899302, 778511.220596874598414 ], [ 495276.553898729325738, 778511.417713078670204 ], [ 495283.77658609545324, 780304.758356613689102 ], [ 496390.878008980827872, 780304.668848544009961 ], [ 496394.488251768168993, 781201.348634587018751 ] ] ], [ [ [ 491955.204878570453729, 778511.828587340307422 ], [ 488633.853694209828973, 778512.453220222028904 ], [ 488641.163930535665713, 780305.795321737299673 ], [ 487534.060826068918686, 780306.051468954188749 ], [ 487541.402444294712041, 782099.419313178630546 ], [ 488648.490922520228196, 782099.162732822354883 ], [ 488644.82533208373934, 781202.475859877420589 ], [ 489751.920788298768457, 781202.243328953278251 ], [ 489744.616783162171487, 779408.888959106057882 ], [ 491958.836027187528089, 779408.495990297640674 ], [ 491955.204878570453729, 778511.828587340307422 ] ] ], [ [ [ 509679.618687867943663, 781202.133191789733246 ], [ 507465.428933019109536, 781201.764103784924373 ], [ 507468.970146211562678, 782098.45147651003208 ], [ 508576.057580168067943, 782098.62437929038424 ], [ 508583.137484923412558, 783892.018723685643636 ], [ 509690.210519217769615, 783892.216092596296221 ], [ 509693.74918539688224, 784788.923107223119587 ], [ 511907.881474660302047, 784789.390278397477232 ], [ 511904.35748957976466, 783892.682575119659305 ], [ 510797.283843075972982, 783892.437376396497712 ], [ 510793.756536862754729, 782995.736393495230004 ], [ 509686.675880881375633, 782995.515440095216036 ], [ 509679.618687867943663, 781202.133191789733246 ] ] ], [ [ [ 544843.835914045688696, 705919.122680754750036 ], [ 543736.131122510530986, 705918.26144503755495 ], [ 543739.114528641221114, 706814.46492241404485 ], [ 544846.812717087566853, 706815.327313344925642 ], [ 544843.835914045688696, 705919.122680754750036 ] ] ], [ [ [ 539311.348187589785084, 707707.435903502861038 ], [ 538203.662840339005925, 707706.680334429140203 ], [ 538206.686884376453236, 708602.889917208929546 ], [ 539314.365611482760869, 708603.646505411015823 ], [ 539311.348187589785084, 707707.435903502861038 ] ] ], [ [ [ 511706.830074467114173, 731894.281293346663006 ], [ 510599.345161555509549, 731894.056409412994981 ], [ 510602.643310131155886, 732790.406985768815503 ], [ 511710.121373305621091, 732790.632212662487291 ], [ 511706.830074467114173, 731894.281293346663006 ] ] ], [ [ [ 550469.259988569072448, 731916.221071460866369 ], [ 549361.743050973047502, 731915.214566687587649 ], [ 549364.801496342057362, 732811.593398175900802 ], [ 550472.311586046009324, 732812.601201907731593 ], [ 550469.259988569072448, 731916.221071460866369 ] ] ], [ [ [ 519443.078686108696274, 727414.799195513362065 ], [ 519446.30227061820915, 728311.123679848853499 ], [ 517231.272064816148486, 728310.387769654626027 ], [ 517241.007483939290978, 730999.393565613077953 ], [ 518348.50184027722571, 730999.751928083016537 ], [ 518354.998282385175116, 732792.45309473911766 ], [ 516140.037466691166628, 732791.75670123891905 ], [ 516143.305346319044475, 733688.115207036957145 ], [ 517250.77863796701422, 733688.452704418916255 ], [ 517254.043630247237161, 734584.817639150307514 ], [ 516146.577204846427776, 734584.479661743855104 ], [ 516149.85304224077845, 735480.850072753732093 ], [ 515042.39397538988851, 735480.534055242664181 ], [ 515039.111263220082037, 734584.164097195258364 ], [ 512824.180698565149214, 734583.600206481991336 ], [ 512817.599787364073563, 732790.879797616973519 ], [ 511710.121373305621091, 732790.632212662487291 ], [ 511713.416684884869028, 733686.989072493859567 ], [ 509498.47459269821411, 733686.56031762517523 ], [ 509495.165564655675553, 732790.204116901615635 ], [ 508387.68810369464336, 732790.023606029804796 ], [ 508391.003990096913185, 733686.379518168396316 ], [ 507283.533638912951574, 733686.221103992080316 ], [ 507286.860430283937603, 734582.58270176325459 ], [ 506179.397164324531332, 734582.446438632789068 ], [ 506176.063505963596981, 733686.085075072245672 ], [ 503961.123762036731932, 733685.880172922508791 ], [ 503957.78044130129274, 732789.525142000173219 ], [ 505065.257096051296685, 732789.616221130359918 ], [ 505061.924697493668646, 731893.266949887620285 ], [ 502846.95780595485121, 731893.107480378355831 ], [ 502857.008344579429831, 734582.172124464530498 ], [ 505071.934083508036565, 734582.332588050398044 ], [ 505075.278672348649707, 735478.699698508135043 ], [ 506182.73487763031153, 735478.813756238785572 ], [ 506186.076645851193462, 736375.187035280861892 ], [ 503971.178155413479544, 736374.980972175835632 ], [ 503974.537763498956338, 737271.359832057147287 ], [ 502867.095605956274085, 737271.290348198497668 ], [ 502870.466186892648693, 738167.675030519021675 ], [ 500655.595898765895981, 738167.603321509552188 ], [ 500652.211515364760999, 737271.218863805290312 ], [ 499544.769515964435413, 737271.216863259673119 ], [ 499541.38233676541131, 736374.838451606105082 ], [ 497326.484477714402601, 736374.901994054438546 ], [ 497333.29053093213588, 738167.664671092526987 ], [ 496225.855292786436621, 738167.730164455249906 ], [ 496229.271413259964902, 739064.120482024620287 ], [ 495121.842972314567305, 739064.208534810924903 ], [ 495125.270142397843301, 739960.604878525715321 ], [ 494017.848474153608549, 739960.715545122860931 ], [ 494024.72909528639866, 741753.52635625761468 ], [ 495132.13690051442245, 741753.415560976252891 ], [ 495128.701451806758996, 740857.007218117476441 ], [ 496236.116046868439298, 740856.919090767856687 ], [ 496239.544559949310496, 741753.327396723208949 ], [ 497346.952106758195441, 741753.261863485211506 ], [ 497353.807628928567283, 743546.096497099613771 ], [ 498461.201200082316063, 743546.053631069022231 ], [ 498468.059281438705511, 745338.912405697861686 ], [ 500682.818459234724287, 745338.894968813750893 ], [ 500665.773631462652702, 740856.792618310195394 ], [ 501773.187994541600347, 740856.817509406828322 ], [ 501769.798246570513584, 739960.414983059279621 ], [ 502877.219589308602735, 739960.462351122521795 ], [ 502873.840848019695841, 739064.065695696510375 ], [ 506196.126279707474168, 739064.342714941012673 ], [ 506199.484267291554715, 739960.739913647063076 ], [ 508414.328259126225021, 739961.037837424781173 ], [ 508421.028677149035502, 741753.851236441871151 ], [ 509528.437174092279747, 741754.034644468687475 ], [ 509521.750616509176325, 739961.220664005028084 ], [ 511736.596220059494954, 739961.654046687297523 ], [ 511739.92363244027365, 740858.058696776279248 ], [ 512847.340019211813342, 740858.309625480091199 ], [ 512850.664509859168902, 741754.720655413693748 ], [ 511743.255057280126493, 741754.469353921478614 ], [ 511749.92994421091862, 743547.308718966436572 ], [ 516179.514622433169279, 743548.453025577007793 ], [ 516182.830246704863384, 744444.883406348177232 ], [ 517290.220585443545133, 744445.226680659572594 ], [ 517296.849825621175114, 746238.106528954696842 ], [ 518404.226738427241798, 746238.473537617712282 ], [ 518417.504869440977927, 749824.307971060508862 ], [ 517310.155945529113524, 749823.938917340245098 ], [ 517306.823460691433866, 748927.471715266583487 ], [ 516199.468045017856639, 748927.126023117802106 ], [ 516196.132528537884355, 748030.665380041697063 ], [ 513981.409115734219085, 748030.043431522324681 ], [ 513984.758635500737, 748926.503188382834196 ], [ 515092.113114338659216, 748926.803180839517154 ], [ 515095.459619222849142, 749823.26944155828096 ], [ 516202.807539840345271, 749823.592740856925957 ], [ 516209.498464380274527, 751616.544429933419451 ], [ 512887.498162107134704, 751615.640582848573104 ], [ 512890.870698307640851, 752512.124277561670169 ], [ 511783.545115656859707, 752511.868482757708989 ], [ 511780.165543777227867, 751615.385163893573917 ], [ 510672.833278081729077, 751615.152676574303769 ], [ 510679.610513873980381, 753408.124720220337622 ], [ 509572.292647824040614, 753407.914521800819784 ], [ 509575.694349215948023, 754304.409383772988804 ], [ 511790.316295523371082, 754304.853437625337392 ], [ 511786.928699583048001, 753408.357904867385514 ], [ 514001.566162554663606, 753408.8932329894742 ], [ 514004.939653381588869, 754305.389545788057148 ], [ 515112.251944498158991, 754305.69212033576332 ], [ 515108.885506105609238, 753409.195376546005718 ], [ 516216.205301892303396, 753409.520506493048742 ], [ 516219.564687929523643, 754306.017708587809466 ], [ 518434.191664306912571, 754306.737926406902261 ], [ 518437.540907087968662, 755203.242246653186157 ], [ 517330.234220261161681, 755202.870117648970336 ], [ 517336.958736062631942, 756995.896119403187186 ], [ 518444.251276185968891, 756996.26927556458395 ], [ 518457.71954756998457, 760582.397094459389336 ], [ 517350.455402381834574, 760582.021880874526687 ], [ 517357.22755235718796, 762375.121759115951136 ], [ 518464.477449308498763, 762375.498002971988171 ], [ 518461.096517963916995, 761478.944459286169149 ], [ 520675.612258700013626, 761479.76561366347596 ], [ 520678.978933567297645, 762376.320269824820571 ], [ 521786.230587127851322, 762376.766292946878821 ], [ 521792.961487152380869, 764169.895368256955408 ], [ 522900.199510990933049, 764170.365901098004542 ], [ 522903.563710759102833, 765066.940363168716431 ], [ 521796.332840370305348, 765066.469205019180663 ], [ 521799.708129011502024, 765963.049251068732701 ], [ 520692.485072601994034, 765962.600836494937539 ], [ 520695.871467076474801, 766859.186500728013925 ], [ 521803.087353040406015, 766859.635513819172047 ], [ 521806.470512421394233, 767756.22800068417564 ], [ 520699.261805366899353, 767755.778388813021593 ], [ 520702.656087437935639, 768652.376508163753897 ], [ 519595.455186917737592, 768651.949748273473233 ], [ 519598.860608643444721, 769548.553534313570708 ], [ 521813.248637097363826, 769549.431676414096728 ], [ 521809.857607118901797, 768652.826719077653252 ], [ 524024.262636418978218, 768653.797494253492914 ], [ 524047.981389341934118, 774930.172603695420548 ], [ 525155.134417978464626, 774930.697942414786667 ], [ 525151.741516547859646, 774034.053429114748724 ], [ 526258.902543613919988, 774034.601700209546834 ], [ 526255.5207897471264, 773137.962761258240789 ], [ 528469.859707906725816, 773139.128647699370049 ], [ 528466.496313953772187, 772242.494484636001289 ], [ 526252.142937118420377, 772241.330099390703253 ], [ 526248.768985765404068, 771344.703707187785767 ], [ 525141.586270407075062, 771344.157564965309575 ], [ 525134.835655140690506, 769550.924977809539996 ], [ 526242.032787034171633, 769551.469702105619945 ], [ 526238.670539730228484, 768654.862074391916394 ], [ 527345.875651925685816, 768655.429541522171348 ], [ 527342.524493089877069, 767758.827418184373528 ], [ 526235.312193850055337, 767758.26068667403888 ], [ 526231.957749430672266, 766861.665531536214985 ], [ 525124.739056217484176, 766861.122932153288275 ], [ 525118.027540013310499, 765067.952705252100714 ], [ 526225.260565121658146, 765068.493889339966699 ], [ 526218.578987097949721, 763275.347088486887515 ], [ 524004.085092028020881, 763274.29083623108454 ], [ 523997.390592066920362, 761481.171589185250923 ], [ 522890.13047380495118, 761480.67969805910252 ], [ 522883.43741780333221, 759687.586474560084753 ], [ 525097.986833386239596, 759688.59082910453435 ], [ 525094.660401286208071, 758792.052139249048196 ], [ 523987.378232025075704, 758791.539051306666806 ], [ 523980.722919015912339, 756998.481494725798257 ], [ 525088.019267987227067, 756998.99322670022957 ], [ 525084.704566860571504, 756102.472989188274369 ], [ 527299.313704452710226, 756103.564304746221751 ], [ 527296.017050945432857, 755207.048766580177471 ], [ 528403.329897202202119, 755207.628268643980846 ], [ 528400.044197270995937, 754311.11810052767396 ], [ 529507.364953620475717, 754311.719858099357225 ], [ 529504.090190326562151, 753415.215025827172212 ], [ 533933.41058455070015, 753417.848785831476562 ], [ 533923.693968767533079, 750728.360701807308942 ], [ 532816.341326272697188, 750727.670464976108633 ], [ 532809.868770564789884, 748934.710677568451501 ], [ 535024.603124107001349, 748936.110425640014 ], [ 535021.386624589096755, 748039.637838497990742 ], [ 537236.139173531671986, 748041.127067359047942 ], [ 537226.554584142751992, 745351.739936579251662 ], [ 538333.953464839141816, 745352.515779544017278 ], [ 538327.596752296783961, 743559.619283776031807 ], [ 539435.010705537279136, 743560.415810621227138 ], [ 539431.845013034646399, 742663.975590635323897 ], [ 540539.26709686848335, 742664.79374913778156 ], [ 540532.960988792823628, 740871.9292748371372 ], [ 541640.398160504759289, 740872.767927785520442 ], [ 541649.842188187059946, 743562.076927866903134 ], [ 542757.259783929679543, 743562.941518520470709 ], [ 542760.408403384266421, 744459.391025289311074 ], [ 541652.997765615698881, 744458.525323595502414 ], [ 541656.157127078156918, 745354.979762850911357 ], [ 542763.560798417893238, 745355.846575840841979 ], [ 542773.04063658718951, 748045.249564260942861 ], [ 543880.424638579715975, 748046.142537452629767 ], [ 543886.749398952932097, 749839.110497318441048 ], [ 542779.379405851010233, 749838.21524459309876 ], [ 542782.554453506018035, 750734.707213401212357 ], [ 543889.917429477791302, 750735.603606279822998 ], [ 543902.627219539135695, 754321.637075228383765 ], [ 542795.292396661126986, 754320.736119155306369 ], [ 542798.486320378957316, 755217.258640280924737 ], [ 543905.814083838602528, 755218.160737799596973 ], [ 543909.004714769078419, 756114.690533329034224 ], [ 545016.326724472921342, 756115.616843318217434 ], [ 545022.705124995205551, 757908.697201731265523 ], [ 546130.014320958289318, 757909.648976085940376 ], [ 546133.20206511951983, 758806.19958189688623 ], [ 543918.599206931656227, 758804.316791805671528 ], [ 543921.804903971031308, 759700.871193308965303 ], [ 546136.393558826064691, 759702.756350844516419 ], [ 546139.588802035432309, 760599.319290345418267 ], [ 548354.168758841464296, 760601.29964640783146 ], [ 548360.542002562200651, 762394.449022782035172 ], [ 549467.819889185600914, 762395.476572625106201 ], [ 549458.286977862473577, 759705.757939939037897 ], [ 550565.587699885014445, 759706.804830987122841 ], [ 550556.109584923484363, 757017.137821159791201 ], [ 552770.758159627439454, 757019.29306201194413 ], [ 552767.620371773373336, 756122.747006956371479 ], [ 554982.289415812119842, 756124.991842081071809 ], [ 554991.671368602779694, 758814.656874750275165 ], [ 556098.987088773166761, 758815.818228902178816 ], [ 556102.114668709225953, 759712.387003599549644 ], [ 557209.424966174410656, 759713.572982785641216 ], [ 557200.074525581556372, 757023.880736817489378 ], [ 556092.742949168663472, 757022.69916854868643 ], [ 556083.404291107552126, 754333.066689354134724 ], [ 554976.053190551465377, 754331.912547526881099 ], [ 554979.169462158810347, 755228.449127026018687 ], [ 553871.827066301833838, 755227.316588268615305 ], [ 553868.703735520364717, 754330.781423394451849 ], [ 551654.009629442007281, 754328.588227529660799 ], [ 551650.87588772654999, 753432.061937311314978 ], [ 552758.229201901587658, 753433.145666838507168 ], [ 552755.106209987425245, 752536.62413709750399 ], [ 551647.745853519649245, 752535.541767039103433 ], [ 551644.619526865077205, 751639.027709299349226 ], [ 552751.986917168018408, 751640.108720147749409 ], [ 552745.759428988443688, 749847.096194967627525 ], [ 556067.913334256620146, 749850.468359825201333 ], [ 556074.098695740569383, 751643.489365760236979 ], [ 558288.848219375242479, 751645.857808781904168 ], [ 558282.690942222019657, 749852.830875820596702 ], [ 559390.082347012823448, 749854.046456179814413 ], [ 559387.016202211962081, 748957.540608821553178 ], [ 561601.818395944894291, 748960.037288532475941 ], [ 561595.725034742266871, 747167.037588699487969 ], [ 562703.142872986150905, 747168.317002938594669 ], [ 562700.108622929314151, 746271.824658757192083 ], [ 563807.535321721690707, 746273.125242576934397 ], [ 563804.511669509578496, 745376.637331017060205 ], [ 562697.077996175503358, 745375.338377794018015 ], [ 562694.050992771051824, 744478.858152636676095 ], [ 561586.612230895552784, 744477.58354822837282 ], [ 561580.555187505204231, 742684.644440951524302 ], [ 564902.918859371333383, 742688.526630066684447 ], [ 564899.916607739520259, 741792.061241391580552 ], [ 566007.381949298083782, 741793.39894841669593 ], [ 566004.390236564096995, 740896.93790245638229 ], [ 569326.819053173763677, 740901.081631264765747 ], [ 569323.851710140123032, 740004.621389793930575 ], [ 567108.88329676957801, 740001.839797853957862 ], [ 567105.905695890076458, 739105.389072746736929 ], [ 568213.395796233438887, 739106.766839185147546 ], [ 568207.465169491828419, 737313.87992099870462 ], [ 570422.479144491953775, 737316.696006056503393 ], [ 570419.532983404700644, 736420.257979635614902 ], [ 569312.018067555967718, 736418.84047850058414 ], [ 569306.122684660833329, 734625.985951862414367 ], [ 567091.071540341945365, 734623.2253732457757 ], [ 567085.163008461007848, 732830.401720628142357 ], [ 568192.701279757195152, 732831.767327584442683 ], [ 568189.759246836183593, 731935.362698556855321 ], [ 572619.960489919641986, 731941.04155432630796 ], [ 572617.049396105343476, 731044.635654814308509 ], [ 573724.611903931479901, 731046.109340470982715 ], [ 573713.030282414401881, 727460.537576617556624 ], [ 571497.852897220291197, 727457.627380788791925 ], [ 571494.952746945782565, 726561.252948726760224 ], [ 570387.360488568781875, 726559.832968990900554 ], [ 570384.457106375135481, 725663.466255441424437 ], [ 569276.860169310471974, 725662.070238144719042 ], [ 569273.953572151134722, 724765.711207881919108 ], [ 564843.559138589771464, 724760.355477860663086 ], [ 564840.629028271767311, 723864.009215084952302 ], [ 563733.028590981382877, 723862.727229502168484 ], [ 563730.095324947847985, 722966.388496860163286 ], [ 562622.490035100723617, 722965.130225864006206 ], [ 562616.620850012521259, 721172.473613659618422 ], [ 561509.003936470136978, 721171.240598621894605 ], [ 561511.94346311991103, 722067.56437664933037 ], [ 559296.728628402110189, 722065.161259394488297 ], [ 559293.775608996162191, 721168.840592312742956 ], [ 555970.946368599310517, 721165.405639548203908 ], [ 555973.919627199298702, 722061.721845096210018 ], [ 552651.125729960156605, 722058.480740527389571 ], [ 552657.123827389674261, 723851.122310699545778 ], [ 551549.542581371963024, 723850.083308633300476 ], [ 551561.610319444909692, 727435.431610986357555 ], [ 552669.164427534211427, 727436.476019901689142 ], [ 552678.233730938751251, 730125.553282615030184 ], [ 551570.700065005803481, 730124.5048159371363 ], [ 551573.73739749379456, 731020.87439575442113 ], [ 550466.212108080508187, 731019.846882915822789 ], [ 550469.259988569072448, 731916.221071460866369 ], [ 551576.778438562061638, 731917.249910323182121 ], [ 551582.871646270388737, 733710.018773322808556 ], [ 550475.366900469292887, 733708.987281657755375 ], [ 550481.488679987029172, 735501.777318677632138 ], [ 549373.99918466352392, 735500.765616557560861 ], [ 549370.929563228855841, 734604.36891570861917 ], [ 548263.434673935640603, 734603.380929189617746 ], [ 548275.763054917566478, 738188.998498641769402 ], [ 547168.297155594220385, 738188.027946013608016 ], [ 547165.202561198966578, 737291.615828175796196 ], [ 546057.731176211149432, 737290.66901892691385 ], [ 546042.279969845199957, 732808.704153898172081 ], [ 547149.785721430787817, 732809.644874319434166 ], [ 547146.71358020696789, 731913.268558798125014 ], [ 549361.743050973047502, 731915.214566687587649 ], [ 549355.637336592539214, 730122.474721259903163 ], [ 548248.108207722543739, 730121.4930929512484 ], [ 548242.003758747712709, 728328.779496443108656 ], [ 547134.462439112365246, 728327.822634179727174 ], [ 547131.409009993309155, 727431.475950393476523 ], [ 546023.862297357642092, 727430.542528259335086 ], [ 546020.805813512764871, 726534.202964128460735 ], [ 544913.253683071932755, 726533.292927099275403 ], [ 544907.138399270712398, 724740.633856577216648 ], [ 547122.271178059279919, 724742.471294345683418 ], [ 547119.232719357940368, 723846.148182775359601 ], [ 546011.65886833507102, 723845.219621163443662 ], [ 546005.579660583287477, 722052.593443080200814 ], [ 544897.993670376599766, 722051.689343258040026 ], [ 544879.805725038982928, 716673.958317419048399 ], [ 543772.180727795464918, 716673.083203057409264 ], [ 543766.134774789912626, 714880.55510818772018 ], [ 544873.773155519389547, 714881.42790699575562 ], [ 544876.78756030020304, 715777.690208444371819 ], [ 550414.96687937353272, 715782.38761869748123 ], [ 550411.985911786323413, 714886.119119250564836 ], [ 552627.281365689123049, 714888.148308669100516 ], [ 552630.248958557960577, 715784.419478525873274 ], [ 558168.482360988040455, 715789.881378246820532 ], [ 558171.420175960869528, 716686.165512646897696 ], [ 559279.065261571668088, 716687.324935523443855 ], [ 559276.134142312803306, 715791.039288112777285 ], [ 561491.443071592831984, 715793.420639157411642 ], [ 561494.360799444140866, 716689.709394542849623 ], [ 562602.011318151606247, 716690.934431048808619 ], [ 562604.925975104561076, 717587.230600260198116 ], [ 563712.571667150827125, 717588.479130874737166 ], [ 563715.48323627281934, 718484.782749121193774 ], [ 562607.844256811542436, 718483.532595729804598 ], [ 562613.691694310051389, 720276.154095031321049 ], [ 569259.474192944238894, 720284.004212752450258 ], [ 569256.589038746664301, 719387.680393152637407 ], [ 570364.233259685686789, 719389.063894894439727 ], [ 570361.358400530647486, 718492.744130894076079 ], [ 569253.707458538818173, 718491.362416093354113 ], [ 569250.829452367033809, 717595.050274175475352 ], [ 570358.487106966087595, 717596.430202282848768 ], [ 570355.619379038223997, 716700.122101661050692 ], [ 573678.625248519470915, 716704.387765370658599 ], [ 573675.78117348998785, 715808.079962821793742 ], [ 575891.142804617644288, 715811.029288123711012 ], [ 575893.973488099407405, 716707.340908955782652 ], [ 579217.013001892832108, 716711.934680500766262 ], [ 579219.827096034307033, 717608.258056241553277 ], [ 589189.017182934330776, 717623.239910225383937 ], [ 589191.774359297589399, 718519.58839286537841 ], [ 590299.468365097884089, 718521.364840243244544 ], [ 590293.970852072467096, 716728.66915040963795 ], [ 592509.393856675131246, 716732.278563901199959 ], [ 592503.936766275786795, 714939.596898778807372 ], [ 589180.766186414053664, 714934.229425923433155 ], [ 589175.282633058261126, 713141.584832034423016 ], [ 588067.551150768180378, 713139.84381971496623 ], [ 588070.29788709024433, 714036.160965423914604 ], [ 584747.139170472393744, 714031.061946494388394 ], [ 584749.909374958835542, 714927.378307937062345 ], [ 582534.496354598901235, 714924.083678154856898 ], [ 582531.712791971978731, 714027.771571166114882 ], [ 581424.003332790685818, 714026.159073932562023 ], [ 581421.216572516481392, 713129.854854049277492 ], [ 580313.50288517982699, 713128.266208779416047 ], [ 580310.712944222847, 712231.969840784557164 ], [ 576987.566218228661455, 712227.340509725967422 ], [ 576990.376145378104411, 713123.63086637831293 ], [ 575882.671895397943445, 713122.129282596288249 ], [ 575879.855306226178072, 712225.840875080903061 ], [ 573664.440277799265459, 712222.906817976385355 ], [ 573661.613905219477601, 711326.628011112101376 ], [ 572553.903068794985302, 711325.195455133449286 ], [ 572559.572670041932724, 713117.75511910172645 ], [ 571451.877325673471205, 713116.340593146975152 ], [ 571449.034088575630449, 712220.059708968503401 ], [ 570341.334225578117184, 712218.668759456370026 ], [ 570344.184124625055119, 713114.947831102064811 ], [ 568128.804019559640437, 713112.227597896475345 ], [ 568125.940796641516499, 712215.952069356688298 ], [ 565910.555542225483805, 712213.322323115426116 ], [ 565913.432088990113698, 713109.594417827087454 ], [ 564805.74910606269259, 713108.310472214943729 ], [ 564802.865897379815578, 712212.040053438860923 ], [ 563695.178196465363726, 712210.779519129893743 ], [ 563692.291942441370338, 711314.516531100962311 ], [ 570338.487892446340993, 711322.395471414551139 ], [ 570335.645125275594182, 710426.127959581324831 ], [ 571443.358286840841174, 710427.515284764464013 ], [ 571440.525722296675667, 709531.251729947398417 ], [ 549286.492791604949161, 709507.655580729595385 ], [ 549280.573376926477067, 707715.20782493147999 ], [ 548172.876218023360707, 707714.25789434555918 ], [ 548178.808880875119939, 709506.703119983081706 ], [ 544855.765688155894168, 709503.975642513250932 ], [ 544849.793280479265377, 707711.537679577129893 ], [ 543742.101703563355841, 707710.67413319030311 ], [ 543739.114528641221114, 706814.46492241404485 ], [ 542631.417652568896301, 706813.624099881621078 ], [ 542634.411439052666537, 707709.832182516111061 ], [ 541526.722453710855916, 707709.011827426147647 ], [ 541529.726637426181696, 708605.224549532751553 ], [ 539314.365611482760869, 708603.646505411015823 ], [ 539317.386837859870866, 709499.862854518229142 ], [ 538209.714739340823144, 709499.105246944818646 ], [ 538206.686884376453236, 708602.889917208929546 ], [ 537099.009303535334766, 708602.154951425036415 ], [ 537095.978639313834719, 707705.946360459900461 ], [ 527126.866926459828392, 707700.312357059796341 ], [ 527129.957174390554428, 708596.513250782736577 ], [ 526022.289228373789228, 708595.994503562222235 ], [ 526019.19235977192875, 707699.794328525080346 ], [ 522696.173210642184131, 707698.369806952658109 ], [ 522699.289941611874383, 708594.567989805247635 ], [ 524914.622063059709035, 708595.497377709019929 ], [ 524917.72946463234257, 709491.70260541618336 ], [ 527133.051317676552571, 709492.719889034167863 ], [ 527136.149356283713132, 710388.932279195985757 ], [ 524920.84077841299586, 710387.91358454816509 ], [ 524923.956004368257709, 711284.130322487442754 ], [ 523816.309499552182388, 711283.652824286138639 ], [ 523819.435292211710475, 712179.874663383001462 ], [ 517173.610032000287902, 712177.462021483457647 ], [ 517176.779724615393206, 713073.686215804889798 ], [ 516069.150841506954748, 713073.359690408571623 ], [ 516065.974485416198149, 712177.135970179457217 ], [ 514958.339420742588118, 712176.831648926250637 ], [ 514955.160389212658629, 711280.614146859734319 ], [ 513847.519118045747746, 711280.331974836532027 ], [ 513853.894488019519486, 713072.771911656484008 ], [ 510531.012991270225029, 713072.053422982804477 ], [ 510537.444406037160661, 714864.514282612595707 ], [ 506106.993424763611984, 714863.858740930561908 ], [ 506103.748982616176363, 713967.626497502904385 ], [ 499458.037252596404869, 713967.298334548948333 ], [ 499451.480510264984332, 712174.852786760544404 ], [ 501666.744139998860192, 712174.874724275199696 ], [ 501663.485240870912094, 711278.660450370865874 ], [ 500555.846761405002326, 711278.638708252925426 ], [ 500552.585303995409049, 710382.43028668849729 ], [ 499444.940193338494282, 710382.430310899741016 ], [ 499441.676194469211623, 709486.22770650300663 ], [ 506087.587606700719334, 709486.551895723678172 ], [ 506084.367498682753649, 708590.354246794828214 ], [ 504976.708703411510214, 708590.246295795543119 ], [ 504973.486029120977037, 707694.054586563375778 ], [ 503865.820761005044915, 707693.968428512220271 ], [ 503869.050057446525898, 708590.159965288243257 ], [ 498330.757904134865385, 708590.052619781345129 ], [ 498337.29506603081245, 710382.452010191744193 ], [ 495014.35925192781724, 710382.647158602019772 ], [ 495011.068694380111992, 709486.444535877904855 ], [ 493903.41652826522477, 709486.55286269960925 ], [ 493896.834579321322963, 707694.164698103908449 ], [ 491681.50315549178049, 707694.445838475134224 ], [ 491684.805302016437054, 708590.637280751485378 ], [ 486146.504911263356917, 708591.719063385738991 ], [ 486153.188063621462788, 710384.121261040214449 ], [ 485045.540144755213987, 710384.403062503319234 ], [ 485048.894681874313392, 711280.613074247725308 ], [ 483941.252963799575809, 711280.916869509965181 ], [ 483947.988010731292889, 713073.354808865231462 ], [ 493916.630209887167439, 713071.398186659207568 ], [ 493919.944001756142825, 713967.623934574308805 ], [ 495027.56288375845179, 713967.515245876042172 ], [ 495037.509078633564059, 716656.226994033437222 ], [ 493929.910268468607683, 716656.335896944627166 ], [ 493933.240654322842602, 717552.584815197624266 ], [ 491718.05587001668755, 717552.868443733896129 ], [ 491724.755968381126877, 719345.384166768635623 ], [ 492832.335027302615345, 719345.231155333342031 ], [ 492835.684591342811473, 720241.497626295196824 ], [ 493943.256702378159389, 720241.366465627448633 ], [ 493946.6036818085704, 721137.638672256027348 ], [ 495054.168869935674593, 721137.529417204088531 ], [ 495050.828631811833475, 720241.257280514226295 ], [ 496158.400412852526642, 720241.170070938416757 ], [ 496151.745813398621976, 718448.643376389169134 ], [ 498366.915976610907819, 718448.53489191038534 ], [ 498373.543662590207532, 720241.06157835025806 ], [ 499481.115197704639286, 720241.040295321145095 ], [ 499484.42847165412968, 721137.312425372307189 ], [ 498376.863677428918891, 721137.333669093786739 ], [ 498383.516050670004915, 722929.895382530754432 ], [ 503921.272665619617328, 722930.010135097312741 ], [ 503927.873794097453356, 724722.59622159821447 ], [ 506142.949950817448553, 724722.797286330373026 ], [ 506146.243058107211255, 725619.099515824229456 ], [ 507253.77461361134192, 725619.233448074897751 ], [ 507260.359403583570383, 727411.856019127182662 ], [ 506152.841438375413418, 727411.721622690442018 ], [ 506156.146711295295972, 728308.041514835786074 ], [ 505048.635738417506218, 728307.929107296047732 ], [ 505058.596362422395032, 730996.923610271303914 ], [ 507273.57754404732259, 730997.17196255014278 ], [ 507276.892195764754433, 731893.515741775278002 ], [ 510599.345161555509549, 731894.056409412994981 ], [ 510596.051034203905147, 730997.711765932035632 ], [ 509488.559597538318485, 730997.50952810968738 ], [ 509481.969749247655272, 729204.838640258531086 ], [ 510589.47484329569852, 729205.04024803370703 ], [ 510586.192779800388962, 728308.713358838693239 ], [ 511693.705007141979877, 728308.936873428174295 ], [ 511683.903341945610009, 725619.990571798174642 ], [ 515006.50344939075876, 725620.790879901382141 ], [ 515000.02973727369681, 723828.18705865170341 ], [ 516107.577516980003566, 723828.497207139851525 ], [ 516094.704954390239436, 720243.358116585528478 ], [ 514987.130165719310753, 720243.04976551188156 ], [ 514990.349076943995897, 721139.325313592911698 ], [ 513882.781477284093853, 721139.038516658241861 ], [ 513886.01112439861754, 722035.319488033186644 ], [ 512778.450689144607168, 722035.054299571551383 ], [ 512784.935493671917357, 723827.633016809239052 ], [ 511677.38896337186452, 723827.389123370405287 ], [ 511680.644146149163134, 724723.686910576419905 ], [ 509465.565649981086608, 724723.264724345528521 ], [ 509462.296919762971811, 723826.967591271968558 ], [ 510569.8427831363515, 723827.16731486923527 ], [ 510566.584848179540131, 722930.87573476776015 ], [ 511674.137793644506019, 722931.097202793695033 ], [ 511670.89063699770486, 722034.81114146055188 ], [ 510563.330934752360918, 722034.590013663168065 ], [ 510560.081042885314673, 721138.310144170070998 ], [ 511667.647493462136481, 721138.530931985587813 ], [ 511664.408363068476319, 720242.25656698376406 ], [ 512771.981903267558664, 720242.49899075308349 ], [ 512768.75351740012411, 719346.230096038547345 ], [ 517199.078764407953713, 719347.417808475089259 ], [ 517208.695060860889498, 722036.247235943097621 ], [ 518316.257360600866377, 722036.600546244881116 ], [ 518319.463978214072995, 722932.889222502708435 ], [ 517211.908434791956097, 722932.535408099647611 ], [ 517224.801638559205458, 726517.746775383246131 ], [ 518332.3300722205895, 726518.102608665125445 ], [ 518335.556501447688788, 727414.42066243046429 ], [ 519443.078686108696274, 727414.799195513362065 ] ], [ [ 551660.288235224783421, 756121.659197465982288 ], [ 551657.147078622714616, 755225.120645109796897 ], [ 552764.486282838508487, 755226.207094352808781 ], [ 552767.620371773373336, 756122.747006956371479 ], [ 551660.288235224783421, 756121.659197465982288 ] ], [ [ 486156.535951459838543, 711280.330981678096578 ], [ 486159.888047040032689, 712176.546460019308142 ], [ 485052.253435183083639, 712176.828843453899026 ], [ 485048.894681874313392, 711280.613074247725308 ], [ 486156.535951459838543, 711280.330981678096578 ] ], [ [ 518313.054705408110749, 721140.317723324755207 ], [ 519420.624302082986105, 721140.692533045890741 ], [ 519423.820209476980381, 722036.975887132924981 ], [ 518316.257360600866377, 722036.600546244881116 ], [ 518313.054705408110749, 721140.317723324755207 ] ], [ [ 549451.950324187753722, 757912.643053862964734 ], [ 549455.116788942250423, 758809.197414941387251 ], [ 548347.810445279348642, 758808.174984006211162 ], [ 548344.636887415312231, 757911.621902001672424 ], [ 549451.950324187753722, 757912.643053862964734 ] ], [ [ 551632.151296636788175, 748053.032455402310006 ], [ 551635.262792648514733, 748949.522137142019346 ], [ 550527.875897544203326, 748948.468055652570911 ], [ 550524.757401503971778, 748051.979704771889374 ], [ 551632.151296636788175, 748053.032455402310006 ] ], [ [ 549417.365019154385664, 748050.949779942980967 ], [ 548309.974116428522393, 748049.942680758656934 ], [ 548278.854484262992628, 739085.417855537962168 ], [ 549386.314922699471936, 739086.412206580047496 ], [ 549392.495142508880235, 740879.271477230126038 ], [ 550499.943220872548409, 740880.290982963284478 ], [ 550503.031985916313715, 741776.730939608765766 ], [ 551610.474644500762224, 741777.774381411727518 ], [ 551619.742390711209737, 744467.134409037069418 ], [ 552727.165747265564278, 744468.204555490287021 ], [ 552730.2554457555525, 745364.671336963074282 ], [ 553837.673415171913803, 745365.765584736713208 ], [ 553840.759838481550105, 746262.239804429002106 ], [ 552733.348843688960187, 746261.144171930965967 ], [ 552736.445941022480838, 747157.623067804146558 ], [ 551629.043508394039236, 747156.548849132261239 ], [ 551625.939427963458002, 746260.071310921921395 ], [ 549411.125201058923267, 746257.993902720976621 ], [ 549417.365019154385664, 748050.949779942980967 ] ], [ [ 556055.586697922204621, 746264.499384562368505 ], [ 556061.742668198421597, 748057.471719193737954 ], [ 553846.943757891189307, 748055.206434711115435 ], [ 553840.759838481550105, 746262.239804429002106 ], [ 556055.586697922204621, 746264.499384562368505 ] ], [ [ 544950.261171026737429, 737289.744707072153687 ], [ 544956.481713529326953, 739082.570115739828907 ], [ 543849.026860888116062, 739081.66597310162615 ], [ 543855.276278782170266, 740874.513052158639766 ], [ 542747.836579443654045, 740873.629186848993413 ], [ 542744.703062708838843, 739977.203781151911244 ], [ 541637.257719611865468, 739976.3436321093468 ], [ 541630.988190567935817, 738183.513052860856988 ], [ 542738.447356621269137, 738184.37098262377549 ], [ 542735.325167348957621, 737287.963574985042214 ], [ 544950.261171026737429, 737289.744707072153687 ] ], [ [ 520557.038954094110522, 729207.855917769600637 ], [ 520560.26362228061771, 730104.19278082344681 ], [ 519452.761300829530228, 730103.79037183301989 ], [ 519449.529808869527187, 729207.454069491126575 ], [ 520557.038954094110522, 729207.855917769600637 ] ], [ [ 555947.292612563353032, 713995.086130849318579 ], [ 555950.23646792920772, 714891.355708601302467 ], [ 554842.583133364794776, 714890.264759636251256 ], [ 554839.632599141565152, 713993.996612450806424 ], [ 555947.292612563353032, 713995.086130849318579 ] ] ], [ [ [ 566013.376169237424619, 743586.339128528023139 ], [ 566010.377260204753838, 742689.866021303343587 ], [ 564902.918859371333383, 742688.526630066684447 ], [ 564905.924717583111487, 743584.99805282370653 ], [ 566013.376169237424619, 743586.339128528023139 ] ] ], [ [ [ 564930.101414532982744, 750756.987551384721883 ], [ 563822.707804567064159, 750755.655900799669325 ], [ 563819.666078582406044, 749859.137597716762684 ], [ 562712.26736251229886, 749857.830488933483139 ], [ 562718.368471194640733, 751650.869931618217379 ], [ 563825.753145165857859, 751652.180304433102719 ], [ 563831.854670018190518, 753445.247443016967736 ], [ 566046.601631409721449, 753447.943694619461894 ], [ 566043.563146109576337, 752551.403720345464535 ], [ 567150.94661795895081, 752552.784619848243892 ], [ 567147.918764004134573, 751656.249047109507956 ], [ 564933.139729854185134, 751653.513614483992569 ], [ 564930.101414532982744, 750756.987551384721883 ] ] ], [ [ [ 516219.564687929523643, 754306.017708587809466 ], [ 515112.251944498158991, 754305.69212033576332 ], [ 515115.62236949353246, 755202.194982951041311 ], [ 516222.928052109957207, 755202.521029766183347 ], [ 516219.564687929523643, 754306.017708587809466 ] ] ], [ [ [ 514004.939653381588869, 754305.389545788057148 ], [ 512897.627781437535305, 754305.109984898706898 ], [ 512907.793432468839455, 756994.634451738093048 ], [ 514015.084096106642392, 756994.915225206874311 ], [ 514004.939653381588869, 754305.389545788057148 ] ] ], [ [ [ 517336.958736062631942, 756995.896119403187186 ], [ 516229.66671476647025, 756995.546058991458267 ], [ 516233.042013175669126, 757892.06778185069561 ], [ 517340.326948353671469, 757892.418328915140592 ], [ 517336.958736062631942, 756995.896119403187186 ] ] ], [ [ [ 553878.084799334290437, 757020.405331320478581 ], [ 552770.758159627439454, 757019.29306201194413 ], [ 552773.899646356352605, 757915.845266936114058 ], [ 553881.219201496336609, 757916.958924331585877 ], [ 553878.084799334290437, 757020.405331320478581 ] ] ], [ [ [ 564954.508905530441552, 757929.367501910426654 ], [ 563847.171734604053199, 757928.022568322485313 ], [ 563853.323860428878106, 759721.175685784080997 ], [ 564960.646837007836439, 759722.523942730389535 ], [ 564954.508905530441552, 757929.367501910426654 ] ] ], [ [ [ 514025.264493508671876, 759684.496171669336036 ], [ 512917.995114324381575, 759684.214183293282986 ], [ 512931.653403225645889, 763270.406805002014153 ], [ 514038.894284672511276, 763270.690416890196502 ], [ 514032.071399491804186, 761477.58093864377588 ], [ 515139.326966555265244, 761477.886970426654443 ], [ 515129.143934840511065, 758788.267769765341654 ], [ 514021.867032798647415, 758787.963036389090121 ], [ 514025.264493508671876, 759684.496171669336036 ] ] ], [ [ [ 551679.213028237340041, 761501.019757214933634 ], [ 550571.925021577975713, 761499.947016501915641 ], [ 550575.099255809094757, 762396.527385201537982 ], [ 551682.380135563318618, 762397.601460671168752 ], [ 551679.213028237340041, 761501.019757214933634 ] ] ], [ [ [ 562761.481989711755887, 764202.833417048212141 ], [ 563868.767421647091396, 764204.166667250916362 ], [ 563865.671481404569931, 763307.556076946551912 ], [ 564972.965967765427195, 763308.91098375688307 ], [ 564963.721211293712258, 760619.111421930370852 ], [ 562749.091388581320643, 760616.434794339118525 ], [ 562761.481989711755887, 764202.833417048212141 ] ] ], [ [ [ 550575.099255809094757, 762396.527385201537982 ], [ 549467.819889185600914, 762395.476572625106201 ], [ 549471.004974336130545, 763292.061827478930354 ], [ 550578.277205571532249, 763293.113947755540721 ], [ 550575.099255809094757, 762396.527385201537982 ] ] ], [ [ [ 527335.833854446304031, 765965.641862622229382 ], [ 526228.607206508982927, 765965.076601563137956 ], [ 526231.957749430672266, 766861.665531536214985 ], [ 527339.17722725099884, 766862.231527689495124 ], [ 527335.833854446304031, 765965.641862622229382 ] ] ], [ [ [ 556124.110579870059155, 765988.541683374089189 ], [ 553909.594882319797762, 765986.219241271959618 ], [ 553912.766186187509447, 766882.834743613726459 ], [ 555020.016042946605012, 766883.985696270829067 ], [ 555026.355356702930294, 768677.238240475417115 ], [ 553919.119863649480976, 768676.084450967144221 ], [ 553925.488300446653739, 770469.359144703485072 ], [ 555032.709395941230468, 770470.515772121958435 ], [ 555029.530535659636371, 769573.873879156075418 ], [ 557243.992103106924333, 769576.254742375342175 ], [ 557234.520726774586365, 766886.357802262878977 ], [ 556127.267545434762724, 766885.160049094469287 ], [ 556124.110579870059155, 765988.541683374089189 ] ] ], [ [ [ 527352.589648438966833, 770448.652516392641701 ], [ 526245.398935724864714, 770448.083577232202515 ], [ 526248.768985765404068, 771344.703707187785767 ], [ 527355.952486041816883, 771345.273382759536617 ], [ 527352.589648438966833, 770448.652516392641701 ] ] ], [ [ [ 526262.288198682013899, 774931.246923663304187 ], [ 525155.134417978464626, 774930.697942414786667 ], [ 525161.931949693709612, 776724.005851405556314 ], [ 526269.071212272276171, 776724.556253758608364 ], [ 526262.288198682013899, 774931.246923663304187 ] ] ], [ [ [ 527382.995326223433949, 778518.466387307737023 ], [ 527379.601346891839057, 777621.795213106786832 ], [ 525165.336579904193059, 777620.669261936563998 ], [ 525172.157568845548667, 779414.015032175346278 ], [ 526279.274990732432343, 779414.567568181664683 ], [ 526275.869830218958668, 778517.890810908284038 ], [ 527382.995326223433949, 778518.466387307737023 ] ] ], [ [ [ 531828.388001943938434, 783004.473213594872504 ], [ 531838.563609391450882, 785694.629675053874962 ], [ 530731.493185101891868, 785693.952298194286413 ], [ 530728.090109854470938, 784797.227955208159983 ], [ 528513.937287384993397, 784795.946731682750396 ], [ 528527.631673003430478, 788382.875950821558945 ], [ 526313.54114337824285, 788381.684462475473993 ], [ 526320.441182309295982, 790175.184443074977025 ], [ 528534.502167905797251, 790176.378953619743697 ], [ 528541.388197124470025, 791969.907631147303618 ], [ 547360.819254930131137, 791983.988899422809482 ], [ 547357.500212569371797, 791087.204079892137088 ], [ 548464.544119854923338, 791088.24859693646431 ], [ 548457.932041045627557, 789294.695720212650485 ], [ 547350.873346444685012, 789293.653725588927045 ], [ 547347.565522769815288, 788396.888175946311094 ], [ 546240.500861756969243, 788395.871496797306463 ], [ 546237.18940522451885, 787499.113588792621158 ], [ 545130.118753136368468, 787498.122170053422451 ], [ 545120.18480591441039, 784807.890436693443917 ], [ 544013.093435293063521, 784806.926579097053036 ], [ 544016.408341484726407, 785703.662924391916022 ], [ 542909.325633232481778, 785702.721861295751296 ], [ 542912.65166027948726, 786599.463441193569452 ], [ 540698.504768511513248, 786597.651011748472229 ], [ 540695.164030031417497, 785700.911651320173405 ], [ 538481.007290692883544, 785699.1973287218716 ], [ 538470.963785899919458, 783009.023852100712247 ], [ 537363.865140720736235, 783008.205688983201981 ], [ 537370.571672353660688, 784801.646272444399074 ], [ 536263.488813220872544, 784800.8500265738694 ], [ 536260.126300394302234, 783904.127536687534302 ], [ 535153.037185847875662, 783903.356193781131878 ], [ 535156.407037683995441, 784800.077724722097628 ], [ 534049.326312660938129, 784799.329366771620698 ], [ 534042.575772374635562, 783005.894536175415851 ], [ 535149.671167044201866, 783006.641031139530241 ], [ 535139.596109231002629, 780316.533678741194308 ], [ 534032.478773608454503, 780315.789976241881959 ], [ 534029.120790623128414, 779419.101142814732157 ], [ 532921.997175417258404, 779418.382150484365411 ], [ 532918.635745836654678, 778521.700550658162683 ], [ 531811.505826320382766, 778521.006213485845365 ], [ 531814.87454424938187, 779417.686937928083353 ], [ 530707.752864026697353, 779417.015505040064454 ], [ 530704.376857695518993, 778520.335628664703108 ], [ 527382.995326223433949, 778518.466387307737023 ], [ 527386.393198101548478, 779415.143883381970227 ], [ 529600.632101656286977, 779416.367851717979647 ], [ 529610.805239305482246, 782106.443027271539904 ], [ 530717.904085494228639, 782107.093144449172541 ], [ 530721.295560011523776, 783003.798385762493126 ], [ 531828.388001943938434, 783004.473213594872504 ] ] ], [ [ [ 592493.063348452327773, 711354.303238154505379 ], [ 590277.560242649633437, 711350.721645190846175 ], [ 590280.286809579003602, 712247.03173463314306 ], [ 592495.776607405394316, 712250.61796311638318 ], [ 592493.063348452327773, 711354.303238154505379 ] ] ], [ [ [ 583636.651307706488296, 713133.097442740458064 ], [ 582528.932702280231752, 713131.46526528778486 ], [ 582531.712791971978731, 714027.771571166114882 ], [ 583639.424726787721738, 714029.405861937091686 ], [ 583636.651307706488296, 713133.097442740458064 ] ] ], [ [ [ 579259.591689289663918, 730157.400832189479843 ], [ 578152.010971032548696, 730155.817599131725729 ], [ 578154.884362096432596, 731052.227193106431514 ], [ 579262.458249350311235, 731053.812434932449833 ], [ 579259.591689289663918, 730157.400832189479843 ] ] ], [ [ [ 580384.385489459964447, 735537.577450656099245 ], [ 581491.929878859082237, 735539.217637487570755 ], [ 581480.469561924692243, 731953.471498468890786 ], [ 580372.89773000322748, 731951.839568841736764 ], [ 580375.764436747645959, 732848.265097696334124 ], [ 578160.641661518369801, 732845.064210865297355 ], [ 578154.884362096432596, 731052.227193106431514 ], [ 577047.312817127560265, 731050.664262983831577 ], [ 577061.766639836365357, 735532.791582028497942 ], [ 579276.843508617719635, 735535.959712632698938 ], [ 579273.959462402504869, 734639.518330526887439 ], [ 580381.508316526422277, 734641.134031192166731 ], [ 580384.385489459964447, 735537.577450656099245 ] ] ], [ [ [ 574837.974982486455701, 732840.430627650232054 ], [ 573730.423952374025248, 732838.930831509293057 ], [ 573736.250158756040037, 734631.776140972506255 ], [ 572628.715059072710574, 734630.294964165543206 ], [ 572640.437487463233992, 738216.04978025984019 ], [ 573747.945043782819994, 738217.538452275563031 ], [ 573750.877613143296912, 739113.994009241112508 ], [ 574858.38047183980234, 739115.507112366030924 ], [ 574855.454809466493316, 738219.049653639202006 ], [ 575962.966817698907107, 738220.583384581259452 ], [ 575954.231685514212586, 735531.241188965272158 ], [ 574846.699006983311847, 735529.713243745500222 ], [ 574837.974982486455701, 732840.430627650232054 ] ] ], [ [ [ 580384.385489459964447, 735537.577450656099245 ], [ 579276.843508617719635, 735535.959712632698938 ], [ 579279.731051913346164, 736432.407072843168862 ], [ 580387.266151022049598, 736434.026848478824832 ], [ 580384.385489459964447, 735537.577450656099245 ] ] ], [ [ [ 580393.037939829635434, 738226.943608852336183 ], [ 582608.087819023174234, 738230.258904691669159 ], [ 582605.213977711740881, 737333.793369696941227 ], [ 581497.680918590165675, 737332.126549031934701 ], [ 581494.80365866154898, 736435.669100246508606 ], [ 580387.266151022049598, 736434.026848478824832 ], [ 580393.037939829635434, 738226.943608852336183 ] ] ], [ [ [ 578180.902635853854008, 739120.181764083565213 ], [ 579288.414663779782131, 739121.785096228006296 ], [ 579279.731051913346164, 736432.407072843168862 ], [ 577064.667946528294124, 736429.234948985278606 ], [ 577067.57276715466287, 737325.68430095014628 ], [ 578175.096258632605895, 737327.261108277714811 ], [ 578180.902635853854008, 739120.181764083565213 ] ] ], [ [ [ 583715.616454306291416, 738231.950349411694333 ], [ 582608.087819023174234, 738230.258904691669159 ], [ 582610.965131905395538, 739126.730440794955939 ], [ 583718.486860014148988, 739128.424005865119398 ], [ 583715.616454306291416, 738231.950349411694333 ] ] ], [ [ [ 585942.128323985845782, 741821.348835663171485 ], [ 587049.63690314127598, 741823.116686638561077 ], [ 587055.367209632298909, 743616.131254131905735 ], [ 589270.364442014833912, 743619.743859154288657 ], [ 589273.220835339743644, 744516.264698852435686 ], [ 590380.716487442725338, 744518.107332335202955 ], [ 590375.021029099239968, 742725.06712865200825 ], [ 589267.511469221790321, 742723.22906660370063 ], [ 589261.815785445505753, 740930.217593270819634 ], [ 585939.261394400964491, 740924.852806414943188 ], [ 585942.128323985845782, 741821.348835663171485 ] ] ], [ [ [ 570464.099660632782616, 749867.46079211414326 ], [ 569356.688982869614847, 749866.016384655958973 ], [ 569359.695624716347083, 750762.543256985023618 ], [ 570467.099285632953979, 750763.989460257347673 ], [ 570464.099660632782616, 749867.46079211414326 ] ] ], [ [ [ 567147.918764004134573, 751656.249047109507956 ], [ 569362.705838892958127, 751659.076231159851886 ], [ 569359.695624716347083, 750762.543256985023618 ], [ 567144.894499244866893, 750759.719583115307614 ], [ 567147.918764004134573, 751656.249047109507956 ] ] ], [ [ [ 580436.771108460146934, 751674.588484990061261 ], [ 579329.354292256990448, 751672.93403073574882 ], [ 579335.258752529742196, 753466.052617870736867 ], [ 582657.474229490151629, 753471.097221020027064 ], [ 582648.686088833492249, 750781.409885314293206 ], [ 581541.257397784851491, 750779.711646143929102 ], [ 581538.327942124917172, 749883.163517095847055 ], [ 580430.894675316289067, 749881.490260550985113 ], [ 580436.771108460146934, 751674.588484990061261 ] ] ], [ [ [ 585982.627144349506125, 754372.929932488012128 ], [ 582660.410551153821871, 754367.671910809236579 ], [ 582672.190543631091714, 757954.032090700697154 ], [ 584886.94249950197991, 757957.531527359271422 ], [ 584889.881987343542278, 758854.14124406198971 ], [ 587104.629918565740809, 758857.737601347034797 ], [ 587101.704617330571637, 757961.123495915089734 ], [ 588209.089569852687418, 757962.954180335742421 ], [ 588206.174790100427344, 757066.344005208695307 ], [ 585991.393322084564716, 757062.710212745820172 ], [ 585982.627144349506125, 754372.929932488012128 ] ] ], [ [ [ 588212.007777728722431, 758859.570521122892387 ], [ 590426.771448899526149, 758863.305844336166047 ], [ 590420.966818028828129, 757070.070223560673185 ], [ 589313.569467499502935, 757068.195561008178629 ], [ 589316.477162313181907, 757964.807998555246741 ], [ 588209.089569852687418, 757962.954180335742421 ], [ 588212.007777728722431, 758859.570521122892387 ] ] ], [ [ [ 582689.964644004707225, 763333.757439525565132 ], [ 583797.296682048239745, 763335.508351738681085 ], [ 583794.332791934954002, 762438.869853953830898 ], [ 581579.65691884001717, 762435.395553327864036 ], [ 581576.682236331747845, 761538.767484166542999 ], [ 580469.340850700973533, 761537.067309646168724 ], [ 580463.387693136348389, 759743.833889378001913 ], [ 581570.743307387456298, 759745.529919790336862 ], [ 581567.779061057022773, 758848.92040972225368 ], [ 580460.416345186531544, 758847.226450969348662 ], [ 580457.448484528111294, 757950.62518380919937 ], [ 579350.081083394354209, 757948.95642837556079 ], [ 579347.109625407261774, 757052.363368848571554 ], [ 578239.737514374544844, 757050.719761568121612 ], [ 578245.698103906470351, 758843.908010951825418 ], [ 574923.638220958411694, 758839.104040885227732 ], [ 574920.634894873015583, 757942.512720837374218 ], [ 573813.279036012943834, 757940.959621275658719 ], [ 573804.269007495953701, 755251.228327298653312 ], [ 574911.646094672498293, 755252.775706080370583 ], [ 574905.671210089814849, 753459.648409838089719 ], [ 573798.280012995935977, 753458.104843604261987 ], [ 573792.305171905551106, 751665.005860476871021 ], [ 572684.902107854722999, 751663.48904493812006 ], [ 572681.912969622178935, 750766.950600577052683 ], [ 571574.505056215100922, 750765.458574713440612 ], [ 571580.500938699697144, 752558.537871781969443 ], [ 567150.94661795895081, 752552.784619848243892 ], [ 567163.093924775952473, 756138.988146614050493 ], [ 566055.738672464154661, 756137.600387042621151 ], [ 566067.971757444203831, 759723.895383006427437 ], [ 571604.626677389722317, 759731.100341760204174 ], [ 571607.658392393961549, 760627.698367152595893 ], [ 572714.988562006270513, 760629.210765240946785 ], [ 572711.963956915773451, 759732.610886520822532 ], [ 573819.30341228377074, 759734.144616146222688 ], [ 573822.320907445857301, 760630.746375517570414 ], [ 574929.65546185313724, 760632.3051982158795 ], [ 574926.645076635293663, 759735.701530869933777 ], [ 576033.98898311262019, 759737.281630928628147 ], [ 576036.992258368059993, 760633.887233573128469 ], [ 577144.331330131622963, 760635.492481830297038 ], [ 577150.334198332740925, 762428.726175726857036 ], [ 576043.009371916064993, 762427.117001435137354 ], [ 576046.023210106417537, 763323.741181504796259 ], [ 578260.660900533781387, 763326.986752031021751 ], [ 578263.663971924572252, 764223.621094105648808 ], [ 579370.979168888647109, 764225.280840620398521 ], [ 579379.987923866603523, 766915.227244826615788 ], [ 581594.582509627449326, 766918.629066004650667 ], [ 581591.590434547164477, 766021.969916456378996 ], [ 580484.284768542624079, 766020.259377049980685 ], [ 580478.296740423655137, 764226.963910079211928 ], [ 582692.939139746711589, 764230.400018857209943 ], [ 582689.964644004707225, 763333.757439525565132 ] ] ], [ [ [ 566067.971757444203831, 759723.895383006427437 ], [ 564960.646837007836439, 759722.523942730389535 ], [ 564963.721211293712258, 760619.111421930370852 ], [ 566071.039021864766255, 760620.484551600064151 ], [ 566067.971757444203831, 759723.895383006427437 ] ] ], [ [ [ 569402.163683039834723, 763314.563539271242917 ], [ 568294.861222481005825, 763313.115460725151934 ], [ 568297.928587877308019, 764209.732867454178631 ], [ 569405.223904711077921, 764211.182718412019312 ], [ 569402.163683039834723, 763314.563539271242917 ] ] ], [ [ [ 586011.968312708893791, 763339.080066425260156 ], [ 583797.296682048239745, 763335.508351738681085 ], [ 583800.264033805346116, 764232.153058699332178 ], [ 586014.921376396203414, 764235.729110623942688 ], [ 586011.968312708893791, 763339.080066425260156 ] ] ], [ [ [ 576079.407796683488414, 773187.018480185302906 ], [ 576076.355231692316011, 772290.325610917760059 ], [ 577183.60110364947468, 772291.956397313158959 ], [ 577180.559279014123604, 771395.267843605484813 ], [ 576073.306187060894445, 771393.639023275580257 ], [ 576064.180175843299367, 768703.616875781794079 ], [ 572742.36959029128775, 768698.88885653426405 ], [ 572739.31306931131985, 767802.233052131952718 ], [ 573846.588230718625709, 767803.783717103651725 ], [ 573843.542433368274942, 766907.132273613009602 ], [ 574950.826981250429526, 766908.704459511092864 ], [ 574944.760329276323318, 765115.416455254890025 ], [ 576052.061449063476175, 765117.008171054418199 ], [ 576046.023210106417537, 763323.741181504796259 ], [ 574938.70779424381908, 763322.153338673058897 ], [ 574935.686820708098821, 762425.531094691716135 ], [ 573828.366511571919546, 762423.968455255148001 ], [ 573822.320907445857301, 760630.746375517570414 ], [ 572714.988562006270513, 760629.210765240946785 ], [ 572721.048411370604299, 762422.429082887829281 ], [ 571613.732486967812292, 762420.912977355415933 ], [ 571619.82080062944442, 764214.152382947853766 ], [ 569405.223904711077921, 764211.182718412019312 ], [ 569414.425999099621549, 766901.077564566046931 ], [ 568307.15216421301011, 766899.622394789126702 ], [ 568310.233849543263204, 767796.264697703765705 ], [ 569417.500506855896674, 767797.721640949486755 ], [ 569420.578586009447463, 768694.371960211079568 ], [ 571635.103790665278211, 768697.35976663522888 ], [ 571641.241867977543734, 770490.686423973646015 ], [ 572748.493270072853193, 770492.219226077082567 ], [ 572757.705383536987938, 773182.261793688754551 ], [ 571650.475641219643876, 773180.723421281669289 ], [ 571653.560674037551507, 774077.414986454183236 ], [ 572760.783179499208927, 774078.955216163070872 ], [ 572763.864521113457158, 774975.654934325953946 ], [ 573871.081956847105175, 774977.220670972601511 ], [ 573874.159590260591358, 775873.92857741843909 ], [ 574981.371980879455805, 775875.519876157399267 ], [ 574978.301601284416392, 774978.810057225869969 ], [ 578299.974117931560613, 774983.720116062089801 ], [ 578296.929003182682209, 774087.010700184619054 ], [ 577189.695288552436978, 774085.352357839001343 ], [ 577186.646440179785714, 773188.651232913252898 ], [ 576079.407796683488414, 773187.018480185302906 ] ] ], [ [ [ 586105.114810152212158, 791138.124822361278348 ], [ 586108.174632902955636, 792034.970055453246459 ], [ 587215.281482005142607, 792036.861698833177797 ], [ 587212.229065829422325, 791140.014247779152356 ], [ 588319.345926856854931, 791141.927817859570496 ], [ 588313.266185976448469, 789348.247740242630243 ], [ 584991.879022660199553, 789342.592769008595496 ], [ 584998.003126744297333, 791136.259541318635456 ], [ 586105.114810152212158, 791138.124822361278348 ] ] ] ] } }
]
}
