{
"type": "FeatureCollection",
"name": "urban-1985",
"crs": { "type": "name", "properties": { "name": "urn:ogc:def:crs:EPSG::32631" } },
"features": [
{ "type": "Feature", "properties": { "year": 1985 }, "geometry": { "type": "MultiPolygon", "coordinates": [ [ [ [ 487257.498527746764012, 709487.657428644830361 ], [ 487260.835567105736118, 710383.861134915263392 ], [ 486153.188063621462788, 710384.121261040214449 ], [ 486163.244350338878576, 713072.767703435034491 ], [ 489486.12583012401592, 713072.050224740058184 ], [ 489482.78952464601025, 712175.829689325182699 ], [ 491698.055543656286318, 712175.460491514648311 ], [ 491701.378517828008626, 713071.680691484943964 ], [ 495024.255765606183559, 713071.28956985170953 ], [ 495030.874141997657716, 714863.746703663957305 ], [ 496138.486192803771701, 714863.65975498734042 ], [ 496135.181616622896399, 713967.428341536200605 ], [ 498350.418767821218353, 713967.319885880686343 ], [ 498347.131670190196019, 713071.094261661404744 ], [ 496131.881172081397381, 713071.202710091252811 ], [ 496128.584859205177054, 712174.982853276189417 ], [ 499451.480510264984332, 712174.852786760544404 ], [ 499448.208298612735234, 711278.638668526778929 ], [ 500555.846761405002326, 711278.638708252925426 ], [ 500552.585303995409049, 710382.43028668849729 ], [ 493906.71372574189445, 710382.75555828306824 ], [ 493910.015071854693815, 711278.964005888090469 ], [ 492802.37601136311423, 711279.094180628075264 ], [ 492795.764179254940245, 709486.682837340747938 ], [ 493903.41652826522477, 709486.55286269960925 ], [ 493900.123479449946899, 708590.355911764316261 ], [ 492792.464498849934898, 708590.485785993863828 ], [ 492789.168975577515084, 707694.294471680885181 ], [ 491681.50315549178049, 707694.445838475134224 ], [ 491684.805302016437054, 708590.637280751485378 ], [ 490577.14585571869975, 708590.810396060580388 ], [ 490580.458799630927388, 709487.007730163633823 ], [ 489472.805702558660414, 709487.202648394741118 ], [ 489469.486126725503709, 708591.005131947109476 ], [ 486146.504911263356917, 708591.719063385738991 ], [ 486149.844383548246697, 709487.917290733195841 ], [ 487257.498527746764012, 709487.657428644830361 ] ], [ [ 491688.111614119901787, 709486.834459821111523 ], [ 491694.736734964535572, 711279.246057829237543 ], [ 490587.097209433210082, 711279.419637514743954 ], [ 490580.458799630927388, 709487.007730163633823 ], [ 491688.111614119901787, 709486.834459821111523 ] ] ], [ [ [ 495044.160575307323597, 718448.730499975848943 ], [ 496151.745813398621976, 718448.643376389169134 ], [ 496141.794900597946253, 715759.896957820979878 ], [ 495034.189540297957137, 715759.983950590714812 ], [ 495040.832756978692487, 717552.475841369130649 ], [ 493933.240654322842602, 717552.584815197624266 ], [ 493943.256702378159389, 720241.366465627448633 ], [ 495050.828631811833475, 720241.257280514226295 ], [ 495044.160575307323597, 718448.730499975848943 ] ] ], [ [ [ 498370.227762308553793, 719344.795321749290451 ], [ 501692.962551208562218, 719344.797200054395944 ], [ 501696.258254468557425, 720241.063655776786618 ], [ 499481.115197704639286, 720241.040295321145095 ], [ 499487.745851684245281, 722033.590397191932425 ], [ 501702.861928589176387, 722033.614079239079729 ], [ 501706.16989939409541, 722929.898061741725542 ], [ 502813.721240330196451, 722929.943069694680162 ], [ 502810.420027018408291, 722033.658965457696468 ], [ 505025.536509856698103, 722033.814828319824301 ], [ 505015.697796976193786, 719344.99661214905791 ], [ 503908.119275606470183, 719344.90819324052427 ], [ 503901.567014526459388, 717552.392219766159542 ], [ 507224.34337819472421, 717552.722105806111358 ], [ 507227.597327639930882, 718448.977789564058185 ], [ 508335.183123064925894, 718449.131795897730626 ], [ 508331.935888412117492, 717552.875855075311847 ], [ 509439.528648483450525, 717553.051498008659109 ], [ 509436.292158695578109, 716656.801087259547785 ], [ 508328.692692365322728, 716656.6257284572348 ], [ 508325.453534953936469, 715760.381408662884496 ], [ 506110.241922498913482, 715760.096775932121091 ], [ 506106.993424763611984, 714863.858740930561908 ], [ 503891.769165952806361, 714863.661840299610049 ], [ 503895.031043033523019, 715759.899499195860699 ], [ 502787.425795128569007, 715759.833619286189787 ], [ 502784.15722823725082, 714863.59610747534316 ], [ 500568.933570090623107, 714863.530076759750955 ], [ 500565.655721116519999, 713967.298567542340606 ], [ 499458.037252596404869, 713967.298334548948333 ], [ 499461.321783221559599, 714863.529778858064674 ], [ 496138.486192803771701, 714863.65975498734042 ], [ 496141.794900597946253, 715759.896957820979878 ], [ 500572.215516887779813, 715759.767376332893036 ], [ 500578.791703841707204, 717552.259376061148942 ], [ 499471.200012611574493, 717552.258881972520612 ], [ 499467.903163256240077, 716656.010045191389509 ], [ 498360.304749075032305, 716656.0314830011921 ], [ 498370.227762308553793, 719344.795321749290451 ] ], [ [ 503911.401514670753386, 720241.174918268457986 ], [ 502803.829842535546049, 720241.108299265149981 ], [ 502800.540871420758776, 719344.841722545679659 ], [ 503908.119275606470183, 719344.90819324052427 ], [ 503911.401514670753386, 720241.174918268457986 ] ] ], [ [ [ 507240.653595370589755, 722034.05881183303427 ], [ 507234.117367573955562, 720241.506628486211412 ], [ 506126.545243981177919, 720241.374082863680087 ], [ 506133.094960676564369, 722033.925804986967705 ], [ 507240.653595370589755, 722034.05881183303427 ] ] ], [ [ [ 513892.482407238392625, 723827.898995222756639 ], [ 515000.02973727369681, 723828.18705865170341 ], [ 514996.79886275267927, 722931.893952776794322 ], [ 516104.35340737295337, 722932.203651541145518 ], [ 516097.917126046260819, 721139.634113650303334 ], [ 513882.781477284093853, 721139.038516658241861 ], [ 513892.482407238392625, 723827.898995222756639 ] ] ], [ [ [ 491761.904321555513889, 729204.638734820997342 ], [ 492869.408851843443699, 729204.484364038333297 ], [ 492872.80413934122771, 730100.815403014537878 ], [ 495087.798940251988824, 730100.573245252016932 ], [ 495077.66645197494654, 727411.598329378291965 ], [ 493970.148689613793977, 727411.708067111321725 ], [ 493966.772672416118439, 726515.394821701105684 ], [ 491751.722971053561196, 726515.680660967365839 ], [ 491761.904321555513889, 729204.638734820997342 ] ] ], [ [ [ 472937.780622520542238, 730107.00453940173611 ], [ 474045.287035885325167, 730106.471348084975034 ], [ 474041.775689061440062, 729210.134519030456431 ], [ 475149.28815266554011, 729209.624163671978749 ], [ 475142.291990617988631, 727416.969324670033529 ], [ 476249.817339933651965, 727416.482283088495024 ], [ 476246.332499247102533, 726520.16423181258142 ], [ 475138.800347370735835, 726520.650740872719325 ], [ 475135.312996002146974, 725624.338037707027979 ], [ 474027.773304689268116, 725624.846154223312624 ], [ 474031.267450302897487, 726521.159417469403706 ], [ 472923.733774845837615, 726521.690261680167168 ], [ 472930.748581187974196, 728314.335610753274523 ], [ 471823.227708564023487, 728314.889851331710815 ], [ 471851.514078144391533, 735485.71253847470507 ], [ 472958.980154843069613, 735485.153393106069416 ], [ 472951.896409510227386, 733692.413371539558284 ], [ 474059.375425488047767, 733691.877837077714503 ], [ 474055.846877782372758, 732795.517324153450318 ], [ 472948.360999772907235, 732796.052273201523349 ], [ 472937.780622520542238, 730107.00453940173611 ] ] ], [ [ [ 511720.019346140965354, 735479.720643268665299 ], [ 509505.104737598565407, 735479.290568681433797 ], [ 509511.751000715186819, 737272.044668494490907 ], [ 511726.6380579858087, 737272.476064808899537 ], [ 511720.019346140965354, 735479.720643268665299 ] ] ], [ [ [ 472969.638087181781884, 738174.308098405366763 ], [ 474077.08266613795422, 738173.769640612532385 ], [ 474080.637014547246508, 739070.165900778840296 ], [ 475188.073904319142457, 739069.64940906688571 ], [ 475177.444471842143685, 736380.480220735538751 ], [ 474069.986869536456652, 736380.995041887625121 ], [ 474066.445421385811642, 735484.616688563255593 ], [ 472958.980154843069613, 735485.153393106069416 ], [ 472969.638087181781884, 738174.308098405366763 ] ] ], [ [ [ 511726.6380579858087, 737272.476064808899537 ], [ 511729.95343280088855, 738168.862738098599948 ], [ 513944.828094593482092, 738169.384883782942779 ], [ 513948.133664387278259, 739065.778313318267465 ], [ 516162.996179837791715, 739066.391427697963081 ], [ 516159.704427300719544, 738169.99711753660813 ], [ 515052.266035495558754, 738169.679739629034884 ], [ 515048.971361559757497, 737273.291869065375067 ], [ 511726.6380579858087, 737272.476064808899537 ] ] ], [ [ [ 500655.595898765895981, 738167.603321509552188 ], [ 499548.160800747806206, 738167.60124962462578 ], [ 499551.556191087584011, 739063.991618091473356 ], [ 497336.69974125578301, 739064.054978315136395 ], [ 497340.113074019609485, 739960.451274527353235 ], [ 496232.691664629674051, 739960.516788331675343 ], [ 496239.544559949310496, 741753.327396723208949 ], [ 498454.359574107977096, 741753.218961252365261 ], [ 498457.778330158500466, 742649.633286755881272 ], [ 499565.178807451273315, 742649.613060808856972 ], [ 499554.955686955829151, 739960.387976051541045 ], [ 501769.798246570513584, 739960.414983059279621 ], [ 501766.412587188067846, 739064.018454101169482 ], [ 500658.984379268134944, 739063.99376156728249 ], [ 500655.595898765895981, 738167.603321509552188 ] ] ], [ [ [ 492910.426626726519316, 739960.848788139643148 ], [ 490695.582261640869547, 739961.183003518497571 ], [ 490702.504473173816223, 741753.994528458453715 ], [ 492917.321111098397523, 741753.659782584407367 ], [ 492910.426626726519316, 739960.848788139643148 ] ] ], [ [ [ 488484.209656568884384, 740858.010660956264473 ], [ 488491.167976255936082, 742650.834945792681538 ], [ 489598.570063185528852, 742650.610794519889168 ], [ 489588.159677641117014, 739961.383975930861197 ], [ 487373.313540874514729, 739961.853650354663841 ], [ 487376.793343641911633, 740858.257014790549874 ], [ 488484.209656568884384, 740858.010660956264473 ] ] ], [ [ [ 520668.890741080627777, 759686.674832071061246 ], [ 519561.618346961389761, 759686.253777671721764 ], [ 519564.984245019149967, 760582.795513108372688 ], [ 520672.249527859559748, 760583.21713688201271 ], [ 520668.890741080627777, 759686.674832071061246 ] ] ], [ [ [ 502952.584119665436447, 759682.719271414680406 ], [ 501845.317114850797225, 759682.669056687736884 ], [ 501841.841513192397542, 758786.138876649783924 ], [ 500734.567459298181348, 758786.111943962750956 ], [ 500738.050165251072031, 759682.642019225400873 ], [ 499630.783237734925933, 759682.638159023597836 ], [ 499634.277152961178217, 760579.174316456075758 ], [ 498527.017327363195363, 760579.193583107553422 ], [ 498534.031723649124615, 762372.284304890432395 ], [ 499641.277297925320454, 762372.265139830647968 ], [ 499648.293862045975402, 764165.3806905815145 ], [ 502969.987798703310546, 764165.463386276969686 ], [ 502963.014088865194935, 762372.347199865849689 ], [ 504070.259818968072068, 762372.42107162962202 ], [ 504063.316677222435828, 760579.329295611707494 ], [ 502956.056696617975831, 760579.255743950372562 ], [ 502952.584119665436447, 759682.719271414680406 ] ] ], [ [ [ 481918.096102254407015, 760582.267142125521787 ], [ 481925.324296091101132, 762375.362895366735756 ], [ 480818.074044981214684, 762375.75421045278199 ], [ 480825.333488779724576, 764168.875445884186774 ], [ 481932.569450842333026, 764168.483359379228204 ], [ 481928.944753364252392, 763271.920034826733172 ], [ 484143.429386287403759, 763271.206493881647475 ], [ 484132.623524920432828, 760581.555671940324828 ], [ 481918.096102254407015, 760582.267142125521787 ] ] ], [ [ [ 498601.489049860800151, 779407.887761713471264 ], [ 496387.271895809099078, 779407.995391753618605 ], [ 496394.488251768168993, 781201.348634587018751 ], [ 498608.676191278093029, 781201.241065914975479 ], [ 498601.489049860800151, 779407.887761713471264 ] ] ], [ [ [ 553770.705999298370443, 725644.851232273504138 ], [ 551555.569032743689604, 725642.745679104351439 ], [ 551558.587821699096821, 726539.085696169757284 ], [ 553773.711210859473795, 726541.193980329670012 ], [ 553770.705999298370443, 725644.851232273504138 ] ] ], [ [ [ 523869.981146858190186, 726520.214283506036736 ], [ 522762.449633761425503, 726519.747613871586509 ], [ 522768.852033523842692, 728312.394209038000554 ], [ 523876.369941722718067, 728312.862162728444673 ], [ 523869.981146858190186, 726520.214283506036736 ] ] ], [ [ [ 526120.228269122890197, 736381.085727655678056 ], [ 525012.770535749616101, 736380.567047433461994 ], [ 525015.999199907178991, 737276.954004228464328 ], [ 523908.549107011465821, 737276.45712002646178 ], [ 523905.313551729253959, 736380.070835203281604 ], [ 522797.85728388314601, 736379.597090890049003 ], [ 522801.099730353453197, 737275.982731054769829 ], [ 521693.651036756229587, 737275.530837241210975 ], [ 521690.401699032634497, 736379.145814421121031 ], [ 520582.946763999236282, 736378.717005727929063 ], [ 520579.694479944650084, 735482.338545036735013 ], [ 519472.233278613828588, 735481.932766520534642 ], [ 519475.49244560446823, 736378.310664745396934 ], [ 518368.038710670138244, 736377.926791411591694 ], [ 518371.308722562971525, 737274.310126077616587 ], [ 517263.862429442699067, 737273.948212242452428 ], [ 517270.428147207014263, 739066.731808997807093 ], [ 521700.161521676229313, 739068.318829513737001 ], [ 521703.422668804239947, 739964.721813760697842 ], [ 522810.850637920841109, 739965.17556112294551 ], [ 522814.10879638051847, 740861.585165662923828 ], [ 523921.530523751687724, 740862.062135793617927 ], [ 523924.785676665487699, 741758.478395844809711 ], [ 521709.956772225152235, 741757.545795464655384 ], [ 521713.229728449427057, 742653.966807718970813 ], [ 523928.044749000866432, 742654.900673138559796 ], [ 523934.574651796545368, 744447.763309052330442 ], [ 522827.180708982457872, 744447.283753706375137 ], [ 522830.458506650233176, 745343.723480188287795 ], [ 521723.072214765183162, 745343.266018884489313 ], [ 521719.787449753901456, 744446.826912028598599 ], [ 520612.394840948283672, 744446.392783949384466 ], [ 520618.982250442670193, 746239.275859116693027 ], [ 522833.740232055366505, 746240.169253260013647 ], [ 522837.025885162991472, 747136.621080323006026 ], [ 526159.147115982021205, 747138.133958244463429 ], [ 526162.415719009004533, 748034.593871763325296 ], [ 530591.89384426700417, 748036.933267007698305 ], [ 530588.653210728545673, 747140.470271004363894 ], [ 531696.031941239256412, 747141.111339453607798 ], [ 531689.576238716836087, 745348.201852549682371 ], [ 532796.969877269002609, 745348.863985614501871 ], [ 532793.754782940377481, 744452.417453356669284 ], [ 536115.962624022038653, 744454.537543301354162 ], [ 536112.772256152355112, 743558.094293035450391 ], [ 535005.361646916018799, 743557.365828907699324 ], [ 535002.168155633029528, 742660.929560377378948 ], [ 537217.004355083219707, 742662.407254993100651 ], [ 537220.183946890523657, 743558.84544462012127 ], [ 539435.010705537279136, 743560.415810621227138 ], [ 539425.525031136232428, 740871.113227876136079 ], [ 540532.960988792823628, 740871.9292748371372 ], [ 540529.813623706577346, 739975.506061865948141 ], [ 541637.257719611865468, 739976.3436321093468 ], [ 541627.859102496411651, 737287.106754481676035 ], [ 542735.325167348957621, 737287.963574985042214 ], [ 542729.092116547632031, 735495.166705944691785 ], [ 543836.573233839008026, 735496.043751038727351 ], [ 543830.369025329942815, 733703.26848958840128 ], [ 544937.865194305544719, 733704.165651153074577 ], [ 544931.689760736189783, 731911.411885469336994 ], [ 546039.200980654917657, 731912.32905538554769 ], [ 546036.125742254080251, 731015.959897768567316 ], [ 548251.166033187531866, 731017.858777401852421 ], [ 548245.054116228944622, 729225.133335097925738 ], [ 547137.519610734074377, 729224.175229513784871 ], [ 547134.462439112365246, 728327.822634179727174 ], [ 546026.922532194643281, 728326.887996291043237 ], [ 546017.753080700524151, 725637.869296499993652 ], [ 544910.194161410792731, 725636.96044741012156 ], [ 544907.138399270712398, 724740.633856577216648 ], [ 546014.704098961199634, 724741.541517977020703 ], [ 546008.617388862301596, 722948.903598662931472 ], [ 544901.03815371368546, 722947.998311896575615 ], [ 544879.805725038982928, 716673.958317419048399 ], [ 543772.180727795464918, 716673.083203057409264 ], [ 543769.155867091263644, 715776.816251982469112 ], [ 542661.525486567639746, 715775.964137064758688 ], [ 542658.497706714435481, 714879.704123609233648 ], [ 545981.412882125820033, 714882.322520166519098 ], [ 545984.420599415665492, 715778.58600658387877 ], [ 547092.055017659091391, 715779.503646537661552 ], [ 547089.053987832390703, 714883.238947835983709 ], [ 548196.696505862171762, 714884.177190144080669 ], [ 548199.690848251804709, 715780.443128445185721 ], [ 550414.96687937353272, 715782.38761869748123 ], [ 550411.985911786323413, 714886.119119250564836 ], [ 553734.931443693116307, 714889.195626379689202 ], [ 553729.020709986914881, 713096.667933217715472 ], [ 557052.02079472085461, 713099.932197615853511 ], [ 557054.954304090351798, 713996.197437805822119 ], [ 559270.282854368793778, 713998.485418072901666 ], [ 559276.134142312803306, 715791.039288112777285 ], [ 567029.74825063010212, 715799.756291380384937 ], [ 567038.411771757528186, 718488.664768509683199 ], [ 565930.766960525419563, 718487.348835315788165 ], [ 565927.868816573172808, 717591.041889558546245 ], [ 563712.571667150827125, 717588.479130874737166 ], [ 563718.398421659017913, 719381.092201270163059 ], [ 567041.306794048869051, 719384.979253646335565 ], [ 567044.205407221685164, 720281.299580827588215 ], [ 569259.474192944238894, 720284.004212752450258 ], [ 569250.829452367033809, 717595.050274175475352 ], [ 568143.173874583910219, 717593.692246156278998 ], [ 568140.292738340445794, 716697.387691106181592 ], [ 570355.619379038223997, 716700.122101661050692 ], [ 570352.755216793855652, 715803.819821630255319 ], [ 573675.78117348998785, 715808.079962821793742 ], [ 573672.940638856031001, 714911.77797420648858 ], [ 575888.315644641523249, 714914.723481719032861 ], [ 575893.973488099407405, 716707.340908955782652 ], [ 579217.013001892832108, 716711.934680500766262 ], [ 579219.827096034307033, 717608.258056241553277 ], [ 580327.50493707798887, 717609.835095002315938 ], [ 580324.697547246934846, 716713.509686923003756 ], [ 583647.765770774101838, 716718.365957272704691 ], [ 583650.553047516848892, 717614.697626304929145 ], [ 584758.24072419013828, 717616.362275902065448 ], [ 584755.460151868173853, 716720.028465238516219 ], [ 586970.85657331161201, 716723.419109458802268 ], [ 586968.092848932254128, 715827.08675786468666 ], [ 583644.981958371470682, 715822.040111802052706 ], [ 583642.201610359363258, 714925.720082490821369 ], [ 582534.496354598901235, 714924.083678154856898 ], [ 582531.712791971978731, 714027.771571166114882 ], [ 579208.59170839516446, 714022.999459097976796 ], [ 579205.791607034392655, 713126.699329236173071 ], [ 578098.082704845466651, 713125.154215181129985 ], [ 578103.699755295063369, 714917.756266973796301 ], [ 576996.006545244483277, 714916.228964514448307 ], [ 576993.189587732776999, 714019.927015508059412 ], [ 571454.724120196187869, 714012.627268571988679 ], [ 571457.574472097447142, 714908.919742641039193 ], [ 565919.195981406723149, 714902.155984696932137 ], [ 565916.312235398916528, 714005.872302555595525 ], [ 563700.961554197245277, 714003.322848974145018 ], [ 563695.178196465363726, 712210.779519129893743 ], [ 560372.126424988149665, 712207.128326506121084 ], [ 560369.220210532541387, 711310.870119681814685 ], [ 558153.848166305571795, 711308.547715553548187 ], [ 558150.932303705834784, 710412.298333122977056 ], [ 559258.624081987538375, 710413.447170088533312 ], [ 559255.718514874461107, 709517.202042485703714 ], [ 557040.323429609881714, 709514.929043452837504 ], [ 557043.242269947542809, 710411.171175788040273 ], [ 554827.867303064558655, 710408.981899327482097 ], [ 554824.935189459007233, 709512.74265299225226 ], [ 542640.410343567025848, 709502.265576798352413 ], [ 542643.415461520897225, 710398.490903218626045 ], [ 540428.078507747268304, 710396.86526255926583 ], [ 540422.045518087921664, 708604.42471614619717 ], [ 539314.365611482760869, 708603.646505411015823 ], [ 539320.411866683745757, 710396.08495821012184 ], [ 538212.74640519474633, 710395.326331021962687 ], [ 538209.714739340823144, 709499.105246944818646 ], [ 537102.043787126312964, 709498.369289103080519 ], [ 537099.009303535334766, 708602.154951425036415 ], [ 534883.657447713892907, 708600.749886665726081 ], [ 534886.705188683466986, 709496.962322168634273 ], [ 535994.373947984538972, 709497.654980880673975 ], [ 535997.418888018932194, 710393.874107669224031 ], [ 537105.082090049982071, 710394.589380879071541 ], [ 537108.124212269089185, 711290.815234138513915 ], [ 532677.504333008080721, 711288.080504780402407 ], [ 532680.576890741125681, 712184.308428891352378 ], [ 531572.931108781369403, 712183.678150157793425 ], [ 531566.776546432636678, 710391.229782029986382 ], [ 530459.118411521660164, 710390.622891916660592 ], [ 530462.200407743337564, 711286.843363489955664 ], [ 529354.549832404823974, 711286.257348353392445 ], [ 529348.376426686765626, 709493.823767690337263 ], [ 528240.713448570575565, 709493.261003941646777 ], [ 528237.625934342504479, 708597.053619449492544 ], [ 527129.957174390554428, 708596.513250782736577 ], [ 527139.251290177693591, 711285.150428651482798 ], [ 524923.956004368257709, 711284.130322487442754 ], [ 524927.075142464018427, 712180.352826617308892 ], [ 522711.796156444121152, 712179.418230616487563 ], [ 522714.932532724982593, 713075.645205078180879 ], [ 521607.300741350278258, 713075.209892057813704 ], [ 521604.157701936084777, 712178.983528248383664 ], [ 520496.519895462668501, 712178.570556212216616 ], [ 520499.669598075211979, 713074.796336681698449 ], [ 519392.039069676480722, 713074.40453888673801 ], [ 519388.882703798764851, 712178.17931444523856 ], [ 518281.246093719557393, 712177.809802887844853 ], [ 518284.409122930956073, 713074.034498613327742 ], [ 516069.150841506954748, 713073.359690408571623 ], [ 516065.974485416198149, 712177.135970179457217 ], [ 514958.339420742588118, 712176.831648926250637 ], [ 514961.522440382628702, 713073.054922374547459 ], [ 513853.894488019519486, 713072.771911656484008 ], [ 513857.088167808426078, 713969.000544154900126 ], [ 511641.846820847655181, 713968.499037006753497 ], [ 511648.272909296501894, 715760.972150642541237 ], [ 512755.880021789984312, 715761.212742854724638 ], [ 512759.092388452030718, 716657.458362065604888 ], [ 511651.491973523166962, 716657.217404032009654 ], [ 511654.715051044069696, 717553.468464978388511 ], [ 509439.528648483450525, 717553.051498008659109 ], [ 509442.769168429833371, 718449.307723207050003 ], [ 508335.183123064925894, 718449.131795897730626 ], [ 508351.479874383017886, 722930.498971461434849 ], [ 506136.375902072933968, 722930.210438296664506 ], [ 506133.094960676564369, 722033.925804986967705 ], [ 505025.536509856698103, 722033.814828319824301 ], [ 505032.11597085185349, 723826.389545364072546 ], [ 509462.296919762971811, 723826.967591271968558 ], [ 509449.262298678746447, 720241.837646481231786 ], [ 510556.835172608611174, 720242.036118904361501 ], [ 510553.593323952401988, 719345.767930481932126 ], [ 511661.173245847166982, 719345.988039071206003 ], [ 511657.942141828883905, 718449.725340863922611 ], [ 514980.704306786763482, 718450.516175445984118 ], [ 514983.915242323069833, 719346.780055257841013 ], [ 518306.661282413580921, 719347.769607952097431 ], [ 518309.856012668227777, 720244.040746355894953 ], [ 519417.432348694012035, 720244.415025156456977 ], [ 519414.244349342654459, 719348.143356078653596 ], [ 520521.82799840637017, 719348.539052911335602 ], [ 520525.009266923530959, 720244.811279975692742 ], [ 522740.164982831920497, 720245.669717914657667 ], [ 522736.997175782802515, 719349.396292939665727 ], [ 523844.582770518318284, 719349.857836266164668 ], [ 523847.743846930214204, 720246.131901165121235 ], [ 524955.32342607085593, 720246.616060695494525 ], [ 524958.48168370872736, 721142.896632874035276 ], [ 522743.336718576494604, 721141.948982439818792 ], [ 522746.512382982764393, 722038.234093902166933 ], [ 523854.077760464453604, 722038.697557740146294 ], [ 523866.792629423376638, 725623.899184872047044 ], [ 524974.331647711922415, 725624.38735300838016 ], [ 524977.513375434791669, 726520.70312061032746 ], [ 526085.046352689270861, 726521.214125259313732 ], [ 526091.407938131713308, 728313.864736473071389 ], [ 523876.369941722718067, 728312.862162728444673 ], [ 523879.570219084038399, 729209.194958099746145 ], [ 524987.082027827622369, 729209.685803601401858 ], [ 524990.279401584528387, 730106.02518263400998 ], [ 526097.785135739366524, 730106.538974897819571 ], [ 526113.796431144233793, 734588.328328169300221 ], [ 527221.268703697132878, 734588.868024019990116 ], [ 527224.475797208375297, 735485.244466878590174 ], [ 526117.010398753336631, 735484.704044932615943 ], [ 526120.228269122890197, 736381.085727655678056 ] ], [ [ 559267.362685770378448, 713102.217180655454285 ], [ 560375.036281350185163, 713103.392314724973403 ], [ 560377.94977957510855, 713999.662091732374392 ], [ 559270.282854368793778, 713998.485418072901666 ], [ 559267.362685770378448, 713102.217180655454285 ] ], [ [ 523835.123063109989744, 716661.070606477907859 ], [ 522727.517327143461443, 716660.610981448320672 ], [ 522724.365235211211257, 715764.36084080953151 ], [ 523831.977668028906919, 715764.81982689735014 ], [ 523828.836193364928477, 714868.574850182165392 ], [ 524936.456029257969931, 714869.055009978241287 ], [ 524942.729513870435767, 716661.552098537096754 ], [ 526050.336712641525082, 716662.055457699229009 ], [ 526047.204711078549735, 715765.803318298188969 ], [ 528262.434878804255277, 715766.874169170041569 ], [ 528259.320157159818336, 714870.62636454240419 ], [ 529366.943183935945854, 714871.19377472193446 ], [ 529373.163129188120365, 716663.696738587110303 ], [ 530480.773652171832509, 716664.28756696137134 ], [ 530483.882737095933408, 717560.548565479693934 ], [ 526053.472617695922963, 717558.313407841604203 ], [ 526059.756138141499832, 719350.846769894706085 ], [ 523844.582770518318284, 719349.857836266164668 ], [ 523835.123063109989744, 716661.070606477907859 ] ] ], [ [ [ 522778.485096016724128, 731001.408415680984035 ], [ 524993.480686763417907, 731002.370483005652204 ], [ 524990.279401584528387, 730106.02518263400998 ], [ 522775.27014685125323, 730105.064428424695507 ], [ 522778.485096016724128, 731001.408415680984035 ] ] ], [ [ [ 550490.699225309188478, 738191.007179056759924 ], [ 550493.776840526610613, 739087.42911009315867 ], [ 551601.240270921727642, 739088.468566231895238 ], [ 551598.169562735245563, 738192.045307149644941 ], [ 550490.699225309188478, 738191.007179056759924 ] ] ], [ [ [ 552711.772747983108275, 739985.961191239068285 ], [ 552708.705247062142007, 739089.530575154582039 ], [ 551601.240270921727642, 739088.468566231895238 ], [ 551604.314687306643464, 739984.897826698725112 ], [ 552711.772747983108275, 739985.961191239068285 ] ] ], [ [ [ 522823.906839086848777, 743550.850066413520835 ], [ 521716.506620970496442, 743550.393844107049517 ], [ 521719.787449753901456, 744446.826912028598599 ], [ 522827.180708982457872, 744447.283753706375137 ], [ 522823.906839086848777, 743550.850066413520835 ] ] ], [ [ [ 548294.367633505142294, 743567.604797463980503 ], [ 547186.943303583539091, 743566.626764451037161 ], [ 547183.826257504988462, 742670.178577754297294 ], [ 546076.396391359856352, 742669.224453548202291 ], [ 546073.276146184187382, 741772.783516638330184 ], [ 543858.406638679793105, 741770.945609606918879 ], [ 543867.82032168796286, 744460.279442494385876 ], [ 544975.233553691999987, 744461.190575345652178 ], [ 544987.809954401454888, 748047.058335556997918 ], [ 546095.196617210982367, 748047.996958713745698 ], [ 546098.343113598763011, 748944.480259333737195 ], [ 548313.106612592120655, 748946.428451874060556 ], [ 548309.974116428522393, 748049.942680758656934 ], [ 547202.584660167107359, 748048.958407065481879 ], [ 547196.316892462666146, 746256.007578560849652 ], [ 548303.720323553774506, 746256.98935521254316 ], [ 548294.367633505142294, 743567.604797463980503 ] ] ], [ [ [ 547208.867394242202863, 749841.933533335221 ], [ 546101.493359993444756, 749840.96964154811576 ], [ 546104.647356353350915, 750737.465112766250968 ], [ 547212.014373563695699, 750738.430226657656021 ], [ 547208.867394242202863, 749841.933533335221 ] ] ], [ [ [ 547215.165094351745211, 751634.933016653521918 ], [ 546107.805102636804804, 751633.966680399957113 ], [ 546110.966598801780492, 752530.474351860000752 ], [ 547218.319556564209051, 752531.441910734167323 ], [ 547224.639705093461089, 754324.478040799847804 ], [ 551654.009629442007281, 754328.588227529660799 ], [ 551644.619526865077205, 751639.027709299349226 ], [ 548322.526499480009079, 751635.922287517925724 ], [ 548319.382804160239175, 750739.418247842346318 ], [ 547212.014373563695699, 750738.430226657656021 ], [ 547215.165094351745211, 751634.933016653521918 ] ] ], [ [ [ 521756.136349799635354, 754307.990857271244749 ], [ 522863.45250311557902, 754308.454528913018294 ], [ 522860.135429648391437, 753411.954003390856087 ], [ 523967.459319129993673, 753412.440039652516134 ], [ 523964.153216477425303, 752515.944978107581846 ], [ 525071.484866679413244, 752516.453324692090973 ], [ 525068.18971789511852, 751619.963692919467576 ], [ 522853.513065015140455, 751618.971284613362513 ], [ 522850.207773919566534, 750722.489076546858996 ], [ 523957.552768204011954, 750722.973165840259753 ], [ 523954.258422654122114, 749826.496400307165459 ], [ 522846.906410351512022, 749826.012959489016794 ], [ 522843.608974345959723, 748929.542926034540869 ], [ 523950.967996209219564, 748930.025718634366058 ], [ 523947.681488904752769, 748033.561113418196328 ], [ 521732.950126821058802, 748032.619647067505866 ], [ 521746.175781321304385, 751618.509478769265115 ], [ 520638.839148593659047, 751618.070605036569759 ], [ 520642.162437251128722, 752514.557695480412804 ], [ 519534.833457480242942, 752514.141186745720915 ], [ 519541.505963538191281, 754307.132556083728559 ], [ 520648.820847654831596, 754307.550199683872052 ], [ 520662.1849998474936, 757893.608708722051233 ], [ 521769.47220945043955, 757894.051748397294432 ], [ 521766.132340891344938, 756997.527319131768309 ], [ 522873.427287696511485, 756997.992858894518577 ], [ 522870.098432174941991, 756101.473949257982895 ], [ 521762.796408073161729, 756101.009032460860908 ], [ 521756.136349799635354, 754307.990857271244749 ] ] ], [ [ [ 521776.163753650500439, 759687.119064344791695 ], [ 521772.816013715171721, 758790.582327665295452 ], [ 520665.535898398316931, 758790.138691820786335 ], [ 520668.890741080627777, 759686.674832071061246 ], [ 521776.163753650500439, 759687.119064344791695 ] ] ], [ [ [ 520675.612258700013626, 761479.76561366347596 ], [ 521782.871040392143186, 761480.211039575515315 ], [ 521792.961487152380869, 764169.895368256955408 ], [ 524007.438219880568795, 764170.85974852682557 ], [ 524004.085092028020881, 763274.29083623108454 ], [ 522896.839238218672108, 763273.79764116439037 ], [ 522886.781982234795578, 760584.130000064033084 ], [ 520672.249527859559748, 760583.21713688201271 ], [ 520675.612258700013626, 761479.76561366347596 ] ] ], [ [ [ 525118.027540013310499, 765067.952705252100714 ], [ 522903.563710759102833, 765066.940363168716431 ], [ 522913.679871681088116, 767756.701036332175136 ], [ 525128.100679279421456, 767757.717379249748774 ], [ 525118.027540013310499, 765067.952705252100714 ] ] ], [ [ [ 556127.267545434762724, 766885.160049094469287 ], [ 556124.110579870059155, 765988.541683374089189 ], [ 555016.851908237789758, 765987.368775899754837 ], [ 555029.530535659636371, 769573.873879156075418 ], [ 556136.760479938238859, 769575.05256961309351 ], [ 556133.59249551454559, 768678.415484789875336 ], [ 557240.831313203438185, 768679.616184089682065 ], [ 557234.520726774586365, 766886.357802262878977 ], [ 556127.267545434762724, 766885.160049094469287 ] ] ], [ [ [ 530714.516477964934893, 781210.394255508086644 ], [ 531821.623555979458615, 781211.067385332542472 ], [ 531828.388001943938434, 783004.473213594872504 ], [ 534042.575772374635562, 783005.894536175415851 ], [ 534039.206264524138533, 782109.186665496206842 ], [ 532932.104565016226843, 782108.464963457197882 ], [ 532925.362455166992731, 780315.070080943405628 ], [ 530711.132737462874502, 780313.70171151321847 ], [ 530714.516477964934893, 781210.394255508086644 ] ] ], [ [ [ 545133.437582206679508, 788394.878872165456414 ], [ 540705.197617108817212, 788391.148915847297758 ], [ 540701.849297551438212, 787494.3967641138006 ], [ 541808.9147546881577, 787495.292075532954186 ], [ 541805.577589853550307, 786598.545226822141558 ], [ 538484.362740762415342, 786595.934578954824246 ], [ 538481.007290692883544, 785699.1973287218716 ], [ 535159.780722511932254, 785696.805631391587667 ], [ 535156.407037683995441, 784800.077724722097628 ], [ 534049.326312660938129, 784799.329366771620698 ], [ 534052.707345016417094, 785696.056341544142924 ], [ 531838.563609391450882, 785694.629675053874962 ], [ 531841.963195316493511, 786591.36125033244025 ], [ 530734.900127180968411, 786590.683023258461617 ], [ 530741.725611677742563, 788384.163649335270748 ], [ 529634.678199672489427, 788383.507773759891279 ], [ 529638.10412363416981, 789280.256865922594443 ], [ 528531.064978645765223, 789279.624246594379656 ], [ 528534.502167905797251, 790176.378953619743697 ], [ 530748.566563030239195, 790177.669892869191244 ], [ 530745.144154016626999, 789280.913565205410123 ], [ 531852.185102865332738, 789281.594344542245381 ], [ 531859.018998979823664, 791075.115121956332587 ], [ 530751.992838679114357, 791074.432639757520519 ], [ 530755.422980923787691, 791971.201813300605863 ], [ 541825.657308712252416, 791979.122462322702631 ], [ 541822.301234069629572, 791082.343541089911014 ], [ 544036.376846166327596, 791084.215347929159179 ], [ 544033.039349467959255, 790187.440579250105657 ], [ 545140.086510080145672, 790188.41150747530628 ], [ 545133.437582206679508, 788394.878872165456414 ] ] ], [ [ [ 560413.195807676063851, 724755.353633253951557 ], [ 560410.238610508618876, 723859.013813907164149 ], [ 561517.833415309432894, 723860.229529103380628 ], [ 561511.94346311991103, 722067.56437664933037 ], [ 560404.335140227805823, 722066.351800463278778 ], [ 560407.285054677748121, 722962.679872110020369 ], [ 555976.896561011322774, 722958.043912400957197 ], [ 555973.919627199298702, 722061.721845096210018 ], [ 554866.320027516689152, 722060.619442717172205 ], [ 554875.282144362223335, 724749.598960372968577 ], [ 557090.442442094092257, 724751.834479737444781 ], [ 557087.464929735986516, 723855.49920611793641 ], [ 559302.645616785390303, 723857.820188464596868 ], [ 559305.60958567506168, 724754.1584652508609 ], [ 560413.195807676063851, 724755.353633253951557 ] ] ], [ [ [ 568169.265308989211917, 725660.696366818156093 ], [ 568178.026933470508084, 728349.803567733499222 ], [ 569285.601402582949959, 728351.182724656653591 ], [ 569282.684084573178552, 727454.805989127838984 ], [ 570390.267435930902138, 727456.205584546085447 ], [ 570384.457106375135481, 725663.466255441424437 ], [ 568169.265308989211917, 725660.696366818156093 ] ] ], [ [ [ 564852.371114370645955, 727449.429611487896182 ], [ 564861.215556434239261, 730138.556918520131148 ], [ 567076.327137170708738, 730141.210871352232061 ], [ 567073.389027335098945, 729244.825793208903633 ], [ 565965.825426008668728, 729243.489383795531467 ], [ 565957.012222414603457, 726554.374782972503453 ], [ 567064.596240262268111, 726555.706069957348518 ], [ 567061.672492203535512, 725659.344641252886504 ], [ 568169.265308989211917, 725660.696366818156093 ], [ 568166.351931656943634, 724764.339097919873893 ], [ 564843.559138589771464, 724760.355477860663086 ], [ 564849.430181684787385, 726553.065668660216033 ], [ 563741.850084867561236, 726551.778726820950396 ], [ 563744.797814607503824, 727448.141017062822357 ], [ 564852.371114370645955, 727449.429611487896182 ] ] ], [ [ [ 559356.555430976208299, 739992.815569919301197 ], [ 559350.507063102559187, 738199.942926143994555 ], [ 560457.990695371641777, 738201.161262682406232 ], [ 560451.970712284208275, 736408.30950951622799 ], [ 558236.977648740517907, 736405.901493312208913 ], [ 558230.944719123537652, 734613.079793108277954 ], [ 559338.454116605920717, 734614.269528426346369 ], [ 559341.461879461887293, 735510.678910144371912 ], [ 560448.96618178638164, 735511.892608432215638 ], [ 560445.965292045613751, 734615.481681137811393 ], [ 562660.993109549628571, 734617.973239483195357 ], [ 562658.009589923894964, 733721.565105969202705 ], [ 561550.487894350313582, 733720.309717875090428 ], [ 561547.501142466207966, 732823.909143553581089 ], [ 563762.560123538831249, 732826.439083643374033 ], [ 563756.624891247600317, 731033.649331113672815 ], [ 564864.170918304938823, 731034.944538393057883 ], [ 564861.215556434239261, 730138.556918520131148 ], [ 563753.662698526401073, 730137.263364831567742 ], [ 563750.704121482325718, 729240.883328664698638 ], [ 562643.146351882605813, 729239.613682550145313 ], [ 562646.111751328106038, 730135.992092697299086 ], [ 561538.562681641546078, 730134.743101923842914 ], [ 561541.538536066771485, 731031.125842982670292 ], [ 560433.998141551623121, 731029.897561746882275 ], [ 560431.015456269378774, 730133.516392321093008 ], [ 559323.470042014378123, 730132.311963702086359 ], [ 559326.459558159462176, 731028.691588813671842 ], [ 558218.922752694925293, 731027.507923999335617 ], [ 558212.933716589701362, 729234.757636625668965 ], [ 560428.036412012879737, 729237.141152255935594 ], [ 560425.061008826713078, 728340.771834149141796 ], [ 559317.501958194887266, 728339.570493404753506 ], [ 559311.548472630791366, 726546.852680324926041 ], [ 561526.695590151590295, 726549.271359780919738 ], [ 561520.783840760355815, 724756.570918329292908 ], [ 560413.195807676063851, 724755.353633253951557 ], [ 560416.156646135961637, 725651.699337550904602 ], [ 558200.999540357152, 725649.328060133149847 ], [ 558203.977597308461554, 726545.676597978570499 ], [ 557096.408466673339717, 726544.522686979849823 ], [ 557102.389157447614707, 728337.234490226954222 ], [ 555994.83534093236085, 728336.099827437778004 ], [ 555997.838000025134534, 729232.463134207297117 ], [ 554890.292675819713622, 729231.349262513802387 ], [ 554881.275306651834399, 726542.281378326122649 ], [ 553773.711210859473795, 726541.193980329670012 ], [ 553782.748996735317633, 729230.257643603370525 ], [ 552675.206929574487731, 729229.188277309644036 ], [ 552678.233730938751251, 730125.553282615030184 ], [ 551570.700065005803481, 730124.5048159371363 ], [ 551579.823188168345951, 732813.631367045338266 ], [ 552687.336335898493417, 732814.68389374576509 ], [ 552690.377937698969617, 733711.072653867769986 ], [ 551582.871646270388737, 733710.018773322808556 ], [ 551592.039271128247492, 736399.216763515723869 ], [ 549377.072531369631179, 736397.168288665241562 ], [ 549380.149603305617347, 737293.576939435559325 ], [ 552702.58134450064972, 737296.68734049575869 ], [ 552708.705247062142007, 739089.530575154582039 ], [ 553816.171802125754766, 739090.615137022919953 ], [ 553819.232387600583024, 739987.047136042849161 ], [ 556034.156536363298073, 739989.286767105339095 ], [ 556031.109781733946875, 739092.851920260582119 ], [ 558246.054475172306411, 739095.178917306824587 ], [ 558249.087399006821215, 739991.616721249651164 ], [ 559356.555430976208299, 739992.815569919301197 ] ] ], [ [ [ 577050.19655340409372, 731947.077816060977057 ], [ 577053.083803862566128, 732843.497317094705068 ], [ 578160.641661518369801, 732845.064210865297355 ], [ 578157.761258941609412, 731948.642727881204337 ], [ 577050.19655340409372, 731947.077816060977057 ] ] ], [ [ [ 579271.078913317993283, 733743.082919114734977 ], [ 579268.201861414476298, 732846.653470985242166 ], [ 578160.641661518369801, 732845.064210865297355 ], [ 578169.303903140360489, 735534.364423171151429 ], [ 579276.843508617719635, 735535.959712632698938 ], [ 579273.959462402504869, 734639.518330526887439 ], [ 580381.508316526422277, 734641.134031192166731 ], [ 580378.63463227218017, 733744.696582676144317 ], [ 579271.078913317993283, 733743.082919114734977 ] ] ], [ [ [ 573739.16857105283998, 735528.207746136235073 ], [ 573742.090522688813508, 736424.645328134065494 ], [ 572634.569177783560008, 736423.160404231399298 ], [ 572637.501558776479214, 737319.602096545160748 ], [ 573745.016013615066186, 737321.088894376996905 ], [ 573747.945043782819994, 738217.538452275563031 ], [ 574855.454809466493316, 738219.049653639202006 ], [ 574852.532677833223715, 737322.598194234771654 ], [ 575960.051584617234766, 737324.129996347939596 ], [ 575954.231685514212586, 735531.241188965272158 ], [ 573739.16857105283998, 735528.207746136235073 ] ] ], [ [ [ 556037.206965336226858, 740885.727623759652488 ], [ 554929.750992176588625, 740884.595080103492364 ], [ 554942.017230634461157, 744470.41299912170507 ], [ 556049.44542378350161, 744471.55129663599655 ], [ 556043.318846136913635, 742678.627396127791144 ], [ 558258.208114957436919, 742680.966224627103657 ], [ 558249.087399006821215, 739991.616721249651164 ], [ 556034.156536363298073, 739989.286767105339095 ], [ 556037.206965336226858, 740885.727623759652488 ] ] ], [ [ [ 580442.661492434097454, 753467.711156871635467 ], [ 581550.066640368662775, 753469.392691169399768 ], [ 581547.126746958587319, 752572.826225759112276 ], [ 582654.541378513793461, 752574.528658455936238 ], [ 582651.611998277483508, 751677.966215694905259 ], [ 580436.771108460146934, 751674.588484990061261 ], [ 580442.661492434097454, 753467.711156871635467 ] ] ], [ [ [ 572693.890803810791112, 754353.141067950171418 ], [ 572690.891024998622015, 753456.584271204890683 ], [ 571583.504212943022139, 753455.086692408891395 ], [ 571580.500938699697144, 752558.537871781969443 ], [ 570473.109227203065529, 752557.06511027563829 ], [ 570476.119543675216846, 753453.612106987973675 ], [ 569368.736984041403048, 753452.160514717688784 ], [ 569365.719625350902788, 752555.615314597962424 ], [ 567150.94661795895081, 752552.784619848243892 ], [ 567157.013093264074996, 754345.874121230910532 ], [ 568264.38448242994491, 754347.281470067449845 ], [ 568270.451187246246263, 756140.39898064895533 ], [ 569377.810493022669107, 756141.832889361889102 ], [ 569380.842140157008544, 757038.402630404918455 ], [ 568273.489910423522815, 757036.966951379668899 ], [ 568279.578098073485307, 758830.121360826771706 ], [ 572708.942898286739364, 758836.017184636904858 ], [ 572699.90100166760385, 756146.273065768531524 ], [ 573807.268812149413861, 756147.79927541106008 ], [ 573801.272741094697267, 754354.663519169786014 ], [ 572693.890803810791112, 754353.141067950171418 ] ] ], [ [ [ 583776.622148767695762, 757059.168843959458172 ], [ 585991.393322084564716, 757062.710212745820172 ], [ 585988.467817669967189, 756166.110638185869902 ], [ 584881.07388438435737, 756164.330581145826727 ], [ 584878.14475721528288, 755267.739336783066392 ], [ 583770.7462966152234, 755265.984510652138852 ], [ 583776.622148767695762, 757059.168843959458172 ] ] ], [ [ [ 578245.698103906470351, 758843.908010951825418 ], [ 577138.342512205825187, 758842.283529182313941 ], [ 577150.334198332740925, 762428.726175726857036 ], [ 578257.661333095515147, 762430.358617811813019 ], [ 578260.660900533781387, 763326.986752031021751 ], [ 580475.307956802658737, 763330.325504027307034 ], [ 580469.340850700973533, 761537.067309646168724 ], [ 579362.001872857683338, 761535.390376349445432 ], [ 579350.081083394354209, 757948.95642837556079 ], [ 578242.716057008947246, 757947.310804610373452 ], [ 578245.698103906470351, 758843.908010951825418 ] ] ], [ [ [ 574938.70779424381908, 763322.153338673058897 ], [ 573831.394620434497483, 763320.588790472480468 ], [ 573828.366511571919546, 762423.968455255148001 ], [ 572721.048411370604299, 762422.429082887829281 ], [ 572724.083655544091016, 763319.047536664525978 ], [ 571616.774866437539458, 763317.529577015317045 ], [ 571622.870289493119344, 765110.781402579625137 ], [ 572730.164782622363418, 765112.303071254165843 ], [ 572733.21066542621702, 766008.940166920074262 ], [ 573840.500173613894731, 766010.487066632485949 ], [ 573837.461451506358571, 765113.84808873408474 ], [ 574944.760329276323318, 765115.416455254890025 ], [ 574938.70779424381908, 763322.153338673058897 ] ] ], [ [ [ 571622.870289493119344, 765110.781402579625137 ], [ 570515.577938988339156, 765109.283082479028963 ], [ 570518.63814314303454, 766005.916495650424622 ], [ 569411.355062790331431, 766004.439723633462563 ], [ 569417.500506855896674, 767797.721640949486755 ], [ 571632.040083615109324, 767800.705817936686799 ], [ 571622.870289493119344, 765110.781402579625137 ] ] ], [ [ [ 573858.806795058888383, 771390.452004753984511 ], [ 574966.055370115558617, 771392.03374373994302 ], [ 574969.111634722677991, 772288.718392641399987 ], [ 573861.870279623311944, 772287.134742239373736 ], [ 573864.937301477068104, 773183.823760816012509 ], [ 574972.171428154339083, 773185.409322901279666 ], [ 574975.234750358737074, 774082.106541951885447 ], [ 576082.463881982141174, 774083.717638510977849 ], [ 576067.218659084639512, 769600.284663138794713 ], [ 573852.690438003162853, 769597.10534333169926 ], [ 573858.806795058888383, 771390.452004753984511 ] ] ], [ [ [ 573864.937301477068104, 773183.823760816012509 ], [ 572757.705383536987938, 773182.261793688754551 ], [ 572763.864521113457158, 774975.654934325953946 ], [ 574978.301601284416392, 774978.810057225869969 ], [ 574975.234750358737074, 774082.106541951885447 ], [ 573868.007860568817705, 774080.519067916320637 ], [ 573864.937301477068104, 773183.823760816012509 ] ] ] ] } }
]
}
