{
"type": "FeatureCollection",
"name": "urban-1975",
"crs": { "type": "name", "properties": { "name": "urn:ogc:def:crs:EPSG::32721" } },
"features": [
{ "type": "Feature", "properties": { "year": 1975 }, "geometry": { "type": "MultiPolygon", "coordinates": [ [ [ [ 341948.056596829555929, 6119025.568502215668559 ], [ 340917.764410926494747, 6119007.601925516501069 ], [ 340577.595160135184415, 6118033.419537683017552 ], [ 338517.085140689392574, 6117997.048414703458548 ], [ 338857.173664700181689, 6118971.318261653184891 ], [ 337826.875076958327554, 6118953.001170192845166 ], [ 338506.744708523794543, 6120901.453123152256012 ], [ 340567.501103740185499, 6120937.795619325712323 ], [ 340907.403206787770614, 6121911.846701798960567 ], [ 341937.818533545942046, 6121929.799158377572894 ], [ 341257.858060093305539, 6119981.725965363904834 ], [ 342288.190601575013716, 6119999.648887747898698 ], [ 341948.056596829555929, 6119025.568502215668559 ] ] ], [ [ [ 321607.060441833222285, 6134137.17080301232636 ], [ 323669.037915138178505, 6134177.185053953900933 ], [ 322992.810443740687333, 6132228.704686862416565 ], [ 320930.993397501646541, 6132188.514891499653459 ], [ 321607.060441833222285, 6134137.17080301232636 ] ] ], [ [ [ 347934.162743373541161, 6156855.436568677425385 ], [ 348966.031907708267681, 6156872.418029878288507 ], [ 348629.014184932573698, 6155900.269534603692591 ], [ 347597.18489222007338, 6155883.245429951697588 ], [ 347934.162743373541161, 6156855.436568677425385 ] ] ], [ [ [ 308884.671715021017008, 6174490.448405228555202 ], [ 308550.874482643208466, 6173517.454740037210286 ], [ 309583.561830735357944, 6173538.74420689791441 ], [ 308581.599936519050971, 6170619.547137651592493 ], [ 305483.885671943076886, 6170554.941989686340094 ], [ 305149.866488666681107, 6169581.630326567217708 ], [ 303084.789313176763244, 6169537.896199033595622 ], [ 303418.729405425721779, 6170511.294995214790106 ], [ 304451.308890528511256, 6170533.176183762028813 ], [ 305119.042501843650825, 6172479.712964305654168 ], [ 303053.722716858203057, 6172436.009399864822626 ], [ 303720.997414513316471, 6174382.488855784758925 ], [ 304753.7376594740781, 6174404.311296617612243 ], [ 305420.790447045699693, 6176350.472657165490091 ], [ 306453.606937958975323, 6176372.093007236719131 ], [ 306120.078689801972359, 6175399.084589972160757 ], [ 308185.624676761159208, 6175442.066376001574099 ], [ 307851.942211204965133, 6174469.087021122686565 ], [ 308884.671715021017008, 6174490.448405228555202 ] ] ], [ [ [ 327614.045691555831581, 6193203.990774316713214 ], [ 327281.208066646475345, 6192232.597047400660813 ], [ 326247.799811238888651, 6192213.387674332596362 ], [ 327578.540042591805104, 6196098.792956052348018 ], [ 328612.105453164316714, 6196117.832770260050893 ], [ 327946.80780083197169, 6194175.327945224940777 ], [ 328980.29224071308272, 6194194.337833235040307 ], [ 328647.490833503543399, 6193223.043038157746196 ], [ 327614.045691555831581, 6193203.990774316713214 ] ] ], [ [ [ 340314.13661420281278, 6197290.412735630758107 ], [ 338246.976391379022971, 6197254.823209363035858 ], [ 338912.527458939002827, 6199196.23129746876657 ], [ 339946.187245791894384, 6199213.999375456944108 ], [ 339613.410270107677206, 6198243.36533884704113 ], [ 340647.028531430580188, 6198261.060872001573443 ], [ 340314.13661420281278, 6197290.412735630758107 ] ] ], [ [ [ 336808.940487195388414, 6202054.309618846513331 ], [ 335775.153842246392742, 6202036.209661837667227 ], [ 336107.432071811519563, 6203006.829312241636217 ], [ 335073.603905482857954, 6202988.656939736567438 ], [ 335405.767321273509879, 6203959.262517690658569 ], [ 338507.362465203390457, 6204013.310748158954084 ], [ 337510.292541087430436, 6201101.703406143933535 ], [ 336476.547421360271983, 6201083.675890231505036 ], [ 336808.940487195388414, 6202054.309618846513331 ] ] ], [ [ [ 321843.999734888318926, 6212392.612486709840596 ], [ 320809.739134166680742, 6212372.918588599190116 ], [ 321471.15034707862651, 6214314.381587559357285 ], [ 323539.825061203853693, 6214353.486801355145872 ], [ 323209.079173429578077, 6213382.867584269493818 ], [ 322174.782087264815345, 6213363.329921141266823 ], [ 321843.999734888318926, 6212392.612486709840596 ] ] ], [ [ [ 321097.840573332912754, 6216235.980589427053928 ], [ 322132.259702155599371, 6216255.620090601965785 ], [ 321471.15034707862651, 6214314.381587559357285 ], [ 320436.809183975798078, 6214294.657888210378587 ], [ 320767.362607253307942, 6215265.347297253087163 ], [ 319732.979901371349115, 6215245.55167652014643 ], [ 319071.875586107489653, 6213304.032386969774961 ], [ 318037.568289185292087, 6213284.038352726027369 ], [ 318698.594626884383615, 6215225.642017775215209 ], [ 317664.206769078737125, 6215205.618318622000515 ], [ 317994.567823108751327, 6216176.378037560731173 ], [ 316960.138402703567408, 6216156.282496189698577 ], [ 317620.556335595611017, 6218097.717770552262664 ], [ 316586.04641865962185, 6218077.592581726610661 ], [ 316916.103327158954926, 6219048.268150249496102 ], [ 315881.5518696133513, 6219028.071169320493937 ], [ 316211.494451812293846, 6219998.732756819576025 ], [ 319315.257733061036561, 6220058.855583466589451 ], [ 318985.198411103454418, 6219088.320321667008102 ], [ 322088.821680445573293, 6219147.544138737022877 ], [ 321097.840573332912754, 6216235.980589427053928 ] ] ], [ [ [ 315551.533883376454469, 6218057.353432768955827 ], [ 314517.018715001526289, 6218037.000321246683598 ], [ 314846.99778201332083, 6219007.760255004279315 ], [ 315881.5518696133513, 6219028.071169320493937 ], [ 315551.533883376454469, 6218057.353432768955827 ] ] ], [ [ [ 314755.706190801807679, 6224790.683381350710988 ], [ 315790.498808295582421, 6224810.969272057525814 ], [ 314801.809203446493484, 6221899.404777138493955 ], [ 311697.773015831131488, 6221837.826604863628745 ], [ 312027.295032624329906, 6222808.530641845427454 ], [ 310992.572077676886693, 6222787.819093473255634 ], [ 311321.979887782013975, 6223758.509171366691589 ], [ 310287.215385498479009, 6223737.726012527942657 ], [ 309957.846416133223101, 6222766.993713648989797 ], [ 308923.118033204693347, 6222746.054499866440892 ], [ 309581.702964916359633, 6224687.547393734566867 ], [ 310616.509011251328047, 6224708.402137396857142 ], [ 311274.870212624489795, 6226649.586014485917985 ], [ 314379.505000017466955, 6226711.214904820546508 ], [ 314050.245653308636975, 6225740.77731924969703 ], [ 315085.079752618912607, 6225761.134902653284371 ], [ 314755.706190801807679, 6224790.683381350710988 ] ] ], [ [ [ 388662.082082490902394, 6106161.911492513492703 ], [ 386602.810379653470591, 6106136.351734345778823 ], [ 386945.951580257737078, 6107109.169826177880168 ], [ 385916.272807621571701, 6107096.256915571168065 ], [ 386602.245462072838563, 6109041.806493147276342 ], [ 388661.764178286422975, 6109067.344643176533282 ], [ 388318.73459615802858, 6108094.683750250376761 ], [ 389348.451072762487456, 6108107.31980403047055 ], [ 388662.082082490902394, 6106161.911492513492703 ] ] ], [ [ [ 368727.916222681873478, 6122355.590234840288758 ], [ 369409.672519917134196, 6124301.185141054913402 ], [ 371470.558669268037193, 6124330.499249156564474 ], [ 371811.403660820622463, 6125303.125226265750825 ], [ 372841.884533136500977, 6125317.564642490819097 ], [ 371477.887163402687293, 6121426.887851566076279 ], [ 369417.246905851818155, 6121397.550461694598198 ], [ 369758.279373209748883, 6122370.391182627528906 ], [ 368727.916222681873478, 6122355.590234840288758 ] ] ], [ [ [ 375933.316990692866966, 6125360.18326367251575 ], [ 375592.310443502734415, 6124387.727841384708881 ], [ 374561.875031071424019, 6124373.59564205724746 ], [ 374902.841184290591627, 6125346.093659503385425 ], [ 375933.316990692866966, 6125360.18326367251575 ] ] ], [ [ [ 374545.171524037315976, 6130179.623834138736129 ], [ 374204.666126637719572, 6129207.326170984655619 ], [ 375235.306724129826762, 6129221.478681365959346 ], [ 374894.68498283775989, 6128249.166497495956719 ], [ 375925.283563123259228, 6128263.245019092224538 ], [ 374902.841184290591627, 6125346.093659503385425 ], [ 372841.884533136500977, 6125317.564642490819097 ], [ 373182.693922525388189, 6126290.090733472257853 ], [ 372152.17267849255586, 6126275.693968215025961 ], [ 373514.488914410525467, 6130165.397360101342201 ], [ 374545.171524037315976, 6130179.623834138736129 ] ] ], [ [ [ 399248.290308404248208, 6142092.750377140939236 ], [ 399928.855925161973573, 6144034.14088842831552 ], [ 401991.283412031712942, 6144056.419981265440583 ], [ 401650.958296918659471, 6143085.835605724714696 ], [ 402682.129801908740774, 6143096.842542454600334 ], [ 402341.688103345222771, 6142126.243795376271009 ], [ 406466.200035853486042, 6142169.276589257642627 ], [ 406125.520916092209518, 6141198.78766527492553 ], [ 408187.688660063024145, 6141219.690270502120256 ], [ 407846.852569440612569, 6140249.228315838612616 ], [ 415064.119075053953566, 6140319.018947983160615 ], [ 415746.27910141547909, 6142259.310183815658092 ], [ 413684.047659648582339, 6142240.115188865922391 ], [ 414024.932339173334185, 6143210.259830705821514 ], [ 417118.39867478935048, 6143238.754986861720681 ], [ 417459.327734050690196, 6144208.721025111153722 ], [ 418490.521206160658039, 6144217.946351110935211 ], [ 418149.551853523473255, 6143248.021304693073034 ], [ 419180.703922318760306, 6143257.171590593643486 ], [ 418839.617736007086933, 6142287.232206775806844 ], [ 419870.728395922575146, 6142296.307427011430264 ], [ 419529.52535294072004, 6141326.353701058775187 ], [ 422622.729875936172903, 6141353.005830252543092 ], [ 422281.329260821803473, 6140383.119667673483491 ], [ 423312.354968754283618, 6140391.812452876009047 ], [ 422970.837419569434132, 6139421.91194309014827 ], [ 421939.852075503848027, 6139413.178214977495372 ], [ 421598.29832446645014, 6138443.181434292346239 ], [ 417474.507716300024185, 6138406.92090985365212 ], [ 416791.493604816030711, 6136466.432473490014672 ], [ 417822.362139008881059, 6136475.7541354727 ], [ 417480.699927945039235, 6135505.467769596725702 ], [ 419542.352880278893281, 6135523.844678353518248 ], [ 419200.533330360194668, 6134553.585079606622458 ], [ 420231.317752919450868, 6134562.640273170545697 ], [ 419889.381240676972084, 6133592.366283454932272 ], [ 420920.124153438606299, 6133601.34632028453052 ], [ 420578.070655849005561, 6132631.057934882119298 ], [ 419547.368189705593977, 6132622.036737937480211 ], [ 418863.112489639141131, 6130681.210827238857746 ], [ 416801.866129827452824, 6130662.654402190819383 ], [ 417143.95131559332367, 6131633.17770454287529 ], [ 416113.286006638663821, 6131623.766196473501623 ], [ 415771.241279696696438, 6130653.201585368253291 ], [ 413709.98816976044327, 6130633.946737519465387 ], [ 413367.947883239539806, 6129663.243596788495779 ], [ 411306.771049641189165, 6129643.440240751951933 ], [ 410964.735240525682457, 6128672.598292318172753 ], [ 407873.082402281230316, 6128641.895339235663414 ], [ 408214.996831553231459, 6129612.861919913440943 ], [ 407184.402978808560874, 6129602.436265002936125 ], [ 405816.448778848687652, 6125718.066847841255367 ], [ 403755.58103892125655, 6125696.532673561014235 ], [ 403413.482538351498079, 6124725.216365366242826 ], [ 401352.690617868443951, 6124703.132292698137462 ], [ 401694.708143718598876, 6125674.532256200909615 ], [ 402725.145242624799721, 6125685.590745912864804 ], [ 403409.032254218473099, 6127628.138134174048901 ], [ 404439.548993011761922, 6127638.996529024094343 ], [ 404781.418437293497846, 6128610.144153077155352 ], [ 405811.97435163159389, 6128620.844354208558798 ], [ 406495.56502980570076, 6130562.887898750603199 ], [ 407526.200565801234916, 6130573.388396824710071 ], [ 407867.92175840435084, 6131544.284516252577305 ], [ 404775.890103365411051, 6131512.558567363768816 ], [ 404434.290174369001761, 6130541.537656114436686 ], [ 403403.650827244622633, 6130530.687909020110965 ], [ 404769.430762029602192, 6134414.601735243573785 ], [ 405800.231692753906827, 6134425.285048954188824 ], [ 406482.744208421499934, 6136366.822875523008406 ], [ 403390.095413956092671, 6136334.67328648455441 ], [ 403048.998398304684088, 6135363.807745411992073 ], [ 402018.153221082757227, 6135352.817134970799088 ], [ 403041.094218793383334, 6138265.370552444830537 ], [ 402010.126737953571137, 6138254.388415465131402 ], [ 402350.914077693014406, 6139225.169176692143083 ], [ 400288.894533600192517, 6139202.939452672377229 ], [ 399948.187790018273517, 6138232.075561159290373 ], [ 398917.216295077232644, 6138220.744841180741787 ], [ 399257.882746089424472, 6139191.650341175496578 ], [ 398226.869596358970739, 6139180.245061572641134 ], [ 398907.893038041773252, 6141121.97124988771975 ], [ 397876.797977457987145, 6141110.533040234819055 ], [ 398217.154998367710505, 6142081.353740641847253 ], [ 399248.290308404248208, 6142092.750377140939236 ] ], [ [ 401310.556846930761822, 6142115.195403172634542 ], [ 400970.079066653444897, 6141144.499335547909141 ], [ 402001.170062586548738, 6141155.58921423368156 ], [ 402341.688103345222771, 6142126.243795376271009 ], [ 401310.556846930761822, 6142115.195403172634542 ] ], [ [ 406489.620146756526083, 6133465.040769947692752 ], [ 406148.132555122603662, 6132494.17351939715445 ], [ 407178.850178127468098, 6132504.707269130274653 ], [ 407520.378167116898112, 6133475.532984651625156 ], [ 406489.620146756526083, 6133465.040769947692752 ] ] ], [ [ [ 398226.869596358970739, 6139180.245061572641134 ], [ 397886.24343425600091, 6138209.297924194484949 ], [ 395824.293559291749261, 6138186.05549374781549 ], [ 396164.839154510991648, 6139157.085992604494095 ], [ 398226.869596358970739, 6139180.245061572641134 ] ] ], [ [ [ 356292.887221126933582, 6139585.211317325010896 ], [ 355953.985678815748543, 6138612.589423604309559 ], [ 354922.902738218777813, 6138596.303688957355917 ], [ 355261.764148201793432, 6139568.968406951054931 ], [ 356292.887221126933582, 6139585.211317325010896 ] ] ], [ [ [ 392721.301653649890795, 6141051.600268922746181 ], [ 393752.403767703101039, 6141063.619057572446764 ], [ 392390.857154393917881, 6137179.108343029394746 ], [ 391359.916085090197157, 6137166.922372993081808 ], [ 392040.76131116785109, 6139109.373776799067855 ], [ 389978.713686770410277, 6139084.820607280358672 ], [ 390318.941471155965701, 6140056.045594580471516 ], [ 389287.875190068851225, 6140043.636605955660343 ], [ 390307.980653551174328, 6142957.099623563699424 ], [ 392370.353065408184193, 6142981.550708779133856 ], [ 392030.313687658053823, 6142010.536106654442847 ], [ 393061.457481932244264, 6142022.629268705844879 ], [ 392721.301653649890795, 6141051.600268922746181 ] ] ], [ [ [ 360371.071183649357408, 6148351.978413952514529 ], [ 359356.066127225058153, 6145435.61177103035152 ], [ 358324.704440184403211, 6145419.741185773164034 ], [ 360015.80011771019781, 6150280.280268099159002 ], [ 361047.361936045344919, 6150295.938277026638389 ], [ 360709.25449156598188, 6149323.986776420846581 ], [ 361740.774410649435595, 6149339.57132338359952 ], [ 361402.551085294457152, 6148367.605416066013277 ], [ 360371.071183649357408, 6148351.978413952514529 ] ] ], [ [ [ 327542.116727674147114, 6198993.226349825039506 ], [ 328575.802293908200227, 6199012.253816584125161 ], [ 328908.071985845337622, 6199983.294666493311524 ], [ 327874.347200446180068, 6199964.309450695291162 ], [ 328206.502148032886907, 6200935.336198760196567 ], [ 331307.786909798451234, 6200991.821858774870634 ], [ 330975.514331580896396, 6200020.921684702858329 ], [ 332009.231921033060644, 6200039.563491629436612 ], [ 331676.844552864844445, 6199068.649219742976129 ], [ 333744.194171191193163, 6199105.673680111765862 ], [ 334076.660005898040254, 6200076.503712316974998 ], [ 337177.784616485703737, 6200131.055593572556973 ], [ 337510.292541087430436, 6201101.703406143933535 ], [ 338544.03536728292238, 6201119.616497012786567 ], [ 338211.488207129528746, 6200149.010642794892192 ], [ 339245.189515600213781, 6200166.851240022107959 ], [ 338912.527458939002827, 6199196.23129746876657 ], [ 336845.201058187987655, 6199160.351702488027513 ], [ 336179.807059555314481, 6197218.775534447282553 ], [ 337213.392871357675176, 6197236.856641562655568 ], [ 336880.543156858999282, 6196266.026369664818048 ], [ 339981.169029427343048, 6196319.708529930561781 ], [ 339315.006876248458866, 6194378.131760115735233 ], [ 342415.376579375239089, 6194431.034745598211884 ], [ 342748.613456405466422, 6195401.72521542571485 ], [ 343782.10490639298223, 6195419.08837582077831 ], [ 343448.828699087782297, 6194448.439843595027924 ], [ 344482.278618973796256, 6194465.730329831130803 ], [ 344148.887364723486826, 6193495.067676529288292 ], [ 345182.295750486315228, 6193512.285463035106659 ], [ 344848.789426742703654, 6192541.608683002181351 ], [ 348982.243897903885227, 6192609.500953583978117 ], [ 348648.504334210650995, 6191638.935692540369928 ], [ 349681.823228052817285, 6191655.663936671800911 ], [ 349347.968503876472823, 6190685.084542036987841 ], [ 348314.689011242473498, 6190668.314441714435816 ], [ 347646.83110638463404, 6188726.903820188716054 ], [ 348680.031760578975081, 6188743.757724557071924 ], [ 348345.949750909814611, 6187773.010226409882307 ], [ 350412.265835064463317, 6187806.457530013285577 ], [ 350078.029164653038606, 6186835.737791739404202 ], [ 351111.144601600652095, 6186852.331138363108039 ], [ 351445.420731136400718, 6187823.008985374122858 ], [ 352478.573549117776565, 6187839.445645755156875 ], [ 352812.813340679567773, 6188810.025643033906817 ], [ 351779.621072266250849, 6188793.630814282223582 ], [ 352447.794370450312272, 6190734.706568377092481 ], [ 351414.521169015672058, 6190718.280603379011154 ], [ 352082.312446754833218, 6192659.216244071722031 ], [ 354149.014408725721296, 6192691.786509320139885 ], [ 353815.077865846978966, 6191721.430085996165872 ], [ 354848.386363278375939, 6191737.584926378913224 ], [ 354514.334583374438807, 6190767.214376864954829 ], [ 356580.866639479994774, 6190799.263369640335441 ], [ 356246.660163469670806, 6189828.920371796935797 ], [ 358313.10529542324366, 6189860.593843908980489 ], [ 357978.744066666986328, 6188890.278366202488542 ], [ 359011.924189772922546, 6188905.98464017547667 ], [ 358677.447625493339729, 6187935.655022762715816 ], [ 361776.857778775622137, 6187982.210135417059064 ], [ 361442.186874442966655, 6187011.949603612534702 ], [ 362475.280209446849767, 6187027.279992091469467 ], [ 362140.493893616134301, 6186057.005312727764249 ], [ 363173.545794494042639, 6186072.262471552938223 ], [ 362838.644044520100579, 6185101.973639193922281 ], [ 363871.654506913677324, 6185117.157542750239372 ], [ 363536.63730014115572, 6184146.854551965370774 ], [ 364569.606319668004289, 6184161.965174639597535 ], [ 364234.473633439512923, 6183191.648020004853606 ], [ 365267.401205701869912, 6183206.685336189344525 ], [ 364596.82888908154564, 6181265.966903373599052 ], [ 365629.675424797576852, 6181280.972497842274606 ], [ 364958.720161546720192, 6179340.114086928777397 ], [ 367024.249201802769676, 6179369.946824720129371 ], [ 366688.578409266483504, 6178399.517154585570097 ], [ 367721.300517071504146, 6178414.302604112774134 ], [ 367385.514124415931292, 6177443.858736142516136 ], [ 369450.87354251916986, 6177473.167692631483078 ], [ 369114.931865221762564, 6176502.751240065321326 ], [ 370147.569181876024231, 6176517.274694215506315 ], [ 369811.511843664280605, 6175546.84403476305306 ], [ 371876.701719115138985, 6175575.628790970891714 ], [ 371540.489001165318768, 6174605.22551229596138 ], [ 374638.14141129469499, 6174647.663795754313469 ], [ 374301.733538057887927, 6173677.329403719864786 ], [ 375334.241124650929123, 6173691.286699881777167 ], [ 374997.717476078541949, 6172720.938090139068663 ], [ 376030.183598155213986, 6172734.821716576814651 ], [ 375693.544151509646326, 6171764.458883847109973 ], [ 376725.968804402102251, 6171778.268814988434315 ], [ 376052.382206204230897, 6169837.458915791474283 ], [ 377084.725604946957901, 6169851.236669793725014 ], [ 376747.77842334919842, 6168880.789591049775481 ], [ 377780.080328061361797, 6168894.493600400164723 ], [ 377443.017272853991017, 6167924.032275868579745 ], [ 378475.277678803773597, 6167937.66251502558589 ], [ 377800.843695110583212, 6165996.655527813360095 ], [ 378833.022758965671528, 6166010.253551071509719 ], [ 378495.651800414139871, 6165039.707876114174724 ], [ 379527.789340526505839, 6165053.232079919427633 ], [ 378515.10035038436763, 6162141.384547488763928 ], [ 379547.116587080177851, 6162154.918165689334273 ], [ 379209.36151636717841, 6161184.232120383530855 ], [ 382305.280613444687333, 6161224.264753043651581 ], [ 381967.329681094211992, 6160253.647683322429657 ], [ 384031.187773553770967, 6160279.841565798968077 ], [ 383693.080831138242502, 6159309.251794341951609 ], [ 385756.852652297995519, 6159335.066520657390356 ], [ 385418.589642458420713, 6158364.504017148166895 ], [ 386450.433225954417139, 6158377.27953196875751 ], [ 386788.736205370456446, 6159347.800498649477959 ], [ 388852.49866721383296, 6159372.921691903844476 ], [ 387837.121301799255889, 6156461.44038600474596 ], [ 388868.880262022896204, 6156473.952046932652593 ], [ 388530.228748379508033, 6155503.38816748932004 ], [ 389561.946167667454574, 6155515.82567173242569 ], [ 389223.17843028716743, 6154545.247477822005749 ], [ 390254.854303616797552, 6154557.610799891874194 ], [ 389915.970319656364154, 6153587.018286416307092 ], [ 391979.237474568304606, 6153611.480762515217066 ], [ 391640.197154863446485, 6152640.915443974547088 ], [ 392671.788441844051704, 6152653.014545058831573 ], [ 392332.63181432208512, 6151682.434898786246777 ], [ 393364.181550604873337, 6151694.459713786840439 ], [ 393024.908592403866351, 6150723.865734723396599 ], [ 396119.42881481081713, 6150759.369745295494795 ], [ 395440.413445915211923, 6148818.263231797143817 ], [ 394408.988392491359264, 6148806.461427895352244 ], [ 394069.406449114670977, 6147835.782890571281314 ], [ 393038.020098545821384, 6147823.823637985624373 ], [ 392698.402056930062827, 6146853.047595554962754 ], [ 394761.093008476484101, 6146876.933331836014986 ], [ 394421.318400561925955, 6145906.184516879729927 ], [ 393390.013815144076943, 6145894.258031126111746 ], [ 392710.316215660015587, 6143952.509204799309373 ], [ 390647.863407094730064, 6143928.141575502231717 ], [ 390307.980653551174328, 6142957.099623563699424 ], [ 386183.217871084110811, 6142906.804642926901579 ], [ 386522.939874156436417, 6143878.013853937387466 ], [ 385491.705176906601992, 6143865.191818419843912 ], [ 385152.023352564894594, 6142893.940720272250473 ], [ 384120.827276946045458, 6142880.960723580792546 ], [ 383781.109496137825772, 6141909.611354963853955 ], [ 384812.265384560101666, 6141922.633298791944981 ], [ 384132.521036275080405, 6139979.849332727491856 ], [ 382070.368498654454015, 6139953.521307683549821 ], [ 383089.629630255396478, 6142867.864651306532323 ], [ 381027.229567786911502, 6142841.324273776262999 ], [ 381706.195756771368906, 6144784.105737160891294 ], [ 380674.913002744491678, 6144770.745461637154222 ], [ 381014.241804926306941, 6145742.093587661162019 ], [ 379982.917297283245716, 6145728.659287074580789 ], [ 380322.129880141583271, 6146699.993017219007015 ], [ 379290.763623881037347, 6146686.484716903418303 ], [ 378951.591159161704127, 6145715.108989926055074 ], [ 377920.263376560702454, 6145701.442694609984756 ], [ 377581.054964860901237, 6144729.968485029414296 ], [ 376549.76564700313611, 6144716.144104088656604 ], [ 375531.804531045549084, 6141801.255907753482461 ], [ 376562.973407013399992, 6141815.206732457503676 ], [ 375883.872146681533195, 6139871.749244011938572 ], [ 377946.044165359751787, 6139899.471276176162064 ], [ 377606.299081523669884, 6138927.741978235542774 ], [ 376575.254107182146981, 6138913.896833965554833 ], [ 375895.6162270680652, 6136970.183688256889582 ], [ 376926.580760469252709, 6136984.113354369997978 ], [ 376246.55826646857895, 6135040.257770048454404 ], [ 375215.674222283996642, 6135026.243457546457648 ], [ 374535.428130821790546, 6133082.075833607465029 ], [ 375566.231637466524262, 6133096.17491714656353 ], [ 375225.954284220060799, 6132124.048168571665883 ], [ 373164.42615215992555, 6132095.648732699453831 ], [ 373504.622934993472882, 6133067.860374884679914 ], [ 372473.816036115866154, 6133053.528539288789034 ], [ 372813.896550879231654, 6134025.725683961063623 ], [ 371783.047670457977802, 6134011.319957965053618 ], [ 372123.011939968564548, 6134983.502610401250422 ], [ 371092.121082993980963, 6134969.023019166663289 ], [ 371771.741199075244367, 6136913.302415737882257 ], [ 370740.768148953735363, 6136898.791437145322561 ], [ 371420.003926860925276, 6138842.928062411956489 ], [ 370388.948731594078708, 6138828.385686252266169 ], [ 371746.3478309904458, 6142716.146412662230432 ], [ 370715.130241929087788, 6142701.657307987101376 ], [ 371054.249930435966235, 6143673.497868651524186 ], [ 368991.729230183700565, 6143644.256039848551154 ], [ 368652.689791896496899, 6142672.330806184560061 ], [ 365559.015727587917354, 6142627.470296088606119 ], [ 365220.020724703674205, 6141655.36092154122889 ], [ 364188.832532387343235, 6141640.132710833102465 ], [ 363849.801753841922618, 6140667.923854768276215 ], [ 364880.949811930244323, 6140683.194594852626324 ], [ 364202.580275880289264, 6138738.690930870361626 ], [ 361109.371453106519766, 6138692.274581065401435 ], [ 360770.193341378297191, 6137719.809211069718003 ], [ 358708.125079942634329, 6137688.198394554667175 ], [ 358368.951456499868073, 6136715.590313212946057 ], [ 357337.954636171460152, 6136699.567716123536229 ], [ 356998.745366196031682, 6135726.859503272920847 ], [ 355967.786795405903831, 6135710.6777552831918 ], [ 355628.541904877114575, 6134737.869280690327287 ], [ 354597.62157546763774, 6134721.528290475718677 ], [ 354258.341090413043275, 6133748.619423834607005 ], [ 353227.458994283166248, 6133732.119100023061037 ], [ 352888.142940782476217, 6132759.109710946679115 ], [ 353918.98483141255565, 6132775.653046241030097 ], [ 353579.552803346188739, 6131802.62911884021014 ], [ 351517.947474070300814, 6131769.33992013707757 ], [ 352196.574921068386175, 6133715.50239179469645 ], [ 351165.688856901891995, 6133698.769297170452774 ], [ 351504.848771653196309, 6134671.807191910222173 ], [ 352535.775022735178936, 6134688.497248047962785 ], [ 352874.899369995342568, 6135661.434569728560746 ], [ 353905.863811195187736, 6135677.965290455147624 ], [ 354244.952564853650983, 6136650.802169456146657 ], [ 355275.955204246856738, 6136667.17364616971463 ], [ 355953.985678815748543, 6138612.589423604309559 ], [ 356985.066672273445874, 6138628.758921317756176 ], [ 357324.008350144140422, 6139601.338019861839712 ], [ 358355.127549185301177, 6139617.34851647913456 ], [ 358694.033538410323672, 6140589.827632845379412 ], [ 357662.874212729162537, 6140573.859871163032949 ], [ 358340.378472698270343, 6142518.731986627914011 ], [ 359371.618015193787869, 6142534.614371845498681 ], [ 359710.296493103029206, 6143506.922071684151888 ], [ 360741.574222811963409, 6143522.645727649331093 ], [ 361757.274764432746451, 6146439.098960304632783 ], [ 362788.670822651591152, 6146454.578966724686325 ], [ 363803.808613281347789, 6149370.392679253593087 ], [ 362772.292446543113329, 6149355.039957047440112 ], [ 363448.591471061226912, 6151298.71655841358006 ], [ 362416.993429954978637, 6151283.332683883607388 ], [ 362754.989114345400594, 6152255.128213806077838 ], [ 361723.349215545284096, 6152239.670846206136048 ], [ 362399.032983910758048, 6154183.176428348757327 ], [ 361367.31127845053561, 6154167.687922172248363 ], [ 362042.611626465572044, 6156111.051389263011515 ], [ 361010.808161897468381, 6156095.531735017895699 ], [ 360673.235854053637013, 6155123.836036533117294 ], [ 357577.933749554795213, 6155076.455710114911199 ], [ 356227.365283908206038, 6151188.596412650309503 ], [ 354164.140364832943305, 6151156.090744050219655 ], [ 353488.561149862944148, 6149211.649217704311013 ], [ 352457.025660071871243, 6149195.137296391651034 ], [ 351105.117964517441578, 6145305.398048627190292 ], [ 352136.493416091892868, 6145322.080907525494695 ], [ 351798.287072583916597, 6144349.545843169093132 ], [ 350766.951660984428599, 6144332.820172164589167 ], [ 349751.998316979734227, 6141414.742569990456104 ], [ 348720.781063342117704, 6141397.772112569771707 ], [ 348382.351905999938026, 6140424.921826239675283 ], [ 347351.172685739293229, 6140407.792208533734083 ], [ 347012.707912567711901, 6139434.841407204046845 ], [ 348043.84703821351286, 6139452.014050951227546 ], [ 347705.266464873799123, 6138479.048747934401035 ], [ 346674.167446065926924, 6138461.833046967163682 ], [ 345996.859452684759162, 6136515.643494507297873 ], [ 344965.838605575321708, 6136498.225272370502353 ], [ 344627.111228935071267, 6135525.000822464004159 ], [ 343596.128426565672271, 6135507.423075979575515 ], [ 344273.427251124987379, 6137453.9006562018767 ], [ 345304.490315853967331, 6137471.3920156378299 ], [ 345643.066354852751829, 6138444.501091146841645 ], [ 344611.963177315425128, 6138427.052878411486745 ], [ 344950.423439551785123, 6139400.147440513595939 ], [ 345981.56671765766805, 6139417.552537743002176 ], [ 346996.613699845620431, 6142336.361492151394486 ], [ 348027.875132506072987, 6142353.521289573982358 ], [ 348366.112796319648623, 6143326.299646775238216 ], [ 347334.81130883959122, 6143309.182811060920358 ], [ 348348.949912179261446, 6146227.302312169224024 ], [ 349380.37149092333857, 6146244.290449487045407 ], [ 349718.306273937225342, 6147216.83942293561995 ], [ 348686.844689152319916, 6147199.894122880883515 ], [ 349024.663745939324144, 6148172.428653145208955 ], [ 350056.165324584988412, 6148189.33114701602608 ], [ 350393.948638008674607, 6149161.765660300850868 ], [ 348330.863465772126801, 6149127.930286318063736 ], [ 348668.491101282241289, 6150100.39314459823072 ], [ 347636.905460634850897, 6150083.344353168271482 ], [ 347974.417422590660863, 6151055.792786890640855 ], [ 345911.16000548255397, 6151021.433097624219954 ], [ 346248.516384116373956, 6151993.909910815767944 ], [ 343153.49468464194797, 6151941.629794012755156 ], [ 343827.740902635501698, 6153886.66868438385427 ], [ 342795.982937690743711, 6153869.095991494134068 ], [ 343132.952662393450737, 6154841.572397504933178 ], [ 342101.152669147355482, 6154823.926748370751739 ], [ 342438.006864247960038, 6155796.388754050247371 ], [ 341406.164847076055594, 6155778.670173848047853 ], [ 341742.903535209828988, 6156751.117784828878939 ], [ 339679.133280660840683, 6156715.419086428359151 ], [ 340015.716650288319215, 6157687.895153872668743 ], [ 337951.857956060441211, 6157651.819320525974035 ], [ 337278.774936508852988, 6155706.638299349695444 ], [ 336246.921927910705563, 6155688.340931570157409 ], [ 334900.00827807240421, 6151797.11799986474216 ], [ 333868.312487049493939, 6151778.53258535079658 ], [ 333531.435053713503294, 6150805.53991737216711 ], [ 334563.090949602192268, 6150824.168480187654495 ], [ 333889.029627946438268, 6148878.096626087091863 ], [ 332857.453559086192399, 6148859.381673434749246 ], [ 332520.349507686914876, 6147886.216020023450255 ], [ 330457.270382686692756, 6147848.351630350574851 ], [ 330794.294579335139133, 6148821.603854466229677 ], [ 329762.711640396504663, 6148802.540983652696013 ], [ 330436.45369024516549, 6150748.958747408352792 ], [ 331468.116438078926876, 6150767.93505322188139 ], [ 331804.91409025923349, 6151741.01410536468029 ], [ 332836.614429129869677, 6151759.831287926062942 ], [ 333173.376433386583813, 6152732.809517933055758 ], [ 334205.114371148636565, 6152751.467668933793902 ], [ 334541.840701080509461, 6153724.345206782221794 ], [ 333510.062895720358938, 6153705.730171154253185 ], [ 334856.053227245982271, 6157596.83778877556324 ], [ 335887.990380668314174, 6157615.28067315556109 ], [ 336224.338865962461568, 6158587.87106135673821 ], [ 335192.361906076897867, 6158569.471137288957834 ], [ 335864.752544509188738, 6160514.565836971625686 ], [ 334832.69375491165556, 6160496.13611806742847 ], [ 335168.735937952180393, 6161468.640442794188857 ], [ 334136.635117117257323, 6161450.13802489452064 ], [ 333464.554721576743759, 6159504.986193705350161 ], [ 331400.505290640518069, 6159467.462622310966253 ], [ 332072.426625404157676, 6161412.786393489688635 ], [ 331040.318926214065868, 6161393.937175527215004 ], [ 331376.126547805499285, 6162366.555993743240833 ], [ 330343.976788277737796, 6162347.634182803332806 ], [ 331015.285994710400701, 6164292.785749584436417 ], [ 327918.584377114195377, 6164235.58498315140605 ], [ 328254.00660184386652, 6165208.2037284206599 ], [ 326189.447659098310396, 6165169.578357914462686 ], [ 326524.715034518274479, 6166142.225787077099085 ], [ 325492.392306960478891, 6166122.782913768664002 ], [ 325827.544546060671564, 6167095.415997170843184 ], [ 320665.696290413674433, 6166996.685063559561968 ], [ 321000.574866651790217, 6167969.476220618002117 ], [ 319968.158222581609152, 6167949.426848350092769 ], [ 319633.319276196183637, 6166976.592514852061868 ], [ 318600.939774453174323, 6166956.384506584145129 ], [ 319939.684702901460696, 6170847.549528458155692 ], [ 322004.758098847989459, 6170887.504927677102387 ], [ 322339.334994256147183, 6171860.066370082087815 ], [ 323371.907576773723122, 6171879.828034358099103 ], [ 323037.291097518987954, 6170907.309615669772029 ], [ 327167.398762751661707, 6170985.375011909753084 ], [ 327502.173607403237838, 6171957.721627756953239 ], [ 328534.734111521625891, 6171976.906771816313267 ], [ 328199.919667968701106, 6171004.603033697232604 ], [ 331297.46818508108845, 6171061.595150420442224 ], [ 330627.375060387188569, 6169117.073271792382002 ], [ 332692.23719182703644, 6169154.66258583497256 ], [ 333027.40079453313956, 6170126.866474786773324 ], [ 336124.795630403212272, 6170182.256945718079805 ], [ 337130.189660901203752, 6173098.14228342846036 ], [ 336097.608129031723365, 6173079.922066795639694 ], [ 337102.202925993828103, 6175995.423293942585588 ], [ 335036.79554388683755, 6175958.892675970681012 ], [ 334367.299586907203775, 6174015.111712709069252 ], [ 335399.925265837227926, 6174033.51979504711926 ], [ 335065.024327265447937, 6173061.586597863584757 ], [ 332999.849856924905907, 6173024.569894320331514 ], [ 333669.417804039781913, 6174968.549963403493166 ], [ 332636.747945493785664, 6174949.954092374071479 ], [ 333305.934503217344172, 6176893.791767261922359 ], [ 332273.183217238984071, 6176875.165996609255672 ], [ 332941.988450114266016, 6178818.861394633539021 ], [ 331909.155783377995249, 6178800.205715723335743 ], [ 332577.579755935876165, 6180743.758954087272286 ], [ 330511.749408971518278, 6180706.272728074342012 ], [ 330177.654182972153649, 6179734.439342330209911 ], [ 329144.77496352000162, 6179715.481045313179493 ], [ 330146.715601662057452, 6182630.938533660024405 ], [ 328080.713200280559249, 6182592.932590082287788 ], [ 327746.887430907110684, 6181621.085043042898178 ], [ 326713.92209531867411, 6181601.866938453167677 ], [ 327381.419229900348, 6183545.590462947264314 ], [ 326348.372593102394603, 6183526.342681145295501 ], [ 326014.701212679850869, 6182554.466705217026174 ], [ 322915.665005541755818, 6182495.905447656288743 ], [ 323582.6957228234387, 6184439.856710070744157 ], [ 322549.599897471081931, 6184420.191811807453632 ], [ 322882.962667851592414, 6185392.124741517007351 ], [ 319783.542088470130693, 6185332.568696351721883 ], [ 320116.711257845396176, 6186304.572917770594358 ], [ 321149.893328571808524, 6186324.497081791982055 ], [ 321483.026444745832123, 6187296.401592437177896 ], [ 322516.245386572147254, 6187316.168162377551198 ], [ 322849.342423326685093, 6188287.973090818151832 ], [ 324915.851601110305637, 6188327.076401207596064 ], [ 325248.951884688111022, 6189298.739288778044283 ], [ 326282.242146487231366, 6189318.076152099296451 ], [ 326948.294930937758181, 6191261.14672664180398 ], [ 329015.025538314250298, 6191299.306211402639747 ], [ 329348.017321427119896, 6192270.671687351539731 ], [ 328314.613898551499005, 6192251.691717643290758 ], [ 328647.490833503543399, 6193223.043038157746196 ], [ 330714.373914094059728, 6193260.803553969599307 ], [ 331380.058382135001011, 6195203.167389180511236 ], [ 333447.089166102698073, 6195240.300203388556838 ], [ 333779.896629547583871, 6196211.313093489035964 ], [ 331712.787276217597537, 6196174.264704747125506 ], [ 332378.018360491958447, 6198116.290320440195501 ], [ 327209.810734527767636, 6198022.086858457885683 ], [ 327542.116727674147114, 6198993.226349825039506 ] ], [ [ 362818.651852677459829, 6140652.536949036642909 ], [ 362479.585324195038993, 6139680.228481608442962 ], [ 363510.695082319842186, 6139695.65797690115869 ], [ 363849.801753841922618, 6140667.923854768276215 ], [ 362818.651852677459829, 6140652.536949036642909 ] ], [ [ 361448.473705751937814, 6139664.682789776474237 ], [ 360417.360213057138026, 6139649.020899552851915 ], [ 360078.298109005554579, 6138676.570012005977333 ], [ 361109.371453106519766, 6138692.274581065401435 ], [ 361448.473705751937814, 6139664.682789776474237 ] ], [ [ 329594.940492858120706, 6169098.105549152940512 ], [ 329259.820281119027641, 6168125.715991215780377 ], [ 330292.215204020147212, 6168144.726596587337554 ], [ 330627.375060387188569, 6169117.073271792382002 ], [ 329594.940492858120706, 6169098.105549152940512 ] ], [ [ 333114.206116943736561, 6194269.230985585600138 ], [ 334147.678687669045758, 6194287.667684976011515 ], [ 333814.680744039826095, 6193316.58433185890317 ], [ 332781.24748686561361, 6193298.105402354151011 ], [ 332448.213280669180676, 6192326.923415938392282 ], [ 333481.607212214847095, 6192345.444606114178896 ], [ 332815.233403178397566, 6190402.995885672047734 ], [ 334881.856876936159097, 6190439.863251654431224 ], [ 335881.540272409562021, 6193353.198212573304772 ], [ 337948.390582739317324, 6193389.353470169007778 ], [ 338614.625400439137593, 6195331.126705246046185 ], [ 337581.122749885427766, 6195313.190599966794252 ], [ 337248.082475824921858, 6194342.290005704388022 ], [ 336214.616852609440684, 6194324.197192845866084 ], [ 336547.617815685167443, 6195295.13989931344986 ], [ 335514.110583327827044, 6195276.974601120688021 ], [ 335846.996628754073754, 6196247.903182267211378 ], [ 334813.447791156067979, 6196229.665424272418022 ], [ 334480.601038303575478, 6195258.694703210145235 ], [ 333447.089166102698073, 6195240.300203388556838 ], [ 333114.206116943736561, 6194269.230985585600138 ] ], [ [ 331781.918159154825844, 6190384.390082433819771 ], [ 331448.657253462006338, 6189413.038659713231027 ], [ 332481.933135582483374, 6189431.686815368011594 ], [ 332815.233403178397566, 6190402.995885672047734 ], [ 331781.918159154825844, 6190384.390082433819771 ] ], [ [ 330415.37901084672194, 6189394.275725113227963 ], [ 330748.600557756959461, 6190365.66952939517796 ], [ 329715.280584526946768, 6190346.834224313497543 ], [ 328715.50741772830952, 6187432.355694444850087 ], [ 329748.709287595120259, 6187451.318323509767652 ], [ 330082.081919182441197, 6188422.825335782021284 ], [ 331115.32079090597108, 6188441.630682552233338 ], [ 331448.657253462006338, 6189413.038659713231027 ], [ 330415.37901084672194, 6189394.275725113227963 ] ], [ [ 330048.387238291907124, 6191318.213861521333456 ], [ 331081.74655508575961, 6191337.006786491721869 ], [ 331414.816998009860981, 6192308.28753424435854 ], [ 330381.418349755113013, 6192289.536958796903491 ], [ 330048.387238291907124, 6191318.213861521333456 ] ], [ [ 336281.479984153062105, 6188533.935339594259858 ], [ 338347.927520469762385, 6188570.053607787936926 ], [ 338681.539667045115493, 6189541.165515623055398 ], [ 336615.01334808813408, 6189505.131693022325635 ], [ 336281.479984153062105, 6188533.935339594259858 ] ], [ [ 345580.423385884729214, 6188692.851687668822706 ], [ 346613.628319634415675, 6188709.93514190427959 ], [ 346947.555725025711581, 6189680.710431573912501 ], [ 345914.311372595257126, 6189663.668952791020274 ], [ 345580.423385884729214, 6188692.851687668822706 ] ], [ [ 331815.105898315319791, 6187488.899065393954515 ], [ 332848.300668025389314, 6187507.517182716168463 ], [ 333181.791457965795416, 6188478.896954054944217 ], [ 332148.557299022155348, 6188460.3212212305516 ], [ 331815.105898315319791, 6187488.899065393954515 ] ], [ [ 342512.125379570992664, 6185745.299031894654036 ], [ 343545.216341856110375, 6185762.738328613340855 ], [ 343879.292025871982332, 6186733.766294952481985 ], [ 342846.161615274148062, 6186716.369123650714755 ], [ 342512.125379570992664, 6185745.299031894654036 ] ], [ [ 331847.374888937920332, 6184593.038303297013044 ], [ 332880.449071057548281, 6184611.668837727978826 ], [ 333214.205989492242225, 6185583.175982409156859 ], [ 331147.976423771877307, 6185545.884917035698891 ], [ 330480.544750616361853, 6183602.644066862761974 ], [ 331513.581842250772752, 6183621.432028593495488 ], [ 331847.374888937920332, 6184593.038303297013044 ] ], [ [ 332546.616583562165033, 6183640.105040963739157 ], [ 333579.648988938541152, 6183658.663106206804514 ], [ 333913.520920359995216, 6184630.184454182162881 ], [ 332880.449071057548281, 6184611.668837727978826 ], [ 332546.616583562165033, 6183640.105040963739157 ] ], [ [ 332911.67840189114213, 6181715.450394153594971 ], [ 336010.524936144880485, 6181770.689548414200544 ], [ 336344.666438671643846, 6182742.196897529065609 ], [ 335311.680420208256692, 6182723.941268341615796 ], [ 335645.706849439593498, 6183695.434404193423688 ], [ 333579.648988938541152, 6183658.663106206804514 ], [ 332911.67840189114213, 6181715.450394153594971 ] ], [ [ 345363.743178960401565, 6176136.93934212718159 ], [ 347429.106495763931889, 6176171.166832847520709 ], [ 347093.921275033149868, 6175199.813822574913502 ], [ 349159.196905241813511, 6175233.665168980136514 ], [ 348823.856716713518836, 6174262.340141451917589 ], [ 349856.451761172153056, 6174279.135262968018651 ], [ 350191.831575150950812, 6175250.418087814934552 ], [ 352257.094696098531131, 6175283.578426765277982 ], [ 353263.017179374699481, 6178196.835961362347007 ], [ 354295.7644925796194, 6178213.1172233838588 ], [ 354630.959978049155325, 6179184.048540085554123 ], [ 353598.173077722429298, 6179167.80927068553865 ], [ 354268.257451875251718, 6181109.587313107214868 ], [ 352202.519272610428743, 6181076.931593094021082 ], [ 351867.594107086653821, 6180105.986705584451556 ], [ 347736.251130282646045, 6180039.127091627568007 ], [ 347401.408419262210373, 6179067.957604954019189 ], [ 346368.60696622368414, 6179050.912967195734382 ], [ 345363.743178960401565, 6176136.93934212718159 ] ], [ [ 344164.750510600511916, 6154859.102268476970494 ], [ 347260.131325870519504, 6154910.997233245521784 ], [ 346585.797066965256818, 6152966.329512150026858 ], [ 348649.214195823064074, 6153000.518127884715796 ], [ 349660.841406250256114, 6155917.177900513634086 ], [ 350692.666570276545826, 6155933.9705296959728 ], [ 351029.764045923133381, 6156906.033825389109552 ], [ 348966.031907708267681, 6156872.418029878288507 ], [ 349302.973898301192094, 6157844.509536542929709 ], [ 348271.064874487288762, 6157827.570687829516828 ], [ 347934.162743373541161, 6156855.436568677425385 ], [ 346902.291496737743728, 6156838.339395817369223 ], [ 347239.153771573619451, 6157810.516156570054591 ], [ 345175.325271964189596, 6157776.060038259252906 ], [ 344838.542700125952251, 6156803.797906957566738 ], [ 343806.665121929021552, 6156786.353586839511991 ], [ 343469.846725429524668, 6155813.991583127528429 ], [ 344501.684444718412124, 6155831.478663179092109 ], [ 344164.750510600511916, 6154859.102268476970494 ] ], [ [ 364818.263306350330822, 6152285.695472415536642 ], [ 365849.897627687896602, 6152300.805367067456245 ], [ 366187.937349431158509, 6153272.417362088337541 ], [ 365156.263049000117462, 6153257.349711438640952 ], [ 364818.263306350330822, 6152285.695472415536642 ] ] ] ] } }
]
}
