{
"type": "FeatureCollection",
"name": "urban-1980",
"crs": { "type": "name", "properties": { "name": "urn:ogc:def:crs:EPSG::32639" } },
"features": [
{ "type": "Feature", "properties": { "year": 1980 }, "geometry": { "type": "MultiPolygon", "coordinates": [ [ [ [ 558829.954514903016388, 2781514.45973034016788 ], [ 559920.556093740509823, 2786170.940426015295088 ], [ 562059.432541931048036, 2786180.558837100397795 ], [ 560969.104128534556367, 2781523.889407280366868 ], [ 558829.954514903016388, 2781514.45973034016788 ] ] ], [ [ [ 545799.3654009870952, 2785185.530510271433741 ], [ 546017.979510569595732, 2786116.643442696426064 ], [ 547087.401733516016975, 2786120.3141382150352 ], [ 546868.815020132344216, 2785189.182672590948641 ], [ 545799.3654009870952, 2785185.530510271433741 ] ] ], [ [ [ 544948.558301799348556, 2786113.05707729049027 ], [ 545167.26893799204845, 2787044.181240025442094 ], [ 546236.662736558704637, 2787047.786128622014076 ], [ 546017.979510569595732, 2786116.643442696426064 ], [ 544948.558301799348556, 2786113.05707729049027 ] ] ], [ [ [ 545604.897579342126846, 2788906.518846631981432 ], [ 545167.26893799204845, 2787044.181240025442094 ], [ 544097.876134585123509, 2787040.66070887632668 ], [ 544535.559633821831085, 2788902.961271280422807 ], [ 545604.897579342126846, 2788906.518846631981432 ] ] ], [ [ [ 551882.903611437533982, 2801958.192510882858187 ], [ 554020.819357367465273, 2801966.593514719977975 ], [ 553581.531216500326991, 2800103.230071447324008 ], [ 550374.494056076859124, 2800090.869074983987957 ], [ 550154.870965881389566, 2799159.289089451543987 ], [ 551223.909749406855553, 2799163.305843764916062 ], [ 550784.925839927047491, 2797300.198344723321497 ], [ 556130.412156535661779, 2797321.364082797896117 ], [ 555472.866567680612206, 2794526.645265789702535 ], [ 556542.049842557287775, 2794531.07564165443182 ], [ 556323.033487715525553, 2793599.543930366169661 ], [ 557392.245451030088589, 2793604.03997475001961 ], [ 556954.474675670149736, 2791741.028889023698866 ], [ 558023.742754400125705, 2791745.571656099986285 ], [ 557804.988305328646675, 2790814.092270118184388 ], [ 553527.813738814438693, 2790796.503607864957303 ], [ 553309.018661949550733, 2789865.129571109544486 ], [ 552239.700603509205393, 2789860.962349693290889 ], [ 552458.523101276252419, 2790792.317624941002578 ], [ 551389.233618305181153, 2790788.216113919392228 ], [ 551170.383695128606632, 2789856.879572341218591 ], [ 550101.067913266131654, 2789852.881238498724997 ], [ 549882.259639534167945, 2788921.593283930793405 ], [ 548812.917535673477687, 2788917.698053210508078 ], [ 549031.753234382602386, 2789848.967347624711692 ], [ 546893.127091381233186, 2789841.392892668023705 ], [ 546674.236529124900699, 2788910.160835071932524 ], [ 545604.897579342126846, 2788906.518846631981432 ], [ 545823.815580182825215, 2789837.73232755670324 ], [ 544754.505077795824036, 2789834.156203359831125 ], [ 544535.559633821831085, 2788902.961271280422807 ], [ 543466.222669016569853, 2788899.488108536694199 ], [ 543685.195560681051575, 2789830.664519590325654 ], [ 542615.887005297350697, 2789827.257275775074959 ], [ 542834.95649482589215, 2790758.444949904922396 ], [ 541765.676343913073651, 2790755.10366235114634 ], [ 542204.077712122583762, 2792617.531333602499217 ], [ 541134.853450530441478, 2792614.237548531964421 ], [ 541573.586421071086079, 2794476.747360195498914 ], [ 540504.418081434443593, 2794473.501116984989494 ], [ 541382.823997866129503, 2798198.804473647847772 ], [ 543520.941313892253675, 2798205.529998814687133 ], [ 542862.198373511084355, 2795411.396342291496694 ], [ 543931.341051078517921, 2795414.83031382644549 ], [ 543054.095127809909172, 2791689.662398852873594 ], [ 544123.348750305362046, 2791693.106682607438415 ], [ 544561.778467256808653, 2793555.668090490624309 ], [ 546700.178734201123007, 2793562.8845349047333 ], [ 546480.984277425799519, 2792631.551703390665352 ], [ 547550.213416086160578, 2792635.268105590250343 ], [ 548427.295923334429972, 2796360.853510148823261 ], [ 549496.416163505404256, 2796364.729248152580112 ], [ 549715.832017418346368, 2797296.219194694887847 ], [ 548646.739287047297694, 2797292.324709243606776 ], [ 548866.251741175656207, 2798223.825884774327278 ], [ 546728.124515060684644, 2798216.253458303865045 ], [ 546947.761128537473269, 2799147.747145900502801 ], [ 545878.726608926896006, 2799144.069269442465156 ], [ 546318.262261929339729, 2801007.109143730252981 ], [ 544180.306474780663848, 2800999.932805311866105 ], [ 544840.293797573191114, 2803794.605264776851982 ], [ 549115.87844675895758, 2803809.522127677686512 ], [ 548676.038470422266982, 2801946.227036198601127 ], [ 549744.99241831060499, 2801950.130724349059165 ], [ 550404.773268790100701, 2804745.17502131825313 ], [ 552542.519018449587747, 2804753.350128948222846 ], [ 551882.903611437533982, 2801958.192510882858187 ] ], [ [ 549525.203624289250001, 2801018.509456503670663 ], [ 550594.186220677336678, 2801022.479110848158598 ], [ 550813.947457499336451, 2801954.119215730577707 ], [ 549744.99241831060499, 2801950.130724349059165 ], [ 549525.203624289250001, 2801018.509456503670663 ] ] ], [ [ [ 542328.617200967040844, 2811234.228292429354042 ], [ 542107.888637062744237, 2810302.475382342003286 ], [ 544245.284084943821654, 2810309.347166979219764 ], [ 543804.145101019530557, 2808445.856544680893421 ], [ 544872.899604928446934, 2808449.382422266993672 ], [ 544652.461463249404915, 2807517.663464996498078 ], [ 545721.244600538397208, 2807521.255541857797652 ], [ 545941.6550913809333, 2808452.993294873740524 ], [ 547010.411583776818588, 2808456.689162989147007 ], [ 546569.714999032672495, 2806593.206119987182319 ], [ 544432.092444916255772, 2806585.974581952672452 ], [ 544211.792552107945085, 2805654.315754429902881 ], [ 545280.630962614552118, 2805657.870293731801212 ], [ 545060.427819893695414, 2804726.222761205397546 ], [ 542922.696718408842571, 2804719.236049964092672 ], [ 543142.955110459821299, 2805650.846126660704613 ], [ 542074.118614246021025, 2805647.461409954354167 ], [ 542294.473784481990151, 2806579.082801372278482 ], [ 543363.282639696728438, 2806582.486222218256444 ], [ 543583.679303943063132, 2807514.15635532559827 ], [ 542514.898099208716303, 2807510.734212370123714 ], [ 542735.391556250397116, 2808442.415661637205631 ], [ 541666.638947219937108, 2808439.059772670269012 ], [ 541887.229218420688994, 2809370.752548661548644 ], [ 540818.505200331215747, 2809367.462950893677771 ], [ 541039.192307061050087, 2810299.167064159642905 ], [ 539970.496875165961683, 2810295.9437947999686 ], [ 540412.133964491775259, 2812159.404776087030768 ], [ 541480.773982583777979, 2812162.665484632365406 ], [ 541259.948568538180552, 2811230.901235833298415 ], [ 542328.617200967040844, 2811234.228292429354042 ] ] ], [ [ [ 552631.765225606737658, 2841078.638815657235682 ], [ 552408.909151497995481, 2840145.855393386911601 ], [ 548137.681478286744095, 2840129.672086001373827 ], [ 548360.649533003219403, 2841062.378067636396736 ], [ 549428.426825168775395, 2841066.314302036073059 ], [ 549651.435950456303544, 2841999.070302000734955 ], [ 551786.937764226342551, 2842007.239432278554887 ], [ 551563.984648315585218, 2841074.444675498176366 ], [ 552631.765225606737658, 2841078.638815657235682 ] ] ], [ [ [ 553747.081209952593781, 2845743.017629886511713 ], [ 554193.690848374739289, 2847608.984973924234509 ], [ 555261.276412794482894, 2847613.401604013051838 ], [ 554814.722866185707971, 2845747.39516277750954 ], [ 553747.081209952593781, 2845743.017629886511713 ] ] ] ] } }
]
}
