{
"type": "FeatureCollection",
"name": "urban-2095",
"crs": { "type": "name", "properties": { "name": "urn:ogc:def:crs:EPSG::32639" } },
"features": [
{ "type": "Feature", "properties": { "year": 2095 }, "geometry": { "type": "MultiPolygon", "coordinates": [ [ [ [ 535713.906266842735931, 2778643.415938009042293 ], [ 535059.274412579601631, 2775851.315925922244787 ], [ 536128.990423147683032, 2775854.111553504597396 ], [ 535910.94556225114502, 2774923.452275908086449 ], [ 532701.717831066227518, 2774915.371717733331025 ], [ 533138.040788546437398, 2776776.611120873596519 ], [ 532068.354384067235515, 2776774.049504821188748 ], [ 532286.64707395597361, 2777704.695217121392488 ], [ 531216.988744399626739, 2777702.19960892572999 ], [ 530998.668688222067431, 2776771.5719362529926 ], [ 529928.983677374082617, 2776769.178414833266288 ], [ 530147.331104481010698, 2777699.788075662683696 ], [ 529077.674130567582324, 2777697.460617003031075 ], [ 529296.118201132980175, 2778628.081632718443871 ], [ 531435.378049599588849, 2778632.856656011659652 ], [ 531653.836601690738462, 2779563.543095849920064 ], [ 529514.631537451525219, 2779558.732005706056952 ], [ 529733.2141373999184, 2780489.411754299420863 ], [ 530802.788928001769818, 2780491.793271566741168 ], [ 531021.413376147858799, 2781422.520469141192734 ], [ 533160.510208106134087, 2781427.572171301580966 ], [ 532941.940572642139159, 2780496.808780299499631 ], [ 535081.095125931431539, 2780502.160923584364355 ], [ 534644.273088433314115, 2778640.649962208233774 ], [ 535713.906266842735931, 2778643.415938009042293 ] ] ], [ [ [ 526549.422058084630407, 2785134.206855511292815 ], [ 526330.383321215049364, 2784203.452180210966617 ], [ 524191.459994282340631, 2784199.471440939698368 ], [ 524410.55368452554103, 2785130.190169574227184 ], [ 526549.422058084630407, 2785134.206855511292815 ] ] ], [ [ [ 539308.559978359960951, 2807500.977579216472805 ], [ 539088.052684709778987, 2806569.382167613599449 ], [ 538019.247395357000642, 2806566.318497826810926 ], [ 538239.7823578317184, 2807497.895298602525145 ], [ 539308.559978359960951, 2807500.977579216472805 ] ] ], [ [ [ 532454.628828175715171, 2805620.819885576143861 ], [ 532895.906349973520264, 2807483.758355282712728 ], [ 531827.133403498446569, 2807481.185855889692903 ], [ 532047.903712921426632, 2808412.681434251833707 ], [ 534185.39491895516403, 2808417.948347336612642 ], [ 534406.179036947898567, 2809349.510790518950671 ], [ 536543.617829247377813, 2809355.154765548184514 ], [ 536322.889119091909379, 2808423.555223488248885 ], [ 538460.386500544846058, 2808429.502065744716674 ], [ 538239.7823578317184, 2807497.895298602525145 ], [ 537171.005574834765866, 2807494.897982500493526 ], [ 536950.442938932101242, 2806563.339764739386737 ], [ 533744.03433306037914, 2806554.913181695155799 ], [ 533523.45786948967725, 2805623.440421966835856 ], [ 532454.628828175715171, 2805620.819885576143861 ] ] ], [ [ [ 523940.15726618206827, 2810257.800343834329396 ], [ 523719.026521639432758, 2809326.391975081991404 ], [ 522650.314511777891312, 2809324.547683149110526 ], [ 522871.473023316124454, 2810255.93780412664637 ], [ 523940.15726618206827, 2810257.800343834329396 ] ] ], [ [ [ 530610.99304974952247, 2815858.01656547235325 ], [ 530168.247294944478199, 2813994.687585100531578 ], [ 528031.095876579522155, 2813990.049769883044064 ], [ 527588.516006916644983, 2812126.914273091126233 ], [ 525451.255885965656489, 2812122.690599624067545 ], [ 525672.566752412356436, 2813054.206665390636772 ], [ 524603.965329336584546, 2813052.204147855751216 ], [ 525268.397091470542364, 2815846.876389391720295 ], [ 527405.433655157568865, 2815851.076827991288155 ], [ 527183.942738382844254, 2814919.452761775813997 ], [ 529321.037311960128136, 2814923.957136308308691 ], [ 529542.472613882971928, 2815855.618108628783375 ], [ 530610.99304974952247, 2815858.01656547235325 ] ] ], [ [ [ 541152.962353324983269, 2824268.08520357683301 ], [ 540084.686211104504764, 2824264.83577739726752 ], [ 540306.590937357861549, 2825196.947318396531045 ], [ 541374.83922122430522, 2825200.215642539784312 ], [ 541152.962353324983269, 2824268.08520357683301 ] ] ], [ [ [ 544579.589574831305072, 2825210.533573086373508 ], [ 541374.83922122430522, 2825200.215642539784312 ], [ 541818.800399505649693, 2827064.567453762982041 ], [ 540750.607860866934061, 2827061.261279337108135 ], [ 540972.720053726923652, 2827993.463737003970891 ], [ 544177.216777980211191, 2828003.695846380665898 ], [ 544399.314446557080373, 2828935.985642268322408 ], [ 545467.454031132161617, 2828939.586553043220192 ], [ 545245.384245218010619, 2828007.277703172061592 ], [ 546313.55269745492842, 2828010.945137593429536 ], [ 546091.579893216956407, 2827078.647639899048954 ], [ 545023.383572392864153, 2827074.999269159510732 ], [ 544579.589574831305072, 2825210.533573086373508 ] ] ], [ [ [ 538836.39340289705433, 2827987.070210337638855 ], [ 537768.231357320444658, 2827984.001809566747397 ], [ 537323.908777063013986, 2826119.740544321481138 ], [ 535187.47551797318738, 2826113.935738039668649 ], [ 535409.658013343112543, 2827046.013617666903883 ], [ 536477.846347628743388, 2827048.892056667245924 ], [ 536922.363109468948096, 2828913.176180648151785 ], [ 537990.496418040362187, 2828916.177866095211357 ], [ 538435.234069682192057, 2830780.620921295601875 ], [ 539503.312356209731661, 2830783.746037459000945 ], [ 539280.936871946323663, 2829851.490423263050616 ], [ 540349.043942344025709, 2829854.682246700394899 ], [ 540126.765538921346888, 2828922.438044332433492 ], [ 539058.630553442751989, 2828919.26515385042876 ], [ 538836.39340289705433, 2827987.070210337638855 ] ] ], [ [ [ 537144.725271946168505, 2829845.363667629193515 ], [ 536922.363109468948096, 2828913.176180648151785 ], [ 535854.230604480602778, 2828910.260097104590386 ], [ 536076.620695864665322, 2829842.428734606131911 ], [ 537144.725271946168505, 2829845.363667629193515 ] ] ], [ [ [ 542707.552464399836026, 2830793.635337986517698 ], [ 542485.260740138939582, 2829861.322786972858012 ], [ 540349.043942344025709, 2829854.682246700394899 ], [ 540571.391502015874721, 2830786.956812003161758 ], [ 542707.552464399836026, 2830793.635337986517698 ] ] ], [ [ [ 537589.657149037113413, 2831709.8295859224163 ], [ 537812.226859255111776, 2832642.108055005315691 ], [ 536744.20612694369629, 2832639.116464618593454 ], [ 536966.872982288477942, 2833571.406376737169921 ], [ 540170.853781546582468, 2833580.695137756876647 ], [ 539948.270813212264329, 2832648.348375794477761 ], [ 541016.294081295374781, 2832651.597107039298862 ], [ 540793.808215734199621, 2831719.26175914471969 ], [ 537589.657149037113413, 2831709.8295859224163 ] ] ], [ [ [ 538304.326932628871873, 2839165.784195554442704 ], [ 538527.4780401509488, 2840098.287066503893584 ], [ 540663.072359607322142, 2840104.659955931827426 ], [ 540439.977314628660679, 2839172.118958079721779 ], [ 538304.326932628871873, 2839165.784195554442704 ] ] ], [ [ [ 541332.772391704376787, 2842902.466235461179167 ], [ 541556.14402740332298, 2843835.129487350583076 ], [ 542623.830305830575526, 2843838.521439499221742 ], [ 542177.212294244556688, 2841973.187189640942961 ], [ 544312.699848309508525, 2841980.152395381126553 ], [ 544089.550620089634322, 2841047.492799978237599 ], [ 541954.006992906797677, 2841040.565961123909801 ], [ 541730.870830827974714, 2840107.975304843857884 ], [ 540663.072359607322142, 2840104.659955931827426 ], [ 540886.236555589479394, 2841037.231488774064928 ], [ 538750.698317727423273, 2841030.82043597754091 ], [ 538973.987763146054931, 2841963.38432296551764 ], [ 540041.72839770920109, 2841966.565953531768173 ], [ 540265.058946607401595, 2842899.179481291677803 ], [ 541332.772391704376787, 2842902.466235461179167 ] ] ], [ [ [ 538973.987763146054931, 2841963.38432296551764 ], [ 537906.24797351937741, 2841960.288683479651809 ], [ 538129.634651323896833, 2842892.864030565135181 ], [ 539197.346374194719829, 2842895.978746470063925 ], [ 538973.987763146054931, 2841963.38432296551764 ] ] ], [ [ [ 539420.774148658267222, 2843828.60372550226748 ], [ 540488.458649390144274, 2843831.823582834098488 ], [ 540265.058946607401595, 2842899.179481291677803 ], [ 539197.346374194719829, 2842895.978746470063925 ], [ 539420.774148658267222, 2843828.60372550226748 ] ] ], [ [ [ 543517.895902449148707, 2847569.557643864769489 ], [ 543294.275812171865255, 2846636.752582029439509 ], [ 542226.673778436961584, 2846633.302985699381679 ], [ 542450.321969352429733, 2847566.088796241208911 ], [ 543517.895902449148707, 2847569.557643864769489 ] ] ], [ [ [ 546720.623445342993364, 2847580.481145487632602 ], [ 544585.470777408685535, 2847573.112650958355516 ], [ 544809.131885788636282, 2848505.96771586406976 ], [ 542674.039293514215387, 2848498.90529412124306 ], [ 542450.321969352429733, 2847566.088796241208911 ], [ 541382.748955013579689, 2847562.70610761968419 ], [ 542054.19269123673439, 2850361.189959520008415 ], [ 543121.681332669919357, 2850364.630428283941001 ], [ 543345.606043205596507, 2851297.539102782029659 ], [ 548682.923051187884994, 2851316.131995542440563 ], [ 548011.778103481163271, 2848517.207758240867406 ], [ 546944.228356215520762, 2848513.374888818245381 ], [ 546720.623445342993364, 2847580.481145487632602 ] ] ], [ [ [ 541210.685961116221733, 2851290.705841831397265 ], [ 542278.145545159117319, 2851294.079337345436215 ], [ 542054.19269123673439, 2850361.189959520008415 ], [ 540986.704959221300669, 2850357.835732832085341 ], [ 541210.685961116221733, 2851290.705841831397265 ] ] ], [ [ [ 560918.426821341970935, 2767572.292590103577822 ], [ 561135.238101519178599, 2768503.175498739350587 ], [ 562205.199985684012063, 2768508.005619078408927 ], [ 561988.415841206675395, 2767577.104013376869261 ], [ 564128.398024984984659, 2767586.978213607799262 ], [ 563911.737099638092332, 2766656.068886609282345 ], [ 561771.70067667006515, 2766646.232128699775785 ], [ 561555.054494228679687, 2765715.389946601353586 ], [ 562625.099121714243665, 2765720.247757418546826 ], [ 562408.549026440829039, 2764789.416587568353862 ], [ 561338.477296040975489, 2764784.577448645606637 ], [ 560689.159628531546332, 2761992.317875438369811 ], [ 562829.466964017832652, 2762001.967951670754701 ], [ 562613.219850211287849, 2761071.23677568603307 ], [ 560472.858388886204921, 2761061.623929907567799 ], [ 559608.343401890131645, 2757339.143885308876634 ], [ 558538.05651265126653, 2757334.536964501719922 ], [ 558754.108791208942421, 2758265.094148756470531 ], [ 555543.336955232662149, 2758251.71890646032989 ], [ 555759.539395267376676, 2759182.250215362757444 ], [ 553619.085169811034575, 2759173.714114687871188 ], [ 554051.805460992152803, 2761034.791518582962453 ], [ 552981.634310921304859, 2761030.612003655172884 ], [ 552765.212551468983293, 2760100.076956517528743 ], [ 551695.015485980431549, 2760095.999387789983302 ], [ 552127.982258324045688, 2761957.062211181502789 ], [ 553198.125131434295326, 2761961.176519537810236 ], [ 553631.313947083195671, 2763822.394030874595046 ], [ 552561.225304081453942, 2763818.242912373971194 ], [ 553428.540147362276912, 2767540.958535195328295 ], [ 556638.484002199023962, 2767553.884727496188134 ], [ 556855.40386970131658, 2768484.693126322235912 ], [ 557925.360479330527596, 2768489.18800435308367 ], [ 558359.35295186447911, 2770350.930998022202402 ], [ 559429.256518119131215, 2770355.546965806744993 ], [ 559212.252943094703369, 2769424.641976479440928 ], [ 560282.18498854432255, 2769429.323133455589414 ], [ 559848.439151216414757, 2767567.564950515516102 ], [ 560918.426821341970935, 2767572.292590103577822 ] ] ], [ [ [ 551288.583535917452537, 2767532.759971768129617 ], [ 551071.596907948725857, 2766602.07362813455984 ], [ 550001.593147613224573, 2766598.118415192235261 ], [ 549567.772809640970081, 2764736.871036319062114 ], [ 547427.659935098025016, 2764729.285190986003727 ], [ 547644.58987790311221, 2765659.857487524393946 ], [ 546574.562195715378039, 2765656.171822771895677 ], [ 546791.588420647312887, 2766586.755273969843984 ], [ 548931.590495426324196, 2766594.246952200308442 ], [ 549148.631469962769188, 2767524.896521600428969 ], [ 545938.711478947894648, 2767513.729674404021353 ], [ 545721.588950625970028, 2766583.13505771337077 ], [ 544651.590493898605928, 2766579.598589369561523 ], [ 545085.959068878437392, 2768440.780737123452127 ], [ 546155.903128830250353, 2768444.353747015818954 ], [ 546373.16389813576825, 2769375.00729389116168 ], [ 548513.000697413925081, 2769382.441402796190232 ], [ 548295.794339569052681, 2768451.751177913974971 ], [ 550435.689829423674382, 2768459.483826998155564 ], [ 550218.606946608168073, 2767528.786357798613608 ], [ 551288.583535917452537, 2767532.759971768129617 ] ] ], [ [ [ 556219.549671703833155, 2770341.950657784938812 ], [ 555785.448519452824257, 2768480.282057312782854 ], [ 554715.494404885801487, 2768475.954796724952757 ], [ 555149.649910422274843, 2770337.58628411218524 ], [ 556219.549671703833155, 2770341.950657784938812 ] ] ], [ [ [ 546807.892786462209187, 2771236.402883863542229 ], [ 546373.16389813576825, 2769375.00729389116168 ], [ 545303.247050721896812, 2769371.415986717678607 ], [ 545738.030392430024222, 2771232.774929078295827 ], [ 546807.892786462209187, 2771236.402883863542229 ] ] ], [ [ [ 548947.620706195943058, 2771243.910454891622066 ], [ 548730.276153669925407, 2770313.161155662965029 ], [ 547660.384441626025364, 2770309.383814689703286 ], [ 547877.756216490990482, 2771240.114725633524358 ], [ 546807.892786462209187, 2771236.402883863542229 ], [ 547025.360901203937829, 2772167.144963698461652 ], [ 545955.525748019455932, 2772163.498658567667007 ], [ 546173.090223910287023, 2773094.251918096095324 ], [ 547242.898126808344387, 2773097.916591276414692 ], [ 547678.179902033763938, 2774959.548563250340521 ], [ 548747.934330171090551, 2774963.334023925941437 ], [ 548530.286153907421976, 2774032.484814369119704 ], [ 550669.852782904985361, 2774040.270786499138921 ], [ 550017.48627925675828, 2771247.790072153322399 ], [ 548947.620706195943058, 2771243.910454891622066 ] ] ], [ [ [ 557506.577613735222258, 2771277.296302827075124 ], [ 557723.77356840914581, 2772208.223416468594223 ], [ 555584.081574404612184, 2772199.336381603498012 ], [ 555149.649910422274843, 2770337.58628411218524 ], [ 554079.751370092853904, 2770333.305773940868676 ], [ 554296.959878650028259, 2771264.147431959398091 ], [ 553227.089735369780101, 2771259.932257294654846 ], [ 553444.394500065711327, 2772190.785023449454457 ], [ 554514.237434114213102, 2772195.018743232358247 ], [ 554731.584034331142902, 2773125.919726197607815 ], [ 556871.219120926223695, 2773134.676131277345121 ], [ 557306.010542493313551, 2774996.641710739582777 ], [ 558375.775522219366394, 2775001.183180250227451 ], [ 558593.247529553482309, 2775932.229304064530879 ], [ 559662.986570803099312, 2775936.873504859395325 ], [ 559010.859239774523303, 2773143.768326824065298 ], [ 560080.681245458545163, 2773148.440347558818758 ], [ 559646.329094960703515, 2771286.481678450480103 ], [ 557506.577613735222258, 2771277.296302827075124 ] ] ], [ [ [ 554948.999677149229683, 2774056.85039930138737 ], [ 554731.584034331142902, 2773125.919726197607815 ], [ 553661.768318962305784, 2773121.667443587444723 ], [ 553879.211189909372479, 2774052.579536146949977 ], [ 554948.999677149229683, 2774056.85039930138737 ] ] ], [ [ [ 544468.922847844893113, 2774948.696168773341924 ], [ 546608.426528034848161, 2774955.847100832965225 ], [ 546173.090223910287023, 2773094.251918096095324 ], [ 545103.283342417678796, 2773090.671187037602067 ], [ 545320.944200740545057, 2774021.435637050308287 ], [ 544251.165585803566501, 2774017.920517497230321 ], [ 544468.922847844893113, 2774948.696168773341924 ] ] ], [ [ [ 558593.247529553482309, 2775932.229304064530879 ], [ 557523.509783426299691, 2775927.669135028962046 ], [ 557741.078041580272838, 2776858.726340346969664 ], [ 558810.788544650422409, 2776863.305226648692042 ], [ 558593.247529553482309, 2775932.229304064530879 ] ] ], [ [ [ 545974.341519889887422, 2776813.906355351675302 ], [ 546410.285331357852556, 2778675.701491909101605 ], [ 547479.928485580487177, 2778679.39263653382659 ], [ 547697.976743542007171, 2779610.353121774271131 ], [ 548767.59362999687437, 2779614.146867614705116 ], [ 548331.620842715608887, 2777752.21858949912712 ], [ 547261.949332898948342, 2777748.461810263805091 ], [ 547044.039287649211474, 2776817.560624515637755 ], [ 545974.341519889887422, 2776813.906355351675302 ] ] ], [ [ [ 559880.500347305787727, 2776867.968172557651997 ], [ 560315.734886559424922, 2778730.247031580191106 ], [ 561385.393515778239816, 2778735.031636919360608 ], [ 561603.087011666968465, 2779666.234691555611789 ], [ 562672.719738561776467, 2779671.122267582919449 ], [ 562455.053500754293054, 2778739.900358848739415 ], [ 563524.714865111745894, 2778744.853198030032218 ], [ 563089.643789176712744, 2776882.461374312173575 ], [ 559880.500347305787727, 2776867.968172557651997 ] ] ], [ [ [ 534448.671167667023838, 2782361.035314599983394 ], [ 533379.149074633605778, 2782358.365027893800288 ], [ 533597.857170088216662, 2783289.18736846325919 ], [ 534667.351844849064946, 2783291.875829104334116 ], [ 534448.671167667023838, 2782361.035314599983394 ] ] ], [ [ [ 564245.262175876297988, 2795496.151589585933834 ], [ 564026.368889948702417, 2794564.456688808277249 ], [ 562957.17641970992554, 2794559.434204432647675 ], [ 563176.09713372157421, 2795491.110003642737865 ], [ 564245.262175876297988, 2795496.151589585933834 ] ] ], [ [ [ 535549.385993184288964, 2818663.904025478288531 ], [ 535992.60152357199695, 2820527.682174796238542 ], [ 542402.924028038978577, 2820546.470210726372898 ], [ 541960.04219857393764, 2818682.466646740213037 ], [ 543028.487969410722144, 2818685.85896023362875 ], [ 542143.665118309552781, 2814958.138881112448871 ], [ 543212.222865553339943, 2814961.541071499232203 ], [ 543433.297123018535785, 2815893.444644706323743 ], [ 546638.892916707787663, 2815904.21900076745078 ], [ 546859.953070152085274, 2816836.20946958148852 ], [ 547928.459271929808892, 2816839.990314241033047 ], [ 547707.426854768651538, 2815907.980887522455305 ], [ 550913.035016287583858, 2815919.777859115041792 ], [ 550471.343744370969944, 2814055.735851055011153 ], [ 549402.751192449126393, 2814051.756336838472635 ], [ 549623.589998154551722, 2814983.743187315296382 ], [ 548555.026234394172207, 2814979.829859169200063 ], [ 548334.159720485331491, 2814047.861986190546304 ], [ 547265.569305118871853, 2814044.052798583172262 ], [ 547044.744177018059418, 2813112.134098756592721 ], [ 551319.223057270864956, 2813127.80593600589782 ], [ 551098.577777676517144, 2812195.841619452927262 ], [ 553235.879204032593407, 2812204.150278983172029 ], [ 553015.358317117090337, 2811272.178178695961833 ], [ 551946.679371818900108, 2811268.00032897060737 ], [ 551726.199880928033963, 2810336.077520711813122 ], [ 553863.61423112580087, 2810344.480240982025862 ], [ 553643.25908078730572, 2809412.549645764287561 ], [ 554711.995645939023234, 2809416.859533572569489 ], [ 554271.547715262975544, 2807553.051036371849477 ], [ 557477.930352465482429, 2807566.376369209960103 ], [ 557257.89273128437344, 2806634.460315535310656 ], [ 559395.542581366025843, 2806643.730487005319446 ], [ 558736.009191916673444, 2803848.049339074175805 ], [ 557667.100936898728833, 2803843.429091503843665 ], [ 557886.903957945061848, 2804775.273445745464414 ], [ 554680.269375039148144, 2804761.864788025151938 ], [ 554020.819357367465273, 2801966.593514719977975 ], [ 555089.778996261884458, 2801970.921224542893469 ], [ 554431.032941817538813, 2799175.864433716516942 ], [ 555500.07636480522342, 2799180.220074595417827 ], [ 555719.561831524129957, 2800111.894483652897179 ], [ 556788.578961853752844, 2800116.353815869428217 ], [ 556569.121006339904852, 2799184.660438562277704 ], [ 558707.214038932928815, 2799193.795338180381805 ], [ 558487.880093094427139, 2798262.094115848187357 ], [ 560626.03325365902856, 2798271.52981954626739 ], [ 560406.823263854952529, 2797339.82069372292608 ], [ 561475.929299460607581, 2797344.646521079819649 ], [ 561256.815756156109273, 2796412.948514898773283 ], [ 562325.950598191237077, 2796417.839931753929704 ], [ 561887.985333614167757, 2794554.496308938134462 ], [ 562957.17641970992554, 2794559.434204432647675 ], [ 562519.541886511957273, 2792696.173100227024406 ], [ 561450.295963834389113, 2792691.273298460990191 ], [ 561012.882506362511776, 2790828.170750751625746 ], [ 562082.183227682951838, 2790833.032530301250517 ], [ 561863.607356627122499, 2789901.507398977410048 ], [ 562932.936824979027733, 2789906.43464378034696 ], [ 562714.457300246926025, 2788974.920595675241202 ], [ 563783.8155208096141, 2788979.913268532603979 ], [ 562256.581371648935601, 2782460.023380308877677 ], [ 563326.13226749189198, 2782464.96762531157583 ], [ 562890.454947070218623, 2780602.374102520290762 ], [ 560751.245393023593351, 2780592.645379022695124 ], [ 560533.455644975067116, 2779661.431259974371642 ], [ 559463.825614867499098, 2779656.711972186341882 ], [ 559246.077589474152774, 2778725.546542182099074 ], [ 557106.766897198394872, 2778716.397908668033779 ], [ 556671.368814457789995, 2776854.231513028498739 ], [ 555601.660839644842781, 2776849.820744085125625 ], [ 555819.35263129719533, 2777780.870362431742251 ], [ 553679.994880412355997, 2777772.263722140807658 ], [ 553462.248552390374243, 2776841.251378935296088 ], [ 552392.544192673522048, 2776837.092781566083431 ], [ 552828.160458745085634, 2778699.110005612950772 ], [ 551758.511825091205537, 2778694.998310570139438 ], [ 551976.450844569015317, 2779626.032931493129581 ], [ 549837.21159324189648, 2779618.024750828742981 ], [ 550055.274307144340128, 2780549.051961215678602 ], [ 551124.866053985082544, 2780553.032547927461565 ], [ 551779.386672303313389, 2783346.348445195704699 ], [ 550709.876932632992975, 2783342.31205502524972 ], [ 550273.406103115179576, 2781480.108903043437749 ], [ 549203.842791985603981, 2781476.193926518782973 ], [ 548985.68366523028817, 2780545.155540232080966 ], [ 547916.094104631920345, 2780541.343284447211772 ], [ 547697.976743542007171, 2779610.353121774271131 ], [ 545558.746106530423276, 2779603.01804016251117 ], [ 545776.918132943566889, 2780533.971266415901482 ], [ 544707.331674630870111, 2780530.411503167822957 ], [ 544489.132308739586733, 2779599.476703396067023 ], [ 543419.519493268686347, 2779596.019502010662109 ], [ 543201.361924267490394, 2778665.132707294542342 ], [ 542131.722728349966928, 2778661.777993914205581 ], [ 541695.560371730127372, 2776800.129802879411727 ], [ 540625.867447220138274, 2776796.895793467760086 ], [ 541062.084462948492728, 2778658.507387178018689 ], [ 538922.810629198444076, 2778652.218491871841252 ], [ 539577.819022277020849, 2781444.747763943392783 ], [ 537438.712842345703393, 2781438.685815685428679 ], [ 537875.840551303117536, 2783300.446666781790555 ], [ 534667.351844849064946, 2783291.875829104334116 ], [ 534886.101739382254891, 2784222.74586376035586 ], [ 533816.634492334793322, 2784220.039211404509842 ], [ 533597.857170088216662, 2783289.18736846325919 ], [ 532528.363236373639666, 2783286.583149829879403 ], [ 532309.627718020463362, 2782355.778955403715372 ], [ 530170.587119668372907, 2782350.859451679047197 ], [ 529951.865998847875744, 2781420.120896837674081 ], [ 527812.773203592281789, 2781415.574308159761131 ], [ 528250.394440196687356, 2783277.008688480593264 ], [ 527180.90385787608102, 2783274.825674814172089 ], [ 526743.227738429908641, 2781413.427291166968644 ], [ 525673.682863440946676, 2781411.36445867922157 ], [ 526330.383321215049364, 2784203.452180210966617 ], [ 527399.845843785791658, 2784205.568951034452766 ], [ 527618.857110981014557, 2785136.341641330160201 ], [ 532966.04197963885963, 2785148.280010864138603 ], [ 533184.985200276481919, 2786079.17271428136155 ], [ 531046.164154022349976, 2786074.108161489479244 ], [ 531265.231539709842764, 2787004.99405350163579 ], [ 530195.849529266357422, 2787002.570129856467247 ], [ 531072.921509032254107, 2790726.336394770536572 ], [ 532142.193526727845892, 2790728.833032270893455 ], [ 531922.849167614476755, 2789797.828939098864794 ], [ 534061.450359599199146, 2789803.039110550191253 ], [ 534280.739707909524441, 2790734.079697498586029 ], [ 535350.013918464304879, 2790736.82972593838349 ], [ 535788.745244965655729, 2792599.036445250269026 ], [ 534719.526059690630063, 2792596.249786122236401 ], [ 534939.023058864171617, 2793527.379324772860855 ], [ 533869.832168765249662, 2793524.658870925661176 ], [ 534309.088894183281809, 2795386.970347192138433 ], [ 536447.361269469256513, 2795392.569222352467477 ], [ 536886.784617187571712, 2797255.073088593780994 ], [ 535817.703160598757677, 2797252.194540173746645 ], [ 536037.546201523859054, 2798183.472701870370656 ], [ 533899.440787432249635, 2798177.932800888549536 ], [ 534339.444853732828051, 2800040.504816967528313 ], [ 533270.448479506652802, 2800037.825145269744098 ], [ 533490.581954851397313, 2800969.137414551340044 ], [ 532421.613931906293146, 2800966.524109750986099 ], [ 532862.143822244252078, 2802829.201211735606194 ], [ 531793.231790424790233, 2802826.635929110925645 ], [ 531352.646620412473567, 2800963.995573299471289 ], [ 529214.714037952129729, 2800959.192804081831127 ], [ 528994.4700507291127, 2800027.953864047303796 ], [ 526856.484748715418391, 2800023.526662134565413 ], [ 527297.152571476413868, 2801885.961221177130938 ], [ 523021.410139247076586, 2801877.978286431171 ], [ 522800.930925866297912, 2800946.818903531879187 ], [ 520663.007474746787921, 2800943.372398264240474 ], [ 521104.145954730454832, 2802805.648349162656814 ], [ 520035.240303660684731, 2802804.016109542921185 ], [ 520476.711536107526626, 2804666.374270805157721 ], [ 519407.861754321784247, 2804664.790700661949813 ], [ 520070.671849661215674, 2807458.495802691206336 ], [ 519001.905723187956028, 2807456.942830604035407 ], [ 519444.181363516603597, 2809319.524897554889321 ], [ 518375.471196557686199, 2809318.020665002055466 ], [ 518596.740823193220422, 2810249.338072654325515 ], [ 516459.377258518303279, 2810246.548460247460753 ], [ 516680.771843661961611, 2811177.859322573058307 ], [ 515612.118422846775502, 2811176.574007668998092 ], [ 516276.801877722959034, 2813970.630326413083822 ], [ 518413.942127819755115, 2813973.394752901513129 ], [ 517970.861770764342509, 2812110.58834960963577 ], [ 519039.488135338644497, 2812112.061948494054377 ], [ 518818.079803502885625, 2811180.685160965658724 ], [ 519886.734389290213585, 2811182.225684836506844 ], [ 519665.423204296967015, 2810250.860441876575351 ], [ 521802.789280970580876, 2810254.16030738921836 ], [ 521581.602997732174117, 2809322.788406407926232 ], [ 522650.314511777891312, 2809324.547683149110526 ], [ 522429.225318215845618, 2808393.187296169809997 ], [ 523497.96508560917573, 2808395.013358301483095 ], [ 523276.972960244340356, 2807463.664474918041378 ], [ 524345.740985520533286, 2807465.557285094633698 ], [ 524787.739050713018514, 2809328.321282454766333 ], [ 527993.879987145308405, 2809334.619299883954227 ], [ 527772.929534323862754, 2808403.167486059013754 ], [ 529910.415313781821169, 2808407.754481382202357 ], [ 530131.310303051839583, 2809339.243060467299074 ], [ 532268.743257267400622, 2809344.2068897834979 ], [ 532047.903712921426632, 2808412.681434251833707 ], [ 530979.159174191066995, 2808410.175462961196899 ], [ 530537.632380571216345, 2806547.251015109010041 ], [ 528400.034463030053303, 2806542.567575211636722 ], [ 528179.319540796568617, 2805611.186806599143893 ], [ 530316.97285575629212, 2805615.833533440716565 ], [ 530096.382581816869788, 2804684.44585514254868 ], [ 529027.527916952618398, 2804682.098391194827855 ], [ 528806.979218599153683, 2803750.758832211140543 ], [ 533082.512611920014024, 2803760.584455591160804 ], [ 533302.950628388673067, 2804691.997519467957318 ], [ 534371.80807267036289, 2804694.684499540831894 ], [ 534151.397715068538673, 2803763.252989943604916 ], [ 536289.170191202196293, 2803768.844615347217768 ], [ 536950.442938932101242, 2806563.339764739386737 ], [ 538019.247395357000642, 2806566.318497826810926 ], [ 537798.781615290790796, 2805634.771644760854542 ], [ 539936.448364434647374, 2805640.946707907598466 ], [ 540597.887250527157448, 2808435.78887732559815 ], [ 539529.136442769085988, 2808432.602975160814822 ], [ 539749.782075762865134, 2809364.25837412616238 ], [ 538681.059821322211064, 2809361.138817925937474 ], [ 539122.613988376804627, 2811224.502352140843868 ], [ 538053.947993883630261, 2811221.430524178314954 ], [ 538274.856556640472263, 2812153.138670652639121 ], [ 537206.219120133435354, 2812150.133272915612906 ], [ 537648.299259333871305, 2814013.602365720551461 ], [ 539785.46402005397249, 2814019.773008638061583 ], [ 540006.552363522583619, 2814951.590063735377043 ], [ 535732.337158884503879, 2814939.514670400414616 ], [ 536396.350459609180689, 2817734.921950632240623 ], [ 533190.947459380375221, 2817726.592238049022853 ], [ 533412.507048600469716, 2818658.398859730921686 ], [ 535549.385993184288964, 2818663.904025478288531 ] ], [ [ 553361.990713902865537, 2799171.593515336047858 ], [ 553142.519259441876784, 2798239.987044642679393 ], [ 554211.588998058927245, 2798244.239068395923823 ], [ 554431.032941817538813, 2799175.864433716516942 ], [ 553361.990713902865537, 2799171.593515336047858 ] ], [ [ 528366.08961800544057, 2801888.168940500356257 ], [ 528586.499784898944199, 2802819.449021498672664 ], [ 527517.590401557623409, 2802817.223031300120056 ], [ 527297.152571476413868, 2801885.961221177130938 ], [ 528366.08961800544057, 2801888.168940500356257 ] ], [ [ 528620.818652914953418, 2807473.978129877243191 ], [ 526483.278659142437391, 2807469.597786117345095 ], [ 526262.439034239854664, 2806538.223869256675243 ], [ 528400.034463030053303, 2806542.567575211636722 ], [ 528620.818652914953418, 2807473.978129877243191 ] ], [ [ 526704.187568471767008, 2808401.001471694558859 ], [ 525635.446187336812727, 2808398.920445799361914 ], [ 525414.509544016909786, 2807467.535055404528975 ], [ 526483.278659142437391, 2807469.597786117345095 ], [ 526704.187568471767008, 2808401.001471694558859 ] ], [ [ 539564.444841586751863, 2813087.986050828360021 ], [ 540633.056250056019053, 2813091.180374129675329 ], [ 540854.047693313215859, 2814022.986068745143712 ], [ 539785.46402005397249, 2814019.773008638061583 ], [ 539564.444841586751863, 2813087.986050828360021 ] ], [ [ 547451.38457726710476, 2810320.292721676174551 ], [ 547671.974721826612949, 2811252.139741263352334 ], [ 546603.301225223229267, 2811248.387294452637434 ], [ 546382.683405908523127, 2810316.559152430854738 ], [ 547451.38457726710476, 2810320.292721676174551 ] ], [ [ 549147.927680007298477, 2808464.335887761320919 ], [ 549368.324328833725303, 2809396.160359919071198 ], [ 547230.863530521281064, 2809388.475868503563106 ], [ 547010.411583776818588, 2808456.689162989147007 ], [ 549147.927680007298477, 2808464.335887761320919 ] ], [ [ 531458.870020117028616, 2783284.063172851223499 ], [ 531677.702211674069986, 2784214.878715740516782 ], [ 530608.237130896304734, 2784212.424871731549501 ], [ 530389.377497727749869, 2783281.627437185961753 ], [ 531458.870020117028616, 2783284.063172851223499 ] ], [ [ 554333.648160174489021, 2780565.479307889472693 ], [ 553897.810259157558903, 2778703.305812369100749 ], [ 554967.461249954649247, 2778707.585731407161802 ], [ 555185.318387919571251, 2779638.676246321760118 ], [ 556254.943307869951241, 2779643.058965230826288 ], [ 556472.842188464477658, 2780574.197986715938896 ], [ 554333.648160174489021, 2780565.479307889472693 ] ] ], [ [ [ 547302.280679241986945, 2818700.281211629044265 ], [ 546859.953070152085274, 2816836.20946958148852 ], [ 545791.447891904157586, 2816832.513870458584279 ], [ 546233.831011161790229, 2818696.547698203474283 ], [ 547302.280679241986945, 2818700.281211629044265 ] ] ], [ [ [ 544096.93467957014218, 2818689.336572992615402 ], [ 544318.28545250184834, 2819621.361014641355723 ], [ 546455.126231752103195, 2819628.610024840570986 ], [ 546233.831011161790229, 2818696.547698203474283 ], [ 544096.93467957014218, 2818689.336572992615402 ] ] ], [ [ [ 556234.873708735103719, 2838297.783559637609869 ], [ 555567.469349479069933, 2835499.568973815999925 ], [ 554499.516388938878663, 2835495.147758315782994 ], [ 555167.004544704221189, 2838293.304022696334869 ], [ 556234.873708735103719, 2838297.783559637609869 ] ] ], [ [ [ 556057.95504957716912, 2842024.609661472961307 ], [ 555612.341762134456076, 2840158.895261351019144 ], [ 554544.529716480639763, 2840154.462695892434567 ], [ 554321.798632603720762, 2839221.671158239711076 ], [ 555389.638643550104462, 2839226.084256392437965 ], [ 555167.004544704221189, 2838293.304022696334869 ], [ 553031.269785469165072, 2838284.6026117852889 ], [ 552808.648811676190235, 2837351.89196405839175 ], [ 549604.971367989783175, 2837339.542038119398057 ], [ 549382.33558684354648, 2836406.920074091758579 ], [ 548314.417331086471677, 2836402.994420441333205 ], [ 548091.822674313210882, 2835470.422334448434412 ], [ 547023.877513462444767, 2835466.601736798416823 ], [ 546801.323997799307108, 2834534.079445562325418 ], [ 543597.410689543932676, 2834523.189912990201265 ], [ 543820.04806681140326, 2835455.654744202736765 ], [ 544887.990232908516191, 2835459.217942174524069 ], [ 545110.66876619134564, 2836391.732429997064173 ], [ 544042.754568050033413, 2836388.150088329333812 ], [ 544265.530191045138054, 2837320.675964349880815 ], [ 545333.416411705082282, 2837324.277467922307551 ], [ 545779.119030554313213, 2839189.459270098246634 ], [ 543643.459526463528164, 2839182.265416315756738 ], [ 544089.550620089634322, 2841047.492799978237599 ], [ 545157.32385626656469, 2841051.085167417302728 ], [ 545380.445054787094705, 2841983.763988031074405 ], [ 552854.690343614318408, 2842011.452992640435696 ], [ 552631.765225606737658, 2841078.638815657235682 ], [ 554767.329827405628748, 2841087.285005662124604 ], [ 554990.198963141650893, 2842020.138106651138514 ], [ 556057.95504957716912, 2842024.609661472961307 ] ], [ [ 553253.959800317650661, 2839217.343975217547268 ], [ 552186.122123522567563, 2839213.102706741075963 ], [ 551963.404143909690902, 2838280.380736640654504 ], [ 553031.269785469165072, 2838284.6026117852889 ], [ 553253.959800317650661, 2839217.343975217547268 ] ], [ [ 544934.27176841115579, 2840118.43697377294302 ], [ 546002.073999452870339, 2840122.096072383690625 ], [ 546225.098071706946939, 2841054.763500840868801 ], [ 545157.32385626656469, 2841051.085167417302728 ], [ 544934.27176841115579, 2840118.43697377294302 ] ] ], [ [ [ 546050.223292116890661, 2844781.984402219764888 ], [ 546720.623445342993364, 2847580.481145487632602 ], [ 547788.201284528127871, 2847584.294633915647864 ], [ 547341.254905450972728, 2845718.560702623799443 ], [ 548408.889925029012375, 2845722.421589698176831 ], [ 548632.300502405269071, 2846655.292547750286758 ], [ 549699.908506554318592, 2846659.258941208943725 ], [ 549476.525992916314863, 2845726.36858303938061 ], [ 552679.440717629855499, 2845738.726206040941179 ], [ 552902.739067241316661, 2846671.674931741785258 ], [ 553970.351513926289044, 2846675.985867165960371 ], [ 554193.690848374739289, 2847608.984973924234509 ], [ 559531.630861825193278, 2847631.929784341249615 ], [ 559308.431735876714811, 2846698.832610064651817 ], [ 557173.195956939132884, 2846689.435497318394482 ], [ 556950.009762861998752, 2845756.408558066468686 ], [ 555882.365709448931739, 2845751.85880530346185 ], [ 555436.144300103187561, 2843885.936758769210428 ], [ 554368.445412236498669, 2843881.512196020688862 ], [ 554145.410225611529313, 2842948.616967699024826 ], [ 555213.13712145446334, 2842953.022017979063094 ], [ 554990.198963141650893, 2842020.138106651138514 ], [ 552854.690343614318408, 2842011.452992640435696 ], [ 553077.684503289987333, 2842944.29794343886897 ], [ 548806.792886387906037, 2842927.88209510827437 ], [ 549029.968180600670166, 2843860.680179096758366 ], [ 546894.584886361262761, 2843852.949733736924827 ], [ 547117.885349793476053, 2844785.739857431035489 ], [ 546050.223292116890661, 2844781.984402219764888 ] ] ] ] } }
]
}
