{
"type": "FeatureCollection",
"name": "urban-2060",
"crs": { "type": "name", "properties": { "name": "urn:ogc:def:crs:EPSG::32639" } },
"features": [
{ "type": "Feature", "properties": { "year": 2060 }, "geometry": { "type": "MultiPolygon", "coordinates": [ [ [ [ 534425.965896502952091, 2777709.938659674488008 ], [ 535495.62643675506115, 2777712.686494745314121 ], [ 535277.415817957138643, 2776781.986496835481375 ], [ 534207.727925296756439, 2776779.256784758064896 ], [ 533989.55917694454547, 2775848.604319109581411 ], [ 532919.844692598562688, 2775845.97673269873485 ], [ 533138.040788546437398, 2776776.611120873596519 ], [ 532068.354384067235515, 2776774.049504821188748 ], [ 532286.64707395597361, 2777704.695217121392488 ], [ 531216.988744399626739, 2777702.19960892572999 ], [ 532090.961438032449223, 2781425.00422718282789 ], [ 533160.510208106134087, 2781427.572171301580966 ], [ 532941.940572642139159, 2780496.808780299499631 ], [ 535081.095125931431539, 2780502.160923584364355 ], [ 534425.965896502952091, 2777709.938659674488008 ] ] ], [ [ [ 527180.90385787608102, 2783274.825674814172089 ], [ 526962.031155382166617, 2782344.111794309224933 ], [ 525892.513721767114475, 2782342.031000144779682 ], [ 526330.383321215049364, 2784203.452180210966617 ], [ 527399.845843785791658, 2784205.568951034452766 ], [ 527618.857110981014557, 2785136.341641330160201 ], [ 530827.166017038747668, 2785143.251773701515049 ], [ 530389.377497727749869, 2783281.627437185961753 ], [ 527180.90385787608102, 2783274.825674814172089 ] ] ], [ [ [ 525260.92137924185954, 2784201.419676938094199 ], [ 525479.987590458244085, 2785132.156365018337965 ], [ 526549.422058084630407, 2785134.206855511292815 ], [ 526330.383321215049364, 2784203.452180210966617 ], [ 525260.92137924185954, 2784201.419676938094199 ] ] ], [ [ [ 530283.679996913298965, 2800961.551804852671921 ], [ 529214.714037952129729, 2800959.192804081831127 ], [ 528994.4700507291127, 2800027.953864047303796 ], [ 526856.484748715418391, 2800023.526662134565413 ], [ 527076.784019812708721, 2800954.729104297235608 ], [ 528145.748720070580021, 2800956.91857066610828 ], [ 528366.08961800544057, 2801888.168940500356257 ], [ 529435.027286825003102, 2801890.461454659700394 ], [ 529655.40979519544635, 2802821.759834322147071 ], [ 531793.231790424790233, 2802826.635929110925645 ], [ 531572.904585131211206, 2801895.300868739373982 ], [ 530503.96560138289351, 2801892.838763965759426 ], [ 530283.679996913298965, 2800961.551804852671921 ] ] ], [ [ [ 534371.80807267036289, 2804694.684499540831894 ], [ 533710.784653998445719, 2801900.479466039687395 ], [ 532641.844261520309374, 2801897.847769316285849 ], [ 533302.950628388673067, 2804691.997519467957318 ], [ 534371.80807267036289, 2804694.684499540831894 ] ] ], [ [ [ 519886.734389290213585, 2811182.225684836506844 ], [ 519665.423204296967015, 2810250.860441876575351 ], [ 521802.789280970580876, 2810254.16030738921836 ], [ 521581.602997732174117, 2809322.788406407926232 ], [ 522650.314511777891312, 2809324.547683149110526 ], [ 522208.205444782215636, 2807461.856624620035291 ], [ 524345.740985520533286, 2807465.557285094633698 ], [ 524566.705367516377009, 2808396.924408091232181 ], [ 525635.446187336812727, 2808398.920445799361914 ], [ 525414.509544016909786, 2807467.535055404528975 ], [ 526483.278659142437391, 2807469.597786117345095 ], [ 526262.439034239854664, 2806538.223869256675243 ], [ 527331.236449248972349, 2806540.353255643043667 ], [ 527110.493821308366023, 2805608.990801870822906 ], [ 529248.145877804723568, 2805613.467717019841075 ], [ 528586.499784898944199, 2802819.449021498672664 ], [ 526448.681621726835147, 2802815.081863425672054 ], [ 526228.216123785241507, 2801883.838296390138566 ], [ 523021.410139247076586, 2801877.978286431171 ], [ 522800.930925866297912, 2800946.818903531879187 ], [ 520663.007474746787921, 2800943.372398264240474 ], [ 521104.145954730454832, 2802805.648349162656814 ], [ 520035.240303660684731, 2802804.016109542921185 ], [ 520255.941249725117814, 2803735.180387766566128 ], [ 521324.819195304065943, 2803736.830721722450107 ], [ 521545.561766740807798, 2804668.042717027012259 ], [ 519407.861754321784247, 2804664.790700661949813 ], [ 519628.729107997205574, 2805595.996104597579688 ], [ 520697.551160664705094, 2805597.597777168732136 ], [ 520918.460121252282988, 2806528.850925375241786 ], [ 519849.66580715845339, 2806527.23113243188709 ], [ 520070.671849661215674, 2807458.495802691206336 ], [ 519001.905723187956028, 2807456.942830604035407 ], [ 519444.181363516603597, 2809319.524897554889321 ], [ 518375.471196557686199, 2809318.020665002055466 ], [ 518596.740823193220422, 2810249.338072654325515 ], [ 517528.05884906288702, 2810247.900745509658009 ], [ 517749.425629419798497, 2811179.229706943035126 ], [ 516680.771843661961611, 2811177.859322573058307 ], [ 516902.235799252521247, 2812109.199848148040473 ], [ 515833.610197427507956, 2812107.89644391881302 ], [ 516276.801877722959034, 2813970.630326413083822 ], [ 518413.942127819755115, 2813973.394752901513129 ], [ 517970.861770764342509, 2812110.58834960963577 ], [ 519039.488135338644497, 2812112.061948494054377 ], [ 518818.079803502885625, 2811180.685160965658724 ], [ 519886.734389290213585, 2811182.225684836506844 ] ], [ [ 526669.216405394370668, 2803746.355124320369214 ], [ 527738.097507906262763, 2803748.514553210232407 ], [ 527958.673888370161876, 2804679.835805455688387 ], [ 526889.82047263905406, 2804677.658097617793828 ], [ 526669.216405394370668, 2803746.355124320369214 ] ] ], [ [ [ 527588.516006916644983, 2812126.914273091126233 ], [ 525451.255885965656489, 2812122.690599624067545 ], [ 525893.946909276070073, 2813985.752575546968728 ], [ 524825.373286373214796, 2813983.731710475869477 ], [ 525268.397091470542364, 2815846.876389391720295 ], [ 527405.433655157568865, 2815851.076827991288155 ], [ 527183.942738382844254, 2814919.452761775813997 ], [ 528252.48971645324491, 2814921.662357536144555 ], [ 527588.516006916644983, 2812126.914273091126233 ] ] ], [ [ [ 540170.853781546582468, 2833580.695137756876647 ], [ 539725.757004032493569, 2831716.032015333883464 ], [ 537589.657149037113413, 2831709.8295859224163 ], [ 538034.865747654810548, 2833574.416889244224876 ], [ 540170.853781546582468, 2833580.695137756876647 ] ] ], [ [ [ 552854.690343614318408, 2842011.452992640435696 ], [ 552631.765225606737658, 2841078.638815657235682 ], [ 553699.546944251749665, 2841082.918925519566983 ], [ 553476.718853988917544, 2840150.116073433309793 ], [ 552408.909151497995481, 2840145.855393386911601 ], [ 551963.404143909690902, 2838280.380736640654504 ], [ 550895.539630154613405, 2838276.244747606571764 ], [ 550672.862741391174495, 2837343.572822222020477 ], [ 549604.971367989783175, 2837339.542038119398057 ], [ 549382.33558684354648, 2836406.920074091758579 ], [ 548314.417331086471677, 2836402.994420441333205 ], [ 548091.822674313210882, 2835470.422334448434412 ], [ 545955.933374059968628, 2835462.866939542349428 ], [ 545733.351909089717083, 2834530.363829492591321 ], [ 544665.380814072443172, 2834526.733985465019941 ], [ 545110.66876619134564, 2836391.732429997064173 ], [ 546178.583943951292895, 2836395.40059890691191 ], [ 546401.303616546094418, 2837327.964826582465321 ], [ 545333.416411705082282, 2837324.277467922307551 ], [ 545556.233167231432162, 2838256.853074952960014 ], [ 546624.092389624915086, 2838260.559641579631716 ], [ 547069.877228357596323, 2840125.841109624598175 ], [ 546002.073999452870339, 2840122.096072383690625 ], [ 546448.191245091613382, 2841987.461574512533844 ], [ 547515.938442372716963, 2841991.245155326090753 ], [ 547292.873289567534812, 2841058.527800743933767 ], [ 548360.649533003219403, 2841062.378067636396736 ], [ 548583.686669778311625, 2841995.11473098071292 ], [ 552854.690343614318408, 2842011.452992640435696 ] ] ], [ [ [ 545779.119030554313213, 2839189.459270098246634 ], [ 543643.459526463528164, 2839182.265416315756738 ], [ 544089.550620089634322, 2841047.492799978237599 ], [ 545157.32385626656469, 2841051.085167417302728 ], [ 544934.27176841115579, 2840118.43697377294302 ], [ 546002.073999452870339, 2840122.096072383690625 ], [ 545779.119030554313213, 2839189.459270098246634 ] ] ], [ [ [ 541954.006992906797677, 2841040.565961123909801 ], [ 541730.870830827974714, 2840107.975304843857884 ], [ 540663.072359607322142, 2840104.659955931827426 ], [ 540886.236555589479394, 2841037.231488774064928 ], [ 539818.467004914651625, 2841033.982980537228286 ], [ 540265.058946607401595, 2842899.179481291677803 ], [ 541332.772391704376787, 2842902.466235461179167 ], [ 541556.14402740332298, 2843835.129487350583076 ], [ 542623.830305830575526, 2843838.521439499221742 ], [ 542177.212294244556688, 2841973.187189640942961 ], [ 543244.955602511297911, 2841976.626796076539904 ], [ 543021.778340021381155, 2841043.986398037523031 ], [ 541954.006992906797677, 2841040.565961123909801 ] ] ], [ [ [ 546547.99325213523116, 2851308.436023352667689 ], [ 546324.152944316156209, 2850375.469291737303138 ], [ 547391.645454262965359, 2850379.254733566660434 ], [ 547615.457636966952123, 2851312.240873261354864 ], [ 548682.923051187884994, 2851316.131995542440563 ], [ 548011.778103481163271, 2848517.207758240867406 ], [ 545876.679624683805741, 2848509.628208193928003 ], [ 545653.046617338201031, 2847576.753818002063781 ], [ 544585.470777408685535, 2847573.112650958355516 ], [ 544809.131885788636282, 2848505.96771586406976 ], [ 543741.585116432514042, 2848502.393411334138364 ], [ 543965.343451893888414, 2849435.259903538972139 ], [ 542897.825748695991933, 2849431.752498435322195 ], [ 542674.039293514215387, 2848498.90529412124306 ], [ 541606.494393936940469, 2848495.503363756928593 ], [ 542054.19269123673439, 2850361.189959520008415 ], [ 543121.681332669919357, 2850364.630428283941001 ], [ 543345.606043205596507, 2851297.539102782029659 ], [ 544413.067478332319297, 2851301.085138607770205 ], [ 544189.170906604267657, 2850368.157139590010047 ], [ 545256.661436124588363, 2850371.770093911327422 ], [ 545480.529873615945689, 2851304.717445301357657 ], [ 546547.99325213523116, 2851308.436023352667689 ] ] ], [ [ [ 541210.685961116221733, 2851290.705841831397265 ], [ 542278.145545159117319, 2851294.079337345436215 ], [ 542054.19269123673439, 2850361.189959520008415 ], [ 540986.704959221300669, 2850357.835732832085341 ], [ 541210.685961116221733, 2851290.705841831397265 ] ] ], [ [ [ 561988.415841206675395, 2767577.104013376869261 ], [ 561121.969084260286763, 2763853.794616408646107 ], [ 560051.871616072719917, 2763849.057804670184851 ], [ 559835.405304383370094, 2762918.323228474706411 ], [ 560905.529861039831303, 2762923.041431474033743 ], [ 559824.36864860879723, 2758269.719572557136416 ], [ 558754.108791208942421, 2758265.094148756470531 ], [ 559186.420378836221062, 2760126.297093887347728 ], [ 558116.21592755522579, 2760121.718172214925289 ], [ 557899.998574205790646, 2759191.120441136416048 ], [ 553619.085169811034575, 2759173.714114687871188 ], [ 554051.805460992152803, 2761034.791518582962453 ], [ 552981.634310921304859, 2761030.612003655172884 ], [ 552765.212551468983293, 2760100.076956517528743 ], [ 551695.015485980431549, 2760095.999387789983302 ], [ 552127.982258324045688, 2761957.062211181502789 ], [ 553198.125131434295326, 2761961.176519537810236 ], [ 553848.01193793839775, 2764753.047063022386283 ], [ 552777.950424143462442, 2764748.877512988168746 ], [ 553428.540147362276912, 2767540.958535195328295 ], [ 554498.520216910983436, 2767545.183485766872764 ], [ 554281.615074998000637, 2766614.441772090271115 ], [ 556421.63316187215969, 2766623.105961302760988 ], [ 556638.484002199023962, 2767553.884727496188134 ], [ 557708.467765351873823, 2767558.361019837670028 ], [ 558359.35295186447911, 2770350.930998022202402 ], [ 559429.256518119131215, 2770355.546965806744993 ], [ 558995.318372043431737, 2768493.766692015342414 ], [ 560065.277571539743803, 2768498.429189933463931 ], [ 559848.439151216414757, 2767567.564950515516102 ], [ 561988.415841206675395, 2767577.104013376869261 ] ], [ [ 555975.810872343019582, 2760112.811009203083813 ], [ 557046.012766644358635, 2760117.222810857463628 ], [ 557262.32620509096887, 2761047.831580286845565 ], [ 556192.151384321390651, 2761043.401306313462555 ], [ 555975.810872343019582, 2760112.811009203083813 ] ] ], [ [ [ 556219.549671703833155, 2770341.950657784938812 ], [ 556002.464579419582151, 2769411.101531654130667 ], [ 554932.537636773078702, 2769406.755723367910832 ], [ 555149.649910422274843, 2770337.58628411218524 ], [ 556219.549671703833155, 2770341.950657784938812 ] ] ], [ [ [ 554731.584034331142902, 2773125.919726197607815 ], [ 555801.400960430153646, 2773130.255955230910331 ], [ 555149.649910422274843, 2770337.58628411218524 ], [ 554079.751370092853904, 2770333.305773940868676 ], [ 554731.584034331142902, 2773125.919726197607815 ] ] ], [ [ [ 535059.274412579601631, 2775851.315925922244787 ], [ 534841.202222755295224, 2774920.674763660877943 ], [ 533771.459653577301651, 2774917.981244390830398 ], [ 533989.55917694454547, 2775848.604319109581411 ], [ 535059.274412579601631, 2775851.315925922244787 ] ] ], [ [ [ 559880.500347305787727, 2776867.968172557651997 ], [ 560315.734886559424922, 2778730.247031580191106 ], [ 561385.393515778239816, 2778735.031636919360608 ], [ 561603.087011666968465, 2779666.234691555611789 ], [ 562672.719738561776467, 2779671.122267582919449 ], [ 562455.053500754293054, 2778739.900358848739415 ], [ 563524.714865111745894, 2778744.853198030032218 ], [ 563089.643789176712744, 2776882.461374312173575 ], [ 559880.500347305787727, 2776867.968172557651997 ] ] ], [ [ [ 551124.866053985082544, 2780553.032547927461565 ], [ 550906.830656893202104, 2779621.986771942581981 ], [ 549837.21159324189648, 2779618.024750828742981 ], [ 550055.274307144340128, 2780549.051961215678602 ], [ 551124.866053985082544, 2780553.032547927461565 ] ] ], [ [ [ 549422.071008109604008, 2782407.262044966220856 ], [ 548985.68366523028817, 2780545.155540232080966 ], [ 545776.918132943566889, 2780533.971266415901482 ], [ 545995.15927923459094, 2781464.954153029248118 ], [ 543856.042051894823089, 2781457.881929049268365 ], [ 543201.361924267490394, 2778665.132707294542342 ], [ 542131.722728349966928, 2778661.777993914205581 ], [ 541913.60697271139361, 2777730.939122499432415 ], [ 540843.941373035078868, 2777727.686823297291994 ], [ 541062.084462948492728, 2778658.507387178018689 ], [ 539992.447104439837858, 2778655.320886641275138 ], [ 540210.686704602674581, 2779586.15270550455898 ], [ 541280.296714817173779, 2779589.357503517065197 ], [ 541498.578126499196514, 2780520.23719073086977 ], [ 539359.413713978836313, 2780513.875125619582832 ], [ 539577.819022277020849, 2781444.747763943392783 ], [ 538508.265507407370023, 2781441.674695644527674 ], [ 538945.338426142465323, 2783303.472099218517542 ], [ 537875.840551303117536, 2783300.446666781790555 ], [ 538094.50819038238842, 2784231.371443362440914 ], [ 537025.038564822985791, 2784228.411979354918003 ], [ 536806.343511866871268, 2783297.505477881524712 ], [ 534667.351844849064946, 2783291.875829104334116 ], [ 534886.101739382254891, 2784222.74586376035586 ], [ 532747.167990958783776, 2784217.416828849818558 ], [ 532528.363236373639666, 2783286.583149829879403 ], [ 531458.870020117028616, 2783284.063172851223499 ], [ 531896.603646766045131, 2785145.723743837792426 ], [ 532966.04197963885963, 2785148.280010864138603 ], [ 533184.985200276481919, 2786079.17271428136155 ], [ 531046.164154022349976, 2786074.108161489479244 ], [ 531265.231539709842764, 2787004.99405350163579 ], [ 530195.849529266357422, 2787002.570129856467247 ], [ 530853.549637562595308, 2789795.350506796967238 ], [ 532992.149400446447544, 2789800.39180690003559 ], [ 532772.901779746753164, 2788869.399076516274363 ], [ 533842.230232536327094, 2788872.02813721075654 ], [ 534061.450359599199146, 2789803.039110550191253 ], [ 535130.752068615402095, 2789805.770850407890975 ], [ 535788.745244965655729, 2792599.036445250269026 ], [ 534719.526059690630063, 2792596.249786122236401 ], [ 535378.224693029536866, 2795389.727483270689845 ], [ 537516.498647000989877, 2795395.495564823038876 ], [ 537955.866884088609368, 2797258.036296012811363 ], [ 536886.784617187571712, 2797255.073088593780994 ], [ 537106.600083994911984, 2798186.369681792333722 ], [ 533899.440787432249635, 2798177.932800888549536 ], [ 534339.444853732828051, 2800040.504816967528313 ], [ 533270.448479506652802, 2800037.825145269744098 ], [ 533710.784653998445719, 2801900.479466039687395 ], [ 534779.725786018534563, 2801903.195959267672151 ], [ 534999.970071508781984, 2802834.586249184794724 ], [ 536068.884335841750726, 2802837.406004738993943 ], [ 535848.66768102964852, 2801905.997249366249889 ], [ 536917.610362480860204, 2801908.883336716797203 ], [ 537798.781615290790796, 2805634.771644760854542 ], [ 538867.61456399038434, 2805637.816721684765071 ], [ 538647.245618372922763, 2804706.281222771853209 ], [ 541853.832590677193366, 2804715.870019434019923 ], [ 542074.118614246021025, 2805647.461409954354167 ], [ 541005.283040044829249, 2805644.161603852175176 ], [ 541225.665855855797417, 2806575.764318953733891 ], [ 540156.85883040423505, 2806572.53077451325953 ], [ 540377.338459826074541, 2807504.144824760966003 ], [ 541446.117825639550574, 2807507.397035665344447 ], [ 541666.638947219937108, 2808439.059772670269012 ], [ 540597.887250527157448, 2808435.78887732559815 ], [ 540818.505200331215747, 2809367.462950893677771 ], [ 538681.059821322211064, 2809361.138817925937474 ], [ 539122.613988376804627, 2811224.502352140843868 ], [ 538053.947993883630261, 2811221.430524178314954 ], [ 538495.8342982432805, 2813084.876858945004642 ], [ 539564.444841586751863, 2813087.986050828360021 ], [ 539343.494830301147886, 2812156.229171570390463 ], [ 540412.133964491775259, 2812159.404776087030768 ], [ 540854.047693313215859, 2814022.986068745143712 ], [ 539785.46402005397249, 2814019.773008638061583 ], [ 540006.552363522583619, 2814951.590063735377043 ], [ 538937.997309275437146, 2814948.443435858935118 ], [ 539159.182574344798923, 2815880.271861945278943 ], [ 537022.130526748136617, 2815874.196759059093893 ], [ 536800.889730308321305, 2814942.405739599838853 ], [ 535732.337158884503879, 2814939.514670400414616 ], [ 536396.350459609180689, 2817734.921950632240623 ], [ 537464.819684763322584, 2817737.869058721698821 ], [ 537686.268041977193207, 2818669.750376422889531 ], [ 536617.826617893064395, 2818666.784552607219666 ], [ 537060.986508432892151, 2820530.600131933577359 ], [ 542402.924028038978577, 2820546.470210726372898 ], [ 541738.704999612178653, 2817750.510187924373895 ], [ 542807.178548540221527, 2817753.883646574337035 ], [ 541922.632259652251378, 2814026.284288527444005 ], [ 542991.217742429114878, 2814029.667668429668993 ], [ 543212.222865553339943, 2814961.541071499232203 ], [ 544280.78155716881156, 2814965.02845029393211 ], [ 544501.828074178192765, 2815896.950879851356149 ], [ 547707.426854768651538, 2815907.980887522455305 ], [ 546823.988149656564929, 2812180.245603638701141 ], [ 548961.280821880674921, 2812187.873395775910467 ], [ 548520.086787060485221, 2810324.111342604272068 ], [ 547451.38457726710476, 2810320.292721676174551 ], [ 547671.974721826612949, 2811252.139741263352334 ], [ 546603.301225223229267, 2811248.387294452637434 ], [ 546162.13469389884267, 2809384.76115882024169 ], [ 547230.863530521281064, 2809388.475868503563106 ], [ 547010.411583776818588, 2808456.689162989147007 ], [ 550216.687330646207556, 2808468.286745452787727 ], [ 549996.387397690792568, 2807536.473531102295965 ], [ 551065.175776021322235, 2807540.490451439283788 ], [ 551726.199880928033963, 2810336.077520711813122 ], [ 552794.906478339340538, 2810340.236353655345738 ], [ 552574.523689895519055, 2809408.324785061180592 ], [ 554711.995645939023234, 2809416.859533572569489 ], [ 554271.547715262975544, 2807553.051036371849477 ], [ 557477.930352465482429, 2807566.376369209960103 ], [ 557257.89273128437344, 2806634.460315535310656 ], [ 559395.542581366025843, 2806643.730487005319446 ], [ 559175.629122655955143, 2805711.806488870643079 ], [ 557037.924121729680337, 2805702.574533115141094 ], [ 556818.024525999906473, 2804770.71900316234678 ], [ 554680.269375039148144, 2804761.864788025151938 ], [ 554020.819357367465273, 2801966.593514719977975 ], [ 555089.778996261884458, 2801970.921224542893469 ], [ 554431.032941817538813, 2799175.864433716516942 ], [ 555500.07636480522342, 2799180.220074595417827 ], [ 555719.561831524129957, 2800111.894483652897179 ], [ 556788.578961853752844, 2800116.353815869428217 ], [ 556569.121006339904852, 2799184.660438562277704 ], [ 558707.214038932928815, 2799193.795338180381805 ], [ 558487.880093094427139, 2798262.094115848187357 ], [ 559556.956019390258007, 2798266.769618845544755 ], [ 558899.450615924084559, 2795471.789820687845349 ], [ 559968.610244750627317, 2795476.492943625431508 ], [ 560406.823263854952529, 2797339.82069372292608 ], [ 561475.929299460607581, 2797344.646521079819649 ], [ 560381.051392900059, 2792686.458029181696475 ], [ 561450.295963834389113, 2792691.273298460990191 ], [ 561012.882506362511776, 2790828.170750751625746 ], [ 562082.183227682951838, 2790833.032530301250517 ], [ 561863.607356627122499, 2789901.507398977410048 ], [ 562932.936824979027733, 2789906.43464378034696 ], [ 562714.457300246926025, 2788974.920595675241202 ], [ 563783.8155208096141, 2788979.913268532603979 ], [ 562256.581371648935601, 2782460.023380308877677 ], [ 563326.13226749189198, 2782464.96762531157583 ], [ 562890.454947070218623, 2780602.374102520290762 ], [ 560751.245393023593351, 2780592.645379022695124 ], [ 560533.455644975067116, 2779661.431259974371642 ], [ 559463.825614867499098, 2779656.711972186341882 ], [ 559246.077589474152774, 2778725.546542182099074 ], [ 558176.421600895002484, 2778720.93016808712855 ], [ 558612.041203117696568, 2780583.253342120908201 ], [ 557542.441060689743608, 2780578.683579542674124 ], [ 557106.766897198394872, 2778716.397908668033779 ], [ 554967.461249954649247, 2778707.585731407161802 ], [ 555185.318387919571251, 2779638.676246321760118 ], [ 556254.943307869951241, 2779643.058965230826288 ], [ 556472.842188464477658, 2780574.197986715938896 ], [ 554333.648160174489021, 2780565.479307889472693 ], [ 554115.694686464848928, 2779634.377668116707355 ], [ 553046.072179887443781, 2779630.163230030797422 ], [ 552828.160458745085634, 2778699.110005612950772 ], [ 551758.511825091205537, 2778694.998310570139438 ], [ 552194.458929363288917, 2780557.097300907131284 ], [ 551124.866053985082544, 2780553.032547927461565 ], [ 551779.386672303313389, 2783346.348445195704699 ], [ 552848.897554043214768, 2783350.469085132703185 ], [ 553285.535257456358522, 2785212.866023179143667 ], [ 552216.079085444449447, 2785208.708036303985864 ], [ 551997.698346889577806, 2784277.513329104054719 ], [ 550928.215961860609241, 2784273.458302200306207 ], [ 550491.606978998635896, 2782411.195594811812043 ], [ 549422.071008109604008, 2782407.262044966220856 ] ], [ [ 542770.281755833071657, 2813097.824416731484234 ], [ 541701.668547015986405, 2813094.459829283412546 ], [ 541480.773982583777979, 2812162.665484632365406 ], [ 543618.056763969012536, 2812169.442215585149825 ], [ 544059.804165004519746, 2814033.136208911892027 ], [ 542991.217742429114878, 2814029.667668429668993 ], [ 542770.281755833071657, 2813097.824416731484234 ] ], [ [ 543397.286759469192475, 2811237.640426121652126 ], [ 544465.957267425954342, 2811241.137637371663004 ], [ 544686.699574010330252, 2812172.958238910883665 ], [ 543618.056763969012536, 2812169.442215585149825 ], [ 543397.286759469192475, 2811237.640426121652126 ] ], [ [ 553361.990713902865537, 2799171.593515336047858 ], [ 553142.519259441876784, 2798239.987044642679393 ], [ 554211.588998058927245, 2798244.239068395923823 ], [ 554431.032941817538813, 2799175.864433716516942 ], [ 553361.990713902865537, 2799171.593515336047858 ] ], [ [ 555424.451149036292918, 2785221.434915507677943 ], [ 555642.818855707650073, 2786152.715648609213531 ], [ 557781.684927850961685, 2786161.659364863764495 ], [ 558000.066940132295713, 2787093.007642718497664 ], [ 553722.449170229723677, 2787075.38239982444793 ], [ 553285.535257456358522, 2785212.866023179143667 ], [ 555424.451149036292918, 2785221.434915507677943 ] ] ], [ [ [ 549588.790058676968329, 2810328.015015731565654 ], [ 549368.324328833725303, 2809396.160359919071198 ], [ 548299.593401034595445, 2809392.275602031499147 ], [ 548520.086787060485221, 2810324.111342604272068 ], [ 549588.790058676968329, 2810328.015015731565654 ] ] ], [ [ [ 551946.679371818900108, 2811268.00032897060737 ], [ 551726.199880928033963, 2810336.077520711813122 ], [ 550657.494415503344499, 2810332.003741587512195 ], [ 550878.00156302168034, 2811263.907560912426561 ], [ 551946.679371818900108, 2811268.00032897060737 ] ] ], [ [ [ 556234.873708735103719, 2838297.783559637609869 ], [ 555789.868453077273443, 2836432.276430493220687 ], [ 554721.943415167159401, 2836427.835792732890695 ], [ 555167.004544704221189, 2838293.304022696334869 ], [ 556234.873708735103719, 2838297.783559637609869 ] ] ], [ [ [ 553031.269785469165072, 2838284.6026117852889 ], [ 553476.718853988917544, 2840150.116073433309793 ], [ 554544.529716480639763, 2840154.462695892434567 ], [ 554321.798632603720762, 2839221.671158239711076 ], [ 555389.638643550104462, 2839226.084256392437965 ], [ 555167.004544704221189, 2838293.304022696334869 ], [ 553031.269785469165072, 2838284.6026117852889 ] ] ], [ [ [ 557173.195956939132884, 2846689.435497318394482 ], [ 556950.009762861998752, 2845756.408558066468686 ], [ 554814.722866185707971, 2845747.39516277750954 ], [ 554591.5496265089605, 2844814.438254667446017 ], [ 555659.220496849273331, 2844818.882348162122071 ], [ 555436.144300103187561, 2843885.936758769210428 ], [ 554368.445412236498669, 2843881.512196020688862 ], [ 554145.410225611529313, 2842948.616967699024826 ], [ 555213.13712145446334, 2842953.022017979063094 ], [ 554990.198963141650893, 2842020.138106651138514 ], [ 552854.690343614318408, 2842011.452992640435696 ], [ 553077.684503289987333, 2842944.29794343886897 ], [ 548806.792886387906037, 2842927.88209510827437 ], [ 549253.212550188065507, 2844793.509002040140331 ], [ 548185.548428108799271, 2844789.581390531267971 ], [ 547962.276013871305622, 2843856.771931141149253 ], [ 546894.584886361262761, 2843852.949733736924827 ], [ 547117.885349793476053, 2844785.739857431035489 ], [ 546050.223292116890661, 2844781.984402219764888 ], [ 546720.623445342993364, 2847580.481145487632602 ], [ 547788.201284528127871, 2847584.294633915647864 ], [ 547341.254905450972728, 2845718.560702623799443 ], [ 548408.889925029012375, 2845722.421589698176831 ], [ 548632.300502405269071, 2846655.292547750286758 ], [ 549699.908506554318592, 2846659.258941208943725 ], [ 549476.525992916314863, 2845726.36858303938061 ], [ 550544.163132231216878, 2845730.40168317919597 ], [ 550320.877739158691838, 2844797.522692488040775 ], [ 551388.544018149725161, 2844801.622462415602058 ], [ 551611.80136609589681, 2845734.520890661049634 ], [ 552679.440717629855499, 2845738.726206040941179 ], [ 552902.739067241316661, 2846671.674931741785258 ], [ 553970.351513926289044, 2846675.985867165960371 ], [ 554193.690848374739289, 2847608.984973924234509 ], [ 555261.276412794482894, 2847613.401604013051838 ], [ 555037.965129029704258, 2846680.382939505856484 ], [ 556105.579935662681237, 2846684.866149355191737 ], [ 556552.215419945190661, 2848550.973574875388294 ], [ 557619.775348278577439, 2848555.582168149296194 ], [ 557396.45115282619372, 2847622.493360949680209 ], [ 559531.630861825193278, 2847631.929784341249615 ], [ 559308.431735876714811, 2846698.832610064651817 ], [ 557173.195956939132884, 2846689.435497318394482 ] ] ] ] } }
]
}
