{
"type": "FeatureCollection",
"name": "urban-2025",
"crs": { "type": "name", "properties": { "name": "urn:ogc:def:crs:EPSG::32639" } },
"features": [
{ "type": "Feature", "properties": { "year": 2025 }, "geometry": { "type": "MultiPolygon", "coordinates": [ [ [ [ 519628.729107997205574, 2805595.996104597579688 ], [ 520697.551160664705094, 2805597.597777168732136 ], [ 520476.711536107526626, 2804666.374270805157721 ], [ 519407.861754321784247, 2804664.790700661949813 ], [ 519628.729107997205574, 2805595.996104597579688 ] ] ], [ [ [ 527110.493821308366023, 2805608.990801870822906 ], [ 529248.145877804723568, 2805613.467717019841075 ], [ 529027.527916952618398, 2804682.098391194827855 ], [ 526889.82047263905406, 2804677.658097617793828 ], [ 527110.493821308366023, 2805608.990801870822906 ] ] ], [ [ [ 519665.423204296967015, 2810250.860441876575351 ], [ 520734.106015759520233, 2810252.467853382695466 ], [ 520512.891956110019237, 2809321.114144618622959 ], [ 521581.602997732174117, 2809322.788406407926232 ], [ 521360.486041933239903, 2808391.446221449412405 ], [ 522429.225318215845618, 2808393.187296169809997 ], [ 522208.205444782215636, 2807461.856624620035291 ], [ 523276.972960244340356, 2807463.664474918041378 ], [ 523056.050147696922068, 2806532.345306367613375 ], [ 524124.845906879985705, 2806534.219894890207797 ], [ 524345.740985520533286, 2807465.557285094633698 ], [ 525414.509544016909786, 2807467.535055404528975 ], [ 525193.642194589250721, 2806536.179415764752775 ], [ 527331.236449248972349, 2806540.353255643043667 ], [ 527110.493821308366023, 2805608.990801870822906 ], [ 526041.668695918284357, 2805606.879702536389232 ], [ 525820.967646330478601, 2804675.565267385914922 ], [ 526889.82047263905406, 2804677.658097617793828 ], [ 526669.216405394370668, 2803746.355124320369214 ], [ 527738.097507906262763, 2803748.514553210232407 ], [ 527517.590401557623409, 2802817.223031300120056 ], [ 525379.77342196344398, 2802813.025517584756017 ], [ 525159.280251483083703, 2801881.800165852531791 ], [ 523021.410139247076586, 2801877.978286431171 ], [ 522800.930925866297912, 2800946.818903531879187 ], [ 521731.96896186604863, 2800945.053268178366125 ], [ 521952.475852411065716, 2801876.194537030067295 ], [ 520883.542047164752148, 2801874.495580842718482 ], [ 521766.373666897183284, 2805599.284353592433035 ], [ 520697.551160664705094, 2805597.597777168732136 ], [ 521139.438415723911021, 2807460.133733955677599 ], [ 520070.671849661215674, 2807458.495802691206336 ], [ 520291.747233360889368, 2808389.790133905597031 ], [ 519223.008869098091964, 2808388.219033312052488 ], [ 519444.181363516603597, 2809319.524897554889321 ], [ 518375.471196557686199, 2809318.020665002055466 ], [ 518596.740823193220422, 2810249.338072654325515 ], [ 517528.05884906288702, 2810247.900745509658009 ], [ 517749.425629419798497, 2811179.229706943035126 ], [ 516680.771843661961611, 2811177.859322573058307 ], [ 516902.235799252521247, 2812109.199848148040473 ], [ 519039.488135338644497, 2812112.061948494054377 ], [ 518818.079803502885625, 2811180.685160965658724 ], [ 519886.734389290213585, 2811182.225684836506844 ], [ 519665.423204296967015, 2810250.860441876575351 ] ] ], [ [ [ 516902.235799252521247, 2812109.199848148040473 ], [ 515833.610197427507956, 2812107.89644391881302 ], [ 516055.171349768294021, 2813039.248543980531394 ], [ 517123.769123142992612, 2813040.570055525749922 ], [ 516902.235799252521247, 2812109.199848148040473 ] ] ], [ [ [ 517345.371813184930943, 2813971.969963272102177 ], [ 518413.942127819755115, 2813973.394752901513129 ], [ 518192.367270947434008, 2813041.976692072115839 ], [ 517123.769123142992612, 2813040.570055525749922 ], [ 517345.371813184930943, 2813971.969963272102177 ] ] ], [ [ [ 539197.758927282644436, 2820536.692103575449437 ], [ 542402.924028038978577, 2820546.470210726372898 ], [ 541960.04219857393764, 2818682.466646740213037 ], [ 540891.597343737259507, 2818679.159632053691894 ], [ 540670.232362101902254, 2817747.222000252921134 ], [ 541738.704999612178653, 2817750.510187924373895 ], [ 541075.108292083255947, 2814954.821878674440086 ], [ 538937.997309275437146, 2814948.443435858935118 ], [ 539380.437009540502913, 2816812.130404777359217 ], [ 537243.440512292901985, 2816806.017859184648842 ], [ 537686.268041977193207, 2818669.750376422889531 ], [ 536617.826617893064395, 2818666.784552607219666 ], [ 537060.986508432892151, 2820530.600131933577359 ], [ 538129.372301898780279, 2820533.603441391140223 ], [ 537907.785581750795245, 2819601.66183105437085 ], [ 538976.200022583361715, 2819604.731713563203812 ], [ 539197.758927282644436, 2820536.692103575449437 ] ] ], [ [ [ 538034.865747654810548, 2833574.416889244224876 ], [ 540170.853781546582468, 2833580.695137756876647 ], [ 539725.757004032493569, 2831716.032015333883464 ], [ 537589.657149037113413, 2831709.8295859224163 ], [ 538034.865747654810548, 2833574.416889244224876 ] ] ], [ [ [ 542674.039293514215387, 2848498.90529412124306 ], [ 541606.494393936940469, 2848495.503363756928593 ], [ 541830.308973419712856, 2849428.331308025866747 ], [ 542897.825748695991933, 2849431.752498435322195 ], [ 542674.039293514215387, 2848498.90529412124306 ] ] ], [ [ [ 548235.424005733686499, 2849450.151680525857955 ], [ 547167.902359933708794, 2849446.299411800689995 ], [ 546944.228356215520762, 2848513.374888818245381 ], [ 545876.679624683805741, 2848509.628208193928003 ], [ 545653.046617338201031, 2847576.753818002063781 ], [ 544585.470777408685535, 2847573.112650958355516 ], [ 544809.131885788636282, 2848505.96771586406976 ], [ 543741.585116432514042, 2848502.393411334138364 ], [ 543965.343451893888414, 2849435.259903538972139 ], [ 542897.825748695991933, 2849431.752498435322195 ], [ 543121.681332669919357, 2850364.630428283941001 ], [ 547391.645454262965359, 2850379.254733566660434 ], [ 547615.457636966952123, 2851312.240873261354864 ], [ 548682.923051187884994, 2851316.131995542440563 ], [ 548235.424005733686499, 2849450.151680525857955 ] ] ], [ [ [ 559848.439151216414757, 2767567.564950515516102 ], [ 561988.415841206675395, 2767577.104013376869261 ], [ 561555.054494228679687, 2765715.389946601353586 ], [ 560485.011231309501454, 2765710.615864425897598 ], [ 560268.406925764633343, 2764779.822010517586023 ], [ 559198.337891885428689, 2764775.15027253748849 ], [ 558981.775479831499979, 2763844.404665235430002 ], [ 560051.871616072719917, 2763849.057804670184851 ], [ 559402.679683617781848, 2761056.942891464568675 ], [ 558332.502296937862411, 2761052.345441799610853 ], [ 558116.21592755522579, 2760121.718172214925289 ], [ 557046.012766644358635, 2760117.222810857463628 ], [ 557262.32620509096887, 2761047.831580286845565 ], [ 556192.151384321390651, 2761043.401306313462555 ], [ 555975.810872343019582, 2760112.811009203083813 ], [ 553835.410788517678156, 2760104.238082616589963 ], [ 554268.269185094628483, 2761965.37444091681391 ], [ 553198.125131434295326, 2761961.176519537810236 ], [ 554281.615074998000637, 2766614.441772090271115 ], [ 556421.63316187215969, 2766623.105961302760988 ], [ 556638.484002199023962, 2767553.884727496188134 ], [ 557708.467765351873823, 2767558.361019837670028 ], [ 558142.322208886966109, 2769420.044657601509243 ], [ 559212.252943094703369, 2769424.641976479440928 ], [ 558561.656250486033969, 2766632.105163912288845 ], [ 559631.669729731511325, 2766636.730396762955934 ], [ 559848.439151216414757, 2767567.564950515516102 ] ] ], [ [ [ 541280.296714817173779, 2779589.357503517065197 ], [ 542349.907636499847285, 2779592.64643553737551 ], [ 542568.161695019342005, 2780523.54446579143405 ], [ 543637.746203193790279, 2780526.935903117060661 ], [ 543201.361924267490394, 2778665.132707294542342 ], [ 541062.084462948492728, 2778658.507387178018689 ], [ 541280.296714817173779, 2779589.357503517065197 ] ] ], [ [ [ 531896.603646766045131, 2785145.723743837792426 ], [ 532966.04197963885963, 2785148.280010864138603 ], [ 532747.167990958783776, 2784217.416828849818558 ], [ 531677.702211674069986, 2784214.878715740516782 ], [ 531896.603646766045131, 2785145.723743837792426 ] ] ], [ [ [ 552434.528885804000311, 2786139.932585339527577 ], [ 549226.249316212837584, 2786127.908521596342325 ], [ 549444.850338843069039, 2787059.106944037601352 ], [ 550514.248353671748191, 2787063.049267425201833 ], [ 550732.891060642898083, 2787994.296167671214789 ], [ 551802.262791436747648, 2787998.341531217098236 ], [ 552020.947166171856225, 2788929.636991315055639 ], [ 554159.639275018591434, 2788938.018363615497947 ], [ 553941.009699707152322, 2788006.685424036812037 ], [ 552871.635663272463717, 2788002.471283152233809 ], [ 552434.528885804000311, 2786139.932585339527577 ] ] ], [ [ [ 550732.891060642898083, 2787994.296167671214789 ], [ 549663.520447337417863, 2787990.335191964637488 ], [ 549444.850338843069039, 2787059.106944037601352 ], [ 548375.453413422801532, 2787055.248980121221393 ], [ 548156.824994208058342, 2786124.06916434597224 ], [ 549226.249316212837584, 2786127.908521596342325 ], [ 548789.254537201020867, 2784265.601079007610679 ], [ 549858.734699824708514, 2784269.487552348058671 ], [ 549203.842791985603981, 2781476.193926518782973 ], [ 548134.280566697823815, 2781472.363143019378185 ], [ 547916.094104631920345, 2780541.343284447211772 ], [ 546846.505601740442216, 2780537.61519334372133 ], [ 547064.719403649563901, 2781468.616552025545388 ], [ 542786.484901762567461, 2781454.472103105857968 ], [ 542568.161695019342005, 2780523.54446579143405 ], [ 539359.413713978836313, 2780513.875125619582832 ], [ 539577.819022277020849, 2781444.747763943392783 ], [ 538508.265507407370023, 2781441.674695644527674 ], [ 538945.338426142465323, 2783303.472099218517542 ], [ 540014.837159975781105, 2783306.581775601953268 ], [ 540233.449985087499954, 2784237.543185808230191 ], [ 535955.569755683769472, 2784225.536786284297705 ], [ 536174.361432889127173, 2785156.454596804920584 ], [ 532966.04197963885963, 2785148.280010864138603 ], [ 533184.985200276481919, 2786079.17271428136155 ], [ 535323.809171939501539, 2786084.574567198287696 ], [ 535542.766705681104213, 2787015.533272840548307 ], [ 534473.381798435817473, 2787012.771938588470221 ], [ 534692.436006454867311, 2787943.741975197102875 ], [ 530415.013645539409481, 2787933.467392774298787 ], [ 530634.247015684377402, 2788864.394178945105523 ], [ 533842.230232536327094, 2788872.02813721075654 ], [ 534061.450359599199146, 2789803.039110550191253 ], [ 536200.054551034001634, 2789808.587026842404157 ], [ 536638.592463243054226, 2791670.771078428253531 ], [ 535569.344977964530699, 2791667.918251389637589 ], [ 535788.745244965655729, 2792599.036445250269026 ], [ 534719.526059690630063, 2792596.249786122236401 ], [ 535378.224693029536866, 2795389.727483270689845 ], [ 537516.498647000989877, 2795395.495564823038876 ], [ 537296.91831152618397, 2794464.26984903216362 ], [ 538366.084050167235546, 2794467.262361826840788 ], [ 538585.636849123286083, 2795398.506511079147458 ], [ 539654.775899336556904, 2795401.602061528712511 ], [ 540313.766714842990041, 2798195.568744027521461 ], [ 534968.493110496317968, 2798180.660408362746239 ], [ 535408.441981699084863, 2800043.26922993035987 ], [ 533270.448479506652802, 2800037.825145269744098 ], [ 533710.784653998445719, 2801900.479466039687395 ], [ 535848.66768102964852, 2801905.997249366249889 ], [ 535628.520228928537108, 2800974.61833062581718 ], [ 536697.49052697326988, 2800977.485942642204463 ], [ 536477.439886869862676, 2800046.118384534027427 ], [ 537546.438592710765079, 2800049.052281163167208 ], [ 537986.553853825200349, 2801911.85422170907259 ], [ 536917.610362480860204, 2801908.883336716797203 ], [ 537578.385019802022725, 2804703.254720749333501 ], [ 538647.245618372922763, 2804706.281222771853209 ], [ 538426.94585002749227, 2803774.77565222652629 ], [ 540564.724879036075436, 2803781.046103795990348 ], [ 540784.969380380236544, 2804712.588871686719358 ], [ 541853.832590677193366, 2804715.870019434019923 ], [ 542294.473784481990151, 2806579.082801372278482 ], [ 541225.665855855797417, 2806575.764318953733891 ], [ 541887.229218420688994, 2809370.752548661548644 ], [ 540818.505200331215747, 2809367.462950893677771 ], [ 541039.192307061050087, 2810299.167064159642905 ], [ 539970.496875165961683, 2810295.9437947999686 ], [ 539749.782075762865134, 2809364.25837412616238 ], [ 538681.059821322211064, 2809361.138817925937474 ], [ 539122.613988376804627, 2811224.502352140843868 ], [ 540191.280838801176287, 2811227.659255883190781 ], [ 540633.056250056019053, 2813091.180374129675329 ], [ 541701.668547015986405, 2813094.459829283412546 ], [ 541480.773982583777979, 2812162.665484632365406 ], [ 542549.414907951024361, 2812166.011297646909952 ], [ 542107.888637062744237, 2810302.475382342003286 ], [ 543176.585888561559841, 2810305.868749795481563 ], [ 543397.286759469192475, 2811237.640426121652126 ], [ 544465.957267425954342, 2811241.137637371663004 ], [ 544686.699574010330252, 2812172.958238910883665 ], [ 543618.056763969012536, 2812169.442215585149825 ], [ 543838.895899876137264, 2813101.274136931169778 ], [ 544907.511002509738319, 2813104.808990347199142 ], [ 545128.391550738597289, 2814036.6899104421027 ], [ 544059.804165004519746, 2814033.136208911892027 ], [ 544501.828074178192765, 2815896.950879851356149 ], [ 546638.892916707787663, 2815904.21900076745078 ], [ 546417.901866922737099, 2814972.258775008376688 ], [ 547486.463531767483801, 2814976.0017219055444 ], [ 546823.988149656564929, 2812180.245603638701141 ], [ 545755.343361447448842, 2812176.559368099085987 ], [ 545534.62874821620062, 2811244.719926653429866 ], [ 546603.301225223229267, 2811248.387294452637434 ], [ 545941.6550913809333, 2808452.993294873740524 ], [ 547010.411583776818588, 2808456.689162989147007 ], [ 546790.02873921871651, 2807524.932586394716054 ], [ 549996.387397690792568, 2807536.473531102295965 ], [ 549776.15654063783586, 2806604.690480887424201 ], [ 550844.972537616966292, 2806608.688484275713563 ], [ 551065.175776021322235, 2807540.490451439283788 ], [ 555340.340707789291628, 2807557.407841211650521 ], [ 555120.24789885210339, 2806625.529927784111351 ], [ 556189.069699570885859, 2806629.952649001032114 ], [ 555969.073507879278623, 2805698.085932650137693 ], [ 557037.924121729680337, 2805702.574533115141094 ], [ 556818.024525999906473, 2804770.71900316234678 ], [ 554680.269375039148144, 2804761.864788025151938 ], [ 554020.819357367465273, 2801966.593514719977975 ], [ 555089.778996261884458, 2801970.921224542893469 ], [ 554431.032941817538813, 2799175.864433716516942 ], [ 555500.07636480522342, 2799180.220074595417827 ], [ 555280.65992725326214, 2798248.575786800123751 ], [ 556349.732070504920557, 2798252.997200442012399 ], [ 556130.412156535661779, 2797321.364082797896117 ], [ 558268.615150146302767, 2797330.42304982803762 ], [ 557392.245451030088589, 2793604.03997475001961 ], [ 558461.458676480222493, 2793608.620576929301023 ], [ 558242.566212178440765, 2792677.081085484009236 ], [ 559311.808150189230219, 2792681.727291737217456 ], [ 559093.012109841685742, 2791750.198925884906203 ], [ 558023.742754400125705, 2791745.571656099986285 ], [ 557804.988305328646675, 2790814.092270118184388 ], [ 561012.882506362511776, 2790828.170750751625746 ], [ 560575.744978687376715, 2788965.188516401685774 ], [ 563783.8155208096141, 2788979.913268532603979 ], [ 562256.581371648935601, 2782460.023380308877677 ], [ 563326.13226749189198, 2782464.96762531157583 ], [ 562890.454947070218623, 2780602.374102520290762 ], [ 560751.245393023593351, 2780592.645379022695124 ], [ 560533.455644975067116, 2779661.431259974371642 ], [ 558394.196897725458257, 2779652.076827550772578 ], [ 558612.041203117696568, 2780583.253342120908201 ], [ 555403.244562829029746, 2780569.796563030686229 ], [ 555621.239772518281825, 2781500.94670005235821 ], [ 554551.670678123948164, 2781496.61075019929558 ], [ 554333.648160174489021, 2780565.479307889472693 ], [ 552194.458929363288917, 2780557.097300907131284 ], [ 552412.53607731370721, 2781488.191437306813896 ], [ 551342.970523689524271, 2781484.108073125127703 ], [ 551779.386672303313389, 2783346.348445195704699 ], [ 552848.897554043214768, 2783350.469085132703185 ], [ 552630.682286262279376, 2782419.315359208732843 ], [ 553700.221669830614701, 2782423.501574863214046 ], [ 554136.66658026445657, 2784285.876216275151819 ], [ 555206.152475774637423, 2784290.184077678248286 ], [ 555424.451149036292918, 2785221.434915507677943 ], [ 557563.371927868807688, 2785230.341036502271891 ], [ 557781.684927850961685, 2786161.659364863764495 ], [ 558851.11986229242757, 2786166.257727016694844 ], [ 559069.474518467555754, 2787097.624862097669393 ], [ 561208.29360310966149, 2787107.112395585980266 ], [ 561426.662542156642303, 2788038.547350272070616 ], [ 557149.139032154809684, 2788019.834186159074306 ], [ 556930.660639702924527, 2787088.474787411279976 ], [ 555861.255593617097475, 2787084.026295560412109 ], [ 556298.336154461489059, 2788946.737405378371477 ], [ 554159.639275018591434, 2788938.018363615497947 ], [ 554378.337893992778845, 2789869.381237154360861 ], [ 551170.383695128606632, 2789856.879572341218591 ], [ 550732.891060642898083, 2787994.296167671214789 ] ], [ [ 553361.990713902865537, 2799171.593515336047858 ], [ 553142.519259441876784, 2798239.987044642679393 ], [ 554211.588998058927245, 2798244.239068395923823 ], [ 554431.032941817538813, 2799175.864433716516942 ], [ 553361.990713902865537, 2799171.593515336047858 ] ], [ [ 558437.037992888595909, 2788955.794121335726231 ], [ 558655.627029009978287, 2789887.232359334360808 ], [ 556516.979973048903048, 2789878.137905451469123 ], [ 556298.336154461489059, 2788946.737405378371477 ], [ 558437.037992888595909, 2788955.794121335726231 ] ], [ [ 556275.639588611898944, 2784294.576218401547521 ], [ 556057.437287576962262, 2783363.33650918956846 ], [ 557126.952973493258469, 2783367.794153899420053 ], [ 557345.12794235884212, 2784299.052639041561633 ], [ 556275.639588611898944, 2784294.576218401547521 ] ] ], [ [ [ 546603.301225223229267, 2811248.387294452637434 ], [ 546823.988149656564929, 2812180.245603638701141 ], [ 548961.280821880674921, 2812187.873395775910467 ], [ 548740.649261405924335, 2811255.977267595939338 ], [ 546603.301225223229267, 2811248.387294452637434 ] ] ], [ [ [ 548583.686669778311625, 2841995.11473098071292 ], [ 552854.690343614318408, 2842011.452992640435696 ], [ 552631.765225606737658, 2841078.638815657235682 ], [ 553699.546944251749665, 2841082.918925519566983 ], [ 553476.718853988917544, 2840150.116073433309793 ], [ 552408.909151497995481, 2840145.855393386911601 ], [ 551963.404143909690902, 2838280.380736640654504 ], [ 549827.676221024477854, 2838272.194644124712795 ], [ 549382.33558684354648, 2836406.920074091758579 ], [ 546178.583943951292895, 2836395.40059890691191 ], [ 546401.303616546094418, 2837327.964826582465321 ], [ 547469.191828751470894, 2837331.738040826749057 ], [ 547691.952623936813325, 2838264.352091640699655 ], [ 548759.813893344369717, 2838268.230425647925586 ], [ 548982.615794385783374, 2839200.894382920581847 ], [ 547914.782507857191376, 2839196.996767018921673 ], [ 548137.681478286744095, 2840129.672086001373827 ], [ 546002.073999452870339, 2840122.096072383690625 ], [ 546448.191245091613382, 2841987.461574512533844 ], [ 547515.938442372716963, 2841991.245155326090753 ], [ 547292.873289567534812, 2841058.527800743933767 ], [ 548360.649533003219403, 2841062.378067636396736 ], [ 548583.686669778311625, 2841995.11473098071292 ] ] ], [ [ [ 546050.223292116890661, 2844781.984402219764888 ], [ 546273.620911062229425, 2845714.785921293776482 ], [ 549476.525992916314863, 2845726.36858303938061 ], [ 549253.212550188065507, 2844793.509002040140331 ], [ 548185.548428108799271, 2844789.581390531267971 ], [ 547962.276013871305622, 2843856.771931141149253 ], [ 546894.584886361262761, 2843852.949733736924827 ], [ 547117.885349793476053, 2844785.739857431035489 ], [ 546050.223292116890661, 2844781.984402219764888 ] ] ], [ [ [ 553970.351513926289044, 2846675.985867165960371 ], [ 554193.690848374739289, 2847608.984973924234509 ], [ 555261.276412794482894, 2847613.401604013051838 ], [ 555037.965129029704258, 2846680.382939505856484 ], [ 556105.579935662681237, 2846684.866149355191737 ], [ 555882.365709448931739, 2845751.85880530346185 ], [ 554814.722866185707971, 2845747.39516277750954 ], [ 554145.410225611529313, 2842948.616967699024826 ], [ 552009.959931348916143, 2842940.06494461465627 ], [ 552233.051147446269169, 2843872.921231608372182 ], [ 551165.355724253109656, 2843868.754828785546124 ], [ 550942.236486645648256, 2842935.91797065641731 ], [ 548806.792886387906037, 2842927.88209510827437 ], [ 549253.212550188065507, 2844793.509002040140331 ], [ 551388.544018149725161, 2844801.622462415602058 ], [ 551611.80136609589681, 2845734.520890661049634 ], [ 552679.440717629855499, 2845738.726206040941179 ], [ 552902.739067241316661, 2846671.674931741785258 ], [ 553970.351513926289044, 2846675.985867165960371 ] ] ] ] } }
]
}
