{
"type": "FeatureCollection",
"name": "urban-1995",
"crs": { "type": "name", "properties": { "name": "urn:ogc:def:crs:EPSG::32633" } },
"features": [
{ "type": "Feature", "properties": { "year": 1995 }, "geometry": { "type": "MultiPolygon", "coordinates": [ [ [ [ 569179.787982113775797, 5280729.861109163612127 ], [ 570138.152679491788149, 5280741.338998790830374 ], [ 570261.056402524234727, 5281786.236209489405155 ], [ 573135.958269585971721, 5281821.687530670315027 ], [ 572890.550089022493921, 5279731.828191436827183 ], [ 570015.267715531284921, 5279696.516867764294147 ], [ 569892.40151411597617, 5278651.769780390895903 ], [ 568933.910029524471611, 5278640.338402832858264 ], [ 569179.787982113775797, 5280729.861109163612127 ] ] ], [ [ [ 579966.338602434727363, 5282955.143319273367524 ], [ 580924.572621332015842, 5282968.405839246697724 ], [ 580802.348159198765643, 5281923.175238873809576 ], [ 579844.050674766418524, 5281909.936354118399322 ], [ 579966.338602434727363, 5282955.143319273367524 ] ] ], [ [ [ 581882.806267370935529, 5282981.826371228322387 ], [ 580924.572621332015842, 5282968.405839246697724 ], [ 581046.81560886092484, 5284013.711752505041659 ], [ 582004.985766760190018, 5284027.155965530313551 ], [ 581882.806267370935529, 5282981.826371228322387 ] ] ], [ [ [ 575052.557843737420626, 5281846.111603699624538 ], [ 575420.42946700938046, 5284981.605083943344653 ], [ 576378.538309950148687, 5284994.124563532881439 ], [ 576501.135955402976833, 5286039.463126641698182 ], [ 579375.269774580141529, 5286078.040739505551755 ], [ 579130.474173031747341, 5283987.297454827465117 ], [ 578172.302903999341652, 5283974.327367907389998 ], [ 578049.869463797309436, 5282929.09231080673635 ], [ 577091.634352919762023, 5282916.303820072673261 ], [ 576969.156040263245814, 5281871.167573628015816 ], [ 575052.557843737420626, 5281846.111603699624538 ] ] ], [ [ [ 582004.985766760190018, 5284027.155965530313551 ], [ 582127.183767307782546, 5285072.560923567041755 ], [ 580210.970092289149761, 5285045.783180421218276 ], [ 580333.313647315022536, 5286091.216148771345615 ], [ 579375.269774580141529, 5286078.040739505551755 ], [ 579497.695411060354672, 5287123.525451904162765 ], [ 580455.67573762673419, 5287136.724523909389973 ], [ 580578.056359633803368, 5288182.308342074975371 ], [ 582493.88873986818362, 5288209.228342223912477 ], [ 582249.400265412405133, 5286118.041281539946795 ], [ 584165.485350464703515, 5286145.498840995132923 ], [ 584043.395917262067087, 5285099.970968710258603 ], [ 583085.290035151294433, 5285086.186907805502415 ], [ 582963.155545383691788, 5284040.758222882635891 ], [ 582004.985766760190018, 5284027.155965530313551 ] ] ], [ [ [ 583152.323844480095431, 5310157.06029408890754 ], [ 583029.554893027525395, 5309109.883758924901485 ], [ 582072.91382520692423, 5309096.184365279972553 ], [ 582195.746779752313159, 5310143.336912887170911 ], [ 581239.169299057801254, 5310129.77235269267112 ], [ 581485.01868700014893, 5312224.258222063072026 ], [ 580528.568855784833431, 5312210.804587053135037 ], [ 580651.585342448321171, 5313258.137969102710485 ], [ 582564.356464356998913, 5313285.252091951668262 ], [ 582441.468102999846451, 5312237.87073942180723 ], [ 583397.917098892154172, 5312251.642140286043286 ], [ 583275.111247661639936, 5311204.313075609505177 ], [ 585188.13605556008406, 5311232.284404283389449 ], [ 585065.476706593763083, 5310184.983524199575186 ], [ 583152.323844480095431, 5310157.06029408890754 ] ] ], [ [ [ 544810.656098655192181, 5317050.274458807893097 ], [ 542898.371797890751623, 5317035.689680570736527 ], [ 543024.045892103109509, 5318082.468855452723801 ], [ 543980.124059682246298, 5318089.704537574201822 ], [ 544357.069828301551752, 5321230.566102272830904 ], [ 545312.95534968690481, 5321238.029384462162852 ], [ 545438.57833903550636, 5322285.158132057636976 ], [ 548306.040905279340222, 5322308.571594179607928 ], [ 548180.610467154998332, 5321261.37400475051254 ], [ 546268.840633305022493, 5321245.651795172132552 ], [ 546143.301072745001875, 5320198.576189515180886 ], [ 545187.351627652999014, 5320190.976680071093142 ], [ 544810.656098655192181, 5317050.274458807893097 ] ] ], [ [ [ 544482.75699844758492, 5322277.671965030021966 ], [ 544608.463453371659853, 5323324.853892958723009 ], [ 545564.220592372817919, 5323332.362959617748857 ], [ 545438.57833903550636, 5322285.158132057636976 ], [ 544482.75699844758492, 5322277.671965030021966 ] ] ], [ [ [ 545488.948332218220457, 5330657.260306232608855 ], [ 545614.808945510303602, 5331705.052081833593547 ], [ 546570.051722248550504, 5331712.744879031553864 ], [ 546444.255477204336785, 5330664.930085176602006 ], [ 545488.948332218220457, 5330657.260306232608855 ] ] ], [ [ [ 586813.065739406854846, 5333228.714168973267078 ], [ 586936.19365438236855, 5334277.678085920400918 ], [ 587891.291919950046577, 5334292.276378876529634 ], [ 587768.228495193296112, 5333243.288068330846727 ], [ 586813.065739406854846, 5333228.714168973267078 ] ] ], [ [ [ 547073.42900759447366, 5335904.768544481135905 ], [ 546947.555847217794508, 5334856.647880534641445 ], [ 547902.605136769940145, 5334864.569356328807771 ], [ 547776.815632599289529, 5333816.502121358178556 ], [ 545866.587933016708121, 5333800.864861391484737 ], [ 545614.808945510303602, 5331705.052081833593547 ], [ 544659.565921359811909, 5331697.518724858760834 ], [ 545415.520472708507441, 5337985.736779748462141 ], [ 544460.663836580584757, 5337978.224815640598536 ], [ 544839.094704398652539, 5341123.298280602321029 ], [ 546748.420526007423177, 5341138.620378549210727 ], [ 546874.473535505356267, 5342187.177793621085584 ], [ 548783.669156511663459, 5342203.185143746435642 ], [ 548657.745303462957963, 5341154.581363008357584 ], [ 549612.40728729008697, 5341162.801439352333546 ], [ 549360.746230349992402, 5339065.777708721347153 ], [ 548405.955148284789175, 5339057.604047113098204 ], [ 548028.413843810441904, 5335912.713129280135036 ], [ 547073.42900759447366, 5335904.768544481135905 ] ] ], [ [ [ 583486.064014113857411, 5337367.942772473208606 ], [ 583609.523562945891172, 5338417.117868066765368 ], [ 584564.365561463404447, 5338431.175219567492604 ], [ 584440.970578528242186, 5337381.975795583799481 ], [ 583486.064014113857411, 5337367.942772473208606 ] ] ], [ [ [ 567377.143077627872117, 5338202.570499585010111 ], [ 567252.586226872866973, 5337153.80419359728694 ], [ 566297.672176399035379, 5337142.644382113590837 ], [ 566422.293556552845985, 5338191.386923504061997 ], [ 565467.44366790750064, 5338180.36299192160368 ], [ 565592.148390520596877, 5339229.158718314953148 ], [ 569411.287512917653657, 5339274.307496366091073 ], [ 569286.84099587937817, 5338225.416589035652578 ], [ 570241.689382461248897, 5338237.079104331322014 ], [ 570117.326131284120493, 5337188.241316692903638 ], [ 568207.49990636552684, 5337165.12361921556294 ], [ 568331.992225835914724, 5338213.913721110671759 ], [ 567377.143077627872117, 5338202.570499585010111 ] ] ], [ [ [ 516897.730489323032089, 5338877.439279864542186 ], [ 514033.338508771208581, 5338869.681694929488003 ], [ 513776.982403849309776, 5336774.638274963013828 ], [ 512822.055992753128521, 5336772.415745672769845 ], [ 513078.541019219672307, 5338867.41512266267091 ], [ 511168.945827836636454, 5338863.360911029390991 ], [ 511297.34726532548666, 5339910.930792861618102 ], [ 510342.614063221903052, 5339909.121203129179776 ], [ 510471.100010261987336, 5340956.745264478027821 ], [ 512380.437330893008038, 5340960.568080008029938 ], [ 512252.080404581560288, 5339912.900057824328542 ], [ 515116.279392145515885, 5339919.765905817970634 ], [ 515244.442780314944685, 5340967.500103390775621 ], [ 517153.779330080607906, 5340972.919987980276346 ], [ 516897.730489323032089, 5338877.439279864542186 ] ] ], [ [ [ 586012.712434131884947, 5342643.060080629773438 ], [ 586967.294998029130511, 5342657.534477630630136 ], [ 586843.955772452172823, 5341607.977083642035723 ], [ 584934.660854547168128, 5341579.236952227540314 ], [ 585181.616299081011675, 5343678.331366128288209 ], [ 586136.134671577019617, 5343692.670406837016344 ], [ 586012.712434131884947, 5342643.060080629773438 ] ] ], [ [ [ 587090.65255936270114, 5343707.169270225800574 ], [ 586136.134671577019617, 5343692.670406837016344 ], [ 586259.575262167374603, 5344742.358154134824872 ], [ 587214.028452646336518, 5344756.881498998962343 ], [ 587090.65255936270114, 5343707.169270225800574 ] ] ], [ [ [ 552602.057076261960901, 5342237.116900746710598 ], [ 550692.863684376701713, 5342219.83151091914624 ], [ 550944.510472941910848, 5344317.36257553473115 ], [ 549990.042575632920489, 5344308.912947518751025 ], [ 550115.959312182152644, 5345357.770509256049991 ], [ 551070.36256433208473, 5345366.243443184532225 ], [ 551322.124124135472812, 5347464.23603586293757 ], [ 550367.85022536769975, 5347455.716445198282599 ], [ 550493.824395135859959, 5348504.804894138127565 ], [ 553356.45108004717622, 5348530.913549828343093 ], [ 553104.910077661508694, 5346432.673403771594167 ], [ 552150.572078048018739, 5346423.857386510819197 ], [ 551773.209747666143812, 5343277.144734565168619 ], [ 552727.741692543029785, 5343285.890646263025701 ], [ 552602.057076261960901, 5342237.116900746710598 ] ] ], [ [ [ 587000.604008607682772, 5351042.112587581388652 ], [ 587124.172964552650228, 5352092.343336430378258 ], [ 588078.172679582494311, 5352107.038474688306451 ], [ 587954.668569589965045, 5351056.783138542436063 ], [ 587000.604008607682772, 5351042.112587581388652 ] ] ], [ [ [ 579740.388370404602028, 5354080.847983820363879 ], [ 579616.263745710719377, 5353030.657562954351306 ], [ 580570.202478462364525, 5353044.096496740356088 ], [ 580446.161192125291564, 5351993.95936368778348 ], [ 576630.144134000292979, 5351941.261415253393352 ], [ 576878.764029508456588, 5354041.418840633705258 ], [ 579740.388370404602028, 5354080.847983820363879 ] ] ], [ [ [ 585463.624405560549349, 5354164.029730976559222 ], [ 587371.365840469836257, 5354193.038039477542043 ], [ 587124.172964552650228, 5352092.343336430378258 ], [ 586170.172746785683557, 5352077.808271831832826 ], [ 586293.824890301795676, 5353128.092172145843506 ], [ 585339.889038013992831, 5353113.692640319466591 ], [ 585463.624405560549349, 5354164.029730976559222 ] ] ], [ [ [ 589279.105246191727929, 5354222.686893753707409 ], [ 589402.599336569546722, 5355273.200220483355224 ], [ 591310.206837409408763, 5355303.539053004235029 ], [ 591063.49654880259186, 5353202.491413320414722 ], [ 590109.56324930745177, 5353187.291350005194545 ], [ 589986.170579323545098, 5352136.908977135084569 ], [ 588078.172679582494311, 5352107.038474688306451 ], [ 588325.235799759393558, 5354207.782397776842117 ], [ 589279.105246191727929, 5354222.686893753707409 ] ] ], [ [ [ 587036.122758640674874, 5359431.42954667750746 ], [ 587159.90320207295008, 5360482.258458049036562 ], [ 588113.383903832407668, 5360496.990515754558146 ], [ 588237.117624969570898, 5361547.922129986807704 ], [ 591097.361460568150505, 5361593.154523262754083 ], [ 590973.822859837324359, 5360542.148643081076443 ], [ 591927.301443207310513, 5360557.522007794119418 ], [ 591680.408954470069148, 5358455.694832428358495 ], [ 589773.191203160327859, 5358425.207550153136253 ], [ 589896.758344271685928, 5359476.032569576986134 ], [ 587036.122758640674874, 5359431.42954667750746 ] ] ], [ [ [ 544379.547178562730551, 5361035.06273801997304 ], [ 544252.82395392563194, 5359985.234488020651042 ], [ 543299.325390494894236, 5359977.876258190721273 ], [ 543172.556508527137339, 5358928.148572102189064 ], [ 542218.992765094619244, 5358920.97382637578994 ], [ 542599.552112703444436, 5362070.319213502109051 ], [ 543552.921019877889194, 5362077.563612482510507 ], [ 543679.747760495403782, 5363127.523356 ], [ 544633.051419718656689, 5363134.951378243044019 ], [ 544886.63269395835232, 5365235.149790061637759 ], [ 545839.806042248383164, 5365242.784854624420404 ], [ 545586.354812960489653, 5363142.539776524528861 ], [ 548446.263339929399081, 5363166.267234021797776 ], [ 548572.784292492433451, 5364216.421190158464015 ], [ 549526.021546625415795, 5364224.674550103954971 ], [ 549146.711204817518592, 5361074.37484565936029 ], [ 544379.547178562730551, 5361035.06273801997304 ] ] ], [ [ [ 580945.009937210939825, 5380333.280073640868068 ], [ 580570.915997878764756, 5377177.232697976753116 ], [ 579618.473170044599101, 5377163.711943389847875 ], [ 579743.218065952998586, 5378215.624578428454697 ], [ 578790.840097563574091, 5378202.240048000589013 ], [ 579040.516042046016082, 5380306.251648996956646 ], [ 580945.009937210939825, 5380333.280073640868068 ] ] ], [ [ [ 546856.673165230778977, 5389401.779445902444422 ], [ 546984.000052766641602, 5390453.764639070257545 ], [ 547935.606543381116353, 5390461.803229338489473 ], [ 548062.887056947220117, 5391513.890527997165918 ], [ 549014.42767411575187, 5391522.114030594937503 ], [ 548887.212725747842342, 5390470.003011952154338 ], [ 549838.818593740696087, 5390478.363987588323653 ], [ 549711.688337594387121, 5389426.307680256664753 ], [ 546856.673165230778977, 5389401.779445902444422 ] ] ], [ [ [ 547111.346129834768362, 5391505.828249188140035 ], [ 546984.000052766641602, 5390453.764639070257545 ], [ 546032.393260029726662, 5390445.887240479700267 ], [ 546159.80489892186597, 5391497.927193502895534 ], [ 547111.346129834768362, 5391505.828249188140035 ] ] ], [ [ [ 619852.986945430980995, 5280509.780392377637327 ], [ 617936.174992830725387, 5280470.603557046502829 ], [ 618055.887160464189947, 5281516.628586335107684 ], [ 615180.855733969830908, 5281458.973757145926356 ], [ 615300.776218709885143, 5282505.000183983705938 ], [ 616259.057032964192331, 5282524.085232960060239 ], [ 616378.931751634110697, 5283570.212255580350757 ], [ 617337.148479409050196, 5283589.480157511308789 ], [ 617456.977383852470666, 5284635.707873117178679 ], [ 619373.282056625350378, 5284674.767638959921896 ], [ 619253.580304992268793, 5283628.49015923216939 ], [ 621170.009927529376, 5283668.132435966283083 ], [ 620691.888154807733372, 5279483.581913969479501 ], [ 619733.419497674680315, 5279463.781432940624654 ], [ 619852.986945430980995, 5280509.780392377637327 ] ] ], [ [ [ 606796.735654161311686, 5283386.226475453004241 ], [ 606917.263717239373364, 5284432.182720577344298 ], [ 605959.104868653346784, 5284414.628939827904105 ], [ 606079.714460054878145, 5285460.636424746364355 ], [ 605121.618684185668826, 5285443.216246209107339 ], [ 605363.018990653799847, 5287535.40956143476069 ], [ 604405.049910636269487, 5287518.098557530902326 ], [ 604284.277156570693478, 5286471.988478817977011 ], [ 603326.243987350841053, 5286454.860085712745786 ], [ 603567.9347301494563, 5288547.107154644094408 ], [ 606441.651095305685885, 5288599.113633374683559 ], [ 606200.342030860600062, 5286506.7196776997298 ], [ 607158.373726930120029, 5286524.322486460208893 ], [ 607037.80974277923815, 5285478.214712115935981 ], [ 607995.904527873150073, 5285495.951109829358757 ], [ 607754.957555023604073, 5283403.913812264800072 ], [ 606796.735654161311686, 5283386.226475453004241 ] ] ], [ [ [ 597712.186124603031203, 5295755.355776821263134 ], [ 597469.350633643218316, 5293662.387768550775945 ], [ 596511.759243033127859, 5293646.354760051704943 ], [ 596633.231639259844087, 5294692.77649371419102 ], [ 594718.174925121595152, 5294661.137004821561277 ], [ 594839.792984857689589, 5295707.586143700405955 ], [ 597712.186124603031203, 5295755.355776821263134 ] ] ], [ [ [ 596040.421029604156502, 5297816.525628102943301 ], [ 596162.029907539952546, 5298863.226991446688771 ], [ 595204.756420237594284, 5298847.389350099489093 ], [ 595326.44730487652123, 5299894.142470759339631 ], [ 597240.866154759656638, 5299926.024897902272642 ], [ 597119.302926347125322, 5298879.223130339756608 ], [ 598076.575471969554201, 5298895.37776814121753 ], [ 597955.094213109579869, 5297848.627725065685809 ], [ 596040.421029604156502, 5297816.525628102943301 ] ] ], [ [ [ 613272.408055457635783, 5298128.265013574622571 ], [ 613392.868018960929476, 5299175.408993642777205 ], [ 611478.3387981869746, 5299138.185881333425641 ], [ 611357.751138209365308, 5298091.091580925509334 ], [ 610400.421865604352206, 5298072.742600087076426 ], [ 610641.742740753339604, 5300166.957902863621712 ], [ 612556.145320217590779, 5300203.913618367165327 ], [ 612676.704778213868849, 5301251.185414913110435 ], [ 616505.24770757323131, 5301327.099234196357429 ], [ 616384.943830761709251, 5300279.72770912013948 ], [ 614470.5456961421296, 5300241.503549502231181 ], [ 614350.131802151212469, 5299194.258335358463228 ], [ 615307.395027604419738, 5299213.266202921047807 ], [ 615187.062770845135674, 5298166.072418143972754 ], [ 613272.408055457635783, 5298128.265013574622571 ] ] ], [ [ [ 594369.23717848432716, 5299878.439049001783133 ], [ 594247.482469128677621, 5298831.710204940289259 ], [ 595204.756420237594284, 5298847.389350099489093 ], [ 594839.792984857689589, 5295707.586143700405955 ], [ 593882.327684634597972, 5295691.979739471338689 ], [ 593760.645883506862447, 5294645.554817971773446 ], [ 592803.11639169161208, 5294630.13100106921047 ], [ 592681.389108628267422, 5293583.806140219792724 ], [ 590766.201362729538232, 5293553.481860096566379 ], [ 591009.929087983327918, 5295646.110928509384394 ], [ 589094.994489934062585, 5295616.323709585703909 ], [ 589217.013301715720445, 5296662.703864328563213 ], [ 590174.417066439171322, 5296677.542351882904768 ], [ 590296.390439171926118, 5297724.022485869005322 ], [ 591253.729993653716519, 5297739.043522675521672 ], [ 591375.657879840582609, 5298785.623733251355588 ], [ 592332.93319424323272, 5298800.827397835440934 ], [ 592820.572143709752709, 5302988.005337635055184 ], [ 591863.552226540981792, 5302972.704852538183331 ], [ 591985.571495009004138, 5304019.665384790860116 ], [ 591028.615023222984746, 5304004.499304582364857 ], [ 591150.716477032401599, 5305051.51178537029773 ], [ 592107.609028702136129, 5305066.702091371640563 ], [ 592351.738876746268943, 5307161.004174439236522 ], [ 594265.266781244776212, 5307191.958002515137196 ], [ 594021.39275237719994, 5305097.558739678002894 ], [ 594978.283914811676368, 5305113.225084614939988 ], [ 594734.610597455175593, 5303019.082160595804453 ], [ 593777.591602265369147, 5303003.464439881034195 ], [ 593412.02659073122777, 5299862.894153325818479 ], [ 594369.23717848432716, 5299878.439049001783133 ] ] ], [ [ [ 597362.447538252687082, 5300972.902782075107098 ], [ 598319.592399918357842, 5300989.1061753295362 ], [ 598441.128061402123421, 5302036.084612767212093 ], [ 600355.288578955456614, 5302069.015982707031071 ], [ 600233.880671033402905, 5301021.988651561550796 ], [ 599276.736779086641036, 5301005.468131357803941 ], [ 599155.283102734712884, 5299958.541445656679571 ], [ 597240.866154759656638, 5299926.024897902272642 ], [ 597362.447538252687082, 5300972.902782075107098 ] ] ], [ [ [ 606945.4328903084388, 5309503.978924958966672 ], [ 606824.282666907296516, 5308456.269123231992126 ], [ 607780.97531262296252, 5308474.072714477777481 ], [ 607659.907045627944171, 5307426.414686907082796 ], [ 605746.393178039346822, 5307391.015807649120688 ], [ 605988.803746050223708, 5309486.30937266163528 ], [ 606945.4328903084388, 5309503.978924958966672 ] ] ], [ [ [ 606110.035961450892501, 5310534.070986909791827 ], [ 605988.803746050223708, 5309486.30937266163528 ], [ 605032.174066586187109, 5309468.79864337015897 ], [ 605153.470339548774064, 5310516.535519695840776 ], [ 606110.035961450892501, 5310534.070986909791827 ] ] ], [ [ [ 584942.835767580661923, 5309137.758920184336603 ], [ 585065.476706593763083, 5310184.983524199575186 ], [ 586978.6278465106152, 5310213.542052545584738 ], [ 586856.114928386639804, 5309166.269254676997662 ], [ 584942.835767580661923, 5309137.758920184336603 ] ] ], [ [ [ 592005.93834948935546, 5312382.734703809022903 ], [ 591883.708998036105186, 5311335.18807718437165 ], [ 594753.233354262076318, 5311381.672594482079148 ], [ 594509.213658638065681, 5309286.662522589787841 ], [ 591639.305078323697671, 5309240.324038108810782 ], [ 591517.130517596029676, 5308193.006551957689226 ], [ 589603.727810024283826, 5308162.956718062050641 ], [ 589481.443561443127692, 5307115.763985354453325 ], [ 587567.911101731704548, 5307086.397546312771738 ], [ 587935.202758489991538, 5310228.059556586667895 ], [ 590804.924804148031399, 5310272.56504307501018 ], [ 591049.493354837642983, 5312367.533296996727586 ], [ 588180.155605455394834, 5312322.882438728585839 ], [ 588302.659540489199571, 5313370.408452886156738 ], [ 590215.42367169901263, 5313400.065269535407424 ], [ 590460.230101806228049, 5315495.443659098818898 ], [ 591416.48324881750159, 5315510.559062742628157 ], [ 591294.135013454477303, 5314462.807306963950396 ], [ 592250.451816730084829, 5314478.057355668395758 ], [ 592128.185956979403272, 5313430.357784333638847 ], [ 593084.566395107423887, 5313445.742431751452386 ], [ 592962.382875071256422, 5312398.095006459392607 ], [ 592005.93834948935546, 5312382.734703809022903 ] ] ], [ [ [ 594753.233354262076318, 5311381.672594482079148 ], [ 594875.27049942559097, 5312429.292304525151849 ], [ 595831.713588395272382, 5312445.129302595742047 ], [ 595709.740516549558379, 5311397.485168868675828 ], [ 594753.233354262076318, 5311381.672594482079148 ] ] ], [ [ [ 605638.835092888330109, 5314708.249283000826836 ], [ 605153.470339548774064, 5310516.535519695840776 ], [ 604196.904184841550887, 5310499.158905279822648 ], [ 604561.093099785968661, 5313642.755005564540625 ], [ 603604.718701134086587, 5313625.463126821443439 ], [ 603726.215106731280684, 5314673.45707883592695 ], [ 605638.835092888330109, 5314708.249283000826836 ] ] ], [ [ [ 606141.113558853743598, 5327272.992860934697092 ], [ 608052.189806743757799, 5327308.70012644212693 ], [ 607809.16984045621939, 5325210.793837318196893 ], [ 606853.50323445093818, 5325192.910468042828143 ], [ 606975.06864632666111, 5326241.800069447606802 ], [ 606019.465843654237688, 5326224.051059973426163 ], [ 606141.113558853743598, 5327272.992860934697092 ] ] ], [ [ [ 589309.858981313067488, 5330126.265412617474794 ], [ 589432.73855132132303, 5331175.0713513167575 ], [ 590388.02878700196743, 5331190.07486310787499 ], [ 590265.213650623103604, 5330141.244481881149113 ], [ 589309.858981313067488, 5330126.265412617474794 ] ] ], [ [ [ 589678.55256654182449, 5333272.914407080970705 ], [ 589432.73855132132303, 5331175.0713513167575 ], [ 588477.44783136760816, 5331160.227292303927243 ], [ 588231.578146477928385, 5329062.741232021711767 ], [ 586320.737604535417631, 5329033.628894221968949 ], [ 586443.792101956205443, 5330082.284728555940092 ], [ 587399.148201801814139, 5330096.785537201911211 ], [ 587768.228495193296112, 5333243.288068330846727 ], [ 589678.55256654182449, 5333272.914407080970705 ] ] ], [ [ [ 587552.108327786670998, 5339523.655128094367683 ], [ 587428.888725934782997, 5338474.305267287418246 ], [ 584564.365561463404447, 5338431.175219567492604 ], [ 584687.778937626164407, 5339480.451862026937306 ], [ 586597.332343774847686, 5339509.094341318123043 ], [ 586843.955772452172823, 5341607.977083642035723 ], [ 587798.602505660033785, 5341622.5867905234918 ], [ 587675.346255629789084, 5340573.082290005870163 ], [ 590539.477409496088512, 5340617.796399282291532 ], [ 590662.539737983956002, 5341667.374490685760975 ], [ 591617.184475121437572, 5341682.623254773207009 ], [ 591740.200392117025331, 5342732.303375657647848 ], [ 592694.779948208597489, 5342747.736546684987843 ], [ 592571.828699835925363, 5341698.031786342151463 ], [ 594481.115590541739948, 5341729.328157132491469 ], [ 594726.777564798016101, 5343828.913943217135966 ], [ 595681.290847432799637, 5343844.851267302408814 ], [ 595804.084361628745683, 5344894.785240817815065 ], [ 594849.6357971674297, 5344878.82315294444561 ], [ 594972.512187843560241, 5345928.809957326389849 ], [ 598790.044205370708369, 5345993.716819454915822 ], [ 598912.679693156736903, 5347043.880620676092803 ], [ 600821.31282159651164, 5347077.343331045471132 ], [ 601188.938775760005228, 5350228.451063265092671 ], [ 600234.816941996454261, 5350211.564796574413776 ], [ 600112.192104239715263, 5349161.142725050449371 ], [ 596295.439749880111776, 5349095.297609738074243 ], [ 596418.323910251026973, 5350145.620009326376021 ], [ 594510.074053388088942, 5350113.607764062471688 ], [ 594756.156143811880611, 5352214.386610346846282 ], [ 595710.151637918781489, 5352230.362383446656168 ], [ 596079.216183625394478, 5355382.189182438887656 ], [ 597033.016395779093727, 5355398.399741392582655 ], [ 596787.085080561693758, 5353297.054150342009962 ], [ 597741.014573200489394, 5353313.375011716037989 ], [ 597618.140963084064424, 5352262.794186756014824 ], [ 601434.112806252553128, 5352329.57886023260653 ], [ 601311.516787551343441, 5351278.976005639880896 ], [ 603219.628983608679846, 5351313.278750305995345 ], [ 603097.180695755407214, 5350262.703690390102565 ], [ 604051.30077097681351, 5350280.070053702220321 ], [ 604173.684193041175604, 5351330.670219503343105 ], [ 606081.79280709719751, 5351365.933358921669424 ], [ 605959.53912433446385, 5350315.28288712259382 ], [ 610730.124267669045366, 5350406.115663334727287 ], [ 610486.319086261675693, 5348304.796131464652717 ], [ 611440.563939154613763, 5348323.392148873768747 ], [ 611318.752877230988815, 5347272.824016196653247 ], [ 610364.44320166693069, 5347254.253310356289148 ], [ 610242.585126566700637, 5346203.788401985540986 ], [ 612151.333449803059921, 5346241.039142537862062 ], [ 611786.254681825870648, 5343089.959825461730361 ], [ 612740.822184175485745, 5343108.749093317426741 ], [ 612984.06074658758007, 5345209.441425586119294 ], [ 613938.498103615711443, 5345228.441229229792953 ], [ 613816.934710264438763, 5344178.030780459754169 ], [ 615725.937028039130382, 5344216.45925962459296 ], [ 615604.520869844011031, 5343166.075886648148298 ], [ 614649.95528358372394, 5343146.807122307829559 ], [ 614528.492093662731349, 5342096.52699460182339 ], [ 615483.122409363510087, 5342115.770366299897432 ], [ 615361.741650702082552, 5341065.542660801671445 ], [ 616316.436030492768623, 5341084.920427623204887 ], [ 616195.13766726013273, 5340034.745105540379882 ], [ 617149.896089928573929, 5340054.257221496663988 ], [ 617028.680086320149712, 5339004.134244044311345 ], [ 616073.856992719694972, 5338984.647538006305695 ], [ 615952.594010972301476, 5337934.627687312662601 ], [ 614042.816606408567168, 5337896.18410324677825 ], [ 614285.618887377553619, 5339996.200100471265614 ], [ 611421.335961439181119, 5339939.580635703168809 ], [ 611542.957745062652975, 5340989.629303270019591 ], [ 610588.260198860429227, 5340971.050383326597512 ], [ 610344.905096125439741, 5338871.081185258924961 ], [ 609390.077607292449102, 5338852.712425478734076 ], [ 609268.362153979483992, 5337802.869459254667163 ], [ 610223.254273609723896, 5337821.213043974712491 ], [ 610101.621275711688213, 5336771.42249100562185 ], [ 611056.577398244175129, 5336789.90055488795042 ], [ 611178.14578398107551, 5337839.716299165971577 ], [ 612133.036679780692793, 5337858.379226389341056 ], [ 612011.532908853958361, 5336808.538259425200522 ], [ 612966.487802244257182, 5336827.335606189444661 ], [ 612845.066413633991033, 5335777.546981249935925 ], [ 611890.046924042166211, 5335758.774873420596123 ], [ 611768.578729393193498, 5334709.089030778035522 ], [ 612723.662793921073899, 5334727.835914798080921 ], [ 612602.276947159320116, 5333678.202369253151119 ], [ 613557.424950866727158, 5333697.083594270981848 ], [ 613436.121416201232933, 5332647.502307126298547 ], [ 610570.481969496817328, 5332591.412860311567783 ], [ 610449.002661015023477, 5331541.984569537453353 ], [ 609493.723796440986916, 5331523.632235467433929 ], [ 609129.199461648357101, 5328375.886738892644644 ], [ 608173.726620738394558, 5328357.769049804657698 ], [ 608295.281316658481956, 5329406.915208859369159 ], [ 607339.87233231542632, 5329388.931898619048297 ], [ 607218.253199229715392, 5328339.810747384093702 ], [ 606262.779202282545157, 5328322.011830114759505 ], [ 606141.113558853743598, 5327272.992860934697092 ], [ 605185.574580720392987, 5327255.378257386386395 ], [ 605307.304635056992993, 5328304.372296486049891 ], [ 603396.353810405824333, 5328269.571374198421836 ], [ 603518.230666761635803, 5329318.592807593755424 ], [ 600651.993547901045531, 5329267.512305268086493 ], [ 600774.081717769149691, 5330316.536432016640902 ], [ 602684.778130070422776, 5330350.480329914018512 ], [ 602928.750700946431607, 5332448.859557768329978 ], [ 601973.531719456543215, 5332431.758174534887075 ], [ 601851.471949909697287, 5331382.554796765558422 ], [ 599940.90336538059637, 5331348.880169705487788 ], [ 599818.732692693010904, 5330299.803640115074813 ], [ 598863.383128583547659, 5330283.230284355580807 ], [ 598496.78626878769137, 5327136.537773365154862 ], [ 601363.413093575276434, 5327186.513336573727429 ], [ 601119.491853377083316, 5325088.955314070917666 ], [ 602075.161789567908272, 5325105.88295881357044 ], [ 601953.29256772052031, 5324057.194734240882099 ], [ 599086.088147346395999, 5324006.963830581866205 ], [ 598842.017960174242035, 5321909.966567960567772 ], [ 597886.153500111657195, 5321893.590718055143952 ], [ 597397.973361670039594, 5317700.61681092903018 ], [ 595485.729046583874151, 5317668.539072838611901 ], [ 595363.600973678519949, 5316620.536500192247331 ], [ 596319.787559610093012, 5316636.47134215105325 ], [ 596197.741821870091371, 5315588.520932634361088 ], [ 597153.992069425992668, 5315604.590286229737103 ], [ 597032.028630996821448, 5314556.69200140517205 ], [ 595119.399365448975004, 5314524.761257354170084 ], [ 595241.491078693885356, 5315572.610574034973979 ], [ 594285.239844849798828, 5315556.859209079295397 ], [ 594407.413894769037142, 5316604.760683162137866 ], [ 589626.471279413090087, 5316528.266925499774516 ], [ 589871.515768268145621, 5318624.05599922221154 ], [ 593695.757388924481347, 5318685.127883203327656 ], [ 593818.050239828764461, 5319733.234897447749972 ], [ 594774.045222807326354, 5319748.925042865797877 ], [ 594651.816587561741471, 5318700.793563018552959 ], [ 595607.875293588615023, 5318716.618329003453255 ], [ 595852.222294588806108, 5320813.007040156051517 ], [ 594896.292045526206493, 5320797.133265417069197 ], [ 595140.840238083852455, 5322893.780087069608271 ], [ 596096.641946021234617, 5322909.702930415049195 ], [ 595974.423040919820778, 5321861.316569333896041 ], [ 596930.288525342592038, 5321877.374052304774523 ], [ 597296.80678809445817, 5325022.837544158101082 ], [ 595385.461134589510038, 5324990.734325070865452 ], [ 595507.79883722809609, 5326039.326818155124784 ], [ 591685.358846498304047, 5325976.933623444288969 ], [ 592053.253493656986393, 5329122.878584346733987 ], [ 593008.671105189947411, 5329138.311404149979353 ], [ 593253.896536445827223, 5331236.042127910070121 ], [ 592298.607784760883078, 5331220.560250115580857 ], [ 593157.921837120782584, 5338564.876442887820303 ], [ 592203.084244532743469, 5338549.382064462639391 ], [ 592325.980844141915441, 5339598.854582783766091 ], [ 587552.108327786670998, 5339523.655128094367683 ] ], [ [ 610813.494052961817943, 5334690.501726236194372 ], [ 610691.9791014874354, 5333640.918566705659032 ], [ 611647.128328950144351, 5333659.480693925172091 ], [ 611768.578729393193498, 5334709.089030778035522 ], [ 610813.494052961817943, 5334690.501726236194372 ] ], [ [ 607461.509364522760734, 5330438.130307878367603 ], [ 608416.853890516911633, 5330456.138641004450619 ], [ 608660.052656078478321, 5332554.817474278621376 ], [ 607704.837110372493044, 5332536.759050152264535 ], [ 607826.527816039510071, 5333586.189458076842129 ], [ 604961.071236139978282, 5333532.896226753480732 ], [ 604839.186979993944988, 5332483.540835059247911 ], [ 605794.404267103993334, 5332501.120732050389051 ], [ 605672.602454810170457, 5331451.817706483416259 ], [ 603762.038326935842633, 5331416.867305155843496 ], [ 603640.125506918760948, 5330367.691438785754144 ], [ 604595.472323979367502, 5330385.061989539302886 ], [ 604473.641932026133873, 5329335.938460850156844 ], [ 607339.87233231542632, 5329388.931898619048297 ], [ 607461.509364522760734, 5330438.130307878367603 ] ], [ [ 600063.092098655644804, 5332398.033911662176251 ], [ 599107.8714697874384, 5332381.411029171198606 ], [ 598985.618258314323612, 5331332.282058105804026 ], [ 599940.90336538059637, 5331348.880169705487788 ], [ 600063.092098655644804, 5332398.033911662176251 ] ], [ [ 592886.085711991298012, 5328089.561609609052539 ], [ 593841.567223669728264, 5328105.129286893643439 ], [ 593964.088216290343553, 5329153.903619234450161 ], [ 593008.671105189947411, 5329138.311404149979353 ], [ 592886.085711991298012, 5328089.561609609052539 ] ], [ [ 609410.132898368639871, 5347235.84255597461015 ], [ 609654.032134354347363, 5349336.955573264509439 ], [ 608699.850864838226698, 5349318.654256094247103 ], [ 608455.821972798090428, 5347217.591751500964165 ], [ 609410.132898368639871, 5347235.84255597461015 ] ] ], [ [ [ 615725.937028039130382, 5344216.45925962459296 ], [ 615847.370879840804264, 5345266.920523028820753 ], [ 616801.80628817086108, 5345286.40001642331481 ], [ 616680.437211267650127, 5344235.91329858917743 ], [ 615725.937028039130382, 5344216.45925962459296 ] ] ], [ [ [ 616454.805398825090379, 5350520.396521182730794 ], [ 616333.28314077865798, 5349469.545237770304084 ], [ 615379.10637979535386, 5349450.12379842158407 ], [ 615743.920857880730182, 5352602.83549689874053 ], [ 616697.902917359955609, 5352622.333479265682399 ], [ 616819.47816956427414, 5353673.41922992002219 ], [ 617773.394608444417827, 5353693.102906731888652 ], [ 617651.884302403312176, 5352641.99157980363816 ], [ 618605.865007457323372, 5352661.809800158254802 ], [ 618484.437268077745102, 5351610.751089779660106 ], [ 617530.39163549465593, 5351590.958461876958609 ], [ 617408.916611873079091, 5350540.003514935262501 ], [ 616454.805398825090379, 5350520.396521182730794 ] ] ], [ [ [ 621346.570047381916083, 5351671.089520486071706 ], [ 619438.482217945391312, 5351630.703807729296386 ], [ 619559.845026968629099, 5352681.788141998462379 ], [ 620513.824355382937938, 5352701.92660699877888 ], [ 620635.139805974555202, 5353753.114851392805576 ], [ 623496.878707829862833, 5353814.568202797323465 ], [ 623618.016783308936283, 5354865.911986351013184 ], [ 624571.863337824936025, 5354886.74256909172982 ], [ 624087.675911543308757, 5350681.7341598123312 ], [ 623133.569535067887045, 5350661.006732043810189 ], [ 623375.758138483623043, 5352763.302757946774364 ], [ 621467.8029871446779, 5352722.225196851417422 ], [ 621346.570047381916083, 5351671.089520486071706 ] ] ], [ [ [ 602633.220530621008947, 5354448.16501856315881 ], [ 601679.358848454430699, 5354431.018457640893757 ], [ 601802.008863978204317, 5355481.855276296846569 ], [ 602755.805599999497645, 5355499.026941105723381 ], [ 602633.220530621008947, 5354448.16501856315881 ] ] ], [ [ [ 597279.02010222512763, 5357500.057283824309707 ], [ 599186.358957186923362, 5357533.058886906132102 ], [ 599063.478012200328521, 5356482.141116928309202 ], [ 600017.211551481275819, 5356498.857247354462743 ], [ 599894.413617555750534, 5355447.992508748546243 ], [ 600848.211534634465352, 5355464.843799320980906 ], [ 600725.496575505007058, 5354414.032053130678833 ], [ 601679.358848454430699, 5354431.018457640893757 ], [ 601556.726827882346697, 5353380.259664930403233 ], [ 598694.943499804474413, 5353329.855992470867932 ], [ 598817.77027954289224, 5354380.539707659743726 ], [ 597863.906267669866793, 5354364.033763887360692 ], [ 598109.743893863284029, 5356465.585201511159539 ], [ 597156.009202072280459, 5356449.189499714411795 ], [ 597279.02010222512763, 5357500.057283824309707 ] ] ], [ [ [ 596448.443801764631644, 5358534.717735313810408 ], [ 597402.049092285102233, 5358551.003131692297757 ], [ 597279.02010222512763, 5357500.057283824309707 ], [ 596325.34981645597145, 5357483.796848468482494 ], [ 596448.443801764631644, 5358534.717735313810408 ] ] ], [ [ [ 598355.65381001366768, 5358567.448803157545626 ], [ 597402.049092285102233, 5358551.003131692297757 ], [ 597525.096168295829557, 5359602.027081316336989 ], [ 598478.635866913828067, 5359618.497760456986725 ], [ 598355.65381001366768, 5358567.448803157545626 ] ] ], [ [ [ 615103.146903930930421, 5379876.861349579878151 ], [ 615347.88546023494564, 5381982.946116365492344 ], [ 616300.043923696153797, 5382002.521166024729609 ], [ 616177.731332260766067, 5380949.41337291803211 ], [ 617129.954582249978557, 5380969.123550673015416 ], [ 616885.513274580938742, 5378863.093745707534254 ], [ 615933.159054997144267, 5378843.435251655988395 ], [ 616055.436374619137496, 5379896.384747687727213 ], [ 615103.146903930930421, 5379876.861349579878151 ] ] ], [ [ [ 621264.601855611661449, 5408396.996448379941285 ], [ 621019.379499266389757, 5406286.772266574203968 ], [ 619118.090663969400339, 5406245.940102451480925 ], [ 619240.825186477624811, 5407300.959597771987319 ], [ 618290.245605914737098, 5407280.759888810105622 ], [ 618413.063715302851051, 5408335.833305379375815 ], [ 621264.601855611661449, 5408396.996448379941285 ] ] ], [ [ [ 667190.704022279474884, 5276458.963346466422081 ], [ 668149.394208023673855, 5276486.55785611551255 ], [ 668265.65295397862792, 5277533.560702284798026 ], [ 669224.278812264325097, 5277561.339571837335825 ], [ 669108.083637081435882, 5276514.310290428809822 ], [ 671025.46020757034421, 5276570.288942621089518 ], [ 670909.408761399914511, 5275523.283123915083706 ], [ 667074.398370294016786, 5275412.063271620310843 ], [ 667190.704022279474884, 5276458.963346466422081 ] ] ], [ [ [ 669029.868231815285981, 5301579.486279875040054 ], [ 669146.653147591161542, 5302628.27985568344593 ], [ 668189.55681034992449, 5302600.338162511587143 ], [ 668306.422386073856615, 5303649.182297622784972 ], [ 667349.389304993092082, 5303621.372619811445475 ], [ 667583.298449236084707, 5305719.239405517466366 ], [ 668540.203294329112396, 5305747.102498766034842 ], [ 668657.118617785163224, 5306796.178639363497496 ], [ 670570.797471072757617, 5306852.434766680002213 ], [ 670454.010458168922924, 5305803.305071213282645 ], [ 671410.912767212139443, 5305831.644555205479264 ], [ 670827.546308440389112, 5300587.022476451471448 ], [ 669870.323515885975212, 5300558.816888254135847 ], [ 669987.027806200785562, 5301607.55994317214936 ], [ 669029.868231815285981, 5301579.486279875040054 ] ] ], [ [ [ 632177.153495475417003, 5321534.154261987656355 ], [ 632296.910477713565342, 5322583.419021057896316 ], [ 633252.753036207635887, 5322605.526530916802585 ], [ 633013.385136512923054, 5320507.022896146401763 ], [ 633969.355704367859289, 5320529.238105249591172 ], [ 633849.762089487281628, 5319480.076572035439312 ], [ 630981.655339166056365, 5319413.985644330270588 ], [ 631221.245879317051731, 5321512.231712297536433 ], [ 632177.153495475417003, 5321534.154261987656355 ] ] ], [ [ [ 671485.82517136388924, 5323620.428970786742866 ], [ 673397.443422805750743, 5323677.864763555116951 ], [ 673163.486958966474049, 5321577.1421810220927 ], [ 674119.423704126151279, 5321606.044896957464516 ], [ 674002.534601222723722, 5320555.773527018725872 ], [ 671134.528261334518902, 5320469.624305732548237 ], [ 671485.82517136388924, 5323620.428970786742866 ] ] ], [ [ [ 667999.674309416324832, 5335037.107071072794497 ], [ 669909.880081509239972, 5335093.543289189226925 ], [ 669792.389430257724598, 5334042.418154190294445 ], [ 667882.054218317614868, 5333986.036061276681721 ], [ 667999.674309416324832, 5335037.107071072794497 ] ] ], [ [ [ 670864.981573266442865, 5335122.000900987535715 ], [ 669909.880081509239972, 5335093.543289189226925 ], [ 670027.387224894715473, 5336144.746820484288037 ], [ 670982.423969648429193, 5336173.231557390652597 ], [ 670864.981573266442865, 5335122.000900987535715 ] ] ], [ [ [ 661904.540670887334272, 5340100.197066266089678 ], [ 662859.326564745977521, 5340127.352102506905794 ], [ 662623.160008450038731, 5338024.82825218513608 ], [ 663578.07458288827911, 5338052.089242147281766 ], [ 663342.104130958323367, 5335949.825150143355131 ], [ 664297.1473085739417, 5335977.192031557671726 ], [ 664415.059474381385371, 5337028.311815233901143 ], [ 665370.037002217955887, 5337055.865334922447801 ], [ 665016.544535884517245, 5333902.660164039582014 ], [ 665971.715338237700053, 5333930.292500646784902 ], [ 665736.266059149755165, 5331828.493333148770034 ], [ 663825.664860718417913, 5331773.495941361412406 ], [ 663707.835825554444455, 5330722.767490291967988 ], [ 662752.469255075324327, 5330695.534980544820428 ], [ 662634.592245783656836, 5329644.911510801874101 ], [ 661679.160184864071198, 5329617.865325194783509 ], [ 661797.101804642705247, 5330668.461997867561877 ], [ 660841.733479495393112, 5330641.548539969138801 ], [ 660959.756410637521185, 5331692.196554038673639 ], [ 660004.4518409864977, 5331665.415869177319109 ], [ 660122.556118439533748, 5332716.11526339314878 ], [ 659167.315324051422067, 5332689.467396912164986 ], [ 658930.99422600644175, 5330588.200189411640167 ], [ 657975.623308136826381, 5330561.76529223844409 ], [ 657857.423281339579262, 5329511.275493538938463 ], [ 658812.858795758103952, 5329537.683719361200929 ], [ 658694.740117391454987, 5328487.245288037694991 ], [ 655828.237313413759694, 5328408.578935381025076 ], [ 656064.878916316549294, 5330509.374042920768261 ], [ 655109.505452830577269, 5330483.417686343193054 ], [ 655464.787821853766218, 5333635.115850447677076 ], [ 653554.426130534848198, 5333583.522299946285784 ], [ 653673.01656651054509, 5334634.191380373202264 ], [ 650807.661735606379807, 5334557.918505072593689 ], [ 650926.463070124271326, 5335608.586139061488211 ], [ 651881.517502641770989, 5335633.87730010971427 ], [ 652119.041503954795189, 5337735.500029446557164 ], [ 650209.190639537526295, 5337684.971349457278848 ], [ 650447.041193234501407, 5339786.800821370445192 ], [ 648537.445983604993671, 5339736.805122243240476 ], [ 648656.52619726001285, 5340787.784248666837811 ], [ 653430.184028833988123, 5340914.104550560936332 ], [ 653192.688267929013819, 5338811.95919750072062 ], [ 654147.546847978257574, 5338837.649444635026157 ], [ 654028.889005956472829, 5337786.667591369710863 ], [ 656893.653860915335827, 5337864.616875724866986 ], [ 657012.117438508430496, 5338915.678732248023152 ], [ 657966.972567601827905, 5338942.00801750458777 ], [ 658203.820457196445204, 5341044.420277589932084 ], [ 659158.545115131186321, 5341070.962898037396371 ], [ 659276.929349871352315, 5342122.313455058261752 ], [ 658322.269521797890775, 5342095.744026561267674 ], [ 658440.735326862893999, 5343147.146238898858428 ], [ 663213.701200349954888, 5343281.726452253758907 ], [ 663095.559687798726372, 5342230.189808318391442 ], [ 661186.246324547799304, 5342175.93189930729568 ], [ 661067.991760063916445, 5341124.527631792239845 ], [ 662022.713736256933771, 5341151.549749616533518 ], [ 661904.540670887334272, 5340100.197066266089678 ] ] ], [ [ [ 669307.5428411468165, 5338219.009954599663615 ], [ 669189.937940952950157, 5337167.676640956662595 ], [ 670144.91085575404577, 5337196.028786085546017 ], [ 670027.387224894715473, 5336144.746820484288037 ], [ 668117.310935807530768, 5336088.256446530111134 ], [ 668352.633775903610513, 5338190.790446450933814 ], [ 669307.5428411468165, 5338219.009954599663615 ] ] ], [ [ [ 668588.022701428038999, 5340293.638365340419114 ], [ 668352.633775903610513, 5338190.790446450933814 ], [ 666442.812855971278623, 5338134.830704506486654 ], [ 666678.461020670249127, 5340237.570348809473217 ], [ 668588.022701428038999, 5340293.638365340419114 ] ] ], [ [ [ 662859.326564745977521, 5340127.352102506905794 ], [ 663095.559687798726372, 5342230.189808318391442 ], [ 665004.869396247318946, 5342285.087200382724404 ], [ 664768.895627393038012, 5340182.141600765287876 ], [ 662859.326564745977521, 5340127.352102506905794 ] ] ], [ [ [ 674434.01512803719379, 5341517.383295767940581 ], [ 674668.724438235163689, 5343621.02955215331167 ], [ 675623.303450722247362, 5343650.34430305659771 ], [ 675388.723945706617087, 5341546.643345000222325 ], [ 674434.01512803719379, 5341517.383295767940581 ] ] ], [ [ [ 676460.648464293335564, 5342627.901748271659017 ], [ 676577.881475092377514, 5343679.818987246602774 ], [ 677532.458505886956118, 5343709.453607204370201 ], [ 677649.642898530466482, 5344761.477076582610607 ], [ 679558.664060515351593, 5344821.281102145090699 ], [ 679441.609564906568266, 5343769.202664430253208 ], [ 680396.18358220695518, 5343799.317106729373336 ], [ 680162.253217630670406, 5341695.341695547103882 ], [ 677298.138634040020406, 5341605.643056861124933 ], [ 677415.290416134055704, 5342657.508946713991463 ], [ 676460.648464293335564, 5342627.901748271659017 ] ] ], [ [ [ 645792.321505125146359, 5340713.909760477021337 ], [ 646150.247186659020372, 5343867.078912368044257 ], [ 647104.788482232135721, 5343891.623182212933898 ], [ 647224.06622164696455, 5344942.862641316838562 ], [ 648178.541835257783532, 5344967.593284150585532 ], [ 648059.328949528513476, 5343916.327348566614091 ], [ 649013.868583111441694, 5343941.191413508728147 ], [ 648894.737501467578113, 5342889.97735629696399 ], [ 647940.133032420650125, 5342865.139783986844122 ], [ 647701.792121871374547, 5340762.999615725129843 ], [ 645792.321505125146359, 5340713.909760477021337 ] ] ], [ [ [ 676577.881475092377514, 5343679.818987246602774 ], [ 675623.303450722247362, 5343650.34430305659771 ], [ 675740.617725050076842, 5344702.312930091284215 ], [ 676695.130810488481075, 5344731.815019705332816 ], [ 676577.881475092377514, 5343679.818987246602774 ] ] ], [ [ [ 650683.160113916732371, 5350275.30663456581533 ], [ 650563.992385134100914, 5349223.595071873627603 ], [ 651518.20580073655583, 5349248.911947877146304 ], [ 651280.05093540227972, 5347145.671312055550516 ], [ 649371.363492646021768, 5347095.304055314511061 ], [ 649729.010805135359988, 5350250.123202621936798 ], [ 650683.160113916732371, 5350275.30663456581533 ] ] ], [ [ [ 665713.188696301775053, 5348595.810919061303139 ], [ 665831.299904932966456, 5349647.873782485723495 ], [ 666785.498785663978197, 5349675.751919128000736 ], [ 667139.736583870253526, 5352832.495193187147379 ], [ 669047.741141556762159, 5352888.895047653466463 ], [ 668929.775502294884063, 5351836.513912981376052 ], [ 669883.841399920056574, 5351864.92685835249722 ], [ 669648.089672642410733, 5349760.346927330829203 ], [ 668693.893675065832213, 5349731.988489187322557 ], [ 668575.977496501524001, 5348679.844123328104615 ], [ 665713.188696301775053, 5348595.810919061303139 ] ] ], [ [ [ 670001.741956605808809, 5352917.335269786417484 ], [ 669047.741141556762159, 5352888.895047653466463 ], [ 669165.723258306388743, 5353941.355182034894824 ], [ 670119.658969032112509, 5353969.822696375660598 ], [ 670001.741956605808809, 5352917.335269786417484 ] ] ], [ [ [ 671309.346784433699213, 5356103.717188268899918 ], [ 672263.150226451456547, 5356132.559924474917352 ], [ 672145.330623692250811, 5355079.859611419029534 ], [ 670237.592432473786175, 5355022.389176563359797 ], [ 670473.508693481446244, 5357127.759451614692807 ], [ 671427.247962327674031, 5357156.469261185266078 ], [ 671309.346784433699213, 5356103.717188268899918 ] ] ], [ [ [ 672380.986227186163887, 5357185.339399030432105 ], [ 671427.247962327674031, 5357156.469261185266078 ], [ 671545.165555238141678, 5358209.300518647767603 ], [ 672498.838621136033908, 5358238.198073617182672 ], [ 672380.986227186163887, 5357185.339399030432105 ] ] ], [ [ [ 671545.165555238141678, 5358209.300518647767603 ], [ 670591.491481573088095, 5358180.563323487527668 ], [ 670709.49070173187647, 5359233.446402980014682 ], [ 671663.099558409419842, 5359262.210999214090407 ], [ 671545.165555238141678, 5358209.300518647767603 ] ] ], [ [ [ 647706.831368145416491, 5365934.120185849256814 ], [ 647946.376512474613264, 5368039.879862114787102 ], [ 650805.509312020847574, 5368115.349040826782584 ], [ 650327.270309270475991, 5363903.825080786831677 ], [ 649373.965756601421162, 5363878.61523543857038 ], [ 649493.56545882683713, 5364931.350712405517697 ], [ 648540.325275566894561, 5364906.274624612182379 ], [ 648660.007161299698055, 5365959.062470592558384 ], [ 647706.831368145416491, 5365934.120185849256814 ] ] ], [ [ [ 673779.827485926216468, 5395049.33255026768893 ], [ 673898.464782364317216, 5396104.984468719922006 ], [ 675801.090807004831731, 5396164.289877538569272 ], [ 675564.096394448308274, 5394052.954900714568794 ], [ 674612.652001213980839, 5394023.2773293023929 ], [ 674494.113218166632578, 5392967.758601749315858 ], [ 671639.575458194944076, 5392879.778027012944221 ], [ 671877.064966423786245, 5394990.728849141858518 ], [ 673779.827485926216468, 5395049.33255026768893 ] ] ], [ [ [ 637524.017735050758347, 5401406.827633578330278 ], [ 637281.413879449013621, 5399296.771105121821165 ], [ 636330.323357845772989, 5399273.550319005735219 ], [ 636573.05913088156376, 5401383.553372929804027 ], [ 635622.099622596520931, 5401360.440707504749298 ], [ 635743.559203032637015, 5402415.535793065093458 ], [ 634792.66478209476918, 5402392.55802343506366 ], [ 634914.207522646174766, 5403447.706624434329569 ], [ 636815.863445902592503, 5403493.877246651798487 ], [ 636694.452722904970869, 5402438.675187635235488 ], [ 637645.345335344667546, 5402461.976209057494998 ], [ 637888.051858249702491, 5404572.514179388061166 ], [ 639789.570216199266724, 5404619.708437478169799 ], [ 639547.12781245529186, 5402509.06314015481621 ], [ 640498.017664387007244, 5402532.849053717218339 ], [ 640255.775501728756353, 5400422.471226245164871 ], [ 638353.730914989835583, 5400375.168359788134694 ], [ 638474.975428753066808, 5401430.263491374440491 ], [ 637524.017735050758347, 5401406.827633578330278 ] ] ], [ [ [ 658093.799605453503318, 5407212.314721445553005 ], [ 658213.823760781087913, 5408268.435928046703339 ], [ 657263.282336317468435, 5408241.602915269322693 ], [ 657503.512924852897413, 5410354.032677325420082 ], [ 659404.329861968988553, 5410407.970708142034709 ], [ 659284.338693318073638, 5409351.660317876376212 ], [ 660234.811772709945217, 5409378.844577314332128 ], [ 660114.903404142707586, 5408322.587447543628514 ], [ 659164.364118883386254, 5408295.430771396495402 ], [ 659044.406143467524089, 5407239.282028989866376 ], [ 658093.799605453503318, 5407212.314721445553005 ] ] ], [ [ [ 651801.036706301383674, 5410196.103916417807341 ], [ 651680.515846604597755, 5409140.013178432360291 ], [ 650730.033311721170321, 5409114.28562034200877 ], [ 650609.46305106615182, 5408058.302897969260812 ], [ 649658.91332886449527, 5408032.764451353810728 ], [ 649900.203004636568949, 5410144.756048871204257 ], [ 651801.036706301383674, 5410196.103916417807341 ] ] ], [ [ [ 660234.811772709945217, 5409378.844577314332128 ], [ 660354.736713267979212, 5410435.182566681876779 ], [ 661305.142477705958299, 5410462.556323626078665 ], [ 661185.283769011963159, 5409406.190703467465937 ], [ 660234.811772709945217, 5409378.844577314332128 ] ] ], [ [ [ 699557.449332154123113, 5275390.234475038014352 ], [ 696681.076054468518123, 5275292.450713881291449 ], [ 696795.394090542104095, 5276340.106604682281613 ], [ 697754.122431035153568, 5276372.570592586882412 ], [ 697982.679189608432353, 5278468.167527406476438 ], [ 698941.279290767619386, 5278500.844285282306373 ], [ 698712.849881994421594, 5276405.192554278299212 ], [ 699671.576438999618404, 5276437.972492568194866 ], [ 699557.449332154123113, 5275390.234475038014352 ] ] ], [ [ [ 697138.444245953927748, 5279483.5351901659742 ], [ 696795.394090542104095, 5276340.106604682281613 ], [ 694877.934758624294773, 5276275.652539057657123 ], [ 695106.873519376851618, 5278371.0854611704126 ], [ 693189.665311419055797, 5278307.154228677041829 ], [ 693304.286138312891126, 5279354.931368930265307 ], [ 697138.444245953927748, 5279483.5351901659742 ] ] ], [ [ [ 701771.811804521130398, 5286952.798048447817564 ], [ 701657.589302720152773, 5285904.262386977672577 ], [ 702615.74020700075198, 5285937.606189472600818 ], [ 702501.597434629220515, 5284889.120110158808529 ], [ 703459.811245897551998, 5284922.594543494284153 ], [ 703345.748169193277135, 5283874.15800807159394 ], [ 702387.470528743695468, 5283840.711195975542068 ], [ 702273.359494164120406, 5282792.37940985430032 ], [ 701315.017114478512667, 5282759.118377035483718 ], [ 700972.588002953096293, 5279614.668050947599113 ], [ 700014.053424714133143, 5279581.647728477604687 ], [ 700128.244292441289872, 5280629.693324545398355 ], [ 698211.299869440612383, 5280564.07199433632195 ], [ 698325.634167935699224, 5281612.139644623734057 ], [ 697367.224341466207989, 5281579.538710196502507 ], [ 697481.638372541638091, 5282627.655919899232686 ], [ 696523.291403856710531, 5282595.185710019432008 ], [ 696637.785201321938075, 5283643.352517357096076 ], [ 694721.216111621470191, 5283578.831821073777974 ], [ 694950.506938328384422, 5285675.287011083215475 ], [ 696866.820788620971143, 5285739.917282116599381 ], [ 697210.494079011958092, 5288885.342860070988536 ], [ 699126.421038840664551, 5288950.771096155047417 ], [ 698783.130974521511234, 5285805.180553872138262 ], [ 699741.284681909601204, 5285838.049572021700442 ], [ 699970.001053168671206, 5287935.087796916253865 ], [ 700928.026090042549185, 5287968.170203455723822 ], [ 700813.723825024906546, 5286919.584921546280384 ], [ 701771.811804521130398, 5286952.798048447817564 ] ] ], [ [ [ 706448.334343229769729, 5286072.564099885523319 ], [ 707406.480484177591279, 5286106.69926708843559 ], [ 707292.657005200395361, 5285058.074692633002996 ], [ 704418.024113149149343, 5284956.227215511724353 ], [ 704532.039180445834063, 5286004.768598816357553 ], [ 703573.890167767531238, 5285971.108259126543999 ], [ 703802.095527656143531, 5288068.367379409261048 ], [ 702844.073331891791895, 5288034.809991840273142 ], [ 702958.263674744870514, 5289083.527789142914116 ], [ 704874.179276890354231, 5289150.856291612610221 ], [ 704760.116767170024104, 5288102.083099729381502 ], [ 705718.137045823968947, 5288135.957155696116388 ], [ 705604.154246745863929, 5287087.233541253954172 ], [ 706562.237465401296504, 5287121.238175187259912 ], [ 706448.334343229769729, 5286072.564099885523319 ] ] ], [ [ [ 699126.421038840664551, 5288950.771096155047417 ], [ 699240.882931749802083, 5289999.45573381986469 ], [ 700198.78108845744282, 5290032.434946488589048 ], [ 700084.383115213830024, 5288983.722737553529441 ], [ 699126.421038840664551, 5288950.771096155047417 ] ] ], [ [ [ 704444.178453735308722, 5302723.908252983354032 ], [ 704558.590213906019926, 5303773.711833715438843 ], [ 705515.651444393210113, 5303807.68603563029319 ], [ 705401.303898714017123, 5302757.854561029933393 ], [ 704444.178453735308722, 5302723.908252983354032 ] ] ], [ [ [ 705630.014747419045307, 5304857.59536190982908 ], [ 708500.999577053473331, 5304960.554716330952942 ], [ 708272.674130038358271, 5302860.646129647269845 ], [ 706358.428329652524553, 5302791.959641211666167 ], [ 706472.711656668456271, 5303841.819041088223457 ], [ 705515.651444393210113, 5303807.68603563029319 ], [ 705630.014747419045307, 5304857.59536190982908 ] ] ], [ [ [ 696369.81324361579027, 5316043.089928003028035 ], [ 696485.074462165939622, 5317093.629124139435589 ], [ 697441.309394760290161, 5317126.375370590947568 ], [ 697326.112629473791458, 5316075.80839660204947 ], [ 696369.81324361579027, 5316043.089928003028035 ] ] ], [ [ [ 695990.300656042294577, 5321263.869816221296787 ], [ 695874.911208953126334, 5320213.045507360249758 ], [ 696830.953681730548851, 5320245.715903963893652 ], [ 696485.074462165939622, 5317093.629124139435589 ], [ 693616.363581102341413, 5316996.345458573661745 ], [ 693731.834130391711369, 5318046.879637317731977 ], [ 692775.659617788158357, 5318014.742430157959461 ], [ 693006.777664799243212, 5320115.989940736442804 ], [ 693962.823195382137783, 5320148.182528499513865 ], [ 694078.341701368917711, 5321198.951316538266838 ], [ 695990.300656042294577, 5321263.869816221296787 ] ] ], [ [ [ 697671.750647429842502, 5319227.743922338820994 ], [ 697786.995125025860034, 5320278.545575710013509 ], [ 698743.035533730639145, 5320311.534525389783084 ], [ 698627.855578261893243, 5319260.705016838386655 ], [ 697671.750647429842502, 5319227.743922338820994 ] ] ], [ [ [ 697902.255496930214576, 5321329.425531195476651 ], [ 697786.995125025860034, 5320278.545575710013509 ], [ 696830.953681730548851, 5320245.715903963893652 ], [ 696946.278593271505088, 5321296.56802040990442 ], [ 697902.255496930214576, 5321329.425531195476651 ] ] ], [ [ [ 692166.378673886880279, 5321134.670010103844106 ], [ 692282.042241646209732, 5322185.461651252582669 ], [ 694193.876183198997751, 5322249.798383319750428 ], [ 694078.341701368917711, 5321198.951316538266838 ], [ 693122.360694168950431, 5321166.731015535071492 ], [ 693006.777664799243212, 5320115.989940736442804 ], [ 691094.683581554098055, 5320052.082554869353771 ], [ 691210.395645641488954, 5321102.768297526054084 ], [ 692166.378673886880279, 5321134.670010103844106 ] ] ], [ [ [ 701773.858367925742641, 5339273.547578203491867 ], [ 701889.274119998677634, 5340325.899798748083413 ], [ 700934.46486944553908, 5340292.218803714029491 ], [ 701281.001592411426827, 5343449.665331004187465 ], [ 702235.615895539172925, 5343483.430955665186048 ], [ 702120.152888834709302, 5342430.841449089348316 ], [ 704029.50809927447699, 5342498.796085060574114 ], [ 703568.333236848236993, 5338289.003140611574054 ], [ 702613.396367841865867, 5338255.058847636915743 ], [ 702728.731437068898231, 5339307.360244568437338 ], [ 701773.858367925742641, 5339273.547578203491867 ] ] ], [ [ [ 695553.29219820862636, 5343250.430928218178451 ], [ 697462.533116977894679, 5343316.202539257705212 ], [ 697230.973000728525221, 5341211.384205509908497 ], [ 694366.720162395737134, 5341113.134896347299218 ], [ 694482.687164524919353, 5342165.420472756959498 ], [ 695437.374249938759021, 5342198.038337104022503 ], [ 695553.29219820862636, 5343250.430928218178451 ] ] ], [ [ [ 707584.594226712244563, 5348919.503828031010926 ], [ 707354.177777490112931, 5346813.327752409502864 ], [ 706399.764424261287786, 5346778.676975179463625 ], [ 706515.029956412268803, 5347831.696866039186716 ], [ 705560.68053998472169, 5347797.17775778286159 ], [ 705676.026836735662073, 5348850.248607830144465 ], [ 707584.594226712244563, 5348919.503828031010926 ] ] ], [ [ [ 710447.436398703139275, 5349024.587779489345849 ], [ 710217.410748305497691, 5346918.240608272142708 ], [ 709263.000945056555793, 5346883.109566020779312 ], [ 709378.07112387381494, 5347936.214886718429625 ], [ 708423.725253916694783, 5347901.21542758308351 ], [ 708538.87614468333777, 5348954.371659430675209 ], [ 710447.436398703139275, 5349024.587779489345849 ] ] ], [ [ [ 707584.594226712244563, 5348919.503828031010926 ], [ 707699.825863781501539, 5349972.711010101251304 ], [ 708654.042620108579285, 5350007.60734919924289 ], [ 708538.87614468333777, 5348954.371659430675209 ], [ 707584.594226712244563, 5348919.503828031010926 ] ] ], [ [ [ 708654.042620108579285, 5350007.60734919924289 ], [ 708884.422304400475696, 5352114.317257050424814 ], [ 709838.50746623123996, 5352149.430904330685735 ], [ 709608.258179918280803, 5350042.663871290162206 ], [ 708654.042620108579285, 5350007.60734919924289 ] ] ], [ [ [ 703767.454745212453417, 5348781.633958373218775 ], [ 703882.946985161979683, 5349834.727425188757479 ], [ 702928.724330132477917, 5349800.631957330740988 ], [ 703044.297421108349226, 5350853.776477487757802 ], [ 701135.978938407730311, 5350786.009399412199855 ], [ 701367.432986445492133, 5352892.423438176512718 ], [ 702321.462436459376477, 5352926.283531434834003 ], [ 702437.14785370696336, 5353979.638112620450556 ], [ 703391.110910136485472, 5354013.686843853443861 ], [ 703275.490716192405671, 5352960.303882097825408 ], [ 704229.517820008913986, 5352994.484493019990623 ], [ 704113.978527648025192, 5351941.152653882279992 ], [ 705068.069659924600273, 5351975.465099804103374 ], [ 704721.741375880781561, 5348815.86121320631355 ], [ 703767.454745212453417, 5348781.633958373218775 ] ] ], [ [ [ 691222.484627251978964, 5355689.826130476780236 ], [ 691339.000305384164676, 5356743.080789403058589 ], [ 693246.561439272365533, 5356807.660237306728959 ], [ 693130.176242082030512, 5355754.349449768662453 ], [ 691222.484627251978964, 5355689.826130476780236 ] ] ], [ [ [ 693246.561439272365533, 5356807.660237306728959 ], [ 693362.962553527904674, 5357861.050527659244835 ], [ 692409.247813508613035, 5357828.652531537227333 ], [ 692525.730126232723705, 5358882.094252212904394 ], [ 690618.427825044491328, 5358817.723283458501101 ], [ 690501.81495196686592, 5357764.33769048191607 ], [ 691455.531944421119988, 5357796.4149200450629 ], [ 691339.000305384164676, 5356743.080789403058589 ], [ 689431.43469454580918, 5356679.142742990516126 ], [ 689898.179262521211058, 5360892.7321623172611 ], [ 688944.655915866605937, 5360860.891687041148543 ], [ 689295.078273357008584, 5364021.835227152332664 ], [ 693108.380525127868168, 5364150.497101353481412 ], [ 692875.272618517512456, 5362042.896957403980196 ], [ 693828.726081240456551, 5362075.40749173425138 ], [ 693479.379579854896292, 5358914.520359529182315 ], [ 694433.027894536033273, 5358947.106885755434632 ], [ 694200.340313148335554, 5356840.190493579022586 ], [ 693246.561439272365533, 5356807.660237306728959 ] ] ], [ [ [ 706801.822021333267912, 5367784.239538720808923 ], [ 707033.254242226481438, 5369893.434868513606489 ], [ 708939.209599811700173, 5369963.512878543697298 ], [ 708592.477919056778774, 5366799.667786128818989 ], [ 706686.129278198932298, 5366729.762035258114338 ], [ 706570.452120184432715, 5365675.364587343297899 ], [ 705617.210433972766623, 5365640.681359397247434 ], [ 705732.953088308451697, 5366695.050176220946014 ], [ 703826.596998906228691, 5366626.108476436696947 ], [ 704058.391215440351516, 5368734.971840028651059 ], [ 703105.342360139009543, 5368700.684873980470002 ], [ 703453.347694759606384, 5371864.494869989342988 ], [ 704406.199835525010712, 5371898.867632924579084 ], [ 704290.247996341902763, 5370844.155550179071724 ], [ 705243.164486368186772, 5370878.660492873750627 ], [ 705127.293853867100552, 5369823.99994436930865 ], [ 706080.274673937703483, 5369858.637022160924971 ], [ 705848.711349863093346, 5367749.4990329220891 ], [ 706801.822021333267912, 5367784.239538720808923 ] ] ], [ [ [ 706543.588380796834826, 5374077.875198828056455 ], [ 706311.900364757631905, 5371968.095639764331281 ], [ 704406.199835525010712, 5371898.867632924579084 ], [ 704522.167300302302465, 5372953.659919623285532 ], [ 705474.952572095440701, 5372988.222170557826757 ], [ 705590.870014950633049, 5374043.12337804865092 ], [ 706543.588380796834826, 5374077.875198828056455 ] ] ], [ [ [ 705914.993783912155777, 5385617.437549376860261 ], [ 706031.16390826785937, 5386673.276060801930726 ], [ 706983.094097850727849, 5386708.212349851615727 ], [ 707099.213843509904109, 5387764.1604985576123 ], [ 709954.798661891254596, 5387870.023847225122154 ], [ 709491.203765323152766, 5383646.368649927899241 ], [ 707586.954609694657847, 5383575.863281403668225 ], [ 707702.96187967271544, 5384631.598104148171842 ], [ 706750.901202736073174, 5384596.558324296958745 ], [ 706866.989882505848072, 5385652.344971601851285 ], [ 705914.993783912155777, 5385617.437549376860261 ] ] ], [ [ [ 690060.56310258526355, 5405049.249550971202552 ], [ 689825.162324232631363, 5402935.830093778669834 ], [ 688874.263260867563076, 5402903.66476774495095 ], [ 688756.52053125470411, 5401847.105177992023528 ], [ 687805.554038572823629, 5401815.130027486011386 ], [ 688159.02855920814909, 5404984.966641528531909 ], [ 690060.56310258526355, 5405049.249550971202552 ] ] ], [ [ [ 708124.880528773646802, 5405692.216729111969471 ], [ 708241.345248618395999, 5406749.596366326324642 ], [ 709192.018918531597592, 5406785.084139131009579 ], [ 708959.237582482164726, 5404670.34801378659904 ], [ 709910.042503682314418, 5404705.939276085235178 ], [ 709677.455493519548327, 5402591.47061557136476 ], [ 706824.638881099643186, 5402485.357031437568367 ], [ 707174.139131032861769, 5405656.919964756816626 ], [ 708124.880528773646802, 5405692.216729111969471 ] ] ] ] } }
]
}
