{
"type": "FeatureCollection",
"name": "urban-2015",
"crs": { "type": "name", "properties": { "name": "urn:ogc:def:crs:EPSG::32637" } },
"features": [
{ "type": "Feature", "properties": { "year": 2015 }, "geometry": { "type": "MultiPolygon", "coordinates": [ [ [ [ 516263.510332469362766, 2358764.01284892577678 ], [ 516122.034843044297304, 2357844.166778896003962 ], [ 515040.941480951441918, 2357843.135922006331384 ], [ 515182.439870309492107, 2358762.972208331804723 ], [ 516263.510332469362766, 2358764.01284892577678 ] ] ], [ [ [ 513048.851862175448332, 2379920.078851365949959 ], [ 511968.312973485968541, 2379919.243213158100843 ], [ 512111.223847751272842, 2380839.554338198620826 ], [ 511030.708398412738461, 2380838.781026071868837 ], [ 511459.829166500654537, 2383599.818996674846858 ], [ 510379.383494417415932, 2383599.088333482854068 ], [ 510952.380917539237998, 2387280.746267379261553 ], [ 509872.028320379380602, 2387280.048433149699122 ], [ 510589.58648165530758, 2391882.576075820717961 ], [ 509509.350379479699768, 2391881.9011973394081 ], [ 509940.592598713119514, 2394643.657687531318516 ], [ 508860.426603027444798, 2394643.025629586074501 ], [ 509436.253281674522441, 2398325.643045930191875 ], [ 508356.180812795530073, 2398325.04393468471244 ], [ 508644.459647787094582, 2400166.467991013079882 ], [ 507564.434100611542817, 2400165.921763740479946 ], [ 507708.676596683159005, 2401086.657690146472305 ], [ 509868.681157864106353, 2401087.842851801775396 ], [ 510157.232039311144035, 2402929.422316329553723 ], [ 511237.187905493134167, 2402930.14415881736204 ], [ 511092.909287709917407, 2402009.333103678189218 ], [ 512172.888808375224471, 2402010.117772199213505 ], [ 511884.537654340092558, 2400168.543426756747067 ], [ 512964.564198995067272, 2400169.380823638290167 ], [ 512820.491633992351126, 2399248.617514241952449 ], [ 513900.541840347868856, 2399249.517633592244238 ], [ 514188.693366546882316, 2401091.087015237193555 ], [ 515268.697214725136291, 2401092.08010677061975 ], [ 514836.61959119013045, 2398329.729661745484918 ], [ 513756.545713103318121, 2398328.766863605938852 ], [ 513468.712737142166588, 2396487.333101145457476 ], [ 516709.075378562265541, 2396490.379127264488488 ], [ 516565.308440098422579, 2395569.665869463700801 ], [ 514405.019715059839655, 2395567.582690164446831 ], [ 514261.259262134146411, 2394646.912189421709627 ], [ 515341.426729529921431, 2394647.907382992561907 ], [ 515197.742648928251583, 2393727.249381938017905 ], [ 518438.317226180748548, 2393730.640391187276691 ], [ 518151.247885825345293, 2391889.331470456440002 ], [ 519231.486786054563709, 2391890.586706355214119 ], [ 519374.971677791618276, 2392811.240023259073496 ], [ 522615.621557898120955, 2392815.471604068297893 ], [ 522759.08973198919557, 2393736.178143187426031 ], [ 520598.70247679844033, 2393733.264065676834434 ], [ 521460.904212195484433, 2399257.855903090909123 ], [ 520380.851090287324041, 2399256.446424094960093 ], [ 520812.737818830588367, 2402019.017650374211371 ], [ 519732.755198906932492, 2402017.650195998605341 ], [ 520020.991559018846601, 2403859.457356723956764 ], [ 518941.056142997869756, 2403858.142254988662899 ], [ 519085.277256289729849, 2404779.069660074077547 ], [ 518005.365679839218501, 2404777.81722457241267 ], [ 518438.417482230404858, 2407540.705104429274797 ], [ 516278.7360357058933, 2407538.357712883967906 ], [ 516423.239584270049818, 2408459.345357856247574 ], [ 517503.056672997656278, 2408460.492774756159633 ], [ 517792.176096625858918, 2410302.556817090604454 ], [ 521031.489426903717685, 2410306.499120012391359 ], [ 520886.97349416319048, 2409385.424793377052993 ], [ 523046.565074548183475, 2409388.397730915341526 ], [ 523191.034152494801674, 2410309.4928078930825 ], [ 524270.807345433626324, 2410311.09929822711274 ], [ 523549.109092338709161, 2405705.800127751193941 ], [ 522469.218881390348542, 2405704.245605975389481 ], [ 522325.014869651407935, 2404783.264555873349309 ], [ 521245.101824986806605, 2404781.7933255340904 ], [ 521100.927461043640506, 2403860.845362463500351 ], [ 523260.800827965314966, 2403863.840086743235588 ], [ 522972.70460119046038, 2402021.971106292214245 ], [ 524052.688816081674304, 2402023.557108248583972 ], [ 523908.743554992019199, 2401102.646392085589468 ], [ 522828.736005341925193, 2401101.070731526240706 ], [ 522397.148304435191676, 2398338.505914392881095 ], [ 523477.225802282162476, 2398340.050619119778275 ], [ 523189.812339675088879, 2396498.433621248230338 ], [ 522109.688256418739911, 2396496.909496827051044 ], [ 521822.440289930556901, 2394655.403727590106428 ], [ 523982.782109606894664, 2394658.483535554260015 ], [ 524126.333046654530335, 2395579.245646622031927 ], [ 525206.481555793550797, 2395580.904810916166753 ], [ 525350.06222397077363, 2396501.699922249652445 ], [ 526430.188077536527999, 2396503.442099287640303 ], [ 526286.630677931243554, 2395582.636632038746029 ], [ 527366.780439334572293, 2395584.441110231447965 ], [ 527079.871097052935511, 2393742.877513978164643 ], [ 524919.479201993555762, 2393739.382625354453921 ], [ 524776.057519111898728, 2392818.655525396112353 ], [ 523695.839250199729577, 2392817.027277844492346 ], [ 523265.822518335073255, 2390055.01260958891362 ], [ 524346.110462977085263, 2390056.610042562242597 ], [ 524489.3731482361909, 2390977.269246847368777 ], [ 525569.6384731316939, 2390978.949458794668317 ], [ 525426.39900041045621, 2390058.279966718982905 ], [ 528667.268432499608025, 2390063.724688697606325 ], [ 528524.151541843777522, 2389143.046819160692394 ], [ 530684.78098566934932, 2389147.018292918801308 ], [ 530398.79880010348279, 2387305.68892231117934 ], [ 531479.160968010663055, 2387307.762506511993706 ], [ 531336.272454718244262, 2386387.121372991707176 ], [ 532416.658541346201673, 2386389.256931646261364 ], [ 532131.086617946624756, 2384548.021716617513448 ], [ 531050.654255744651891, 2384545.906995491590351 ], [ 530907.924572802265175, 2383625.333725823555142 ], [ 531988.380058794515207, 2383627.438045150134712 ], [ 531845.726436500553973, 2382706.876980592962354 ], [ 532926.205813600914553, 2382709.043181851040572 ], [ 532783.62823134358041, 2381788.49430455872789 ], [ 533864.131509933737107, 2381790.722344123292714 ], [ 533579.1813065900933, 2379949.671519358642399 ], [ 530337.535316571476869, 2379943.266474921256304 ], [ 530480.05320656450931, 2380863.749439131468534 ], [ 529399.52914880705066, 2380861.748474303167313 ], [ 529684.769985886639915, 2382702.761395058128983 ], [ 528604.292859670822509, 2382700.812010202556849 ], [ 528747.015835341298953, 2383621.341986112296581 ], [ 529827.469840432167985, 2383623.301706239115447 ], [ 530113.028414705768228, 2385464.450094337109476 ], [ 529032.62067985185422, 2385462.46966975228861 ], [ 529175.502545958850533, 2386383.067403137218207 ], [ 528095.118671174044721, 2386381.148991367779672 ], [ 527952.2136526129907, 2385460.561599568929523 ], [ 526871.807306653354317, 2385458.725883519276977 ], [ 526728.932113065035082, 2384538.171381724067032 ], [ 527809.361605493817478, 2384539.99679510993883 ], [ 527238.483158755581826, 2380857.963194257579744 ], [ 528319.005808324785903, 2380859.81972610251978 ], [ 528033.930632733507082, 2379018.917580223176628 ], [ 529114.500150178791955, 2379020.825736921746284 ], [ 528972.065093692741357, 2378100.398154979106039 ], [ 530052.658392903162166, 2378102.368166646454483 ], [ 530195.070378229487687, 2379022.806055028457195 ], [ 532356.213071638951078, 2379026.983176597394049 ], [ 532213.847218650509603, 2378106.524592503439635 ], [ 533294.442797948722728, 2378108.711007277481258 ], [ 533436.785589748178609, 2379029.179980644956231 ], [ 534517.358923957450315, 2379031.448947276454419 ], [ 534802.157137587433681, 2380872.475470493547618 ], [ 535882.685177155886777, 2380874.837522879242897 ], [ 536025.140571578755043, 2381795.395159861538559 ], [ 538186.15314822352957, 2381800.356959948781878 ], [ 537901.387554785353132, 2379959.222242995165288 ], [ 538981.94136313162744, 2379961.79040189133957 ], [ 538697.433413880993612, 2378120.725112202111632 ], [ 540858.636088426457718, 2378126.035708349198103 ], [ 540716.507493681972846, 2377205.515868266113102 ], [ 541797.133339474326931, 2377208.268773312680423 ], [ 541371.133756458060816, 2374446.813184170983732 ], [ 540290.438890010002069, 2374444.09200834017247 ], [ 540148.521753542358056, 2373523.662565683480352 ], [ 543390.678366532898508, 2373532.010430942289531 ], [ 543107.140524944639765, 2371691.155846868641675 ], [ 542026.374693366582505, 2371688.322409683372825 ], [ 541601.395421905792318, 2368927.241509252693504 ], [ 542682.230086811003275, 2368930.043253998272121 ], [ 542540.698966042371467, 2368009.71748062223196 ], [ 543621.557597550563514, 2368012.580518408678472 ], [ 543763.065795763279311, 2368932.916861090809107 ], [ 544843.90257520088926, 2368935.862330933101475 ], [ 544702.417296293540858, 2368015.515391321852803 ], [ 545783.278088716673665, 2368018.522099773865193 ], [ 545924.740451562218368, 2368938.879663940519094 ], [ 548086.419600816792808, 2368945.129921157378703 ], [ 547803.639321631635539, 2367104.394709066022187 ], [ 548884.526450813631527, 2367107.606230497825891 ], [ 549167.260926586575806, 2368948.362846245523542 ], [ 550248.103455038391985, 2368951.667636256664991 ], [ 550389.526967638521455, 2369872.090590457897633 ], [ 552551.169923066394404, 2369878.937342631164938 ], [ 552834.083601325051859, 2371719.894367473199964 ], [ 551753.307334250188433, 2371716.413407772313803 ], [ 551894.866246420424432, 2372636.91509333672002 ], [ 554056.374207402463071, 2372643.970660239923745 ], [ 554197.940003000199795, 2373564.516744767315686 ], [ 558520.880262525985017, 2373579.535384704358876 ], [ 558379.406195452786051, 2372658.945526983588934 ], [ 559460.16769366490189, 2372662.869191088248044 ], [ 559318.769252373138443, 2371742.291077955625951 ], [ 558237.984839300508611, 2371738.378415004350245 ], [ 558096.616195453098044, 2370817.834035860840231 ], [ 557015.81029738986399, 2370814.004287024959922 ], [ 556874.471467838389799, 2369893.493578834459186 ], [ 555793.644061320810579, 2369889.746677040122449 ], [ 555935.005793446092866, 2370810.24646186362952 ], [ 553773.400862206239253, 2370802.946580460760742 ], [ 553349.336480113910511, 2368041.580490833614022 ], [ 554430.206974005093798, 2368045.161899674218148 ], [ 554147.806911847670563, 2366204.342718981206417 ], [ 553066.890665269340388, 2366200.782967685721815 ], [ 553208.087194451363757, 2367121.170417504385114 ], [ 549965.414776236284524, 2367110.889561591204256 ], [ 549682.937235124991275, 2365270.201846305280924 ], [ 548602.003149987664074, 2365266.939929243642837 ], [ 548743.238402846851386, 2366187.261796974111348 ], [ 546581.419535571942106, 2366180.931905675679445 ], [ 546298.910324812633917, 2364340.353340617846698 ], [ 545217.956854106043465, 2364337.317292732652277 ], [ 545359.207927505602129, 2365257.58470267476514 ], [ 542116.422698705457151, 2365248.875253920909017 ], [ 542399.22069352446124, 2367089.414231352042407 ], [ 541318.340186310233548, 2367086.633558748755604 ], [ 541459.841375325457193, 2368006.926277559250593 ], [ 539298.129210484097712, 2368001.559374043252319 ], [ 539439.729118476854637, 2368921.853605232201517 ], [ 538358.897427077637985, 2368919.267445200588554 ], [ 538217.27458347112406, 2367998.983672834932804 ], [ 537136.420891470392235, 2367996.47980484040454 ], [ 536994.828003789298236, 2367076.228931675665081 ], [ 534833.077450028154999, 2367071.457451055757701 ], [ 534974.716206727782264, 2367991.687567092943937 ], [ 533893.865161097841337, 2367989.399196665734053 ], [ 533469.038846345967613, 2365228.807111948728561 ], [ 531307.201605768408626, 2365224.507573483511806 ], [ 531165.652853078092448, 2364304.375545249786228 ], [ 532246.593995064147748, 2364306.479191818274558 ], [ 532105.121097997878678, 2363386.359287404920906 ], [ 529943.193756156368181, 2363382.244161686860025 ], [ 530084.71247418189887, 2364302.343619503546506 ], [ 527922.833899793331511, 2364298.49492935044691 ], [ 528064.451426783809438, 2365218.596378318034112 ], [ 526983.536109779612161, 2365216.7694754851982 ], [ 527125.22955087502487, 2366136.883115417789668 ], [ 524963.446763564599678, 2366133.424336161464453 ], [ 524821.70743098820094, 2365213.330911596305668 ], [ 523740.794016278756317, 2365211.71925005549565 ], [ 523599.084743549232371, 2364291.65818702057004 ], [ 524680.021099710837007, 2364293.259793476201594 ], [ 524255.280127147852909, 2361533.180150778032839 ], [ 523174.275002468144521, 2361531.608642428647727 ], [ 523032.777785626822151, 2360611.636633439920843 ], [ 524113.805814535182435, 2360613.19813145371154 ], [ 523972.384509950992651, 2359693.238355107605457 ], [ 525053.436021325411275, 2359694.861435236409307 ], [ 524912.090608386439271, 2358774.913873602170497 ], [ 528155.317559497663751, 2358780.182391644455492 ], [ 528014.093746846658178, 2357860.226879958063364 ], [ 529095.193601908395067, 2357862.116046787705272 ], [ 528954.045614439528435, 2356942.172681053634733 ], [ 531116.293181907502003, 2356946.14530683029443 ], [ 530975.243833437561989, 2356026.20392137998715 ], [ 529894.096847026026808, 2356024.19200619449839 ], [ 529330.337718462338671, 2352344.689393917564303 ], [ 528249.100207453477196, 2352342.789320036768913 ], [ 528389.983346991590224, 2353262.621572128497064 ], [ 527308.76933327189181, 2353260.782812045887113 ], [ 527449.728258217219263, 2354180.627202469855547 ], [ 526368.537731197080575, 2354178.84979998646304 ], [ 526509.572462130803615, 2355098.7063467213884 ], [ 523266.073154441313818, 2355093.772674527019262 ], [ 523407.229398750467226, 2356013.621426034718752 ], [ 520163.803783526760526, 2356009.300996345467865 ], [ 519599.222854047315195, 2352330.157730481121689 ], [ 520680.455560633563437, 2352331.486917264759541 ], [ 520539.46576281520538, 2351411.746527943294495 ], [ 519458.210238269413821, 2351410.427184801548719 ], [ 519317.25067179533653, 2350490.718722203280777 ], [ 517154.695401951204985, 2350488.313615079503506 ], [ 517436.758857672975864, 2352327.713436556514353 ], [ 518517.990628574392758, 2352328.899903637822717 ], [ 518800.220673246774822, 2354168.4076291997917 ], [ 517719.03457963076653, 2354167.201551795937121 ], [ 517860.25203711836366, 2355086.978751099668443 ], [ 516779.08923425670946, 2355085.834294181317091 ], [ 516355.527514803339727, 2352326.598329070024192 ], [ 514193.066006987064611, 2352324.582192263565958 ], [ 514758.103962933644652, 2356003.529683838132769 ], [ 515839.243096994759981, 2356004.541006781626493 ], [ 516122.034843044297304, 2357844.166778896003962 ], [ 517203.12860042747343, 2357845.2691605752334 ], [ 517344.581193309975788, 2358765.125041895546019 ], [ 519506.724217040347867, 2358767.564085595775396 ], [ 519648.184074903838336, 2359687.461845231242478 ], [ 520729.233395088871475, 2359688.798601520247757 ], [ 520870.723394523316529, 2360608.728463163133711 ], [ 519789.696979347616434, 2360607.381790490355343 ], [ 519931.262929031858221, 2361527.323934032116085 ], [ 518850.259916471899487, 2361526.038969447370619 ], [ 518991.901837046956643, 2362445.993412792216986 ], [ 520072.881922617380042, 2362447.288288521114737 ], [ 520356.279036125750281, 2364287.283681008964777 ], [ 519275.344832449161913, 2364285.968949439004064 ], [ 519417.145904595090542, 2365205.990068084560335 ], [ 518336.235131158493459, 2365204.737137631047517 ], [ 518478.112218735972419, 2366124.770578412804753 ], [ 517397.224865145748481, 2366123.579492883291095 ], [ 517823.243426121945959, 2368883.783608169760555 ], [ 516742.42547728336649, 2368882.634609072934836 ], [ 516884.560799841943663, 2369802.737270184326917 ], [ 514722.972137719683815, 2369800.635085692163557 ], [ 515292.228424905217253, 2373481.189422496128827 ], [ 514211.526827512134332, 2373480.206701680086553 ], [ 514496.519616370438598, 2375320.597876902204007 ], [ 515577.175067691656295, 2375321.60039169434458 ], [ 515719.728009173471946, 2376241.839370967820287 ], [ 514639.095644864952192, 2376240.826942313928157 ], [ 514781.72476094099693, 2377161.078343209344894 ], [ 513701.11585388937965, 2377160.128092972096056 ], [ 513843.821165263245348, 2378080.391933280043304 ], [ 512763.235705229337327, 2378079.503905241843313 ], [ 513048.851862175448332, 2379920.078851365949959 ] ], [ [ 553914.861160011030734, 2371723.447276432067156 ], [ 554995.640036728582345, 2371727.072135150898248 ], [ 555137.130156529601663, 2372647.606409537605941 ], [ 554056.374207402463071, 2372643.970660239923745 ], [ 553914.861160011030734, 2371723.447276432067156 ] ], [ [ 515862.334028917481191, 2377162.1006969823502 ], [ 516004.993125576991588, 2378082.384382461197674 ], [ 514924.406963252462447, 2378081.35209230799228 ], [ 514781.72476094099693, 2377161.078343209344894 ], [ 515862.334028917481191, 2377162.1006969823502 ] ], [ [ 538784.08325729065109, 2371680.253765495959669 ], [ 539864.846085960278288, 2371682.871369380038232 ], [ 540006.657485070172697, 2372603.255690302234143 ], [ 538925.917629277566448, 2372600.627582656219602 ], [ 538784.08325729065109, 2371680.253765495959669 ] ], [ [ 537703.321376748033799, 2371677.70810529589653 ], [ 537561.516917970846407, 2370757.367283436004072 ], [ 538642.301765351556242, 2370759.902478734962642 ], [ 538784.08325729065109, 2371680.253765495959669 ], [ 537703.321376748033799, 2371677.70810529589653 ] ], [ [ 538500.57315482548438, 2369839.573709569405764 ], [ 540662.191615772200748, 2369844.838858547154814 ], [ 540803.874321085284464, 2370765.188617896288633 ], [ 538642.301765351556242, 2370759.902478734962642 ], [ 538500.57315482548438, 2369839.573709569405764 ] ] ], [ [ [ 572817.912026756093837, 2389282.401733981445432 ], [ 570657.186328526586294, 2389272.777376686222851 ], [ 570799.401238210033625, 2390193.88080923166126 ], [ 569719.064050470362417, 2390189.165917903184891 ], [ 569861.354636856820434, 2391110.280996026936918 ], [ 568781.042226209887303, 2391105.62719360133633 ], [ 568923.408509698463604, 2392026.753935302607715 ], [ 570003.697831515455619, 2392031.419169988017529 ], [ 570146.093633035081439, 2392952.580452849157155 ], [ 571226.361563650425524, 2392957.329723969567567 ], [ 571083.988857185584493, 2392036.156969811301678 ], [ 573244.57612527103629, 2392045.850267542991787 ], [ 572817.912026756093837, 2389282.401733981445432 ] ] ], [ [ [ 571226.361563650425524, 2392957.329723969567567 ], [ 571368.786866214708425, 2393878.52561146626249 ], [ 572449.033428809489124, 2393883.358986404724419 ], [ 572591.48821542004589, 2394804.589542040135711 ], [ 573671.713433153112419, 2394809.507088201120496 ], [ 573386.902650968171656, 2392967.046047311741859 ], [ 571226.361563650425524, 2392957.329723969567567 ] ] ], [ [ [ 526573.798460154677741, 2397424.270274105481803 ], [ 524413.593928585527465, 2397420.837897495832294 ], [ 524557.303870726376772, 2398341.668063039425761 ], [ 523477.225802282162476, 2398340.050619119778275 ], [ 523764.851298078719992, 2400181.758413769770414 ], [ 524844.882750494056381, 2400183.396538735833019 ], [ 524988.751685373135842, 2401104.294874660205096 ], [ 526068.760422721155919, 2401106.01617948198691 ], [ 525924.914806503336877, 2400185.107458339072764 ], [ 527004.947492345236242, 2400186.891172819770873 ], [ 526573.798460154677741, 2397424.270274105481803 ] ] ], [ [ [ 503755.187445391202345, 2410293.075514435768127 ], [ 504834.954524160886649, 2410293.366271284408867 ], [ 504690.086743733438198, 2409372.444053012412041 ], [ 506849.668236983416136, 2409373.224930592346936 ], [ 507284.290151412191335, 2412136.119382952805609 ], [ 509443.731420716154389, 2412137.252699146512896 ], [ 509154.024272972135805, 2410295.260253303218633 ], [ 510233.792199474992231, 2410295.916487797163427 ], [ 509944.344498937949538, 2408453.99471942614764 ], [ 511024.159590869618114, 2408454.703890414442867 ], [ 510879.538870736956596, 2407533.766971806529909 ], [ 516278.7360357058933, 2407538.357712883967906 ], [ 515701.252548806252889, 2403854.634372013621032 ], [ 513541.385435419040732, 2403852.660300274379551 ], [ 513397.100482580775861, 2402931.806469569448382 ], [ 511237.187905493134167, 2402930.14415881736204 ], [ 511525.904480514815077, 2404771.834162317216396 ], [ 510445.99541257112287, 2404771.092242429032922 ], [ 510590.456780221662484, 2405691.961160673759878 ], [ 507350.801252857374493, 2405690.142980574630201 ], [ 507061.791145481285639, 2403848.487754722125828 ], [ 505981.859516724420246, 2403848.047489571385086 ], [ 506126.361413920996711, 2404768.853865031152964 ], [ 505046.453351494157687, 2404768.476595826912671 ], [ 505335.663487678160891, 2406610.137298744637519 ], [ 504255.80242498323787, 2406609.813167503569275 ], [ 504545.272132818878163, 2408451.544471519533545 ], [ 503465.45809500530595, 2408451.273542863316834 ], [ 503755.187445391202345, 2410293.075514435768127 ] ], [ [ 513685.723481801862363, 2404773.536793431267142 ], [ 512605.81382818846032, 2404772.649012613575906 ], [ 512461.452384901756886, 2403851.782619047909975 ], [ 513541.385435419040732, 2403852.660300274379551 ], [ 513685.723481801862363, 2404773.536793431267142 ] ], [ [ 507495.386027592059691, 2406611.004516607616097 ], [ 507784.715012338943779, 2408452.795499093830585 ], [ 505625.086280856397934, 2408451.888440409209579 ], [ 505335.663487678160891, 2406610.137298744637519 ], [ 507495.386027592059691, 2406611.004516607616097 ] ] ], [ [ [ 515922.061557559471112, 2412142.408271739725024 ], [ 515777.322280408814549, 2411221.339796858839691 ], [ 516857.068632416718174, 2411222.444842461962253 ], [ 516712.405883999366779, 2410301.388909742236137 ], [ 515632.63607648445759, 2410300.294098925311118 ], [ 515488.002947159518953, 2409379.27116503380239 ], [ 512248.625334480253514, 2409376.455814715009183 ], [ 512393.32882286014501, 2410297.448244178202003 ], [ 511313.560374046850484, 2410296.645818054210395 ], [ 511458.340434352692682, 2411217.650852840393782 ], [ 512538.08541390649043, 2411218.463403354864568 ], [ 512682.895106249081437, 2412139.501305133569986 ], [ 513762.616914494486991, 2412140.397142658941448 ], [ 513907.45622223225655, 2413061.467974824365228 ], [ 514987.154882862290833, 2413062.447166134603322 ], [ 514842.339056211116258, 2412141.366131481714547 ], [ 515922.061557559471112, 2412142.408271739725024 ] ] ], [ [ [ 578728.160565816680901, 2364464.789597544353455 ], [ 579809.161487521720119, 2364470.049396624322981 ], [ 579528.277811916545033, 2362628.876871613785625 ], [ 577366.186833901214413, 2362618.474751907866448 ], [ 577506.647928982391022, 2363539.026731903664768 ], [ 576425.628061434719712, 2363533.921816754154861 ], [ 577128.835692971711978, 2368136.967323638033122 ], [ 578209.741593152284622, 2368142.129340374842286 ], [ 578069.017773146391846, 2367221.463081022724509 ], [ 579149.948395895422436, 2367226.685480660758913 ], [ 578728.160565816680901, 2364464.789597544353455 ] ] ], [ [ [ 574685.49756642000284, 2366285.617667356040329 ], [ 575766.445346096181311, 2366290.613215915393084 ], [ 575344.610065606539138, 2363528.888615883421153 ], [ 572101.567043662536889, 2363514.219291909597814 ], [ 572523.607464648783207, 2366275.84195715142414 ], [ 571442.665089634014294, 2366271.061794130597264 ], [ 571865.247304770629853, 2369032.855860192794353 ], [ 574026.996874044416472, 2369042.555890382267535 ], [ 573745.314122188836336, 2367201.291732067242265 ], [ 574826.237261830945499, 2367206.226833296008408 ], [ 574685.49756642000284, 2366285.617667356040329 ] ] ], [ [ [ 575907.162232568720356, 2367211.233758059795946 ], [ 574826.237261830945499, 2367206.226833296008408 ], [ 575107.87436168664135, 2369047.513722394127399 ], [ 577269.63487519219052, 2369057.645023735705763 ], [ 577128.835692971711978, 2368136.967323638033122 ], [ 576047.931679866043851, 2368131.877159525640309 ], [ 575907.162232568720356, 2367211.233758059795946 ] ] ], [ [ [ 575107.87436168664135, 2369047.513722394127399 ], [ 574026.996874044416472, 2369042.555890382267535 ], [ 574167.91711567202583, 2369963.222257204819471 ], [ 575248.771763333701529, 2369968.191471470985562 ], [ 575107.87436168664135, 2369047.513722394127399 ] ] ], [ [ [ 577551.390884343069047, 2370899.06912639643997 ], [ 579713.067622896982357, 2370909.533887840341777 ], [ 579431.402949277427979, 2369068.06384627148509 ], [ 577269.63487519219052, 2369057.645023735705763 ], [ 577551.390884343069047, 2370899.06912639643997 ] ] ], [ [ [ 578732.535868856823072, 2385628.462330587208271 ], [ 579813.004621367552318, 2385633.771523226983845 ], [ 579387.927666131174192, 2382870.565382328350097 ], [ 578307.389964262489229, 2382865.291044341865927 ], [ 578732.535868856823072, 2385628.462330587208271 ] ] ] ] } }
]
}
