{
"type": "FeatureCollection",
"name": "urban-2005",
"crs": { "type": "name", "properties": { "name": "urn:ogc:def:crs:EPSG::32637" } },
"features": [
{ "type": "Feature", "properties": { "year": 2005 }, "geometry": { "type": "MultiPolygon", "coordinates": [ [ [ [ 536055.568108036997728, 2367994.047769706696272 ], [ 537136.420891470392235, 2367996.47980484040454 ], [ 536994.828003789298236, 2367076.228931675665081 ], [ 535913.952287491993047, 2367073.807288913056254 ], [ 536055.568108036997728, 2367994.047769706696272 ] ] ], [ [ [ 543107.140524944639765, 2371691.155846868641675 ], [ 542026.374693366582505, 2371688.322409683372825 ], [ 541601.395421905792318, 2368927.241509252693504 ], [ 540520.561774606700055, 2368924.511626458726823 ], [ 540378.984798954450525, 2368004.206908827181906 ], [ 539298.129210484097712, 2368001.559374043252319 ], [ 539581.381901296786964, 2369842.170339652337134 ], [ 540662.191615772200748, 2369844.838858547154814 ], [ 540803.874321085284464, 2370765.188617896288633 ], [ 539723.087557580205612, 2370762.509590099565685 ], [ 540148.521753542358056, 2373523.662565683480352 ], [ 541229.239608233678155, 2373526.373187630902976 ], [ 541087.398318684194237, 2372605.955769620835781 ], [ 543248.8830250359606, 2372611.571844804100692 ], [ 543107.140524944639765, 2371691.155846868641675 ] ] ], [ [ [ 528954.045614439528435, 2356942.172681053634733 ], [ 530035.169029888347723, 2356944.123243946582079 ], [ 529471.198057482368313, 2353264.531721528153867 ], [ 528389.983346991590224, 2353262.621572128497064 ], [ 528530.919458800810389, 2354182.476021608803421 ], [ 526368.537731197080575, 2354178.84979998646304 ], [ 526650.660181246232241, 2356018.585093887522817 ], [ 525569.515968741383404, 2356016.859066658187658 ], [ 525428.405411235406063, 2355096.990345640107989 ], [ 524347.23898417991586, 2355095.345788319595158 ], [ 524488.372383415116929, 2356015.204510784707963 ], [ 519082.662936312903184, 2356008.003793960437179 ], [ 518941.415278148255311, 2355088.194650368764997 ], [ 520022.578983871557284, 2355089.481992159504443 ], [ 519317.25067179533653, 2350490.718722203280777 ], [ 517154.695401951204985, 2350488.313615079503506 ], [ 517436.758857672975864, 2352327.713436556514353 ], [ 518517.990628574392758, 2352328.899903637822717 ], [ 518800.220673246774822, 2354168.4076291997917 ], [ 517719.03457963076653, 2354167.201551795937121 ], [ 517860.25203711836366, 2355086.978751099668443 ], [ 516779.08923425670946, 2355085.834294181317091 ], [ 516637.848920804506633, 2354166.066889156121761 ], [ 514475.478801396442577, 2354164.011807543225586 ], [ 514758.103962933644652, 2356003.529683838132769 ], [ 516920.382619566575158, 2356005.623799345456064 ], [ 517344.581193309975788, 2358765.125041895546019 ], [ 519506.724217040347867, 2358767.564085595775396 ], [ 519648.184074903838336, 2359687.461845231242478 ], [ 521810.283223327773158, 2359690.206938462331891 ], [ 521951.750321119325235, 2360610.146744079887867 ], [ 519789.696979347616434, 2360607.381790490355343 ], [ 519931.262929031858221, 2361527.323934032116085 ], [ 518850.259916471899487, 2361526.038969447370619 ], [ 518991.901837046956643, 2362445.993412792216986 ], [ 520072.881922617380042, 2362447.288288521114737 ], [ 520498.057153365400154, 2365207.314744361676276 ], [ 519417.145904595090542, 2365205.990068084560335 ], [ 519842.867402698204387, 2367966.186977471690625 ], [ 518762.025559964997228, 2367964.904228462371975 ], [ 518904.061810928455088, 2368885.004463105462492 ], [ 516742.42547728336649, 2368882.634609072934836 ], [ 516884.560799841943663, 2369802.737270184326917 ], [ 515803.766275534813758, 2369801.650236380752176 ], [ 515945.977691458712798, 2370721.765276147518307 ], [ 514865.206581356876995, 2370720.740251440554857 ], [ 515292.228424905217253, 2373481.189422496128827 ], [ 514211.526827512134332, 2373480.206701680086553 ], [ 514496.519616370438598, 2375320.597876902204007 ], [ 515577.175067691656295, 2375321.60039169434458 ], [ 515719.728009173471946, 2376241.839370967820287 ], [ 514639.095644864952192, 2376240.826942313928157 ], [ 514781.72476094099693, 2377161.078343209344894 ], [ 515862.334028917481191, 2377162.1006969823502 ], [ 516004.993125576991588, 2378082.384382461197674 ], [ 512763.235705229337327, 2378079.503905241843313 ], [ 513048.851862175448332, 2379920.078851365949959 ], [ 511968.312973485968541, 2379919.243213158100843 ], [ 512111.223847751272842, 2380839.554338198620826 ], [ 511030.708398412738461, 2380838.781026071868837 ], [ 511459.829166500654537, 2383599.818996674846858 ], [ 510379.383494417415932, 2383599.088333482854068 ], [ 510952.380917539237998, 2387280.746267379261553 ], [ 509872.028320379380602, 2387280.048433149699122 ], [ 510589.58648165530758, 2391882.576075820717961 ], [ 509509.350379479699768, 2391881.9011973394081 ], [ 510084.446258629788645, 2395564.288190084509552 ], [ 509004.30357330077095, 2395563.646201566327363 ], [ 509436.253281674522441, 2398325.643045930191875 ], [ 508356.180812795530073, 2398325.04393468471244 ], [ 508644.459647787094582, 2400166.467991013079882 ], [ 507564.434100611542817, 2400165.921763740479946 ], [ 507708.676596683159005, 2401086.657690146472305 ], [ 509868.681157864106353, 2401087.842851801775396 ], [ 510012.930036430014297, 2402008.621282786596566 ], [ 512172.888808375224471, 2402010.117772199213505 ], [ 511884.537654340092558, 2400168.543426756747067 ], [ 512964.564198995067272, 2400169.380823638290167 ], [ 512676.472169358399697, 2398327.876803074032068 ], [ 513756.545713103318121, 2398328.766863605938852 ], [ 513324.875891148985829, 2395566.650083022192121 ], [ 514405.019715059839655, 2395567.582690164446831 ], [ 514261.259262134146411, 2394646.912189421709627 ], [ 515341.426729529921431, 2394647.907382992561907 ], [ 515054.111648842925206, 2392806.613936287350953 ], [ 517214.540825528209098, 2392808.781834532041103 ], [ 517358.125286886410322, 2393729.437454608269036 ], [ 518438.317226180748548, 2393730.640391187276691 ], [ 518151.247885825345293, 2391889.331470456440002 ], [ 519231.486786054563709, 2391890.586706355214119 ], [ 519374.971677791618276, 2392811.240023259073496 ], [ 522615.621557898120955, 2392815.471604068297893 ], [ 522902.610921227722429, 2394656.907317189034075 ], [ 523982.782109606894664, 2394658.483535554260015 ], [ 524126.333046654530335, 2395579.245646622031927 ], [ 525206.481555793550797, 2395580.904810916166753 ], [ 525350.06222397077363, 2396501.699922249652445 ], [ 526430.188077536527999, 2396503.442099287640303 ], [ 526286.630677931243554, 2395582.636632038746029 ], [ 527366.780439334572293, 2395584.441110231447965 ], [ 527079.871097052935511, 2393742.877513978164643 ], [ 524919.479201993555762, 2393739.382625354453921 ], [ 524776.057519111898728, 2392818.655525396112353 ], [ 523695.839250199729577, 2392817.027277844492346 ], [ 523265.822518335073255, 2390055.01260958891362 ], [ 524346.110462977085263, 2390056.610042562242597 ], [ 524489.3731482361909, 2390977.269246847368777 ], [ 525569.6384731316939, 2390978.949458794668317 ], [ 525426.39900041045621, 2390058.279966718982905 ], [ 528667.268432499608025, 2390063.724688697606325 ], [ 528524.151541843777522, 2389143.046819160692394 ], [ 530684.78098566934932, 2389147.018292918801308 ], [ 530398.79880010348279, 2387305.68892231117934 ], [ 531479.160968010663055, 2387307.762506511993706 ], [ 531193.436883506597951, 2385466.502873601857573 ], [ 532273.846112586907111, 2385468.628007834311575 ], [ 532131.086617946624756, 2384548.021716617513448 ], [ 531050.654255744651891, 2384545.906995491590351 ], [ 530907.924572802265175, 2383625.333725823555142 ], [ 531988.380058794515207, 2383627.438045150134712 ], [ 531845.726436500553973, 2382706.876980592962354 ], [ 532926.205813600914553, 2382709.043181851040572 ], [ 532498.631858994951472, 2379947.464314757846296 ], [ 531418.083204444381408, 2379945.329300045967102 ], [ 531560.578007957781665, 2380865.822620868682861 ], [ 529399.52914880705066, 2380861.748474303167313 ], [ 529542.12308822281193, 2381782.243655352387577 ], [ 530622.624046844779514, 2381784.254960470832884 ], [ 530765.247836046502925, 2382704.783051759935915 ], [ 529684.769985886639915, 2382702.761395058128983 ], [ 530255.887131698429585, 2386385.058196919038892 ], [ 528095.118671174044721, 2386381.148991367779672 ], [ 527952.2136526129907, 2385460.561599568929523 ], [ 526871.807306653354317, 2385458.725883519276977 ], [ 526728.932113065035082, 2384538.171381724067032 ], [ 527809.361605493817478, 2384539.99679510993883 ], [ 527238.483158755581826, 2380857.963194257579744 ], [ 528319.005808324785903, 2380859.81972610251978 ], [ 528033.930632733507082, 2379018.917580223176628 ], [ 529114.500150178791955, 2379020.825736921746284 ], [ 528972.065093692741357, 2378100.398154979106039 ], [ 530052.658392903162166, 2378102.368166646454483 ], [ 530195.070378229487687, 2379022.806055028457195 ], [ 532356.213071638951078, 2379026.983176597394049 ], [ 532071.534301393898204, 2377186.088549662381411 ], [ 534232.77237319748383, 2377190.512730570044369 ], [ 534090.558474812656641, 2376270.078455103561282 ], [ 535171.201787240919657, 2376272.388284952379763 ], [ 535597.933100642985664, 2379033.790076809935272 ], [ 534517.358923957450315, 2379031.448947276454419 ], [ 534802.157137587433681, 2380872.475470493547618 ], [ 538043.743909004726447, 2380879.778283391613513 ], [ 537759.084086938528344, 2379038.688825913704932 ], [ 538839.660949297482148, 2379041.246446170844138 ], [ 538697.433413880993612, 2378120.725112202111632 ], [ 539778.034265618771315, 2378123.344341762363911 ], [ 539635.882642070646398, 2377202.835073000751436 ], [ 541797.133339474326931, 2377208.268773312680423 ], [ 541513.080761987133883, 2375367.275772071909159 ], [ 540432.408893102663569, 2375364.544031100347638 ], [ 540148.521753542358056, 2373523.662565683480352 ], [ 539067.804879945586435, 2373521.023943028412759 ], [ 538784.08325729065109, 2371680.253765495959669 ], [ 536622.560417910572141, 2371675.234388422220945 ], [ 536480.732989011681639, 2370754.904003845993429 ], [ 538642.301765351556242, 2370759.902478734962642 ], [ 538217.27458347112406, 2367998.983672834932804 ], [ 537136.420891470392235, 2367996.47980484040454 ], [ 537278.066673968336545, 2368916.753145998809487 ], [ 536197.236832712311298, 2368914.310707273893058 ], [ 536055.568108036997728, 2367994.047769706696272 ], [ 533893.865161097841337, 2367989.399196665734053 ], [ 533610.59469291055575, 2366148.98206045338884 ], [ 532529.698600319679826, 2366146.786129746120423 ], [ 532388.119829623377882, 2365226.621468352619559 ], [ 531307.201605768408626, 2365224.507573483511806 ], [ 531165.652853078092448, 2364304.375545249786228 ], [ 532246.593995064147748, 2364306.479191818274558 ], [ 532105.121097997878678, 2363386.359287404920906 ], [ 529943.193756156368181, 2363382.244161686860025 ], [ 530226.284148316946812, 2365222.465427045244724 ], [ 526983.536109779612161, 2365216.7694754851982 ], [ 527125.22955087502487, 2366136.883115417789668 ], [ 524963.446763564599678, 2366133.424336161464453 ], [ 524821.70743098820094, 2365213.330911596305668 ], [ 523740.794016278756317, 2365211.71925005549565 ], [ 523457.428482774354052, 2363371.619406532961875 ], [ 524538.387771081062965, 2363373.210969098377973 ], [ 524255.280127147852909, 2361533.180150778032839 ], [ 523174.275002468144521, 2361531.608642428647727 ], [ 523032.777785626822151, 2360611.636633439920843 ], [ 524113.805814535182435, 2360613.19813145371154 ], [ 523831.016214737552218, 2358773.300809060223401 ], [ 528155.317559497663751, 2358780.182391644455492 ], [ 528014.093746846658178, 2357860.226879958063364 ], [ 529095.193601908395067, 2357862.116046787705272 ], [ 528954.045614439528435, 2356942.172681053634733 ] ], [ [ 521668.869153511652257, 2358770.289340805727988 ], [ 521527.508113013696857, 2357850.393938451074064 ], [ 523689.700930239050649, 2357853.385480643250048 ], [ 523831.016214737552218, 2358773.300809060223401 ], [ 521668.869153511652257, 2358770.289340805727988 ] ], [ [ 527408.775375711964443, 2367977.177432714495808 ], [ 527266.975973302614875, 2367057.019096918869764 ], [ 529428.71551945025567, 2367060.785324139054865 ], [ 529570.469006487401202, 2367980.964030542876571 ], [ 527408.775375711964443, 2367977.177432714495808 ] ] ], [ [ [ 534517.358923957450315, 2379031.448947276454419 ], [ 534375.039190034847707, 2378110.969557021744549 ], [ 533294.442797948722728, 2378108.711007277481258 ], [ 533436.785589748178609, 2379029.179980644956231 ], [ 534517.358923957450315, 2379031.448947276454419 ] ] ], [ [ [ 516709.075378562265541, 2396490.379127264488488 ], [ 516565.308440098422579, 2395569.665869463700801 ], [ 514405.019715059839655, 2395567.582690164446831 ], [ 514548.833255119505338, 2396488.275760585907847 ], [ 516709.075378562265541, 2396490.379127264488488 ] ] ], [ [ [ 514044.591058616351802, 2400170.291013189591467 ], [ 515124.618259441864211, 2400171.273995539639145 ], [ 514836.61959119013045, 2398329.729661745484918 ], [ 513756.545713103318121, 2398328.766863605938852 ], [ 514044.591058616351802, 2400170.291013189591467 ] ] ], [ [ [ 517647.589856181235518, 2409381.51340891327709 ], [ 518727.383939402468968, 2409382.744134409818798 ], [ 518871.946740536368452, 2410303.797821133863181 ], [ 521031.489426903717685, 2410306.499120012391359 ], [ 520742.510590617137495, 2408464.373275082558393 ], [ 522902.149007084604818, 2408467.325485162436962 ], [ 523046.565074548183475, 2409388.397730915341526 ], [ 524126.361689799814485, 2409389.993804662954062 ], [ 523549.109092338709161, 2405705.800127751193941 ], [ 522469.218881390348542, 2405704.245605975389481 ], [ 522325.014869651407935, 2404783.264555873349309 ], [ 521245.101824986806605, 2404781.7933255340904 ], [ 521100.927461043640506, 2403860.845362463500351 ], [ 523260.800827965314966, 2403863.840086743235588 ], [ 522253.391770920250565, 2397417.696368138771504 ], [ 523333.492566143511795, 2397419.230777024757117 ], [ 523189.812339675088879, 2396498.433621248230338 ], [ 521029.564710740523878, 2396495.458056170027703 ], [ 521460.904212195484433, 2399257.855903090909123 ], [ 520380.851090287324041, 2399256.446424094960093 ], [ 520668.722543307289016, 2401098.137875581160188 ], [ 521748.729010191163979, 2401099.567892761901021 ], [ 521892.720944182248786, 2402020.457953738048673 ], [ 519732.755198906932492, 2402017.650195998605341 ], [ 520020.991559018846601, 2403859.457356723956764 ], [ 518941.056142997869756, 2403858.142254988662899 ], [ 519085.277256289729849, 2404779.069660074077547 ], [ 518005.365679839218501, 2404777.81722457241267 ], [ 518438.417482230404858, 2407540.705104429274797 ], [ 516278.7360357058933, 2407538.357712883967906 ], [ 516423.239584270049818, 2408459.345357856247574 ], [ 517503.056672997656278, 2408460.492774756159633 ], [ 517647.589856181235518, 2409381.51340891327709 ] ], [ [ 519518.25886323035229, 2407541.988321200944483 ], [ 519662.692149985465221, 2408463.006733192596585 ], [ 518582.874186174944043, 2408461.713233144022524 ], [ 518438.417482230404858, 2407540.705104429274797 ], [ 519518.25886323035229, 2407541.988321200944483 ] ] ], [ [ [ 512894.696017973183189, 2406614.449804310221225 ], [ 513974.558849731343798, 2406615.357818553224206 ], [ 514119.05616854049731, 2407536.302376255393028 ], [ 515198.89591779949842, 2407537.293537781108171 ], [ 515054.422020509722643, 2406616.338818637188524 ], [ 516134.285556505725253, 2406617.392804699018598 ], [ 515701.252548806252889, 2403854.634372013621032 ], [ 513541.385435419040732, 2403852.660300274379551 ], [ 513685.723481801862363, 2404773.536793431267142 ], [ 510445.99541257112287, 2404771.092242429032922 ], [ 510734.971266731852666, 2406612.852732846979052 ], [ 511814.833499039814342, 2406613.61477578105405 ], [ 511959.377671200723853, 2407534.539093391504139 ], [ 513039.216761738061905, 2407535.384228168986738 ], [ 512894.696017973183189, 2406614.449804310221225 ] ] ], [ [ [ 508575.247557205613703, 2406611.54760335246101 ], [ 509009.25039451487828, 2409374.298079900443554 ], [ 510089.041787834081333, 2409374.944256634451449 ], [ 509944.344498937949538, 2408453.99471942614764 ], [ 511024.159590869618114, 2408454.703890414442867 ], [ 510734.971266731852666, 2406612.852732846979052 ], [ 508575.247557205613703, 2406611.54760335246101 ] ] ], [ [ [ 507929.45921962428838, 2409373.724971246905625 ], [ 508074.256568362063263, 2410294.677114482037723 ], [ 509154.024272972135805, 2410295.260253303218633 ], [ 509009.25039451487828, 2409374.298079900443554 ], [ 507929.45921962428838, 2409373.724971246905625 ] ] ], [ [ [ 516712.405883999366779, 2410301.388909742236137 ], [ 515632.63607648445759, 2410300.294098925311118 ], [ 515488.002947159518953, 2409379.27116503380239 ], [ 512248.625334480253514, 2409376.455814715009183 ], [ 512682.895106249081437, 2412139.501305133569986 ], [ 515922.061557559471112, 2412142.408271739725024 ], [ 515777.322280408814549, 2411221.339796858839691 ], [ 516857.068632416718174, 2411222.444842461962253 ], [ 516712.405883999366779, 2410301.388909742236137 ] ] ], [ [ [ 579528.277811916545033, 2362628.876871613785625 ], [ 577366.186833901214413, 2362618.474751907866448 ], [ 577506.647928982391022, 2363539.026731903664768 ], [ 576425.628061434719712, 2363533.921816754154861 ], [ 576847.394980244687758, 2366295.680561046581715 ], [ 577928.346495326724835, 2366300.819703462533653 ], [ 578069.017773146391846, 2367221.463081022724509 ], [ 579149.948395895422436, 2367226.685480660758913 ], [ 578728.160565816680901, 2364464.789597544353455 ], [ 579809.161487521720119, 2364470.049396624322981 ], [ 579528.277811916545033, 2362628.876871613785625 ] ] ], [ [ [ 574685.49756642000284, 2366285.617667356040329 ], [ 575766.445346096181311, 2366290.613215915393084 ], [ 575485.169261218165047, 2364449.440657774917781 ], [ 573323.184343865839764, 2364439.5667386460118 ], [ 573182.579583196551539, 2363519.037354154512286 ], [ 572101.567043662536889, 2363514.219291909597814 ], [ 572523.607464648783207, 2366275.84195715142414 ], [ 571442.665089634014294, 2366271.061794130597264 ], [ 571583.473230378353037, 2367191.636997450143099 ], [ 572664.392787190154195, 2367196.428453680127859 ], [ 572805.230698512168601, 2368117.037775829434395 ], [ 571724.333969222381711, 2368112.235015157610178 ], [ 571865.247304770629853, 2369032.855860192794353 ], [ 574026.996874044416472, 2369042.555890382267535 ], [ 573745.314122188836336, 2367201.291732067242265 ], [ 574826.237261830945499, 2367206.226833296008408 ], [ 574685.49756642000284, 2366285.617667356040329 ] ] ], [ [ [ 546581.419535571942106, 2366180.931905675679445 ], [ 546440.138522641151212, 2365260.631357871927321 ], [ 542116.422698705457151, 2365248.875253920909017 ], [ 542399.22069352446124, 2367089.414231352042407 ], [ 541318.340186310233548, 2367086.633558748755604 ], [ 541459.841375325457193, 2368006.926277559250593 ], [ 545783.278088716673665, 2368018.522099773865193 ], [ 545924.740451562218368, 2368938.879663940519094 ], [ 547005.579451288445853, 2368941.968860536813736 ], [ 546864.140001265797764, 2368021.600644187536091 ], [ 547945.003060385002755, 2368024.751024996861815 ], [ 547662.328385929111391, 2366184.06096053449437 ], [ 546581.419535571942106, 2366180.931905675679445 ] ] ], [ [ [ 548884.526450813631527, 2367107.606230497825891 ], [ 549167.260926586575806, 2368948.362846245523542 ], [ 550248.103455038391985, 2368951.667636256664991 ], [ 550389.526967638521455, 2369872.090590457897633 ], [ 553631.993315368657932, 2369882.468559450469911 ], [ 553349.336480113910511, 2368041.580490833614022 ], [ 554430.206974005093798, 2368045.161899674218148 ], [ 554288.980569343315437, 2367124.740991960279644 ], [ 548884.526450813631527, 2367107.606230497825891 ] ] ], [ [ [ 574167.91711567202583, 2369963.222257204819471 ], [ 575248.771763333701529, 2369968.191471470985562 ], [ 575107.87436168664135, 2369047.513722394127399 ], [ 574026.996874044416472, 2369042.555890382267535 ], [ 574167.91711567202583, 2369963.222257204819471 ] ] ], [ [ [ 579713.067622896982357, 2370909.533887840341777 ], [ 579431.402949277427979, 2369068.06384627148509 ], [ 577269.63487519219052, 2369057.645023735705763 ], [ 577551.390884343069047, 2370899.06912639643997 ], [ 579713.067622896982357, 2370909.533887840341777 ] ] ], [ [ [ 555793.644061320810579, 2369889.746677040122449 ], [ 555935.005793446092866, 2370810.24646186362952 ], [ 553773.400862206239253, 2370802.946580460760742 ], [ 553914.861160011030734, 2371723.447276432067156 ], [ 554995.640036728582345, 2371727.072135150898248 ], [ 555137.130156529601663, 2372647.606409537605941 ], [ 556217.887453302042559, 2372651.314136744942516 ], [ 556359.407378266914748, 2373571.882052582222968 ], [ 558520.880262525985017, 2373579.535384704358876 ], [ 558237.984839300508611, 2371738.378415004350245 ], [ 557157.201849950710312, 2371734.537703911308199 ], [ 556874.471467838389799, 2369893.493578834459186 ], [ 555793.644061320810579, 2369889.746677040122449 ] ] ], [ [ [ 551894.866246420424432, 2372636.91509333672002 ], [ 554056.374207402463071, 2372643.970660239923745 ], [ 553914.861160011030734, 2371723.447276432067156 ], [ 551753.307334250188433, 2371716.413407772313803 ], [ 551894.866246420424432, 2372636.91509333672002 ] ] ], [ [ [ 579813.004621367552318, 2385633.771523226983845 ], [ 579387.927666131174192, 2382870.565382328350097 ], [ 578307.389964262489229, 2382865.291044341865927 ], [ 578732.535868856823072, 2385628.462330587208271 ], [ 579813.004621367552318, 2385633.771523226983845 ] ] ], [ [ [ 569719.064050470362417, 2390189.165917903184891 ], [ 569861.354636856820434, 2391110.280996026936918 ], [ 568781.042226209887303, 2391105.62719360133633 ], [ 568923.408509698463604, 2392026.753935302607715 ], [ 573244.57612527103629, 2392045.850267542991787 ], [ 572817.912026756093837, 2389282.401733981445432 ], [ 570657.186328526586294, 2389272.777376686222851 ], [ 570799.401238210033625, 2390193.88080923166126 ], [ 569719.064050470362417, 2390189.165917903184891 ] ] ] ] } }
]
}
