{
"type": "FeatureCollection",
"name": "urban-2050",
"crs": { "type": "name", "properties": { "name": "urn:ogc:def:crs:EPSG::32637" } },
"features": [
{ "type": "Feature", "properties": { "year": 2050 }, "geometry": { "type": "MultiPolygon", "coordinates": [ [ [ [ 528547.937747169635259, 2333036.702753855381161 ], [ 523139.366732597758528, 2333028.247494787443429 ], [ 523558.972690397873521, 2335786.361499169841409 ], [ 527885.556803756509908, 2335793.102222119923681 ], [ 527605.947449035826139, 2333954.258873135317117 ], [ 528687.640353713999502, 2333956.101387954317033 ], [ 528547.937747169635259, 2333036.702753855381161 ] ] ], [ [ [ 536538.759708466939628, 2335809.985231390688568 ], [ 535980.475870020105503, 2332132.066349048167467 ], [ 533816.989619010360911, 2332127.501058847177774 ], [ 533956.526353148277849, 2333046.927588521968573 ], [ 531793.088586486061104, 2333042.625303415581584 ], [ 531932.723416151478887, 2333962.053797081112862 ], [ 533014.419308623066172, 2333964.179555946029723 ], [ 533433.573647226323374, 2336722.627171855885535 ], [ 532351.945567531627603, 2336720.471321630757302 ], [ 532491.79216768196784, 2337639.987886287271976 ], [ 534655.00390816538129, 2337644.390613958705217 ], [ 534515.202550362912007, 2336724.853916615247726 ], [ 535596.832303582224995, 2336727.151556222233921 ], [ 535457.106474820757285, 2335807.626820910256356 ], [ 536538.759708466939628, 2335809.985231390688568 ] ] ], [ [ [ 517250.581915817107074, 2344052.206869555171579 ], [ 516969.519262592075393, 2342213.183757795020938 ], [ 514806.554990133678075, 2342211.096004410646856 ], [ 515087.708595945790876, 2344050.080439263489097 ], [ 517250.581915817107074, 2344052.206869555171579 ] ] ], [ [ [ 518332.01919876440661, 2344053.376751886215061 ], [ 519413.456932510773186, 2344054.617745890282094 ], [ 519272.944542704208288, 2343135.075750788208097 ], [ 518191.484074602718465, 2343133.844500503968447 ], [ 518332.01919876440661, 2344053.376751886215061 ] ] ], [ [ [ 517250.581915817107074, 2344052.206869555171579 ], [ 517672.573911504179705, 2346810.906353282276541 ], [ 519835.312400525901467, 2346813.375742207746953 ], [ 519554.022372967738193, 2344974.181734441313893 ], [ 518472.607382862654049, 2344972.930985636543483 ], [ 518332.01919876440661, 2344053.376751886215061 ], [ 517250.581915817107074, 2344052.206869555171579 ] ] ], [ [ [ 511968.312973485968541, 2379919.243213158100843 ], [ 512111.223847751272842, 2380839.554338198620826 ], [ 511030.708398412738461, 2380838.781026071868837 ], [ 511459.829166500654537, 2383599.818996674846858 ], [ 510379.383494417415932, 2383599.088333482854068 ], [ 510809.051881360937841, 2386360.298167926259339 ], [ 509728.676064746221527, 2386359.610217429697514 ], [ 510589.58648165530758, 2391882.576075820717961 ], [ 509509.350379479699768, 2391881.9011973394081 ], [ 509940.592598713119514, 2394643.657687531318516 ], [ 508860.426603027444798, 2394643.025629586074501 ], [ 509292.216913980839308, 2397404.954896941781044 ], [ 508212.121103269513696, 2397404.365722774993628 ], [ 508644.459647787094582, 2400166.467991013079882 ], [ 507564.434100611542817, 2400165.921763740479946 ], [ 507852.972237121255603, 2402007.416183501016349 ], [ 506772.993636638799217, 2402006.922904938925058 ], [ 506917.365815563069191, 2402927.694039234891534 ], [ 505837.41077850892907, 2402927.263696723151952 ], [ 506126.361413920996711, 2404768.853865031152964 ], [ 505046.453351494157687, 2404768.476595826912671 ], [ 505191.031836781650782, 2405689.295648857951164 ], [ 504111.147330783889629, 2405688.981419310905039 ], [ 504690.086743733438198, 2409372.444053012412041 ], [ 503610.296180765260942, 2409372.163215977139771 ], [ 503755.187445391202345, 2410293.075514435768127 ], [ 502675.420457646832801, 2410292.857852953951806 ], [ 502820.38839682622347, 2411213.782885936554521 ], [ 503900.131887522933539, 2411214.010451084468514 ], [ 504045.129505798162427, 2412134.968038770370185 ], [ 502965.409521503315773, 2412134.730558512732387 ], [ 503110.483830314420629, 2413055.70088353427127 ], [ 505269.876868893799838, 2413056.268875289242715 ], [ 505124.849588106444571, 2412135.278669565916061 ], [ 508364.010684733861126, 2412136.649465663358569 ], [ 508508.967449631134514, 2413057.669699354562908 ], [ 509588.664687265525572, 2413058.282997342757881 ], [ 509443.731420716154389, 2412137.252699146512896 ], [ 511603.173605312244035, 2412138.678618782199919 ], [ 511748.059885550639592, 2413059.729128769598901 ], [ 513907.45622223225655, 2413061.467974824365228 ], [ 514052.348619163385592, 2413982.561586847994477 ], [ 515132.023789347964339, 2413983.550992104224861 ], [ 514987.154882862290833, 2413062.447166134603322 ], [ 516066.853906559408642, 2413063.499536480288953 ], [ 516211.699326033995021, 2413984.613603996112943 ], [ 519450.728396601160057, 2413988.24068103171885 ], [ 519595.556416604667902, 2414909.408488903194666 ], [ 518515.903109617414884, 2414908.115920342970639 ], [ 519095.839610205614008, 2418592.97445367090404 ], [ 520175.398879150103312, 2418594.308480288367718 ], [ 520030.358708899701014, 2417673.049142546020448 ], [ 524348.694987602066249, 2417679.076901332475245 ], [ 524203.801875566772651, 2416757.798708381596953 ], [ 522044.585657655552495, 2416754.659126507118344 ], [ 521754.864480261516292, 2414912.213330917526037 ], [ 522834.519289219868369, 2414913.72560476558283 ], [ 522545.057137887401041, 2413071.350527269765735 ], [ 521465.355386510258541, 2413069.859079257119447 ], [ 521320.680374458257575, 2412148.71625001821667 ], [ 519161.231481019407511, 2412145.973602632060647 ], [ 518871.946740536368452, 2410303.797821133863181 ], [ 521031.489426903717685, 2410306.499120012391359 ], [ 520886.97349416319048, 2409385.424793377052993 ], [ 521966.769018063030671, 2409386.87472722446546 ], [ 522255.807043816428632, 2411229.066935942973942 ], [ 523335.556239543424454, 2411230.610729031730443 ], [ 523480.131334314879496, 2412151.751507273875177 ], [ 524559.857654556166381, 2412153.378865127451718 ], [ 524415.306000813143328, 2411232.227647399529815 ], [ 525495.056353791849688, 2411233.917691272683442 ], [ 525206.158889997866936, 2409391.662948691286147 ], [ 526285.956701319897547, 2409393.405163234099746 ], [ 525997.318007644964382, 2407551.220927800517529 ], [ 524917.473393282969482, 2407549.499622556380928 ], [ 524628.999874702305533, 2405707.427609364502132 ], [ 522469.218881390348542, 2405704.245605975389481 ], [ 522325.014869651407935, 2404783.264555873349309 ], [ 523404.92845614021644, 2404784.808718224056065 ], [ 522972.70460119046038, 2402021.971106292214245 ], [ 524052.688816081674304, 2402023.557108248583972 ], [ 523908.743554992019199, 2401102.646392085589468 ], [ 524988.751685373135842, 2401104.294874660205096 ], [ 525420.676453485735692, 2403867.126429508440197 ], [ 526500.615178760024719, 2403868.878958393353969 ], [ 526068.760422721155919, 2401106.01617948198691 ], [ 527148.769793267827481, 2401107.810306792613119 ], [ 526573.798460154677741, 2397424.270274105481803 ], [ 529814.110168070998043, 2397429.964181874413043 ], [ 529527.081985019263811, 2395588.268038854002953 ], [ 528446.930866274866275, 2395586.318245748989284 ], [ 528160.068019679281861, 2393744.733861318323761 ], [ 527079.871097052935511, 2393742.877513978164643 ], [ 526936.495891910744831, 2392822.129742751363665 ], [ 530177.15843283617869, 2392827.88537814700976 ], [ 530033.905870293965563, 2391907.129094440490007 ], [ 532194.397617658833042, 2391911.308136072941124 ], [ 531479.160968010663055, 2387307.762506511993706 ], [ 532559.523902853252366, 2387309.908500907942653 ], [ 532416.658541346201673, 2386389.256931646261364 ], [ 533497.045417909976095, 2386391.464873182587326 ], [ 533354.256128281354904, 2385470.825497334357351 ], [ 532273.846112586907111, 2385468.628007834311575 ], [ 532131.086617946624756, 2384548.021716617513448 ], [ 534291.953718562959693, 2384552.468142131343484 ], [ 533721.629947107750922, 2380870.185636242851615 ], [ 534802.157137587433681, 2380872.475470493547618 ], [ 534944.635614559403621, 2381793.022629117593169 ], [ 539266.660820563673042, 2381802.946229989174753 ], [ 538839.660949297482148, 2379041.246446170844138 ], [ 539920.238759630010463, 2379043.87623070878908 ], [ 539778.034265618771315, 2378123.344341762363911 ], [ 541939.238908687140793, 2378128.799212341662496 ], [ 541371.133756458060816, 2374446.813184170983732 ], [ 544613.224526033154689, 2374455.408877028152347 ], [ 544329.626950605772436, 2372614.487841458059847 ], [ 545410.371959658805281, 2372617.47581136552617 ], [ 545268.675375961931422, 2371697.03855730034411 ], [ 543107.140524944639765, 2371691.155846868641675 ], [ 542965.450867630308494, 2370770.762424304615706 ], [ 544046.240703525487334, 2370773.657203700393438 ], [ 543904.626831544330344, 2369853.275751914829016 ], [ 544985.440682361484505, 2369856.231829917058349 ], [ 544843.90257520088926, 2368935.862330933101475 ], [ 548086.419600816792808, 2368945.129921157378703 ], [ 548369.411081227706745, 2370785.955505506601185 ], [ 549450.206566321197897, 2370789.209879176225513 ], [ 549591.758569238940254, 2371709.667334199883044 ], [ 550672.532332361559384, 2371713.004396841395646 ], [ 550531.003260538331233, 2370792.53617303352803 ], [ 552692.600382052711211, 2370799.404523193370551 ], [ 552834.083601325051859, 2371719.894367473199964 ], [ 551753.307334250188433, 2371716.413407772313803 ], [ 552036.477925437618978, 2373557.439457113854587 ], [ 554197.940003000199795, 2373564.516744767315686 ], [ 554339.558545422856696, 2374485.085542897693813 ], [ 559743.12267965648789, 2374504.093701255042106 ], [ 559177.423514065914787, 2370821.73570891097188 ], [ 558096.616195453098044, 2370817.834035860840231 ], [ 557955.300265296245925, 2369897.312376659363508 ], [ 555793.644061320810579, 2369889.746677040122449 ], [ 555652.335062906495295, 2368969.269576785154641 ], [ 554571.486124452669173, 2368965.605454982724041 ], [ 554288.980569343315437, 2367124.740991960279644 ], [ 555369.875272730598226, 2367128.383378487545997 ], [ 555228.724483728059568, 2366207.974254709668458 ], [ 554147.806911847670563, 2366204.342718981206417 ], [ 554006.686002893024124, 2365283.967067884746939 ], [ 552925.746893942006864, 2365280.418128531426191 ], [ 553066.890665269340388, 2366200.782967685721815 ], [ 549824.149612783221528, 2366190.534415442496538 ], [ 549541.77764463389758, 2364349.891841350123286 ], [ 548460.820693607907742, 2364346.640614483971149 ], [ 548319.691035077907145, 2363426.363839879631996 ], [ 549400.67084268189501, 2363429.604387755505741 ], [ 549259.616830637678504, 2362509.339472706895322 ], [ 546016.612379934638739, 2362499.864846540614963 ], [ 546157.734943455317989, 2363420.097841107752174 ], [ 545076.75860648707021, 2363417.072389329783618 ], [ 545217.956854106043465, 2364337.317292732652277 ], [ 544137.004490570048802, 2364334.352970306295902 ], [ 543995.783373450860381, 2363414.1186353857629 ], [ 542914.80921787081752, 2363411.236578860785812 ], [ 543056.05320773459971, 2364331.460372921545058 ], [ 541975.10297913372051, 2364328.639500170946121 ], [ 542257.795270623755641, 2366169.133493383880705 ], [ 540095.989449647255242, 2366163.66496575018391 ], [ 539954.57107872038614, 2365243.427714725024998 ], [ 538873.646749106701463, 2365240.811571953818202 ], [ 539015.088024436030537, 2366161.038370188325644 ], [ 537934.187554135336541, 2366158.483552967663854 ], [ 537086.195827110204846, 2360637.521672639995813 ], [ 533843.087843613582663, 2360630.474042549263686 ], [ 534408.478674178826623, 2364310.901648621540517 ], [ 535489.422264240216464, 2364313.220459477510303 ], [ 535630.879364234860986, 2365233.393646562006325 ], [ 534549.958682396332733, 2365231.064504579175264 ], [ 534691.491608131676912, 2366151.249767804984003 ], [ 533610.59469291055575, 2366148.98206045338884 ], [ 533327.535926609300077, 2364308.654559507034719 ], [ 532246.593995064147748, 2364306.479191818274558 ], [ 532105.121097997878678, 2363386.359287404920906 ], [ 533186.085935056093149, 2363388.524390384554863 ], [ 533044.688873041188344, 2362468.416591842193156 ], [ 531963.701139776385389, 2362466.261742376722395 ], [ 531822.33412175369449, 2361546.186544003430754 ], [ 530741.324281221022829, 2361544.113575163763016 ], [ 531024.157047189422883, 2363384.265877936501056 ], [ 528862.231198425870389, 2363380.294138369616121 ], [ 529003.772831909125671, 2364300.383414295967668 ], [ 527922.833899793331511, 2364298.49492935044691 ], [ 528064.451426783809438, 2365218.596378318034112 ], [ 525902.621453334344551, 2365215.014319993555546 ], [ 525760.958060160162859, 2364294.933119190391153 ], [ 524680.021099710837007, 2364293.259793476201594 ], [ 524538.387771081062965, 2363373.210969098377973 ], [ 525619.347660326282494, 2363374.874223325401545 ], [ 525477.790255179279484, 2362454.837619693949819 ], [ 524396.807446444407105, 2362453.184425763785839 ], [ 524113.805814535182435, 2360613.19813145371154 ], [ 525194.834434333723038, 2360614.831238338723779 ], [ 525053.436021325411275, 2359694.861435236409307 ], [ 527215.540912683238275, 2359698.322340250015259 ], [ 527074.241254264838062, 2358778.354664652142674 ], [ 529236.394554928643629, 2358782.081673287786543 ], [ 529095.193601908395067, 2357862.116046787705272 ], [ 532338.497553395689465, 2357868.212712291628122 ], [ 531774.497367234900594, 2354188.450981613714248 ], [ 530693.303986778948456, 2354186.38791090529412 ], [ 530411.575949462712742, 2352346.660829783882946 ], [ 527167.86338989448268, 2352340.96060787467286 ], [ 527308.76933327189181, 2353260.782812045887113 ], [ 524065.131207381957211, 2353255.69486515969038 ], [ 524347.23898417991586, 2355095.345788319595158 ], [ 523266.073154441313818, 2355093.772674527019262 ], [ 523124.969926206336822, 2354173.946090016514063 ], [ 522043.781828131177463, 2354172.454351752530783 ], [ 522184.907895492506213, 2355092.271004043053836 ], [ 521103.743180810823105, 2355090.840776653960347 ], [ 520962.594270966365002, 2354171.034028993919492 ], [ 519881.407228182069957, 2354169.685121539514512 ], [ 519740.288517796259839, 2353249.910371854901314 ], [ 520821.498397129646037, 2353251.24941340694204 ], [ 520257.64528854197124, 2349572.3320192983374 ], [ 518095.043494380603079, 2349569.80391803290695 ], [ 518235.97281296091387, 2350489.480516345705837 ], [ 516073.418412214203272, 2350487.218018240761012 ], [ 516355.527514803339727, 2352326.598329070024192 ], [ 514193.066006987064611, 2352324.582192263565958 ], [ 514758.103962933644652, 2356003.529683838132769 ], [ 513676.965190864633769, 2356002.589830375742167 ], [ 513818.380290710600093, 2356922.372164103668183 ], [ 512737.264742246712558, 2356921.494073753245175 ], [ 512878.755836611089762, 2357841.288782026618719 ], [ 515040.941480951441918, 2357843.135922006331384 ], [ 515323.991344790149014, 2359682.830622985493392 ], [ 517486.086852713138796, 2359685.003073866479099 ], [ 517627.64557730028173, 2360604.90326912747696 ], [ 518708.671049102325924, 2360606.106725871562958 ], [ 519133.596809486334678, 2363365.970068565569818 ], [ 518052.640128786908463, 2363364.736961153801531 ], [ 517910.922216675244272, 2362444.770200116559863 ], [ 515748.964265611662995, 2362442.538763246499002 ], [ 515890.728067225252744, 2363362.485817574430257 ], [ 516971.683890190033708, 2363363.575544210616499 ], [ 517823.243426121945959, 2368883.783608169760555 ], [ 514580.79078175954055, 2368880.552177760750055 ], [ 515292.228424905217253, 2373481.189422496128827 ], [ 514211.526827512134332, 2373480.206701680086553 ], [ 514781.72476094099693, 2377161.078343209344894 ], [ 513701.11585388937965, 2377160.128092972096056 ], [ 513843.821165263245348, 2378080.391933280043304 ], [ 512763.235705229337327, 2378079.503905241843313 ], [ 513048.851862175448332, 2379920.078851365949959 ], [ 511968.312973485968541, 2379919.243213158100843 ] ], [ [ 525493.695884503424168, 2397422.517729777377099 ], [ 525350.06222397077363, 2396501.699922249652445 ], [ 526430.188077536527999, 2396503.442099287640303 ], [ 526573.798460154677741, 2397424.270274105481803 ], [ 525493.695884503424168, 2397422.517729777377099 ] ], [ [ 526286.630677931243554, 2395582.636632038746029 ], [ 527366.780439334572293, 2395584.441110231447965 ], [ 527510.314573729992844, 2396505.256961007602513 ], [ 526430.188077536527999, 2396503.442099287640303 ], [ 526286.630677931243554, 2395582.636632038746029 ] ], [ [ 554712.818019309197553, 2369886.071670751553029 ], [ 553631.993315368657932, 2369882.468559450469911 ], [ 553490.638520878739655, 2368962.013200529385358 ], [ 554571.486124452669173, 2368965.605454982724041 ], [ 554712.818019309197553, 2369886.071670751553029 ] ], [ [ 535772.389372438425198, 2366153.589252120349556 ], [ 535913.952287491993047, 2367073.807288913056254 ], [ 534833.077450028154999, 2367071.457451055757701 ], [ 534691.491608131676912, 2366151.249767804984003 ], [ 535772.389372438425198, 2366153.589252120349556 ] ], [ [ 515862.334028917481191, 2377162.1006969823502 ], [ 516004.993125576991588, 2378082.384382461197674 ], [ 514924.406963252462447, 2378081.35209230799228 ], [ 514781.72476094099693, 2377161.078343209344894 ], [ 515862.334028917481191, 2377162.1006969823502 ] ], [ [ 516567.796200826647691, 2409380.355752508621663 ], [ 517647.589856181235518, 2409381.51340891327709 ], [ 517936.815392957942095, 2411223.623012199066579 ], [ 516857.068632416718174, 2411222.444842461962253 ], [ 516567.796200826647691, 2409380.355752508621663 ] ], [ [ 515343.42289380641887, 2408458.270982283633202 ], [ 515488.002947159518953, 2409379.27116503380239 ], [ 513328.417540165013634, 2409377.321196273900568 ], [ 513183.790602924651466, 2408456.34135453030467 ], [ 515343.42289380641887, 2408458.270982283633202 ] ], [ [ 512103.974950137315318, 2408455.486102079506963 ], [ 511959.377671200723853, 2407534.539093391504139 ], [ 513039.216761738061905, 2407535.384228168986738 ], [ 513183.790602924651466, 2408456.34135453030467 ], [ 512103.974950137315318, 2408455.486102079506963 ] ], [ [ 517716.92974984209286, 2402936.005597658455372 ], [ 517861.121186766191386, 2403856.900057073216885 ], [ 515701.252548806252889, 2403854.634372013621032 ], [ 515557.014360774599481, 2402933.760282151401043 ], [ 517716.92974984209286, 2402936.005597658455372 ] ], [ [ 514477.05724592966726, 2402932.746938067488372 ], [ 514332.84876277303556, 2402011.905652578920126 ], [ 515412.82924895855831, 2402012.908864689059556 ], [ 515557.014360774599481, 2402933.760282151401043 ], [ 514477.05724592966726, 2402932.746938067488372 ] ], [ [ 518796.888076505449135, 2402937.237569397315383 ], [ 518220.746305950102396, 2399253.845764441415668 ], [ 520380.851090287324041, 2399256.446424094960093 ], [ 520812.737818830588367, 2402019.017650374211371 ], [ 519732.755198906932492, 2402017.650195998605341 ], [ 519876.846859551151283, 2402938.542417352553457 ], [ 518796.888076505449135, 2402937.237569397315383 ] ], [ [ 516060.643292622931767, 2399251.536168039310724 ], [ 515772.797440821013879, 2397410.016846755053848 ], [ 517932.993737089796923, 2397412.285844286438078 ], [ 518220.746305950102396, 2399253.845764441415668 ], [ 516060.643292622931767, 2399251.536168039310724 ] ], [ [ 516204.645827711734455, 2400172.329770825337619 ], [ 517284.673789663997013, 2400173.4583391956985 ], [ 517428.706049921980593, 2401094.284751586616039 ], [ 516348.701433772745077, 2401093.146018837112933 ], [ 516204.645827711734455, 2400172.329770825337619 ] ], [ [ 523189.812339675088879, 2396498.433621248230338 ], [ 524269.936986770713702, 2396500.03042964823544 ], [ 524413.593928585527465, 2397420.837897495832294 ], [ 523333.492566143511795, 2397419.230777024757117 ], [ 523189.812339675088879, 2396498.433621248230338 ] ], [ [ 518725.598776544793509, 2395572.039669774007052 ], [ 519805.744614716910291, 2395573.335553218610585 ], [ 519949.441676378599368, 2396494.079299073666334 ], [ 518869.319127069960814, 2396492.773225344251841 ], [ 518725.598776544793509, 2395572.039669774007052 ] ], [ [ 517358.125286886410322, 2393729.437454608269036 ], [ 518438.317226180748548, 2393730.640391187276691 ], [ 518581.93147579341894, 2394651.328729334287345 ], [ 517501.76281008485239, 2394650.115652793552727 ], [ 517358.125286886410322, 2393729.437454608269036 ] ], [ [ 538075.704625369631685, 2367078.722379684913903 ], [ 539156.582178682438098, 2367081.287633291445673 ], [ 539298.129210484097712, 2368001.559374043252319 ], [ 538217.27458347112406, 2367998.983672834932804 ], [ 538075.704625369631685, 2367078.722379684913903 ] ] ], [ [ [ 503110.483830314420629, 2413055.70088353427127 ], [ 502030.787437130056787, 2413055.526654807850718 ], [ 501740.644974481256213, 2411213.628443707711995 ], [ 500660.901594322291203, 2411213.547124376986176 ], [ 501241.493397901533172, 2414897.394653497263789 ], [ 502321.142668289947324, 2414897.515481298789382 ], [ 502175.938457328127697, 2413976.509734702296555 ], [ 503255.611321897245944, 2413976.693873854354024 ], [ 503110.483830314420629, 2413055.70088353427127 ] ] ], [ [ [ 525573.203068579779938, 2418602.078797507099807 ], [ 525428.280465085757896, 2417680.767136902082711 ], [ 524348.694987602066249, 2417679.076901332475245 ], [ 524493.641097663785331, 2418600.378042138181627 ], [ 525573.203068579779938, 2418602.078797507099807 ] ] ], [ [ [ 512763.750791749160271, 2419507.720615986268967 ], [ 512618.492785002861638, 2418586.51053626043722 ], [ 510459.379897697013803, 2418584.942652532830834 ], [ 510604.685021812561899, 2419506.132359854876995 ], [ 512763.750791749160271, 2419507.720615986268967 ] ] ], [ [ [ 514570.25269914814271, 2424115.069480452220887 ], [ 514424.752815129875671, 2423193.734749254770577 ], [ 512265.875082962855231, 2423191.917809173464775 ], [ 512120.38109693856677, 2422270.626508278306574 ], [ 513199.843396164476871, 2422271.487991190515459 ], [ 513054.426098709576763, 2421350.209330507554114 ], [ 514133.912298653973266, 2421351.134005967527628 ], [ 513843.284126801765524, 2419508.624801757745445 ], [ 512763.750791749160271, 2419507.720615986268967 ], [ 512909.061896777478978, 2420428.953543087933213 ], [ 511829.552436807309277, 2420428.11251766467467 ], [ 511974.940214426955208, 2421349.35808209143579 ], [ 510895.454619705560617, 2421348.580260599963367 ], [ 511332.007370041450486, 2424112.423521021846682 ], [ 510252.592842806305271, 2424111.688553925137967 ], [ 510835.501248403394129, 2427797.092484637163579 ], [ 511914.821239074342884, 2427797.868376237805933 ], [ 511769.038111469009891, 2426876.47278340626508 ], [ 513927.726267963764258, 2426878.224847125820816 ], [ 513490.837272126635071, 2424114.113984167110175 ], [ 514570.25269914814271, 2424115.069480452220887 ] ] ], [ [ [ 495140.803607759939041, 2424109.117484990973026 ], [ 494849.006413904135115, 2422266.832546456251293 ], [ 493769.545546829234809, 2422267.219782446976751 ], [ 494207.392204354749992, 2425030.651892898604274 ], [ 493128.002187400357798, 2425031.083300177473575 ], [ 493566.399257942219265, 2427794.690484025981277 ], [ 492487.080170705448836, 2427795.166124478913844 ], [ 492633.342774570221081, 2428716.404200742486864 ], [ 498029.818366869527381, 2428714.811424179933965 ], [ 497737.583487709751353, 2426872.259601653087884 ], [ 496658.24117174197454, 2426872.450653850566596 ], [ 496220.21704006253276, 2424108.823323633521795 ], [ 495140.803607759939041, 2424109.117484990973026 ] ] ], [ [ [ 515152.783041471324395, 2427800.637771620880812 ], [ 515007.070837722509168, 2426879.211267910897732 ], [ 513927.726267963764258, 2426878.224847125820816 ], [ 514073.462109546759166, 2427799.641019605565816 ], [ 515152.783041471324395, 2427800.637771620880812 ] ] ], [ [ [ 540122.540537091204897, 2428765.577697378117591 ], [ 539977.31820443412289, 2427843.882712094113231 ], [ 538897.982263942132704, 2427841.192634635604918 ], [ 539043.228166122804396, 2428762.876641836483032 ], [ 536884.606225737836212, 2428757.695491544436663 ], [ 537029.952164417947643, 2429679.38084509735927 ], [ 535950.666131747188047, 2429676.889842894859612 ], [ 536096.088554766844027, 2430598.58751087076962 ], [ 539333.878575312555768, 2430606.314397507347167 ], [ 539188.526937050744891, 2429684.583891754504293 ], [ 541347.105493073351681, 2429690.081663858611137 ], [ 541201.853876650566235, 2428768.352407018654048 ], [ 540122.540537091204897, 2428765.577697378117591 ] ] ], [ [ [ 573701.791779829538427, 2359841.992165062110871 ], [ 574782.89896122913342, 2359846.908394323196262 ], [ 574222.029008617042564, 2356165.292266141157597 ], [ 572059.634676222107373, 2356155.621457080822438 ], [ 571779.424383303732611, 2354314.994559393264353 ], [ 569616.946320123272017, 2354305.654382163658738 ], [ 570037.476883936906233, 2357066.561709191184491 ], [ 568956.308556794654578, 2357061.965378814842552 ], [ 569377.380853531882167, 2359823.043263422325253 ], [ 570458.480968211661093, 2359827.673087866045535 ], [ 570598.920883273473009, 2360748.088952354155481 ], [ 572761.080817009671591, 2360757.585859613493085 ], [ 572480.344583318103105, 2358916.731949866283685 ], [ 573561.472695796168409, 2358921.565318058244884 ], [ 573701.791779829538427, 2359841.992165062110871 ] ] ], [ [ [ 564912.496063183178194, 2358884.902404165361077 ], [ 564772.047649392858148, 2357964.587495796848089 ], [ 563690.910256399889477, 2357960.337726816069335 ], [ 563831.381423272658139, 2358880.641608760692179 ], [ 564912.496063183178194, 2358884.902404165361077 ] ] ], [ [ [ 558425.831165608135052, 2358860.411151994951069 ], [ 558566.468858053325675, 2359780.682891662232578 ], [ 557485.385990660870448, 2359776.840628635603935 ], [ 557766.865099548827857, 2361617.430107721593231 ], [ 561009.981281992513686, 2361629.237175080925226 ], [ 560869.283758013159968, 2360708.898375450167805 ], [ 559788.220777516486123, 2360704.901986490935087 ], [ 559506.93824657110963, 2358864.314109229017049 ], [ 558425.831165608135052, 2358860.411151994951069 ] ] ], [ [ [ 565993.612294395454228, 2358889.234768962487578 ], [ 564912.496063183178194, 2358884.902404165361077 ], [ 565052.997134127886966, 2359805.239954777061939 ], [ 563971.905256607802585, 2359800.968121765181422 ], [ 564112.48175502428785, 2360721.317278686910868 ], [ 563031.414220273843966, 2360717.106020970735699 ], [ 563312.77078442403581, 2362557.85024216491729 ], [ 565474.816276069264859, 2362566.388588745612651 ], [ 565193.550860845251009, 2360725.600160494446754 ], [ 566274.621564229251817, 2360729.954666996840388 ], [ 565993.612294395454228, 2358889.234768962487578 ] ] ], [ [ [ 563077.221087357960641, 2368076.399444386828691 ], [ 562936.17761627282016, 2367155.890866489615291 ], [ 560774.369642914505675, 2367147.672510480508208 ], [ 560915.458828402915969, 2368068.159004959277809 ], [ 563077.221087357960641, 2368076.399444386828691 ] ] ], [ [ [ 579809.161487521720119, 2364470.049396624322981 ], [ 579107.34628112858627, 2359867.289347528479993 ], [ 576945.118849317310378, 2359856.955662272870541 ], [ 577085.422292673261836, 2360777.439230027608573 ], [ 578166.51231784641277, 2360782.581650837790221 ], [ 578447.231362102436833, 2362623.639967733994126 ], [ 577366.186833901214413, 2362618.474751907866448 ], [ 577506.647928982391022, 2363539.026731903664768 ], [ 572101.567043662536889, 2363514.219291909597814 ], [ 572382.874732285039499, 2365355.278273302596062 ], [ 571301.909548384486698, 2365350.509392263367772 ], [ 571724.333969222381711, 2368112.235015157610178 ], [ 570643.438994766213, 2368107.504103630315512 ], [ 570784.375170255196281, 2369028.113660649396479 ], [ 572946.121197220403701, 2369037.669936544727534 ], [ 573087.064281916711479, 2369958.324948778841645 ], [ 575248.771763333701529, 2369968.191471470985562 ], [ 575389.721730927703902, 2370888.892107521183789 ], [ 577551.390884343069047, 2370899.06912639643997 ], [ 578256.700435861130245, 2375503.030753442551941 ], [ 579337.423503516241908, 2375508.284717501141131 ], [ 578632.22829226218164, 2370904.265538932755589 ], [ 579713.067622896982357, 2370909.533887840341777 ], [ 578728.160565816680901, 2364464.789597544353455 ], [ 579809.161487521720119, 2364470.049396624322981 ] ] ], [ [ [ 555652.335062906495295, 2368969.269576785154641 ], [ 556733.185362680349499, 2368973.005566451698542 ], [ 556591.95198329584673, 2368052.540236997883767 ], [ 555511.078799582901411, 2368048.815148224122822 ], [ 555652.335062906495295, 2368969.269576785154641 ] ] ], [ [ [ 564863.997512776288204, 2372683.567223836667836 ], [ 564722.713598385103978, 2371762.933690203353763 ], [ 565803.507108680671081, 2371767.278076215647161 ], [ 565662.298737284378149, 2370846.656187132932246 ], [ 566743.116739749792032, 2370851.061345609370619 ], [ 566601.983890964649618, 2369930.451082994695753 ], [ 567682.826396446325816, 2369934.916970492806286 ], [ 567541.769049893249758, 2369014.318316251970828 ], [ 566460.90368269640021, 2369009.863617373630404 ], [ 566037.978914905921556, 2366248.237873240374029 ], [ 563876.115944609628059, 2366239.610843575093895 ], [ 564158.104518497828394, 2368080.627429964020848 ], [ 563077.221087357960641, 2368076.399444386828691 ], [ 563218.317229695734568, 2368996.930759728420526 ], [ 564299.177799037774093, 2369001.169839723501354 ], [ 564440.303740125498734, 2369921.735011071432382 ], [ 563359.466041900101118, 2369917.484825420193374 ], [ 563500.66752258152701, 2370838.061654373072088 ], [ 560258.232279656454921, 2370825.709306722972542 ], [ 560540.930645190761425, 2372666.864835248794407 ], [ 562702.461013851920143, 2372675.072065993677825 ], [ 562561.131298157852143, 2371754.460783514194191 ], [ 563641.921670352807269, 2371758.661259503569454 ], [ 563783.228483822778799, 2372679.283653732854873 ], [ 564863.997512776288204, 2372683.567223836667836 ] ] ], [ [ [ 579761.170996010885574, 2378270.972105448134243 ], [ 579478.620140020153485, 2376429.157497381325811 ], [ 578397.919968402595259, 2376423.891989193391055 ], [ 578680.516644460032694, 2378265.683475136756897 ], [ 579761.170996010885574, 2378270.972105448134243 ] ] ], [ [ [ 576802.112225314835086, 2380097.160108359996229 ], [ 576943.640325671178289, 2381018.113358558155596 ], [ 579104.805664832470939, 2381028.543435571715236 ], [ 578821.893785157240927, 2379186.613751377444714 ], [ 577741.264281541109085, 2379181.385727772954851 ], [ 577882.716891902848147, 2380102.327481941320002 ], [ 576802.112225314835086, 2380097.160108359996229 ] ] ], [ [ [ 579813.004621367552318, 2385633.771523226983845 ], [ 579387.927666131174192, 2382870.565382328350097 ], [ 578307.389964262489229, 2382865.291044341865927 ], [ 578732.535868856823072, 2385628.462330587208271 ], [ 579813.004621367552318, 2385633.771523226983845 ] ] ], [ [ [ 579016.229137625312433, 2387470.692097692284733 ], [ 578732.535868856823072, 2385628.462330587208271 ], [ 577652.069035372580402, 2385623.225515669211745 ], [ 577935.808323226752691, 2387465.432045018766075 ], [ 579016.229137625312433, 2387470.692097692284733 ] ] ], [ [ [ 574324.872420276748016, 2392050.805766812991351 ], [ 573244.57612527103629, 2392045.850267542991787 ], [ 572675.795824827626348, 2388361.298447808250785 ], [ 571595.409050709800795, 2388356.461508621461689 ], [ 571737.548304085037671, 2389277.553313601296395 ], [ 570657.186328526586294, 2389272.777376686222851 ], [ 570799.401238210033625, 2390193.88080923166126 ], [ 568638.72856033872813, 2390184.523536373861134 ], [ 568923.408509698463604, 2392026.753935302607715 ], [ 567843.120865439763293, 2392022.161265100818127 ], [ 568128.057491580955684, 2393864.461210864596069 ], [ 570288.542040001600981, 2393873.764857673551887 ], [ 570146.093633035081439, 2392952.580452849157155 ], [ 571226.361563650425524, 2392957.329723969567567 ], [ 571511.264763460727409, 2394799.744645378086716 ], [ 573671.713433153112419, 2394809.507088201120496 ], [ 573386.902650968171656, 2392967.046047311741859 ], [ 574467.175860249204561, 2392972.013100898358971 ], [ 574324.872420276748016, 2392050.805766812991351 ] ], [ [ 571083.988857185584493, 2392036.156969811301678 ], [ 572164.281613005790859, 2392040.967335437890142 ], [ 572306.631227531703189, 2392962.151588565204293 ], [ 571226.361563650425524, 2392957.329723969567567 ], [ 571083.988857185584493, 2392036.156969811301678 ] ] ] ] } }
]
}
