{
"type": "FeatureCollection",
"name": "urban-1975",
"crs": { "type": "name", "properties": { "name": "urn:ogc:def:crs:EPSG::32635" } },
"features": [
{ "type": "Feature", "properties": { "year": 1975 }, "geometry": { "type": "MultiPolygon", "coordinates": [ [ [ [ 652451.72032160568051, 4552468.149734385311604 ], [ 651891.152068321011029, 4549457.213302897289395 ], [ 653889.479476164327934, 4549498.944035396911204 ], [ 654076.200170907774009, 4550502.590788445435464 ], [ 655075.314637270988896, 4550523.691962421871722 ], [ 655448.75719385012053, 4552531.230428227223456 ], [ 654449.743991957628168, 4552510.066975821740925 ], [ 654636.56710995011963, 4553513.896470753476024 ], [ 658632.422823527362198, 4553599.494486133567989 ], [ 658445.802336783031933, 4552595.54013878852129 ], [ 661442.855908748228103, 4552661.078926611691713 ], [ 661256.421428094385192, 4551657.091707866638899 ], [ 662255.491832375177182, 4551679.179751930758357 ], [ 662069.142009596573189, 4550675.222245530225337 ], [ 663068.264005992212333, 4550697.415465337224305 ], [ 663254.563197593670338, 4551701.404339496046305 ], [ 666251.783117595361546, 4551768.897386526688933 ], [ 666624.179537386633456, 4553777.247172729112208 ], [ 667623.153486280003563, 4553800.080990136601031 ], [ 667809.35192139854189, 4554804.379226440563798 ], [ 668808.276173784164712, 4554827.381234050728381 ], [ 668994.457825220539235, 4555831.772323772311211 ], [ 669993.332368614268489, 4555854.942603153176606 ], [ 670365.695904667605646, 4557863.972046825103462 ], [ 669366.922814390156418, 4557840.738459509797394 ], [ 669739.523356794961728, 4559849.950073719024658 ], [ 670738.194928719080053, 4559873.247047189623117 ], [ 671297.197429729858413, 4562887.620501324534416 ], [ 672295.717592187342234, 4562911.149589026346803 ], [ 671923.117018938413821, 4560901.442231920547783 ], [ 672921.739798244903795, 4560925.044587294571102 ], [ 672735.541059458395466, 4559920.2513926057145 ], [ 673734.215629798010923, 4559943.958769459277391 ], [ 673548.10149232367985, 4558939.195271831937134 ], [ 674546.827845307532698, 4558963.007632538676262 ], [ 674360.798281877767295, 4557958.273810694925487 ], [ 675359.576409145607613, 4557982.191117630340159 ], [ 675545.555216158973053, 4558986.956771951168776 ], [ 676544.283610650571063, 4559011.042692570015788 ], [ 675986.600788637064397, 4555996.834631710313261 ], [ 677984.365128973149695, 4556045.225501507520676 ], [ 677612.948295321082696, 4554035.933384448289871 ], [ 679610.919630582560785, 4554084.743457978591323 ], [ 679425.363209220464341, 4553080.125811870209873 ], [ 678426.32633493875619, 4553055.684337972663343 ], [ 678240.752979841548949, 4552051.159988228231668 ], [ 677241.666496298508719, 4552026.886961130425334 ], [ 677056.076245571486652, 4551022.455808332189918 ], [ 676056.940165480249561, 4550998.351146289147437 ], [ 675500.220221504103392, 4547985.520796080119908 ], [ 677498.797112411935814, 4548033.676103755831718 ], [ 677313.39255535940174, 4547029.458358945325017 ], [ 678312.733169327140786, 4547053.708939304575324 ], [ 677942.126493307645433, 4545045.393633059225976 ], [ 678941.56929202855099, 4545069.717114347033203 ], [ 678756.36713393451646, 4544065.619520723819733 ], [ 679755.861543076462112, 4544090.047612641006708 ], [ 679941.013165262527764, 4545094.176974307745695 ], [ 681939.904159061261453, 4545143.505840517580509 ], [ 682310.106347753899172, 4547152.075644193217158 ], [ 684308.799453402752988, 4547202.077662812545896 ], [ 683938.799522277666256, 4545193.380252361297607 ], [ 685937.69930247287266, 4545243.800230740569532 ], [ 686122.581319422693923, 4546248.182171413674951 ], [ 687121.98232030950021, 4546273.628751061856747 ], [ 687491.746070316876285, 4548282.640838155522943 ], [ 689490.349093364784494, 4548334.071570223197341 ], [ 688936.05735860124696, 4545320.453181854449213 ], [ 687936.603547191363759, 4545294.765796788968146 ], [ 687751.856254160054959, 4544290.381216610781848 ], [ 690750.372739675687626, 4544367.756389899179339 ], [ 690196.78715168335475, 4541354.682396318763494 ], [ 691196.446486193104647, 4541380.650616472586989 ], [ 691012.035576704191044, 4540376.383250623941422 ], [ 692011.746554403798655, 4540402.455686308443546 ], [ 691643.126338567584753, 4538394.040753057226539 ], [ 692642.93940661358647, 4538420.185297693125904 ], [ 692458.730061342474073, 4537416.037698016501963 ], [ 694458.460602728649974, 4537468.671229971572757 ], [ 693722.361852303147316, 4533452.43672779109329 ], [ 694722.43050590949133, 4533478.829407896846533 ], [ 693987.069481808692217, 4529463.445640672929585 ], [ 692986.799482095404528, 4529437.181012288667262 ], [ 692802.992731704725884, 4528433.519791659899056 ], [ 693803.313027260242961, 4528459.752455587498844 ], [ 693619.590102030313574, 4527456.12031268235296 ], [ 696620.709081910783425, 4527535.537817520089447 ], [ 696804.281160775222816, 4528539.265974720008671 ], [ 699805.260293708648533, 4528620.002843559719622 ], [ 699621.839072906877846, 4527616.178403438068926 ], [ 697621.084513903479092, 4527562.282111181877553 ], [ 697254.141335783526301, 4525554.944905964657664 ], [ 696253.665383199695498, 4525528.264683101326227 ], [ 696437.170487928204238, 4526531.870730389840901 ], [ 694436.322755165514536, 4526478.85383456479758 ], [ 694252.71714996767696, 4525475.311749182641506 ], [ 695253.190656656981446, 4525501.720298438332975 ], [ 694886.180479446193203, 4523494.755136256106198 ], [ 696887.332067105220631, 4523547.85181672219187 ], [ 696520.65674281748943, 4521541.002601928077638 ], [ 694519.304376583080739, 4521488.033693799749017 ], [ 694702.725666545797139, 4522491.363965138792992 ], [ 693702.10150854033418, 4522465.051197900436819 ], [ 693885.606522307032719, 4523468.410461018793285 ], [ 692885.033781341742724, 4523442.20155874080956 ], [ 692701.47856795520056, 4522438.874173793010414 ], [ 691700.856838561943732, 4522412.832890059798956 ], [ 692068.101229388033971, 4524419.484835197217762 ], [ 690067.062197938095778, 4524367.682224817574024 ], [ 690250.835197945591062, 4525371.035850869491696 ], [ 689250.36769766791258, 4525345.306437253020704 ], [ 689434.224532160675153, 4526348.689139967784286 ], [ 686432.979825870133936, 4526272.22053034696728 ], [ 686617.02103508845903, 4527275.568807673640549 ], [ 684616.29756464320235, 4527225.205538629554212 ], [ 684800.472962268744595, 4528228.551249652169645 ], [ 681799.547165093244985, 4528153.930388359352946 ], [ 681983.907089857151732, 4529157.241968699730933 ], [ 679983.396113314083777, 4529108.11098491307348 ], [ 680167.890352482558228, 4530111.420183196663857 ], [ 679167.686837554676458, 4530087.026994057931006 ], [ 679352.26513651269488, 4531090.365438101813197 ], [ 678352.113041533506475, 4531066.076632187701762 ], [ 678536.775427327491343, 4532069.444343225099146 ], [ 677536.674760209745727, 4532045.259958227165043 ], [ 677721.421259901020676, 4533048.65695749502629 ], [ 676721.372028585290536, 4533024.577031111344695 ], [ 676906.202669248217717, 4534028.00333983451128 ], [ 675906.204881703597493, 4534004.027909769676626 ], [ 676091.119690425461158, 4535007.483549176715314 ], [ 674091.2280921934871, 4534959.877832558006048 ], [ 674276.27748255210463, 4535963.33132014516741 ], [ 672276.490923139150254, 4535916.206977367401123 ], [ 672461.674951559514739, 4536919.658384970389307 ], [ 670461.993406633031555, 4536873.015595845878124 ], [ 670647.312129615689628, 4537876.464995278045535 ], [ 669647.523335400503129, 4537853.316392491571605 ], [ 669832.926380502409302, 4538856.795238680206239 ], [ 668833.18904920713976, 4538833.751402844674885 ], [ 669204.197754071210511, 4540840.828912427648902 ], [ 668204.562354328110814, 4540817.8584891455248 ], [ 668575.807676008436829, 4542825.116802317090333 ], [ 667576.274262706749141, 4542802.219830682501197 ], [ 667204.927973501035012, 4540795.024300505407155 ], [ 666205.294605581555516, 4540772.326344111934304 ], [ 666019.621916719828732, 4539768.851235780864954 ], [ 663020.57646039489191, 4539701.668555397540331 ], [ 662834.786414789268747, 4538698.348030981607735 ], [ 660835.326859719003551, 4538654.302904822863638 ], [ 660649.469987368676811, 4537651.105434693396091 ], [ 658649.913506039883941, 4537607.667143603786826 ], [ 658463.989879169152118, 4536604.592501038685441 ], [ 656464.336462252307683, 4536561.76074992865324 ], [ 656650.360894107492641, 4537564.773349778726697 ], [ 655650.586024027201347, 4537543.530633706599474 ], [ 655278.470496373716742, 4535537.627926340326667 ], [ 653278.722029609140009, 4535495.674534413032234 ], [ 653092.614742049132474, 4534492.87574580591172 ], [ 652092.691552899545059, 4534472.133980241604149 ], [ 652465.041052464279346, 4536477.730310685932636 ], [ 651465.219544615945779, 4536457.062909447588027 ], [ 651278.977317275828682, 4535454.265357212163508 ], [ 650279.106353809242137, 4535433.764843692071736 ], [ 650465.398962463252246, 4536436.531587278470397 ], [ 649465.579299933509901, 4536416.136342021636665 ], [ 649651.956524331704713, 4537418.932729483582079 ], [ 647652.420725020347163, 4537378.488953850232065 ], [ 647465.942709443042986, 4536375.754073701798916 ], [ 640467.242717725923285, 4536238.702247339300811 ], [ 640654.073481171973981, 4537241.222788214683533 ], [ 639654.313070703763515, 4537222.157695681788027 ], [ 639841.228615841129795, 4538224.707994946278632 ], [ 638841.519463010714389, 4538205.74849561881274 ], [ 638654.55351241142489, 4537203.228687008842826 ], [ 636655.036928078625351, 4537165.778913307934999 ], [ 636842.103687857394107, 4538168.237829727120697 ], [ 633842.986260534962639, 4538112.992633389309049 ], [ 634217.525646673864685, 4540117.908785295672715 ], [ 633217.922328412649222, 4540099.705243224278092 ], [ 633405.29418737150263, 4541102.223283678293228 ], [ 631406.190868026693352, 4541066.164023833349347 ], [ 631218.718110270798206, 4540063.706635180860758 ], [ 630219.117198318475857, 4540045.911565434187651 ], [ 629844.174409052007832, 4538041.237788764759898 ], [ 627844.773253478924744, 4538006.176939864642918 ], [ 628032.328208075719886, 4539008.423368817195296 ], [ 626033.030998021247797, 4538973.846604843623936 ], [ 626220.721390450722538, 4539976.092804901301861 ], [ 624221.528105948353186, 4539942.000310132279992 ], [ 624409.353994466830045, 4540944.246352615766227 ], [ 623409.808931451058015, 4540927.374246713705361 ], [ 623597.719913300592452, 4541929.650266159325838 ], [ 621598.732945120777003, 4541896.254467851482332 ], [ 621786.77952459466178, 4542898.530432259663939 ], [ 619787.89644835377112, 4542865.619404618628323 ], [ 619976.07868390053045, 4543867.89538523927331 ], [ 616977.910947157652117, 4543819.460651967674494 ], [ 617166.279404108528979, 4544821.706776769831777 ], [ 618165.617430686252192, 4544837.745381193235517 ], [ 618353.970108813489787, 4545840.081503392197192 ], [ 620352.547250934992917, 4545872.627565152011812 ], [ 620164.295619398006238, 4544870.231428779661655 ], [ 622162.976695380872115, 4544903.262606054544449 ], [ 621974.860775988432579, 4543900.866468357853591 ], [ 623973.645804738742299, 4543934.382576314732432 ], [ 623785.665539039531723, 4542931.986366054974496 ], [ 624785.109663096023723, 4542948.918677136301994 ], [ 624597.214514827239327, 4541946.55246498528868 ], [ 625596.7098693321459, 4541963.590865951962769 ], [ 625408.899810874601826, 4540961.254630985669792 ], [ 627407.99372797308024, 4540995.679712267592549 ], [ 627595.702861332334578, 4541998.07628146186471 ], [ 626596.20598282921128, 4541980.765470843762159 ], [ 626784.000174888409674, 4542983.191996533423662 ], [ 627783.446574626490474, 4543000.533008442260325 ], [ 627971.224863899755292, 4544003.049923156388104 ], [ 628970.621538968989626, 4544020.557422615587711 ], [ 629158.383889015181921, 4545023.164824699983001 ], [ 630157.730828444124199, 4545040.838892278261483 ], [ 630345.477202770416625, 4546043.536880133673549 ], [ 631344.774395526736043, 4546061.377596441656351 ], [ 630781.790421209880151, 4543053.373474861495197 ], [ 632780.69025172770489, 4543089.281663212925196 ], [ 633155.776360093150288, 4545094.678904234431684 ], [ 634155.126461669919081, 4545112.898184226825833 ], [ 633780.141364818322472, 4543107.440126232802868 ], [ 635779.046016645734198, 4543144.165799477137625 ], [ 636341.272284077480435, 4546152.626193688251078 ], [ 635341.971096537774429, 4546134.103799129836261 ], [ 635529.499276144080795, 4547137.014239519834518 ], [ 634530.249445910565555, 4547118.597697793506086 ], [ 634905.510285461088642, 4549124.538907354697585 ], [ 633906.362399533041753, 4549106.197760838083923 ], [ 634094.095099088619463, 4550109.228561695665121 ], [ 635093.192390936193988, 4550127.600223345682025 ], [ 635280.908948181197047, 4551130.722053628414869 ], [ 636279.956431954051368, 4551149.260735954158008 ], [ 636092.290485446457751, 4550146.108341400511563 ], [ 637091.389388524112292, 4550164.752917796373367 ], [ 637279.004723705351353, 4551167.935906342230737 ], [ 639277.103754711919464, 4551205.695719138719141 ], [ 638902.109920688904822, 4549199.267779693938792 ], [ 637902.958786318660714, 4549180.380914771929383 ], [ 637528.00137346656993, 4547174.256432474590838 ], [ 638527.253652442479506, 4547193.082087602466345 ], [ 638714.664588819839992, 4548196.144667797721922 ], [ 640713.070506743853912, 4548234.266384768299758 ], [ 640900.41467605298385, 4549237.450815051794052 ], [ 641899.568308879388496, 4549256.746989484876394 ], [ 641712.274721807800233, 4548253.531855409964919 ], [ 642711.479782175738364, 4548272.933736842125654 ], [ 642337.096771148266271, 4546266.623799596913159 ], [ 641337.790593312704004, 4546247.283326964825392 ], [ 641150.60006001079455, 4545244.249872332438827 ], [ 643149.314338061143644, 4545283.005790636874735 ], [ 642962.259201772511005, 4544279.971494073979557 ], [ 643961.668146378593519, 4544299.523225339129567 ], [ 643587.761862957850099, 4542293.574754423461854 ], [ 644587.272666045464575, 4542313.201351658441126 ], [ 644400.42147944169119, 4541310.287145563401282 ], [ 645399.983628547750413, 4541330.019266705960035 ], [ 645213.217210006085224, 4540327.134820139966905 ], [ 646212.830696412129328, 4540346.972427172586322 ], [ 646026.1490185149014, 4539344.11771909147501 ], [ 647025.813833529595286, 4539364.060773999430239 ], [ 646839.216868870891631, 4538361.235783348791301 ], [ 647838.933003830723464, 4538381.284248118288815 ], [ 648398.675378882326186, 4541390.032915953546762 ], [ 647399.1105722556822, 4541369.892149811610579 ], [ 647585.810338164912537, 4542372.898595097474754 ], [ 646586.296897647902369, 4542352.86326991673559 ], [ 647146.753251920104958, 4545362.153551653027534 ], [ 646147.392213827231899, 4545342.162115693092346 ], [ 646334.33006753528025, 4546345.349244111217558 ], [ 645335.020443780114874, 4546325.463345776312053 ], [ 645148.032052794937044, 4545322.307011587545276 ], [ 644148.672762860544026, 4545302.588237255811691 ], [ 644335.711690430413, 4546305.713806955143809 ], [ 643336.403801536653191, 4546286.100625580176711 ], [ 643523.527588131721132, 4547289.256029019132257 ], [ 644522.784925013198517, 4547308.899964557029307 ], [ 644709.89246253145393, 4548312.146740208379924 ], [ 645709.100094369845465, 4548331.957866249606013 ], [ 646083.316875864868052, 4550338.695057295262814 ], [ 648081.532376175513491, 4550378.850076801143587 ], [ 647520.562142035807483, 4547368.650102573446929 ], [ 648519.822969624889083, 4547388.839599332772195 ], [ 649267.649391065700911, 4551402.684745401144028 ], [ 650266.708722460782155, 4551423.134443600662053 ], [ 650453.700256714597344, 4552426.778696187771857 ], [ 652451.72032160568051, 4552468.149734385311604 ] ], [ [ 672549.376151433680207, 4558915.519687346182764 ], [ 672363.245078475330956, 4557910.84944093413651 ], [ 673362.021173583576456, 4557934.493252624757588 ], [ 673548.10149232367985, 4558939.195271831937134 ], [ 672549.376151433680207, 4558915.519687346182764 ] ], [ [ 654464.686869536992162, 4536519.473359062336385 ], [ 654650.812103128409944, 4537522.424035214819014 ], [ 652651.267084647435695, 4537480.619182137772441 ], [ 652465.041052464279346, 4536477.730310685932636 ], [ 654464.686869536992162, 4536519.473359062336385 ] ], [ [ 648332.951950062648393, 4546385.530127667821944 ], [ 649332.264220730634406, 4546405.825117099098861 ], [ 649519.084684730740264, 4547409.16549164429307 ], [ 648519.822969624889083, 4547388.839599332772195 ], [ 648332.951950062648393, 4546385.530127667821944 ] ], [ [ 674801.842747615650296, 4554968.262954286299646 ], [ 674987.720170559128746, 4555972.844239355996251 ], [ 673988.840579460607842, 4555948.99053868278861 ], [ 673802.912449088529684, 4554944.441027415916324 ], [ 674801.842747615650296, 4554968.262954286299646 ] ], [ [ 674615.999127984512597, 4553963.743064543232322 ], [ 675614.981146802892908, 4553987.669869163073599 ], [ 675800.774074224405922, 4554992.221543001942337 ], [ 674801.842747615650296, 4554968.262954286299646 ], [ 674615.999127984512597, 4553963.743064543232322 ] ], [ [ 673617.018138343817554, 4553939.952891933731735 ], [ 673431.157651523710229, 4552935.526101734489202 ], [ 674430.189315968658775, 4552959.284539618529379 ], [ 674615.999127984512597, 4553963.743064543232322 ], [ 673617.018138343817554, 4553939.952891933731735 ] ], [ [ 667947.756295105675235, 4544809.659093639813364 ], [ 667761.998313118587248, 4543805.908980429172516 ], [ 668761.481218343018554, 4543828.837372705340385 ], [ 668947.188676035148092, 4544832.61892600171268 ], [ 667947.756295105675235, 4544809.659093639813364 ] ], [ [ 682829.607877866714261, 4539168.758373350836337 ], [ 682644.860504305921495, 4538164.868834232911468 ], [ 680645.258265998563729, 4538115.439819568768144 ], [ 680460.443737810011953, 4537111.674845733679831 ], [ 681460.294729202287272, 4537136.289541567675769 ], [ 681275.564344382495619, 4536132.553889255970716 ], [ 682275.466853617690504, 4536157.27300363406539 ], [ 682090.820585103472695, 4535153.566651578992605 ], [ 683090.774604264297523, 4535178.39014686550945 ], [ 682906.212425003992394, 4534174.713073804043233 ], [ 683906.217946199816652, 4534199.640912363305688 ], [ 683721.739829157711938, 4533195.993097024038434 ], [ 685721.854996300651692, 4533246.193426954559982 ], [ 685906.232382138259709, 4534249.904798257164657 ], [ 686906.241309047443792, 4534275.240850869566202 ], [ 686721.914290572050959, 4533271.497656844556332 ], [ 688722.036330989794806, 4533322.514259766787291 ], [ 688353.684590464108624, 4531315.083602891303599 ], [ 689353.848041945835575, 4531340.732215037569404 ], [ 689537.95676901715342, 4532344.448893477208912 ], [ 692538.303141129435971, 4532422.306511339731514 ], [ 692906.319178788689896, 4534430.114870419725776 ], [ 690906.288551527773961, 4534377.945854688063264 ], [ 691090.447656790493056, 4535381.877784153446555 ], [ 690090.484492262359709, 4535355.965447339229286 ], [ 690274.727566197281703, 4536359.926572434604168 ], [ 687274.996241718763486, 4536282.910474923439324 ], [ 687090.601960873929784, 4535279.045113469474018 ], [ 686090.643417583778501, 4535253.67721872869879 ], [ 686275.088098313426599, 4536257.510718642733991 ], [ 685275.181093857856467, 4536232.247096019797027 ], [ 685459.709830506006256, 4537236.109854539856315 ], [ 684459.854372725938447, 4537210.950541626662016 ], [ 684644.467192319920287, 4538214.842580043710768 ], [ 685644.272220051148906, 4538240.033733673393726 ], [ 686013.497940511908382, 4540248.064975088462234 ], [ 687013.203187454026192, 4540273.456118807196617 ], [ 687197.81602960289456, 4541277.595470659434795 ], [ 685198.507622844423167, 4541226.885605643503368 ], [ 685013.79382170829922, 4540222.81008171569556 ], [ 684014.090825036517344, 4540197.691436040215194 ], [ 683829.360218663932756, 4539193.708954042755067 ], [ 682829.607877866714261, 4539168.758373350836337 ] ] ], [ [ [ 607739.766796714044176, 4547675.019853630103171 ], [ 608738.946445854264311, 4547689.784814237616956 ], [ 608550.018790086265653, 4546687.627172293141484 ], [ 615544.648719512391835, 4546794.591071107424796 ], [ 615356.109702068613842, 4545792.284721676260233 ], [ 617354.682605008361861, 4545824.012936379760504 ], [ 617166.279404108528979, 4544821.706776769831777 ], [ 613168.934276763349771, 4544758.915115844458342 ], [ 613357.539565566927195, 4545761.101721682585776 ], [ 607361.845277063082904, 4545670.82388046104461 ], [ 607739.766796714044176, 4547675.019853630103171 ] ] ], [ [ [ 604121.520263875601813, 4549621.521918222308159 ], [ 606119.672811484662816, 4549650.215921726077795 ], [ 605930.523657192243263, 4548648.027490526437759 ], [ 606929.651458053151146, 4548662.549417031928897 ], [ 606551.559031669632532, 4546658.292981187812984 ], [ 603553.874161661253311, 4546615.314083731733263 ], [ 603743.054574842215516, 4547617.323498231358826 ], [ 602743.878083302639425, 4547603.240273588337004 ], [ 602554.647119175759144, 4546601.260415684431791 ], [ 600556.194869702216238, 4546573.562017398886383 ], [ 601124.296072272933088, 4549579.503935161046684 ], [ 602123.370193398674019, 4549593.373528524301946 ], [ 601934.018707664567046, 4548591.303537647239864 ], [ 603932.26994351844769, 4548619.392766447737813 ], [ 604121.520263875601813, 4549621.521918222308159 ] ] ], [ [ [ 633906.362399533041753, 4549106.197760838083923 ], [ 633718.664171845070086, 4548103.227424744516611 ], [ 632719.46650577778928, 4548085.053169006481767 ], [ 632907.215310919331387, 4549087.99303908739239 ], [ 633906.362399533041753, 4549106.197760838083923 ] ] ], [ [ [ 643897.878114389954135, 4549295.748661953024566 ], [ 643710.685693775070831, 4548292.472031092271209 ], [ 642711.479782175738364, 4548272.933736842125654 ], [ 642898.722786353668198, 4549276.179604439996183 ], [ 643897.878114389954135, 4549295.748661953024566 ] ] ], [ [ [ 621671.279831437626854, 4552891.085635269992054 ], [ 622670.215366782969795, 4552907.774036944843829 ], [ 622481.7716086988803, 4551904.92622450646013 ], [ 621482.785437464364804, 4551888.268010077998042 ], [ 621671.279831437626854, 4552891.085635269992054 ] ] ], [ [ [ 621671.279831437626854, 4552891.085635269992054 ], [ 620672.345014805789106, 4552874.533753437921405 ], [ 620860.924724900862202, 4553877.381534428335726 ], [ 621859.808890021638945, 4553893.963593229651451 ], [ 621671.279831437626854, 4552891.085635269992054 ] ] ], [ [ [ 654823.424360705306754, 4554517.786940281279385 ], [ 652825.603343908209354, 4554475.74516480974853 ], [ 653199.623010226408951, 4556483.584459062665701 ], [ 654198.431675065308809, 4556504.599355738610029 ], [ 654011.45546696940437, 4555500.618043105117977 ], [ 655010.315740054822527, 4555521.738414745777845 ], [ 654823.424360705306754, 4554517.786940281279385 ] ] ], [ [ [ 624234.538771442486905, 4555933.59539823513478 ], [ 623857.579381032846868, 4553927.537361164577305 ], [ 621859.808890021638945, 4553893.963593229651451 ], [ 622048.372609270736575, 4554896.901914024725556 ], [ 621049.539111695368774, 4554880.289658835157752 ], [ 621615.590292827342637, 4557889.376393486745656 ], [ 622614.271691493457183, 4557906.079354428686202 ], [ 622425.604013962089084, 4556902.959764506667852 ], [ 623424.336845353944227, 4556919.769109362736344 ], [ 623235.754516688059084, 4555916.679707658477128 ], [ 624234.538771442486905, 4555933.59539823513478 ] ] ], [ [ [ 648519.066252768971026, 4563388.418606516905129 ], [ 647956.456598045770079, 4560376.029536832123995 ], [ 646957.857051653787494, 4560355.847253323532641 ], [ 646770.3381984900916, 4559351.870703184045851 ], [ 644773.040139853139408, 4559311.978440722450614 ], [ 644960.660516288131475, 4560315.893006195314229 ], [ 643962.063515773508698, 4560296.121038405224681 ], [ 643774.392378800199367, 4559292.237420620396733 ], [ 641777.099364301771857, 4559253.165592364035547 ], [ 641964.872020222945139, 4560256.987404053099453 ], [ 642963.467352342093363, 4560276.4858383750543 ], [ 643339.014084799680859, 4562284.374068966135383 ], [ 644337.508680021273904, 4562304.071163409389555 ], [ 644525.282699062954634, 4563308.137731395661831 ], [ 645523.727320794481784, 4563328.002659395337105 ], [ 645711.484800280537456, 4564332.161297393962741 ], [ 646709.879436566610821, 4564352.19414010643959 ], [ 646334.500383127597161, 4562343.875836226157844 ], [ 647332.997502503218129, 4562363.983418753370643 ], [ 647520.61909191601444, 4563368.143094860948622 ], [ 648519.066252768971026, 4563388.418606516905129 ] ] ], [ [ [ 681024.48229488322977, 4502185.584273566491902 ], [ 680841.23380541219376, 4501183.779392892494798 ], [ 674831.276297469274141, 4501040.029112000949681 ], [ 675014.823876208858564, 4502041.647202147170901 ], [ 681024.48229488322977, 4502185.584273566491902 ] ] ], [ [ [ 681024.48229488322977, 4502185.584273566491902 ], [ 681391.080578882945701, 4504189.374391755089164 ], [ 682392.594665827229619, 4504213.89934918936342 ], [ 682026.096133391023614, 4502210.046701779589057 ], [ 681024.48229488322977, 4502185.584273566491902 ] ] ], [ [ [ 696048.817704649409279, 4502566.710108460858464 ], [ 694045.556819240795448, 4502514.136406638659537 ], [ 693862.956486181123182, 4501511.923137307167053 ], [ 689856.250416718656197, 4501408.523801187984645 ], [ 690039.050202567130327, 4502410.610876470804214 ], [ 689037.426667698193341, 4502385.067368251271546 ], [ 689220.30995510017965, 4503387.183231743052602 ], [ 694228.19071302539669, 4503516.410034061409533 ], [ 694410.858163249329664, 4504518.744049394503236 ], [ 695412.388188514392823, 4504545.026623449288309 ], [ 695595.039276388473809, 4505547.452737058512866 ], [ 697598.003314418718219, 4505600.48699941392988 ], [ 697232.93430772353895, 4503595.56834655534476 ], [ 696231.351832737214863, 4503569.047050006687641 ], [ 696048.817704649409279, 4502566.710108460858464 ] ] ], [ [ [ 702423.134321248391643, 4504732.7909683175385 ], [ 701421.595261853653938, 4504705.561792843043804 ], [ 701603.946836778195575, 4505708.178615611046553 ], [ 702605.435972901759669, 4505735.439680298790336 ], [ 702423.134321248391643, 4504732.7909683175385 ] ] ], [ [ [ 705792.096541549195535, 4506820.839723373763263 ], [ 703789.211553626228124, 4506765.577266447246075 ], [ 703606.926424110773951, 4505762.836014978587627 ], [ 702605.435972901759669, 4505735.439680298790336 ], [ 703152.541422144975513, 4508743.74954342469573 ], [ 704153.882002528291196, 4508771.241750538349152 ], [ 703971.530081220087595, 4507768.379168314859271 ], [ 705974.315151266986504, 4507823.705629683099687 ], [ 705792.096541549195535, 4506820.839723373763263 ] ] ], [ [ [ 716989.729625447886065, 4508137.678500790148973 ], [ 718992.550234786816873, 4508196.524188538081944 ], [ 718810.981227813637815, 4507193.239343462511897 ], [ 716808.060663572978228, 4507134.458436260931194 ], [ 716989.729625447886065, 4508137.678500790148973 ] ] ], [ [ [ 702524.743738229153678, 4521703.166736384853721 ], [ 703525.429329539882019, 4521730.669160948134959 ], [ 703159.590336559107527, 4519723.615037469193339 ], [ 704160.377555590122938, 4519751.188887471333146 ], [ 704526.116201874334365, 4521758.307327136397362 ], [ 706527.493814537767321, 4521813.990896047092974 ], [ 706344.7081739254063, 4520810.336734730750322 ], [ 707345.449112367001362, 4520838.349885980598629 ], [ 707162.746977730887011, 4519834.724558128975332 ], [ 708163.539394309744239, 4519862.841165012679994 ], [ 707980.920738913700916, 4518859.244649237021804 ], [ 705979.236906941281632, 4518803.211596283130348 ], [ 705796.551289401948452, 4517799.740558784455061 ], [ 704795.661196981323883, 4517771.959694497287273 ], [ 704612.958810122334398, 4516768.581788100302219 ], [ 703612.019898916012608, 4516740.968672172166407 ], [ 703429.300781013444066, 4515737.683798278681934 ], [ 702428.313063694979064, 4515710.238348797895014 ], [ 702062.874854004243389, 4513703.915301646105945 ], [ 701061.788276776089333, 4513676.669439496472478 ], [ 701610.145952475257218, 4516686.14922325219959 ], [ 699608.277132023940794, 4516631.872132344171405 ], [ 699974.21650420629885, 4518638.368203918449581 ], [ 698973.384239008417353, 4518611.369074032641947 ], [ 699156.454235337441787, 4519614.676427830010653 ], [ 700157.236356924637221, 4519641.707567437551916 ], [ 700340.289648231817409, 4520645.107856270857155 ], [ 699339.557686497224495, 4520618.044687625952065 ], [ 699522.694588117068633, 4521621.473883551545441 ], [ 697521.33477888663765, 4521567.690637066960335 ], [ 697704.605507360654883, 4522571.116753415204585 ], [ 698705.234597316710278, 4522597.972521026618779 ], [ 698888.488594024442136, 4523601.491622501984239 ], [ 701890.232754210825078, 4523682.96974060125649 ], [ 701707.129383371328004, 4522679.354378005489707 ], [ 702707.763504857779481, 4522706.75319123454392 ], [ 702524.743738229153678, 4521703.166736384853721 ] ] ], [ [ [ 692517.956909960135818, 4521435.607649971731007 ], [ 694519.304376583080739, 4521488.033693799749017 ], [ 694335.916613901266828, 4520484.764292115345597 ], [ 692334.46881168615073, 4520432.401957164518535 ], [ 692517.956909960135818, 4521435.607649971731007 ] ] ], [ [ [ 676428.905458952998742, 4526026.154414722695947 ], [ 676613.449166860431433, 4527029.186863975599408 ], [ 675613.098132181097753, 4527005.295857232064009 ], [ 675797.725909450207837, 4528008.35755131393671 ], [ 677798.328557573142461, 4528056.338315712288022 ], [ 677613.801301578525454, 4527053.213715347461402 ], [ 680614.864367753383704, 4527126.109362577088177 ], [ 680430.521646159351803, 4526122.950939725153148 ], [ 676428.905458952998742, 4526026.154414722695947 ] ] ], [ [ [ 682495.257980828755535, 4548156.45252148155123 ], [ 682310.106347753899172, 4547152.075644193217158 ], [ 681310.761432919185609, 4547127.279305317439139 ], [ 681495.96365308878012, 4548131.624296433292329 ], [ 682495.257980828755535, 4548156.45252148155123 ] ] ] ] } }
]
}
