{
"type": "FeatureCollection",
"name": "urban-1995",
"crs": { "type": "name", "properties": { "name": "urn:ogc:def:crs:EPSG::32635" } },
"features": [
{ "type": "Feature", "properties": { "year": 1995 }, "geometry": { "type": "MultiPolygon", "coordinates": [ [ [ [ 638467.621969508705661, 4536200.769118496216834 ], [ 638280.724838315858506, 4535198.36976014636457 ], [ 637280.865364447585307, 4535179.637697277590632 ], [ 637467.812868472770788, 4536182.006633319891989 ], [ 638467.621969508705661, 4536200.769118496216834 ] ] ], [ [ [ 631344.774395526736043, 4546061.377596441656351 ], [ 631157.078549451660365, 4545058.649260147474706 ], [ 632156.427058010944165, 4545076.595930173061788 ], [ 631781.239939190680161, 4543071.25944671779871 ], [ 632780.69025172770489, 4543089.281663212925196 ], [ 633155.776360093150288, 4545094.678904234431684 ], [ 634155.126461669919081, 4545112.898184226825833 ], [ 633780.141364818322472, 4543107.440126232802868 ], [ 634779.593284459318966, 4543125.734837681055069 ], [ 634967.018096682731993, 4544128.464128253050148 ], [ 635966.420330040156841, 4544146.925548260100186 ], [ 636153.829087189980783, 4545149.745669648982584 ], [ 635154.477368712541647, 4545131.253772057592869 ], [ 635529.499276144080795, 4547137.014239519834518 ], [ 634530.249445910565555, 4547118.597697793506086 ], [ 634905.510285461088642, 4549124.538907354697585 ], [ 633906.362399533041753, 4549106.197760838083923 ], [ 634281.862266494776122, 4551112.31985742598772 ], [ 636279.956431954051368, 4551149.260735954158008 ], [ 636092.290485446457751, 4550146.108341400511563 ], [ 637091.389388524112292, 4550164.752917796373367 ], [ 637279.004723705351353, 4551167.935906342230737 ], [ 639277.103754711919464, 4551205.695719138719141 ], [ 639089.58964400284458, 4550202.451453424990177 ], [ 641087.793204602785408, 4550240.695846013724804 ], [ 640900.41467605298385, 4549237.450815051794052 ], [ 645896.191345800412819, 4549335.296112857758999 ], [ 646083.316875864868052, 4550338.695057295262814 ], [ 648081.532376175513491, 4550378.850076801143587 ], [ 648268.590944190626033, 4551382.371561776846647 ], [ 649267.649391065700911, 4551402.684745401144028 ], [ 649454.691561646061018, 4552406.297997886314988 ], [ 648455.683750334545039, 4552385.953843919560313 ], [ 648642.810790490941145, 4553389.596953495405614 ], [ 647643.854508044780232, 4553369.358381691388786 ], [ 647831.066445235395804, 4554373.031369457952678 ], [ 648829.972060535452329, 4554393.300920781679451 ], [ 649017.16755634220317, 4555397.065776072442532 ], [ 650016.023363927612081, 4555417.502957894466817 ], [ 649641.767950070439838, 4553409.972097269259393 ], [ 652638.644750177394599, 4553471.916981785558164 ], [ 652451.72032160568051, 4552468.149734385311604 ], [ 654449.743991957628168, 4552510.066975821740925 ], [ 654823.424360705306754, 4554517.786940281279385 ], [ 655822.336233328678645, 4554539.012749034911394 ], [ 655635.529655311605893, 4553535.091091589070857 ], [ 656634.493118793121539, 4553556.422299607656896 ], [ 656821.249023221665993, 4554560.375174755230546 ], [ 657820.162736224825494, 4554581.87421967741102 ], [ 657633.457506247912534, 4553577.890097040683031 ], [ 660630.356270962976851, 4553643.113048350438476 ], [ 660443.837105095852166, 4552639.096096079796553 ], [ 661442.855908748228103, 4552661.078926611691713 ], [ 661256.421428094385192, 4551657.091707866638899 ], [ 662255.491832375177182, 4551679.179751930758357 ], [ 662069.142009596573189, 4550675.222245530225337 ], [ 663068.264005992212333, 4550697.415465337224305 ], [ 663440.896384351537563, 4552705.454302943311632 ], [ 664439.91806802386418, 4552727.846853386610746 ], [ 664253.635529622202739, 4551723.765472889877856 ], [ 665252.708834332530387, 4551746.26315444894135 ], [ 665438.940723420586437, 4552750.375981797464192 ], [ 666437.964356401702389, 4552773.041690533980727 ], [ 666810.428656303673051, 4554781.513863541185856 ], [ 668808.276173784164712, 4554827.381234050728381 ], [ 668994.457825220539235, 4555831.772323772311211 ], [ 669993.332368614268489, 4555854.942603153176606 ], [ 670365.695904667605646, 4557863.972046825103462 ], [ 669366.922814390156418, 4557840.738459509797394 ], [ 669739.523356794961728, 4559849.950073719024658 ], [ 670738.194928719080053, 4559873.247047189623117 ], [ 670924.49523802602198, 4560877.976707508787513 ], [ 669925.874449758790433, 4560854.648011606186628 ], [ 670298.678257772466168, 4562864.228301811031997 ], [ 668301.642862454173155, 4562817.854557600803673 ], [ 668674.785494917538017, 4564827.553952793590724 ], [ 671670.035023539094254, 4564897.51046347245574 ], [ 671297.197429729858413, 4562887.620501324534416 ], [ 673294.238750867778435, 4562934.815567371435463 ], [ 673107.972363486071117, 4561929.899302011355758 ], [ 672109.400386318331584, 4561906.265144947916269 ], [ 671923.117018938413821, 4560901.442231920547783 ], [ 673920.363581695593894, 4560948.783776093274355 ], [ 674106.545343701494858, 4561953.670322343707085 ], [ 675105.119332700502127, 4561977.578208425082266 ], [ 674918.988375038723461, 4560972.659800796769559 ], [ 675917.614184022531845, 4560996.672663897275925 ], [ 675731.56780922668986, 4559991.783943837508559 ], [ 673734.215629798010923, 4559943.958769459277391 ], [ 673548.10149232367985, 4558939.195271831937134 ], [ 676544.283610650571063, 4559011.042692570015788 ], [ 676172.461285726050846, 4557001.509165833704174 ], [ 677171.29221061442513, 4557025.668105409480631 ], [ 676985.482439504819922, 4556020.961718253791332 ], [ 677984.365128973149695, 4556045.225501507520676 ], [ 677798.639834980247542, 4555040.548715994693339 ], [ 680795.44633229332976, 4555114.064502397552133 ], [ 680424.401143012917601, 4553104.703900582157075 ], [ 679425.363209220464341, 4553080.125811870209873 ], [ 679239.840518186334521, 4552075.569597742520273 ], [ 677241.666496298508719, 4552026.886961130425334 ], [ 677056.076245571486652, 4551022.455808332189918 ], [ 676056.940165480249561, 4550998.351146289147437 ], [ 675685.759741085348651, 4548989.736317823641002 ], [ 676684.997063248883933, 4549013.777468046173453 ], [ 676499.508140265359543, 4548009.530219645239413 ], [ 678498.087143857264891, 4548057.958450940437615 ], [ 678127.412951041944325, 4546049.520676813088357 ], [ 679126.805198695976287, 4546073.875915789045393 ], [ 678941.56929202855099, 4545069.717114347033203 ], [ 681939.904159061261453, 4545143.505840517580509 ], [ 682310.106347753899172, 4547152.075644193217158 ], [ 684308.799453402752988, 4547202.077662812545896 ], [ 684123.782656462863088, 4546197.698289759457111 ], [ 685123.181433450547047, 4546222.872018530964851 ], [ 684938.248857280937955, 4545218.522044418379664 ], [ 685937.69930247287266, 4545243.800230740569532 ], [ 686307.496966484002769, 4547252.625486736185849 ], [ 687306.847390605835244, 4547278.104082294739783 ], [ 687491.746070316876285, 4548282.640838155522943 ], [ 688491.047019705525599, 4548308.287958275526762 ], [ 689045.792790448525921, 4551322.36339171230793 ], [ 690044.942979170475155, 4551348.243406227789819 ], [ 689860.044785545906052, 4550343.457915815524757 ], [ 690859.246746568707749, 4550369.442330867983401 ], [ 690674.432746089994907, 4549364.686231664381921 ], [ 689675.180155479931273, 4549338.733980666846037 ], [ 688751.36061214376241, 4544316.03656505048275 ], [ 690750.372739675687626, 4544367.756389899179339 ], [ 690381.282116526504979, 4542358.979033750481904 ], [ 691380.890949681052007, 4542384.979321649298072 ], [ 691196.446486193104647, 4541380.650616472586989 ], [ 692196.106977592571639, 4541406.75513028819114 ], [ 691827.419673268916085, 4539398.217570698820055 ], [ 692827.182286380440928, 4539424.394184399396181 ], [ 692458.730061342474073, 4537416.037698016501963 ], [ 695458.327649521408603, 4537495.192272432148457 ], [ 694906.35454155842308, 4534482.828257844783366 ], [ 695906.374013947322965, 4534509.389097854495049 ], [ 695538.660190901136957, 4532501.388428336940706 ], [ 694538.539977734792046, 4532474.891751507297158 ], [ 694354.682961412356235, 4531471.015258369036019 ], [ 695354.853520524688065, 4531497.479882723651826 ], [ 695171.080350086209364, 4530493.632489462383091 ], [ 694170.859461313229986, 4530467.19989818148315 ], [ 693619.590102030313574, 4527456.12031268235296 ], [ 695620.334873376064934, 4527508.929421747103333 ], [ 695803.957235644804314, 4528512.625544338487089 ], [ 697804.60630806395784, 4528566.042332840152085 ], [ 698171.750284668756649, 4530573.746165515854955 ], [ 700172.203025843715295, 4530627.835229498334229 ], [ 700355.724528371705674, 4531631.843235911801457 ], [ 702356.081544619286433, 4531686.540737963281572 ], [ 701989.273282887297682, 4529678.457074456848204 ], [ 702989.554325469420291, 4529705.945346904918551 ], [ 702806.25059204082936, 4528701.963138518854976 ], [ 704806.91707585810218, 4528757.283054595813155 ], [ 704440.610902875196189, 4526749.373262110166252 ], [ 705441.046623503090814, 4526777.172557409852743 ], [ 705257.993836173787713, 4525773.277204004116356 ], [ 706258.481101428507827, 4525801.180098730139434 ], [ 706075.511909208842553, 4524797.313654211349785 ], [ 707076.050711774267256, 4524825.320110940374434 ], [ 706893.165087890578434, 4523821.482553915120661 ], [ 707893.755420481320471, 4523849.592535233125091 ], [ 707710.953338173450902, 4522845.783844306133687 ], [ 706710.312787334434688, 4522817.70615903288126 ], [ 706527.493814537767321, 4521813.990896047092974 ], [ 707528.184567324700765, 4521842.036304634064436 ], [ 707345.449112367001362, 4520838.349885980598629 ], [ 709346.934917562874034, 4520894.783361916430295 ], [ 709529.569996948586777, 4521898.534384838305414 ], [ 710530.264686238253489, 4521926.987062406726182 ], [ 710347.679796794895083, 4520923.203692547045648 ], [ 711348.426002100808546, 4520951.759755605831742 ], [ 711530.960700146970339, 4521955.575502277351916 ], [ 712531.658044897485524, 4521984.299707460217178 ], [ 712166.72227334312629, 4519976.664588286541402 ], [ 711165.92455917596817, 4519948.005177124403417 ], [ 710983.456375824403949, 4518944.311736597679555 ], [ 709982.60983664134983, 4518915.820369116961956 ], [ 710165.128178780665621, 4519919.481471525505185 ], [ 709164.333125909091905, 4519891.093468485400081 ], [ 708981.76462642592378, 4518887.464674324728549 ], [ 706980.078167840605602, 4518831.160290876403451 ], [ 706797.442687117028981, 4517827.657054039649665 ], [ 705796.551289401948452, 4517799.740558784455061 ], [ 705248.694553495733999, 4514789.693211362697184 ], [ 702245.57725297100842, 4514707.046408866532147 ], [ 702062.874854004243389, 4513703.915301646105945 ], [ 699059.618972352938727, 4513622.584212301298976 ], [ 699242.4715666170232, 4514625.619400762021542 ], [ 700243.505515474593267, 4514652.62620888184756 ], [ 700609.210904648993164, 4516658.942884483374655 ], [ 698607.344628302147612, 4516604.93696398101747 ], [ 698424.375022643944249, 4515601.812147546559572 ], [ 697423.39368788455613, 4515575.044482108205557 ], [ 697606.413387182867154, 4516578.137376555241644 ], [ 696605.48340236779768, 4516551.473367241211236 ], [ 697154.893762037740089, 4519561.021157109178603 ], [ 699156.454235337441787, 4519614.676427830010653 ], [ 699339.557686497224495, 4520618.044687625952065 ], [ 695336.642351109883748, 4520511.148987571708858 ], [ 695153.338273490546271, 4519507.908545560203493 ], [ 694152.562382840551436, 4519481.555729969404638 ], [ 694335.916613901266828, 4520484.764292115345597 ], [ 692334.46881168615073, 4520432.401957164518535 ], [ 692151.014277461217716, 4519429.257065275683999 ], [ 690149.471031530061737, 4519377.501004218123853 ], [ 690516.614293020102195, 4521383.724448353052139 ], [ 691517.284998400369659, 4521409.598195257596672 ], [ 691700.856838561943732, 4522412.832890059798956 ], [ 690700.23631413304247, 4522386.927343959920108 ], [ 690883.891923069604672, 4523390.191062048077583 ], [ 689883.322793328552507, 4523364.389462157152593 ], [ 690250.835197945591062, 4525371.035850869491696 ], [ 689250.36769766791258, 4525345.306437253020704 ], [ 689434.224532160675153, 4526348.689139967784286 ], [ 686432.979825870133936, 4526272.22053034696728 ], [ 686617.02103508845903, 4527275.568807673640549 ], [ 684616.29756464320235, 4527225.205538629554212 ], [ 684800.472962268744595, 4528228.551249652169645 ], [ 681799.547165093244985, 4528153.930388359352946 ], [ 681983.907089857151732, 4529157.241968699730933 ], [ 679983.396113314083777, 4529108.11098491307348 ], [ 680167.890352482558228, 4530111.420183196663857 ], [ 679167.686837554676458, 4530087.026994057931006 ], [ 679352.26513651269488, 4531090.365438101813197 ], [ 678352.113041533506475, 4531066.076632187701762 ], [ 678536.775427327491343, 4532069.444343225099146 ], [ 677536.674760209745727, 4532045.259958227165043 ], [ 677721.421259901020676, 4533048.65695749502629 ], [ 676721.372028585290536, 4533024.577031111344695 ], [ 676906.202669248217717, 4534028.00333983451128 ], [ 675906.204881703597493, 4534004.027909769676626 ], [ 676091.119690425461158, 4535007.483549176715314 ], [ 674091.2280921934871, 4534959.877832558006048 ], [ 674276.27748255210463, 4535963.33132014516741 ], [ 672276.490923139150254, 4535916.206977367401123 ], [ 672461.674951559514739, 4536919.658384970389307 ], [ 670461.993406633031555, 4536873.015595845878124 ], [ 670647.312129615689628, 4537876.464995278045535 ], [ 669647.523335400503129, 4537853.316392491571605 ], [ 669832.926380502409302, 4538856.795238680206239 ], [ 668833.18904920713976, 4538833.751402844674885 ], [ 669018.676443609176204, 4539837.259716985747218 ], [ 668018.990583434468135, 4539814.320685863494873 ], [ 668575.807676008436829, 4542825.116802317090333 ], [ 667576.274262706749141, 4542802.219830682501197 ], [ 667019.305743144941516, 4539791.517859593033791 ], [ 663020.57646039489191, 4539701.668555397540331 ], [ 662834.786414789268747, 4538698.348030981607735 ], [ 660835.326859719003551, 4538654.302904822863638 ], [ 660649.469987368676811, 4537651.105434693396091 ], [ 658649.913506039883941, 4537607.667143603786826 ], [ 658463.989879169152118, 4536604.592501038685441 ], [ 655464.511190904071555, 4536540.54901057947427 ], [ 655278.470496373716742, 4535537.627926340326667 ], [ 654278.595790645224042, 4535516.583202439360321 ], [ 654092.538870569784194, 4534513.753535305149853 ], [ 652092.691552899545059, 4534472.133980241604149 ], [ 652278.849207181017846, 4535474.901920064352453 ], [ 650279.106353809242137, 4535433.764843692071736 ], [ 650465.398962463252246, 4536436.531587278470397 ], [ 649465.579299933509901, 4536416.136342021636665 ], [ 649651.956524331704713, 4537418.932729483582079 ], [ 647652.420725020347163, 4537378.488953850232065 ], [ 647465.942709443042986, 4536375.754073701798916 ], [ 642466.866901344270445, 4536277.179600797593594 ], [ 642280.171267361496575, 4535274.65825616940856 ], [ 639280.585159447509795, 4535217.237845483236015 ], [ 639467.431917232694104, 4536219.667655842378736 ], [ 638467.621969508705661, 4536200.769118496216834 ], [ 638654.55351241142489, 4537203.228687008842826 ], [ 636655.036928078625351, 4537165.778913307934999 ], [ 636842.103687857394107, 4538168.237829727120697 ], [ 633842.986260534962639, 4538112.992633389309049 ], [ 634217.525646673864685, 4540117.908785295672715 ], [ 633217.922328412649222, 4540099.705243224278092 ], [ 633405.29418737150263, 4541102.223283678293228 ], [ 631406.190868026693352, 4541066.164023833349347 ], [ 631218.718110270798206, 4540063.706635180860758 ], [ 630219.117198318475857, 4540045.911565434187651 ], [ 629844.174409052007832, 4538041.237788764759898 ], [ 627844.773253478924744, 4538006.176939864642918 ], [ 628032.328208075719886, 4539008.423368817195296 ], [ 626033.030998021247797, 4538973.846604843623936 ], [ 626220.721390450722538, 4539976.092804901301861 ], [ 624221.528105948353186, 4539942.000310132279992 ], [ 624409.353994466830045, 4540944.246352615766227 ], [ 623409.808931451058015, 4540927.374246713705361 ], [ 623597.719913300592452, 4541929.650266159325838 ], [ 621598.732945120777003, 4541896.254467851482332 ], [ 621786.77952459466178, 4542898.530432259663939 ], [ 619787.89644835377112, 4542865.619404618628323 ], [ 619976.07868390053045, 4543867.89538523927331 ], [ 616977.910947157652117, 4543819.460651967674494 ], [ 617166.279404108528979, 4544821.706776769831777 ], [ 613168.934276763349771, 4544758.915115844458342 ], [ 613357.539565566927195, 4545761.101721682585776 ], [ 607361.845277063082904, 4545670.82388046104461 ], [ 607550.788589062984101, 4546672.891916446387768 ], [ 603553.874161661253311, 4546615.314083731733263 ], [ 603743.054574842215516, 4547617.323498231358826 ], [ 602743.878083302639425, 4547603.240273588337004 ], [ 602554.647119175759144, 4546601.260415684431791 ], [ 600556.194869702216238, 4546573.562017398886383 ], [ 600745.526935287052765, 4547575.482850980013609 ], [ 598747.17819435056299, 4547548.270787611603737 ], [ 598557.745027800439857, 4546546.408859878778458 ], [ 595560.074674758361652, 4546506.701425218954682 ], [ 595370.524943836033344, 4545504.987303550355136 ], [ 591373.436984028317966, 4545454.06931971013546 ], [ 591563.188851768150926, 4546455.666417459025979 ], [ 593561.630643001175486, 4546480.911320358514786 ], [ 593751.316560482024215, 4547482.626501653343439 ], [ 595749.659492056933232, 4547508.475216272287071 ], [ 596128.934370739967562, 4549512.201925582252443 ], [ 597128.005543589824811, 4549525.389537918381393 ], [ 596938.401146745774895, 4548523.466930883005261 ], [ 600934.894004075555131, 4548577.463480294682086 ], [ 601124.296072272933088, 4549579.503935161046684 ], [ 603122.444921957910992, 4549607.379522389732301 ], [ 602933.144018832477741, 4548605.279965879395604 ], [ 603932.26994351844769, 4548619.392766447737813 ], [ 604121.520263875601813, 4549621.521918222308159 ], [ 606119.672811484662816, 4549650.215921726077795 ], [ 605930.523657192243263, 4548648.027490526437759 ], [ 606929.651458053151146, 4548662.549417031928897 ], [ 606740.587790990713984, 4547660.3912432519719 ], [ 609738.126744359382428, 4547704.686126615852118 ], [ 609549.249640700756572, 4546702.498750272206962 ], [ 610548.481146866106428, 4546717.506651939824224 ], [ 610737.307698177057318, 4547719.723792326636612 ], [ 611736.489313252503052, 4547734.897812943905592 ], [ 611547.71331454149913, 4546732.650878866203129 ], [ 616543.884284109342843, 4546810.416948407888412 ], [ 616355.395804749103263, 4545808.080676363781095 ], [ 620352.547250934992917, 4545872.627565152011812 ], [ 620164.295619398006238, 4544870.231428779661655 ], [ 622162.976695380872115, 4544903.262606054544449 ], [ 621974.860775988432579, 4543900.866468357853591 ], [ 623973.645804738742299, 4543934.382576314732432 ], [ 623785.665539039531723, 4542931.986366054974496 ], [ 624785.109663096023723, 4542948.918677136301994 ], [ 624597.214514827239327, 4541946.55246498528868 ], [ 626596.20598282921128, 4541980.765470843762159 ], [ 626408.446386701194569, 4540978.399083603173494 ], [ 627407.99372797308024, 4540995.679712267592549 ], [ 627971.224863899755292, 4544003.049923156388104 ], [ 628970.621538968989626, 4544020.557422615587711 ], [ 629158.383889015181921, 4545023.164824699983001 ], [ 630157.730828444124199, 4545040.838892278261483 ], [ 630345.477202770416625, 4546043.536880133673549 ], [ 631344.774395526736043, 4546061.377596441656351 ] ], [ [ 672549.376151433680207, 4558915.519687346182764 ], [ 672363.245078475330956, 4557910.84944093413651 ], [ 673362.021173583576456, 4557934.493252624757588 ], [ 673548.10149232367985, 4558939.195271831937134 ], [ 672549.376151433680207, 4558915.519687346182764 ] ], [ [ 674987.720170559128746, 4555972.844239355996251 ], [ 673988.840579460607842, 4555948.99053868278861 ], [ 673802.912449088529684, 4554944.441027415916324 ], [ 674801.842747615650296, 4554968.262954286299646 ], [ 674987.720170559128746, 4555972.844239355996251 ] ], [ [ 674615.999127984512597, 4553963.743064543232322 ], [ 675614.981146802892908, 4553987.669869163073599 ], [ 675800.774074224405922, 4554992.221543001942337 ], [ 674801.842747615650296, 4554968.262954286299646 ], [ 674615.999127984512597, 4553963.743064543232322 ] ], [ [ 673617.018138343817554, 4553939.952891933731735 ], [ 673431.157651523710229, 4552935.526101734489202 ], [ 674430.189315968658775, 4552959.284539618529379 ], [ 674615.999127984512597, 4553963.743064543232322 ], [ 673617.018138343817554, 4553939.952891933731735 ] ], [ [ 644335.711690430413, 4546305.713806955143809 ], [ 642337.096771148266271, 4546266.623799596913159 ], [ 642149.956772432662547, 4545263.559669674374163 ], [ 644148.672762860544026, 4545302.588237255811691 ], [ 644335.711690430413, 4546305.713806955143809 ] ], [ [ 643587.761862957850099, 4542293.574754423461854 ], [ 644587.272666045464575, 4542313.201351658441126 ], [ 644400.42147944169119, 4541310.287145563401282 ], [ 645399.983628547750413, 4541330.019266705960035 ], [ 645213.217210006085224, 4540327.134820139966905 ], [ 646212.830696412129328, 4540346.972427172586322 ], [ 646026.1490185149014, 4539344.11771909147501 ], [ 647025.813833529595286, 4539364.060773999430239 ], [ 646839.216868870891631, 4538361.235783348791301 ], [ 647838.933003830723464, 4538381.284248118288815 ], [ 648398.675378882326186, 4541390.032915953546762 ], [ 647399.1105722556822, 4541369.892149811610579 ], [ 647585.810338164912537, 4542372.898595097474754 ], [ 646586.296897647902369, 4542352.86326991673559 ], [ 646959.900198951596394, 4544358.996215254068375 ], [ 645960.48863899265416, 4544339.035583859309554 ], [ 646147.392213827231899, 4545342.162115693092346 ], [ 644148.672762860544026, 4545302.588237255811691 ], [ 643587.761862957850099, 4542293.574754423461854 ] ], [ [ 667761.998313118587248, 4543805.908980429172516 ], [ 668761.481218343018554, 4543828.837372705340385 ], [ 668947.188676035148092, 4544832.61892600171268 ], [ 667947.756295105675235, 4544809.659093639813364 ], [ 667761.998313118587248, 4543805.908980429172516 ] ], [ [ 683721.739829157711938, 4533195.993097024038434 ], [ 685721.854996300651692, 4533246.193426954559982 ], [ 686275.088098313426599, 4536257.510718642733991 ], [ 685275.181093857856467, 4536232.247096019797027 ], [ 685459.709830506006256, 4537236.109854539856315 ], [ 684459.854372725938447, 4537210.950541626662016 ], [ 684275.275222296128049, 4536207.119604399427772 ], [ 683275.37047756917309, 4536182.128241145052016 ], [ 682906.212425003992394, 4534174.713073804043233 ], [ 683906.217946199816652, 4534199.640912363305688 ], [ 683721.739829157711938, 4533195.993097024038434 ] ], [ [ 688537.843655979144387, 4532318.768407905474305 ], [ 689537.95676901715342, 4532344.448893477208912 ], [ 689722.099089323077351, 4533348.226638159714639 ], [ 690722.163014530437067, 4533374.075071436353028 ], [ 691090.447656790493056, 4535381.877784153446555 ], [ 690090.484492262359709, 4535355.965447339229286 ], [ 690274.727566197281703, 4536359.926572434604168 ], [ 687274.996241718763486, 4536282.910474923439324 ], [ 686906.241309047443792, 4534275.240850869566202 ], [ 687906.251383360126056, 4534300.712980137206614 ], [ 687721.974733436363749, 4533296.937933557666838 ], [ 688722.036330989794806, 4533322.514259766787291 ], [ 688537.843655979144387, 4532318.768407905474305 ] ], [ [ 695069.668810934294015, 4524498.207237300463021 ], [ 696070.19377209385857, 4524524.719645444303751 ], [ 695886.755658974172547, 4523521.235587228089571 ], [ 696887.332067105220631, 4523547.85181672219187 ], [ 696703.977659730706364, 4522544.396740103140473 ], [ 697704.605507360654883, 4522571.116753415204585 ], [ 697887.909710051026195, 4523574.603827541694045 ], [ 698888.488594024442136, 4523601.491622501984239 ], [ 699621.839072906877846, 4527616.178403438068926 ], [ 697621.084513903479092, 4527562.282111181877553 ], [ 697437.596188350580633, 4526558.582978969439864 ], [ 698438.023119699209929, 4526585.431098403409123 ], [ 698254.618520595482551, 4525581.760969836264849 ], [ 695253.190656656981446, 4525501.720298438332975 ], [ 695069.668810934294015, 4524498.207237300463021 ] ], [ [ 702256.539705830393359, 4525690.383692056871951 ], [ 700255.576611646800302, 4525635.800631906837225 ], [ 699889.068725235294551, 4523628.515204433351755 ], [ 700889.650109894806519, 4523655.674576179124415 ], [ 701072.837111744214781, 4524659.318867881782353 ], [ 702073.369529830990359, 4524686.646168544888496 ], [ 702256.539705830393359, 4525690.383692056871951 ] ], [ [ 704526.116201874334365, 4521758.307327136397362 ], [ 705526.804361464106478, 4521786.081237860955298 ], [ 705892.576052189804614, 4523793.50838272832334 ], [ 704891.988307175575756, 4523765.670018726959825 ], [ 704526.116201874334365, 4521758.307327136397362 ] ] ], [ [ [ 626348.296182938152924, 4545973.537296311929822 ], [ 626536.279261538526043, 4546976.174426280893385 ], [ 627535.52282338810619, 4546993.500082739628851 ], [ 627347.590287139290012, 4545990.832703735679388 ], [ 628346.885154537390918, 4546008.264435629360378 ], [ 627971.224863899755292, 4544003.049923156388104 ], [ 625972.433818072080612, 4543968.443723156116903 ], [ 626160.347700464306399, 4544970.960405262187123 ], [ 625161.003827610635199, 4544953.83152047265321 ], [ 625349.002835971419699, 4545956.378211543895304 ], [ 626348.296182938152924, 4545973.537296311929822 ] ] ], [ [ [ 633906.362399533041753, 4549106.197760838083923 ], [ 633718.664171845070086, 4548103.227424744516611 ], [ 632719.46650577778928, 4548085.053169006481767 ], [ 632907.215310919331387, 4549087.99303908739239 ], [ 633906.362399533041753, 4549106.197760838083923 ] ] ], [ [ [ 626912.349191281013191, 4548981.629522984847426 ], [ 626724.296932307304814, 4547978.871825167909265 ], [ 625725.104685158003122, 4547961.652282335795462 ], [ 626101.344951265491545, 4549967.167471338994801 ], [ 625102.254617519909516, 4549950.023832527920604 ], [ 625667.026343856356107, 4552958.658378520980477 ], [ 626665.964812808437273, 4552975.892877146601677 ], [ 626289.516980763059109, 4550970.015560242347419 ], [ 628287.598690110491589, 4551004.772782002575696 ], [ 627911.491620347718708, 4548999.015735647641122 ], [ 626912.349191281013191, 4548981.629522984847426 ] ] ], [ [ [ 648455.683750334545039, 4552385.953843919560313 ], [ 648268.590944190626033, 4551382.371561776846647 ], [ 647269.533375952392817, 4551362.194890603423119 ], [ 647456.676816911669448, 4552365.746232164092362 ], [ 648455.683750334545039, 4552385.953843919560313 ] ] ], [ [ [ 645458.665560241090134, 4552325.740626837126911 ], [ 645645.944551115855575, 4553329.290945541113615 ], [ 647643.854508044780232, 4553369.358381691388786 ], [ 647456.676816911669448, 4552365.746232164092362 ], [ 645458.665560241090134, 4552325.740626837126911 ] ] ], [ [ [ 665625.206570946378633, 4553754.549967829138041 ], [ 665438.940723420586437, 4552750.375981797464192 ], [ 664439.91806802386418, 4552727.846853386610746 ], [ 664626.23458111518994, 4553731.989373059943318 ], [ 665625.206570946378633, 4553754.549967829138041 ] ] ], [ [ [ 625044.877432711538859, 4554947.558161914348602 ], [ 624856.465718649327755, 4553944.529073807410896 ], [ 625855.352792154531926, 4553961.657341263256967 ], [ 625667.026343856356107, 4552958.658378520980477 ], [ 622670.215366782969795, 4552907.774036944843829 ], [ 622481.7716086988803, 4551904.92622450646013 ], [ 621482.785437464364804, 4551888.268010077998042 ], [ 621671.279831437626854, 4552891.085635269992054 ], [ 620672.345014805789106, 4552874.533753437921405 ], [ 620860.924724900862202, 4553877.381534428335726 ], [ 621859.808890021638945, 4553893.963593229651451 ], [ 622048.372609270736575, 4554896.901914024725556 ], [ 621049.539111695368774, 4554880.289658835157752 ], [ 621615.590292827342637, 4557889.376393486745656 ], [ 622614.271691493457183, 4557906.079354428686202 ], [ 622425.604013962089084, 4556902.959764506667852 ], [ 624423.070399607415311, 4556936.715094580315053 ], [ 624046.04176392883528, 4554930.536163805983961 ], [ 625044.877432711538859, 4554947.558161914348602 ] ] ], [ [ [ 639652.235122095211409, 4553212.366147200576961 ], [ 639464.652248761849478, 4552209.000607001595199 ], [ 635468.659953168360516, 4552133.904428331181407 ], [ 636220.008369859773666, 4556147.239974703639746 ], [ 634222.422384282224812, 4556110.26628649700433 ], [ 634598.506032285979018, 4558117.175526642240584 ], [ 636595.889159662183374, 4558154.271799257025123 ], [ 636407.931553013157099, 4557150.725524176843464 ], [ 638405.419319689157419, 4557188.307143096812069 ], [ 637654.338636679574847, 4553174.483663447201252 ], [ 639652.235122095211409, 4553212.366147200576961 ] ] ], [ [ [ 652825.603343908209354, 4554475.74516480974853 ], [ 653199.623010226408951, 4556483.584459062665701 ], [ 654198.431675065308809, 4556504.599355738610029 ], [ 654011.45546696940437, 4555500.618043105117977 ], [ 655010.315740054822527, 4555521.738414745777845 ], [ 654823.424360705306754, 4554517.786940281279385 ], [ 652825.603343908209354, 4554475.74516480974853 ] ] ], [ [ [ 651202.008369055693038, 4556441.96467325091362 ], [ 651014.880052952677943, 4555438.076773352921009 ], [ 650016.023363927612081, 4555417.502957894466817 ], [ 650203.202381090493873, 4556421.359779764898121 ], [ 651202.008369055693038, 4556441.96467325091362 ] ] ], [ [ [ 625610.320210368023254, 4557957.008254121989012 ], [ 625421.804682546295226, 4556953.797721930779517 ], [ 624423.070399607415311, 4556936.715094580315053 ], [ 624611.636644452577457, 4557939.895282980054617 ], [ 625610.320210368023254, 4557957.008254121989012 ] ] ], [ [ [ 656943.891915069427341, 4560563.825270602479577 ], [ 657130.937191875418648, 4561568.174737589433789 ], [ 660126.612809196230955, 4561633.329711408354342 ], [ 659752.861023039906286, 4559624.503737980499864 ], [ 657755.539904053439386, 4559581.055817455053329 ], [ 657942.500322605948895, 4560585.375412316061556 ], [ 656943.891915069427341, 4560563.825270602479577 ] ] ], [ [ [ 649329.994305620086379, 4562404.609086537733674 ], [ 648955.057004602625966, 4560396.348596443422139 ], [ 647956.456598045770079, 4560376.029536832123995 ], [ 647768.988507640780881, 4559372.021949708461761 ], [ 641777.099364301771857, 4559253.165592364035547 ], [ 642152.679006646387279, 4561260.870129730552435 ], [ 643151.223563463543542, 4561280.399471737444401 ], [ 643339.014084799680859, 4562284.374068966135383 ], [ 644337.508680021273904, 4562304.071163409389555 ], [ 644525.282699062954634, 4563308.137731395661831 ], [ 645523.727320794481784, 4563328.002659395337105 ], [ 645711.484800280537456, 4564332.161297393962741 ], [ 647708.274918465176597, 4564372.363873807713389 ], [ 647520.61909191601444, 4563368.143094860948622 ], [ 648519.066252768971026, 4563388.418606516905129 ], [ 648331.49547475320287, 4562384.22783481888473 ], [ 649329.994305620086379, 4562404.609086537733674 ] ] ], [ [ [ 644713.09100388828665, 4564312.265343579463661 ], [ 644525.282699062954634, 4563308.137731395661831 ], [ 643526.838912240229547, 4563288.409660450182855 ], [ 643714.698041669558734, 4564292.506276588886976 ], [ 644713.09100388828665, 4564312.265343579463661 ] ] ], [ [ [ 681024.48229488322977, 4502185.584273566491902 ], [ 680841.23380541219376, 4501183.779392892494798 ], [ 673829.620757633121684, 4501016.543520376086235 ], [ 674013.218181207077578, 4502018.130582878366113 ], [ 680022.86963921552524, 4502161.256968561559916 ], [ 680206.201765168458223, 4503163.09073300473392 ], [ 681207.76455410651397, 4503187.44926328305155 ], [ 681391.080578882945701, 4504189.374391755089164 ], [ 682392.594665827229619, 4504213.89934918936342 ], [ 682209.328524859738536, 4503211.942946530878544 ], [ 683210.893683907925151, 4503236.57178533822298 ], [ 683027.711161232553422, 4502234.644255789928138 ], [ 681024.48229488322977, 4502185.584273566491902 ] ] ], [ [ [ 697415.452059198287316, 4504597.997435325756669 ], [ 697050.450064303469844, 4502593.199703248217702 ], [ 696048.817704649409279, 4502566.710108460858464 ], [ 695683.850038234260865, 4500562.217384883202612 ], [ 694682.119240162312053, 4500535.92624001018703 ], [ 694864.636158192297444, 4501538.110784866847098 ], [ 692861.278082522563636, 4501485.870617908425629 ], [ 692496.078434122027829, 4499481.68816326931119 ], [ 691494.301613069255836, 4499455.833838609978557 ], [ 691676.934476158698089, 4500457.863401156850159 ], [ 690675.208743205294013, 4500432.112644284032285 ], [ 690857.92505428660661, 4501434.170952582731843 ], [ 688854.577021521981806, 4501383.011767016723752 ], [ 689220.30995510017965, 4503387.183231743052602 ], [ 691223.458512099226937, 4503438.468411396257579 ], [ 691406.275650301133282, 4504440.707621475681663 ], [ 694410.858163249329664, 4504518.744049394503236 ], [ 694593.559165622340515, 4505521.138482470996678 ], [ 697598.003314418718219, 4505600.48699941392988 ], [ 697780.588069068267941, 4506603.037068692967296 ], [ 698782.022074878914282, 4506629.78887121938169 ], [ 698964.590374147985131, 4507632.4312839563936 ], [ 699965.975716282264329, 4507659.350213037803769 ], [ 699600.972484045429155, 4505654.062284715473652 ], [ 698599.487254562787712, 4505627.207012786529958 ], [ 698416.985917523619719, 4504624.685678747482598 ], [ 697415.452059198287316, 4504597.997435325756669 ] ] ], [ [ [ 716808.060663572978228, 4507134.458436260931194 ], [ 716626.424888874404132, 4506131.299272254109383 ], [ 713621.904680964769796, 4506044.239855558611453 ], [ 713985.509211135911755, 4508050.425248176790774 ], [ 712984.105180698796175, 4508021.611559404060245 ], [ 712802.236326854676008, 4507018.520697603933513 ], [ 710799.332451815251261, 4506961.363817151635885 ], [ 710617.396945325890556, 4505958.398162613622844 ], [ 709615.897108412813395, 4505930.054856098257005 ], [ 709797.88256518333219, 4506932.98836353700608 ], [ 707794.986861619283445, 4506876.643414543010294 ], [ 707612.901508473209105, 4505873.774111773818731 ], [ 706611.405732588842511, 4505845.836668016389012 ], [ 706793.541031855973415, 4506848.673913209699094 ], [ 704790.653384278644808, 4506793.140842095948756 ], [ 704608.418196839629672, 4505790.367622549645603 ], [ 702605.435972901759669, 4505735.439680298790336 ], [ 702423.134321248391643, 4504732.7909683175385 ], [ 701421.595261853653938, 4504705.561792843043804 ], [ 701786.331846491899341, 4506710.856020404025912 ], [ 702787.771043171756901, 4506738.148993515409529 ], [ 703152.541422144975513, 4508743.74954342469573 ], [ 704153.882002528291196, 4508771.241750538349152 ], [ 703971.530081220087595, 4507768.379168314859271 ], [ 710981.301242933375761, 4507964.390256722457707 ], [ 711163.30331426858902, 4508967.477511339820921 ], [ 712164.654613942839205, 4508996.05269998498261 ], [ 712346.639960680971853, 4509999.23303438257426 ], [ 713347.942627181531861, 4510027.975873704999685 ], [ 713166.007282284437679, 4509024.763274753466249 ], [ 716170.073563176905736, 4509111.707346182316542 ], [ 715806.60249003674835, 4507105.270996749401093 ], [ 716808.060663572978228, 4507134.458436260931194 ] ] ], [ [ [ 718992.550234786816873, 4508196.524188538081944 ], [ 718810.981227813637815, 4507193.239343462511897 ], [ 716808.060663572978228, 4507134.458436260931194 ], [ 716989.729625447886065, 4508137.678500790148973 ], [ 718992.550234786816873, 4508196.524188538081944 ] ] ], [ [ [ 701149.864188401028514, 4508689.171204736456275 ], [ 700967.362351646181196, 4507686.404463150538504 ], [ 699965.975716282264329, 4507659.350213037803769 ], [ 700148.527522246935405, 4508662.085067397914827 ], [ 701149.864188401028514, 4508689.171204736456275 ] ] ], [ [ [ 714440.252557580010034, 4516048.531708192080259 ], [ 714258.117846050532535, 4515044.95317554846406 ], [ 713257.065432705567218, 4515016.048724252730608 ], [ 713439.250243705231696, 4516019.594876604154706 ], [ 712438.249288294115104, 4515990.793640177696943 ], [ 712985.153466139920056, 4519001.701501657254994 ], [ 711984.304250236833468, 4518972.938779772259295 ], [ 712166.72227334312629, 4519976.664588286541402 ], [ 714168.32172798877582, 4520034.390539399348199 ], [ 713986.004029794596136, 4519030.59990528319031 ], [ 715987.70922539383173, 4519088.803769956342876 ], [ 715441.256236216984689, 4516077.604137995280325 ], [ 714440.252557580010034, 4516048.531708192080259 ] ] ], [ [ [ 681246.669752382091247, 4525144.36038601770997 ], [ 680878.253487916663289, 4523138.284032359719276 ], [ 679877.695991255692206, 4523113.839932696893811 ], [ 680246.212673372821882, 4525119.853247176855803 ], [ 681246.669752382091247, 4525144.36038601770997 ] ] ], [ [ [ 706258.481101428507827, 4525801.180098730139434 ], [ 706624.519473736407235, 4527809.096627992577851 ], [ 708625.296775478404015, 4527865.439416857436299 ], [ 708442.361491756979376, 4526861.385818181559443 ], [ 707441.921911779441871, 4526833.178832499310374 ], [ 707258.969654550077394, 4525829.218860373832285 ], [ 706258.481101428507827, 4525801.180098730139434 ] ] ], [ [ [ 679245.756721285637468, 4525095.481903560459614 ], [ 679430.115926074329764, 4526098.548077343031764 ], [ 678429.71132563916035, 4526074.281037414446473 ], [ 678245.301889918511733, 4525071.246352602727711 ], [ 677244.848173066275194, 4525047.146591754630208 ], [ 677429.30783866182901, 4526050.149817386642098 ], [ 676428.905458952998742, 4526026.154414722695947 ], [ 676613.449166860431433, 4527029.186863975599408 ], [ 675613.098132181097753, 4527005.295857232064009 ], [ 675797.725909450207837, 4528008.35755131393671 ], [ 677798.328557573142461, 4528056.338315712288022 ], [ 677613.801301578525454, 4527053.213715347461402 ], [ 680614.864367753383704, 4527126.109362577088177 ], [ 680246.212673372821882, 4525119.853247176855803 ], [ 679245.756721285637468, 4525095.481903560459614 ] ] ], [ [ [ 682495.257980828755535, 4548156.45252148155123 ], [ 682310.106347753899172, 4547152.075644193217158 ], [ 681310.761432919185609, 4547127.279305317439139 ], [ 681495.96365308878012, 4548131.624296433292329 ], [ 682495.257980828755535, 4548156.45252148155123 ] ] ], [ [ [ 680867.277174157323316, 4550115.742800451815128 ], [ 680681.95693371957168, 4549111.306998069398105 ], [ 679682.715367033495568, 4549086.719871102832258 ], [ 679868.086224870756269, 4550091.123807986266911 ], [ 677869.707526902551763, 4550042.295404044911265 ], [ 678055.213375723222271, 4551046.697020414285362 ], [ 679054.351561808027327, 4551071.07478507515043 ], [ 679239.840518186334521, 4552075.569597742520273 ], [ 681238.018782715080306, 4552124.798574252054095 ], [ 681052.631125267595053, 4551120.239982347935438 ], [ 682051.772514383425005, 4551145.027420103549957 ], [ 681866.469198157428764, 4550140.498323346488178 ], [ 680867.277174157323316, 4550115.742800451815128 ] ] ], [ [ [ 698222.711946313735098, 4552565.306319587863982 ], [ 697669.23298396426253, 4549550.174901662394404 ], [ 694671.454515259480104, 4549469.86053413618356 ], [ 695040.710935093346052, 4551479.692295428365469 ], [ 694041.55505606753286, 4551453.129332891665399 ], [ 694226.284151628613472, 4552458.105400971136987 ], [ 696224.495728717418388, 4552511.432599135674536 ], [ 696039.867969756014645, 4551506.39185584988445 ], [ 697039.026165911462158, 4551533.228016952052712 ], [ 697223.603254530462436, 4552538.301142671145499 ], [ 698222.711946313735098, 4552565.306319587863982 ] ] ], [ [ [ 693227.180088666034862, 4552431.646740764379501 ], [ 693411.993356088758446, 4553436.65219116769731 ], [ 694411.046736364718527, 4553463.143163713626564 ], [ 694226.284151628613472, 4552458.105400971136987 ], [ 693227.180088666034862, 4552431.646740764379501 ] ] ], [ [ [ 679168.957178588258103, 4557074.396166771650314 ], [ 678983.248862850712612, 4556069.625984006561339 ], [ 677984.365128973149695, 4556045.225501507520676 ], [ 678170.124172970536165, 4557049.963771543465555 ], [ 679168.957178588258103, 4557074.396166771650314 ] ] ], [ [ [ 674479.010280753718689, 4563963.628156202845275 ], [ 674292.760911495191976, 4562958.618438832461834 ], [ 673294.238750867778435, 4562934.815567371435463 ], [ 673480.538956074160524, 4563939.793414011597633 ], [ 674479.010280753718689, 4563963.628156202845275 ] ] ] ] } }
]
}
