{
"type": "FeatureCollection",
"name": "urban-1990",
"crs": { "type": "name", "properties": { "name": "urn:ogc:def:crs:EPSG::32635" } },
"features": [
{ "type": "Feature", "properties": { "year": 1990 }, "geometry": { "type": "MultiPolygon", "coordinates": [ [ [ [ 627971.224863899755292, 4544003.049923156388104 ], [ 625972.433818072080612, 4543968.443723156116903 ], [ 626160.347700464306399, 4544970.960405262187123 ], [ 625161.003827610635199, 4544953.83152047265321 ], [ 625349.002835971419699, 4545956.378211543895304 ], [ 626348.296182938152924, 4545973.537296311929822 ], [ 626536.279261538526043, 4546976.174426280893385 ], [ 627535.52282338810619, 4546993.500082739628851 ], [ 627159.692330999416299, 4544988.225583021529019 ], [ 628159.037725191330537, 4545005.627055559307337 ], [ 627971.224863899755292, 4544003.049923156388104 ] ] ], [ [ [ 602123.370193398674019, 4549593.373528524301946 ], [ 601934.018707664567046, 4548591.303537647239864 ], [ 603932.26994351844769, 4548619.392766447737813 ], [ 604121.520263875601813, 4549621.521918222308159 ], [ 606119.672811484662816, 4549650.215921726077795 ], [ 605930.523657192243263, 4548648.027490526437759 ], [ 606929.651458053151146, 4548662.549417031928897 ], [ 606740.587790990713984, 4547660.3912432519719 ], [ 609738.126744359382428, 4547704.686126615852118 ], [ 609549.249640700756572, 4546702.498750272206962 ], [ 616543.884284109342843, 4546810.416948407888412 ], [ 616355.395804749103263, 4545808.080676363781095 ], [ 617354.682605008361861, 4545824.012936379760504 ], [ 617166.279404108528979, 4544821.706776769831777 ], [ 613168.934276763349771, 4544758.915115844458342 ], [ 613357.539565566927195, 4545761.101721682585776 ], [ 607361.845277063082904, 4545670.82388046104461 ], [ 607550.788589062984101, 4546672.891916446387768 ], [ 603553.874161661253311, 4546615.314083731733263 ], [ 603743.054574842215516, 4547617.323498231358826 ], [ 602743.878083302639425, 4547603.240273588337004 ], [ 602554.647119175759144, 4546601.260415684431791 ], [ 600556.194869702216238, 4546573.562017398886383 ], [ 600745.526935287052765, 4547575.482850980013609 ], [ 598747.17819435056299, 4547548.270787611603737 ], [ 598557.745027800439857, 4546546.408859878778458 ], [ 595560.074674758361652, 4546506.701425218954682 ], [ 595370.524943836033344, 4545504.987303550355136 ], [ 591373.436984028317966, 4545454.06931971013546 ], [ 591563.188851768150926, 4546455.666417459025979 ], [ 593561.630643001175486, 4546480.911320358514786 ], [ 593751.316560482024215, 4547482.626501653343439 ], [ 595749.659492056933232, 4547508.475216272287071 ], [ 596128.934370739967562, 4549512.201925582252443 ], [ 597128.005543589824811, 4549525.389537918381393 ], [ 596938.401146745774895, 4548523.466930883005261 ], [ 600934.894004075555131, 4548577.463480294682086 ], [ 601124.296072272933088, 4549579.503935161046684 ], [ 602123.370193398674019, 4549593.373528524301946 ] ] ], [ [ [ 628910.634811200317927, 4549016.538361860439181 ], [ 628722.683701515663415, 4548013.720058757811785 ], [ 627723.489935780875385, 4547996.227750036865473 ], [ 627911.491620347718708, 4548999.015735647641122 ], [ 628910.634811200317927, 4549016.538361860439181 ] ] ], [ [ [ 633906.362399533041753, 4549106.197760838083923 ], [ 633718.664171845070086, 4548103.227424744516611 ], [ 632719.46650577778928, 4548085.053169006481767 ], [ 632907.215310919331387, 4549087.99303908739239 ], [ 633906.362399533041753, 4549106.197760838083923 ] ] ], [ [ [ 626912.349191281013191, 4548981.629522984847426 ], [ 626724.296932307304814, 4547978.871825167909265 ], [ 625725.104685158003122, 4547961.652282335795462 ], [ 626101.344951265491545, 4549967.167471338994801 ], [ 625102.254617519909516, 4549950.023832527920604 ], [ 625667.026343856356107, 4552958.658378520980477 ], [ 626665.964812808437273, 4552975.892877146601677 ], [ 626289.516980763059109, 4550970.015560242347419 ], [ 628287.598690110491589, 4551004.772782002575696 ], [ 627911.491620347718708, 4548999.015735647641122 ], [ 626912.349191281013191, 4548981.629522984847426 ] ] ], [ [ [ 634469.663897730410099, 4552115.471678151749074 ], [ 634281.862266494776122, 4551112.31985742598772 ], [ 633282.81638100114651, 4551094.0541454218328 ], [ 633470.668637916329317, 4552097.175441890023649 ], [ 634469.663897730410099, 4552115.471678151749074 ] ] ], [ [ [ 648455.683750334545039, 4552385.953843919560313 ], [ 648268.590944190626033, 4551382.371561776846647 ], [ 647269.533375952392817, 4551362.194890603423119 ], [ 647456.676816911669448, 4552365.746232164092362 ], [ 648455.683750334545039, 4552385.953843919560313 ] ] ], [ [ [ 647643.854508044780232, 4553369.358381691388786 ], [ 647456.676816911669448, 4552365.746232164092362 ], [ 645458.665560241090134, 4552325.740626837126911 ], [ 645645.944551115855575, 4553329.290945541113615 ], [ 647643.854508044780232, 4553369.358381691388786 ] ] ], [ [ [ 665625.206570946378633, 4553754.549967829138041 ], [ 665438.940723420586437, 4552750.375981797464192 ], [ 664439.91806802386418, 4552727.846853386610746 ], [ 664626.23458111518994, 4553731.989373059943318 ], [ 665625.206570946378633, 4553754.549967829138041 ] ] ], [ [ [ 648829.972060535452329, 4554393.300920781679451 ], [ 649017.16755634220317, 4555397.065776072442532 ], [ 650016.023363927612081, 4555417.502957894466817 ], [ 649641.767950070439838, 4553409.972097269259393 ], [ 647643.854508044780232, 4553369.358381691388786 ], [ 647831.066445235395804, 4554373.031369457952678 ], [ 648829.972060535452329, 4554393.300920781679451 ] ] ], [ [ [ 625044.877432711538859, 4554947.558161914348602 ], [ 624856.465718649327755, 4553944.529073807410896 ], [ 625855.352792154531926, 4553961.657341263256967 ], [ 625667.026343856356107, 4552958.658378520980477 ], [ 622670.215366782969795, 4552907.774036944843829 ], [ 622481.7716086988803, 4551904.92622450646013 ], [ 621482.785437464364804, 4551888.268010077998042 ], [ 621671.279831437626854, 4552891.085635269992054 ], [ 620672.345014805789106, 4552874.533753437921405 ], [ 620860.924724900862202, 4553877.381534428335726 ], [ 621859.808890021638945, 4553893.963593229651451 ], [ 622048.372609270736575, 4554896.901914024725556 ], [ 621049.539111695368774, 4554880.289658835157752 ], [ 621615.590292827342637, 4557889.376393486745656 ], [ 622614.271691493457183, 4557906.079354428686202 ], [ 622425.604013962089084, 4556902.959764506667852 ], [ 624423.070399607415311, 4556936.715094580315053 ], [ 624046.04176392883528, 4554930.536163805983961 ], [ 625044.877432711538859, 4554947.558161914348602 ] ] ], [ [ [ 652825.603343908209354, 4554475.74516480974853 ], [ 653199.623010226408951, 4556483.584459062665701 ], [ 654198.431675065308809, 4556504.599355738610029 ], [ 654011.45546696940437, 4555500.618043105117977 ], [ 655010.315740054822527, 4555521.738414745777845 ], [ 654823.424360705306754, 4554517.786940281279385 ], [ 652825.603343908209354, 4554475.74516480974853 ] ] ], [ [ [ 625610.320210368023254, 4557957.008254121989012 ], [ 625421.804682546295226, 4556953.797721930779517 ], [ 624423.070399607415311, 4556936.715094580315053 ], [ 624611.636644452577457, 4557939.895282980054617 ], [ 625610.320210368023254, 4557957.008254121989012 ] ] ], [ [ [ 649329.994305620086379, 4562404.609086537733674 ], [ 648955.057004602625966, 4560396.348596443422139 ], [ 646957.857051653787494, 4560355.847253323532641 ], [ 646770.3381984900916, 4559351.870703184045851 ], [ 644773.040139853139408, 4559311.978440722450614 ], [ 644960.660516288131475, 4560315.893006195314229 ], [ 643962.063515773508698, 4560296.121038405224681 ], [ 643774.392378800199367, 4559292.237420620396733 ], [ 641777.099364301771857, 4559253.165592364035547 ], [ 641964.872020222945139, 4560256.987404053099453 ], [ 642963.467352342093363, 4560276.4858383750543 ], [ 643339.014084799680859, 4562284.374068966135383 ], [ 644337.508680021273904, 4562304.071163409389555 ], [ 644525.282699062954634, 4563308.137731395661831 ], [ 645523.727320794481784, 4563328.002659395337105 ], [ 645711.484800280537456, 4564332.161297393962741 ], [ 647708.274918465176597, 4564372.363873807713389 ], [ 647520.61909191601444, 4563368.143094860948622 ], [ 648519.066252768971026, 4563388.418606516905129 ], [ 648331.49547475320287, 4562384.22783481888473 ], [ 649329.994305620086379, 4562404.609086537733674 ] ] ], [ [ [ 683027.711161232553422, 4502234.644255789928138 ], [ 681024.48229488322977, 4502185.584273566491902 ], [ 680841.23380541219376, 4501183.779392892494798 ], [ 673829.620757633121684, 4501016.543520376086235 ], [ 674013.218181207077578, 4502018.130582878366113 ], [ 680022.86963921552524, 4502161.256968561559916 ], [ 680206.201765168458223, 4503163.09073300473392 ], [ 681207.76455410651397, 4503187.44926328305155 ], [ 681391.080578882945701, 4504189.374391755089164 ], [ 682392.594665827229619, 4504213.89934918936342 ], [ 682209.328524859738536, 4503211.942946530878544 ], [ 683210.893683907925151, 4503236.57178533822298 ], [ 683027.711161232553422, 4502234.644255789928138 ] ] ], [ [ [ 697415.452059198287316, 4504597.997435325756669 ], [ 697050.450064303469844, 4502593.199703248217702 ], [ 696048.817704649409279, 4502566.710108460858464 ], [ 695866.317105049965903, 4501564.433563356287777 ], [ 692861.278082522563636, 4501485.870617908425629 ], [ 692678.661465631099418, 4500483.749250907450914 ], [ 690675.208743205294013, 4500432.112644284032285 ], [ 690857.92505428660661, 4501434.170952582731843 ], [ 688854.577021521981806, 4501383.011767016723752 ], [ 689220.30995510017965, 4503387.183231743052602 ], [ 691223.458512099226937, 4503438.468411396257579 ], [ 691406.275650301133282, 4504440.707621475681663 ], [ 694410.858163249329664, 4504518.744049394503236 ], [ 694593.559165622340515, 4505521.138482470996678 ], [ 697598.003314418718219, 4505600.48699941392988 ], [ 697780.588069068267941, 4506603.037068692967296 ], [ 698782.022074878914282, 4506629.78887121938169 ], [ 698964.590374147985131, 4507632.4312839563936 ], [ 699965.975716282264329, 4507659.350213037803769 ], [ 699600.972484045429155, 4505654.062284715473652 ], [ 698599.487254562787712, 4505627.207012786529958 ], [ 698416.985917523619719, 4504624.685678747482598 ], [ 697415.452059198287316, 4504597.997435325756669 ] ] ], [ [ [ 704790.653384278644808, 4506793.140842095948756 ], [ 704608.418196839629672, 4505790.367622549645603 ], [ 702605.435972901759669, 4505735.439680298790336 ], [ 702423.134321248391643, 4504732.7909683175385 ], [ 701421.595261853653938, 4504705.561792843043804 ], [ 701786.331846491899341, 4506710.856020404025912 ], [ 702787.771043171756901, 4506738.148993515409529 ], [ 703152.541422144975513, 4508743.74954342469573 ], [ 704153.882002528291196, 4508771.241750538349152 ], [ 703971.530081220087595, 4507768.379168314859271 ], [ 705974.315151266986504, 4507823.705629683099687 ], [ 705792.096541549195535, 4506820.839723373763263 ], [ 704790.653384278644808, 4506793.140842095948756 ] ] ], [ [ [ 712802.236326854676008, 4507018.520697603933513 ], [ 709797.88256518333219, 4506932.98836353700608 ], [ 709979.90132280474063, 4507935.982636769302189 ], [ 710981.301242933375761, 4507964.390256722457707 ], [ 711163.30331426858902, 4508967.477511339820921 ], [ 716170.073563176905736, 4509111.707346182316542 ], [ 715806.60249003674835, 4507105.270996749401093 ], [ 716808.060663572978228, 4507134.458436260931194 ], [ 716626.424888874404132, 4506131.299272254109383 ], [ 714623.410022562020458, 4506073.12435441929847 ], [ 714986.91462447529193, 4508079.374299290589988 ], [ 712984.105180698796175, 4508021.611559404060245 ], [ 712802.236326854676008, 4507018.520697603933513 ] ] ], [ [ [ 716989.729625447886065, 4508137.678500790148973 ], [ 718992.550234786816873, 4508196.524188538081944 ], [ 718810.981227813637815, 4507193.239343462511897 ], [ 716808.060663572978228, 4507134.458436260931194 ], [ 716989.729625447886065, 4508137.678500790148973 ] ] ], [ [ [ 714440.252557580010034, 4516048.531708192080259 ], [ 714258.117846050532535, 4515044.95317554846406 ], [ 713257.065432705567218, 4515016.048724252730608 ], [ 713439.250243705231696, 4516019.594876604154706 ], [ 712438.249288294115104, 4515990.793640177696943 ], [ 712985.153466139920056, 4519001.701501657254994 ], [ 714986.855947460047901, 4519059.633993697352707 ], [ 714804.62161274952814, 4518055.87208706419915 ], [ 715805.525040563428774, 4518085.00939517095685 ], [ 715441.256236216984689, 4516077.604137995280325 ], [ 714440.252557580010034, 4516048.531708192080259 ] ] ], [ [ [ 681246.669752382091247, 4525144.36038601770997 ], [ 680878.253487916663289, 4523138.284032359719276 ], [ 679877.695991255692206, 4523113.839932696893811 ], [ 680246.212673372821882, 4525119.853247176855803 ], [ 681246.669752382091247, 4525144.36038601770997 ] ] ], [ [ [ 701439.311361029860564, 4526666.790710144676268 ], [ 701622.59859966521617, 4527670.618321190588176 ], [ 702622.980241347337142, 4527698.042146776802838 ], [ 702256.539705830393359, 4525690.383692056871951 ], [ 700255.576611646800302, 4525635.800631906837225 ], [ 700438.880699866684154, 4526639.534961143508554 ], [ 701439.311361029860564, 4526666.790710144676268 ] ] ], [ [ [ 679245.756721285637468, 4525095.481903560459614 ], [ 679430.115926074329764, 4526098.548077343031764 ], [ 676428.905458952998742, 4526026.154414722695947 ], [ 676613.449166860431433, 4527029.186863975599408 ], [ 675613.098132181097753, 4527005.295857232064009 ], [ 675797.725909450207837, 4528008.35755131393671 ], [ 677798.328557573142461, 4528056.338315712288022 ], [ 677613.801301578525454, 4527053.213715347461402 ], [ 680614.864367753383704, 4527126.109362577088177 ], [ 680246.212673372821882, 4525119.853247176855803 ], [ 679245.756721285637468, 4525095.481903560459614 ] ] ], [ [ [ 704806.91707585810218, 4528757.283054595813155 ], [ 704623.747312100138515, 4527753.29754578974098 ], [ 702622.980241347337142, 4527698.042146776802838 ], [ 702806.25059204082936, 4528701.963138518854976 ], [ 704806.91707585810218, 4528757.283054595813155 ] ] ], [ [ [ 629158.383889015181921, 4545023.164824699983001 ], [ 630157.730828444124199, 4545040.838892278261483 ], [ 630345.477202770416625, 4546043.536880133673549 ], [ 631344.774395526736043, 4546061.377596441656351 ], [ 631157.078549451660365, 4545058.649260147474706 ], [ 632156.427058010944165, 4545076.595930173061788 ], [ 631781.239939190680161, 4543071.25944671779871 ], [ 632780.69025172770489, 4543089.281663212925196 ], [ 633155.776360093150288, 4545094.678904234431684 ], [ 634155.126461669919081, 4545112.898184226825833 ], [ 633780.141364818322472, 4543107.440126232802868 ], [ 634779.593284459318966, 4543125.734837681055069 ], [ 634967.018096682731993, 4544128.464128253050148 ], [ 635966.420330040156841, 4544146.925548260100186 ], [ 636153.829087189980783, 4545149.745669648982584 ], [ 635154.477368712541647, 4545131.253772057592869 ], [ 635529.499276144080795, 4547137.014239519834518 ], [ 634530.249445910565555, 4547118.597697793506086 ], [ 634905.510285461088642, 4549124.538907354697585 ], [ 633906.362399533041753, 4549106.197760838083923 ], [ 634281.862266494776122, 4551112.31985742598772 ], [ 636279.956431954051368, 4551149.260735954158008 ], [ 636092.290485446457751, 4550146.108341400511563 ], [ 637091.389388524112292, 4550164.752917796373367 ], [ 637279.004723705351353, 4551167.935906342230737 ], [ 639277.103754711919464, 4551205.695719138719141 ], [ 639089.58964400284458, 4550202.451453424990177 ], [ 640088.691008210880682, 4550221.505416605621576 ], [ 639901.261881961720064, 4549218.291079124435782 ], [ 644897.034298901329748, 4549315.454164071008563 ], [ 644709.89246253145393, 4548312.146740208379924 ], [ 645709.100094369845465, 4548331.957866249606013 ], [ 646083.316875864868052, 4550338.695057295262814 ], [ 648081.532376175513491, 4550378.850076801143587 ], [ 648268.590944190626033, 4551382.371561776846647 ], [ 649267.649391065700911, 4551402.684745401144028 ], [ 649454.691561646061018, 4552406.297997886314988 ], [ 651452.709841411560774, 4552447.395940968766809 ], [ 651639.684924056869932, 4553451.132109262049198 ], [ 652638.644750177394599, 4553471.916981785558164 ], [ 651891.152068321011029, 4549457.213302897289395 ], [ 653889.479476164327934, 4549498.944035396911204 ], [ 654076.200170907774009, 4550502.590788445435464 ], [ 655075.314637270988896, 4550523.691962421871722 ], [ 655448.75719385012053, 4552531.230428227223456 ], [ 654449.743991957628168, 4552510.066975821740925 ], [ 654823.424360705306754, 4554517.786940281279385 ], [ 655822.336233328678645, 4554539.012749034911394 ], [ 655635.529655311605893, 4553535.091091589070857 ], [ 656634.493118793121539, 4553556.422299607656896 ], [ 656821.249023221665993, 4554560.375174755230546 ], [ 657820.162736224825494, 4554581.87421967741102 ], [ 657633.457506247912534, 4553577.890097040683031 ], [ 660630.356270962976851, 4553643.113048350438476 ], [ 660443.837105095852166, 4552639.096096079796553 ], [ 661442.855908748228103, 4552661.078926611691713 ], [ 661256.421428094385192, 4551657.091707866638899 ], [ 662255.491832375177182, 4551679.179751930758357 ], [ 662069.142009596573189, 4550675.222245530225337 ], [ 663068.264005992212333, 4550697.415465337224305 ], [ 663440.896384351537563, 4552705.454302943311632 ], [ 664439.91806802386418, 4552727.846853386610746 ], [ 664253.635529622202739, 4551723.765472889877856 ], [ 666251.783117595361546, 4551768.897386526688933 ], [ 666810.428656303673051, 4554781.513863541185856 ], [ 668808.276173784164712, 4554827.381234050728381 ], [ 668994.457825220539235, 4555831.772323772311211 ], [ 669993.332368614268489, 4555854.942603153176606 ], [ 670365.695904667605646, 4557863.972046825103462 ], [ 669366.922814390156418, 4557840.738459509797394 ], [ 669739.523356794961728, 4559849.950073719024658 ], [ 670738.194928719080053, 4559873.247047189623117 ], [ 671110.829406462493353, 4561882.767848686315119 ], [ 670112.259418181842193, 4561859.407410772517323 ], [ 670298.678257772466168, 4562864.228301811031997 ], [ 668301.642862454173155, 4562817.854557600803673 ], [ 668674.785494917538017, 4564827.553952793590724 ], [ 669673.201025624293834, 4564850.735845879651606 ], [ 669486.663608649279922, 4563845.823650208301842 ], [ 670485.130964233423583, 4563869.110715331509709 ], [ 670671.617533264798112, 4564874.054681962355971 ], [ 671670.035023539094254, 4564897.51046347245574 ], [ 671297.197429729858413, 4562887.620501324534416 ], [ 672295.717592187342234, 4562911.149589026346803 ], [ 671923.117018938413821, 4560901.442231920547783 ], [ 673920.363581695593894, 4560948.783776093274355 ], [ 674106.545343701494858, 4561953.670322343707085 ], [ 675105.119332700502127, 4561977.578208425082266 ], [ 674918.988375038723461, 4560972.659800796769559 ], [ 675917.614184022531845, 4560996.672663897275925 ], [ 675731.56780922668986, 4559991.783943837508559 ], [ 673734.215629798010923, 4559943.958769459277391 ], [ 673548.10149232367985, 4558939.195271831937134 ], [ 676544.283610650571063, 4559011.042692570015788 ], [ 675986.600788637064397, 4555996.834631710313261 ], [ 677984.365128973149695, 4556045.225501507520676 ], [ 677798.639834980247542, 4555040.548715994693339 ], [ 680795.44633229332976, 4555114.064502397552133 ], [ 680424.401143012917601, 4553104.703900582157075 ], [ 678426.32633493875619, 4553055.684337972663343 ], [ 678240.752979841548949, 4552051.159988228231668 ], [ 677241.666496298508719, 4552026.886961130425334 ], [ 677056.076245571486652, 4551022.455808332189918 ], [ 676056.940165480249561, 4550998.351146289147437 ], [ 675685.759741085348651, 4548989.736317823641002 ], [ 676684.997063248883933, 4549013.777468046173453 ], [ 676499.508140265359543, 4548009.530219645239413 ], [ 677498.797112411935814, 4548033.676103755831718 ], [ 677313.39255535940174, 4547029.458358945325017 ], [ 678312.733169327140786, 4547053.708939304575324 ], [ 677942.126493307645433, 4545045.393633059225976 ], [ 678941.56929202855099, 4545069.717114347033203 ], [ 678756.36713393451646, 4544065.619520723819733 ], [ 679755.861543076462112, 4544090.047612641006708 ], [ 679941.013165262527764, 4545094.176974307745695 ], [ 681939.904159061261453, 4545143.505840517580509 ], [ 682310.106347753899172, 4547152.075644193217158 ], [ 684308.799453402752988, 4547202.077662812545896 ], [ 684123.782656462863088, 4546197.698289759457111 ], [ 685123.181433450547047, 4546222.872018530964851 ], [ 684938.248857280937955, 4545218.522044418379664 ], [ 685937.69930247287266, 4545243.800230740569532 ], [ 686307.496966484002769, 4547252.625486736185849 ], [ 687306.847390605835244, 4547278.104082294739783 ], [ 687491.746070316876285, 4548282.640838155522943 ], [ 688491.047019705525599, 4548308.287958275526762 ], [ 688860.843952146125957, 4550317.61005502473563 ], [ 690859.246746568707749, 4550369.442330867983401 ], [ 690674.432746089994907, 4549364.686231664381921 ], [ 689675.180155479931273, 4549338.733980666846037 ], [ 688751.36061214376241, 4544316.03656505048275 ], [ 690750.372739675687626, 4544367.756389899179339 ], [ 690381.282116526504979, 4542358.979033750481904 ], [ 691380.890949681052007, 4542384.979321649298072 ], [ 691196.446486193104647, 4541380.650616472586989 ], [ 692196.106977592571639, 4541406.75513028819114 ], [ 691827.419673268916085, 4539398.217570698820055 ], [ 692827.182286380440928, 4539424.394184399396181 ], [ 692458.730061342474073, 4537416.037698016501963 ], [ 694458.460602728649974, 4537468.671229971572757 ], [ 694274.385644790600054, 4536464.5207370352 ], [ 695274.303117752191611, 4536491.009659755975008 ], [ 695090.31208030146081, 4535486.888331680558622 ], [ 694090.344197486294433, 4535460.431509259156883 ], [ 693906.336265196790919, 4534456.403516292572021 ], [ 695906.374013947322965, 4534509.389097854495049 ], [ 695538.660190901136957, 4532501.388428336940706 ], [ 694538.539977734792046, 4532474.891751507297158 ], [ 694354.682961412356235, 4531471.015258369036019 ], [ 695354.853520524688065, 4531497.479882723651826 ], [ 695171.080350086209364, 4530493.632489462383091 ], [ 694170.859461313229986, 4530467.19989818148315 ], [ 693987.069481808692217, 4529463.445640672929585 ], [ 692986.799482095404528, 4529437.181012288667262 ], [ 692802.992731704725884, 4528433.519791659899056 ], [ 693803.313027260242961, 4528459.752455587498844 ], [ 693619.590102030313574, 4527456.12031268235296 ], [ 696620.709081910783425, 4527535.537817520089447 ], [ 696804.281160775222816, 4528539.265974720008671 ], [ 697804.60630806395784, 4528566.042332840152085 ], [ 698171.750284668756649, 4530573.746165515854955 ], [ 701172.431250232737511, 4530655.083753980696201 ], [ 700622.218212237581611, 4527643.330407701432705 ], [ 697621.084513903479092, 4527562.282111181877553 ], [ 697254.141335783526301, 4525554.944905964657664 ], [ 695253.190656656981446, 4525501.720298438332975 ], [ 695069.668810934294015, 4524498.207237300463021 ], [ 696070.19377209385857, 4524524.719645444303751 ], [ 695886.755658974172547, 4523521.235587228089571 ], [ 696887.332067105220631, 4523547.85181672219187 ], [ 696520.65674281748943, 4521541.002601928077638 ], [ 697521.33477888663765, 4521567.690637066960335 ], [ 697887.909710051026195, 4523574.603827541694045 ], [ 701890.232754210825078, 4523682.96974060125649 ], [ 702256.539705830393359, 4525690.383692056871951 ], [ 703257.023144555278122, 4525717.879003582522273 ], [ 703073.903212426579557, 4524714.109294611029327 ], [ 704074.438165726605803, 4524741.708248972892761 ], [ 704440.610902875196189, 4526749.373262110166252 ], [ 705441.046623503090814, 4526777.172557409852743 ], [ 705074.974395922967233, 4524769.443034532479942 ], [ 707076.050711774267256, 4524825.320110940374434 ], [ 706710.312787334434688, 4522817.70615903288126 ], [ 705709.673534799716435, 4522789.764254024252295 ], [ 705892.576052189804614, 4523793.50838272832334 ], [ 704891.988307175575756, 4523765.670018726959825 ], [ 704526.116201874334365, 4521758.307327136397362 ], [ 707528.184567324700765, 4521842.036304634064436 ], [ 707345.449112367001362, 4520838.349885980598629 ], [ 709346.934917562874034, 4520894.783361916430295 ], [ 708981.76462642592378, 4518887.464674324728549 ], [ 706980.078167840605602, 4518831.160290876403451 ], [ 706797.442687117028981, 4517827.657054039649665 ], [ 705796.551289401948452, 4517799.740558784455061 ], [ 705431.280108276288956, 4515792.981396451592445 ], [ 704430.289793771575205, 4515765.264813194982708 ], [ 704247.654152322793379, 4514762.00873966794461 ], [ 702245.57725297100842, 4514707.046408866532147 ], [ 702062.874854004243389, 4513703.915301646105945 ], [ 699059.618972352938727, 4513622.584212301298976 ], [ 699242.4715666170232, 4514625.619400762021542 ], [ 700243.505515474593267, 4514652.62620888184756 ], [ 700609.210904648993164, 4516658.942884483374655 ], [ 699608.277132023940794, 4516631.872132344171405 ], [ 699791.230094450060278, 4517635.089735589921474 ], [ 698790.347701875958592, 4517608.122596115805209 ], [ 698607.344628302147612, 4516604.93696398101747 ], [ 696605.48340236779768, 4516551.473367241211236 ], [ 697154.893762037740089, 4519561.021157109178603 ], [ 699156.454235337441787, 4519614.676427830010653 ], [ 699339.557686497224495, 4520618.044687625952065 ], [ 692334.46881168615073, 4520432.401957164518535 ], [ 692151.014277461217716, 4519429.257065275683999 ], [ 690149.471031530061737, 4519377.501004218123853 ], [ 690516.614293020102195, 4521383.724448353052139 ], [ 691517.284998400369659, 4521409.598195257596672 ], [ 691700.856838561943732, 4522412.832890059798956 ], [ 690700.23631413304247, 4522386.927343959920108 ], [ 690883.891923069604672, 4523390.191062048077583 ], [ 689883.322793328552507, 4523364.389462157152593 ], [ 690250.835197945591062, 4525371.035850869491696 ], [ 689250.36769766791258, 4525345.306437253020704 ], [ 689434.224532160675153, 4526348.689139967784286 ], [ 686432.979825870133936, 4526272.22053034696728 ], [ 686617.02103508845903, 4527275.568807673640549 ], [ 684616.29756464320235, 4527225.205538629554212 ], [ 684800.472962268744595, 4528228.551249652169645 ], [ 681799.547165093244985, 4528153.930388359352946 ], [ 681983.907089857151732, 4529157.241968699730933 ], [ 679983.396113314083777, 4529108.11098491307348 ], [ 680167.890352482558228, 4530111.420183196663857 ], [ 679167.686837554676458, 4530087.026994057931006 ], [ 679352.26513651269488, 4531090.365438101813197 ], [ 678352.113041533506475, 4531066.076632187701762 ], [ 678536.775427327491343, 4532069.444343225099146 ], [ 677536.674760209745727, 4532045.259958227165043 ], [ 677721.421259901020676, 4533048.65695749502629 ], [ 676721.372028585290536, 4533024.577031111344695 ], [ 676906.202669248217717, 4534028.00333983451128 ], [ 675906.204881703597493, 4534004.027909769676626 ], [ 676091.119690425461158, 4535007.483549176715314 ], [ 674091.2280921934871, 4534959.877832558006048 ], [ 674276.27748255210463, 4535963.33132014516741 ], [ 672276.490923139150254, 4535916.206977367401123 ], [ 672461.674951559514739, 4536919.658384970389307 ], [ 670461.993406633031555, 4536873.015595845878124 ], [ 670647.312129615689628, 4537876.464995278045535 ], [ 669647.523335400503129, 4537853.316392491571605 ], [ 669832.926380502409302, 4538856.795238680206239 ], [ 668833.18904920713976, 4538833.751402844674885 ], [ 669018.676443609176204, 4539837.259716985747218 ], [ 668018.990583434468135, 4539814.320685863494873 ], [ 668575.807676008436829, 4542825.116802317090333 ], [ 667576.274262706749141, 4542802.219830682501197 ], [ 667019.305743144941516, 4539791.517859593033791 ], [ 663020.57646039489191, 4539701.668555397540331 ], [ 662834.786414789268747, 4538698.348030981607735 ], [ 660835.326859719003551, 4538654.302904822863638 ], [ 660649.469987368676811, 4537651.105434693396091 ], [ 658649.913506039883941, 4537607.667143603786826 ], [ 658463.989879169152118, 4536604.592501038685441 ], [ 655464.511190904071555, 4536540.54901057947427 ], [ 655278.470496373716742, 4535537.627926340326667 ], [ 654278.595790645224042, 4535516.583202439360321 ], [ 654092.538870569784194, 4534513.753535305149853 ], [ 652092.691552899545059, 4534472.133980241604149 ], [ 652278.849207181017846, 4535474.901920064352453 ], [ 650279.106353809242137, 4535433.764843692071736 ], [ 650465.398962463252246, 4536436.531587278470397 ], [ 649465.579299933509901, 4536416.136342021636665 ], [ 649651.956524331704713, 4537418.932729483582079 ], [ 647652.420725020347163, 4537378.488953850232065 ], [ 647465.942709443042986, 4536375.754073701798916 ], [ 641467.054377069696784, 4536257.872894987463951 ], [ 641280.308367876568809, 4535255.382091493345797 ], [ 637280.865364447585307, 4535179.637697277590632 ], [ 637467.812868472770788, 4536182.006633319891989 ], [ 640467.242717725923285, 4536238.702247339300811 ], [ 640654.073481171973981, 4537241.222788214683533 ], [ 636655.036928078625351, 4537165.778913307934999 ], [ 636842.103687857394107, 4538168.237829727120697 ], [ 633842.986260534962639, 4538112.992633389309049 ], [ 634217.525646673864685, 4540117.908785295672715 ], [ 633217.922328412649222, 4540099.705243224278092 ], [ 633405.29418737150263, 4541102.223283678293228 ], [ 631406.190868026693352, 4541066.164023833349347 ], [ 631218.718110270798206, 4540063.706635180860758 ], [ 630219.117198318475857, 4540045.911565434187651 ], [ 629844.174409052007832, 4538041.237788764759898 ], [ 627844.773253478924744, 4538006.176939864642918 ], [ 628032.328208075719886, 4539008.423368817195296 ], [ 626033.030998021247797, 4538973.846604843623936 ], [ 626220.721390450722538, 4539976.092804901301861 ], [ 624221.528105948353186, 4539942.000310132279992 ], [ 624409.353994466830045, 4540944.246352615766227 ], [ 623409.808931451058015, 4540927.374246713705361 ], [ 623597.719913300592452, 4541929.650266159325838 ], [ 621598.732945120777003, 4541896.254467851482332 ], [ 621786.77952459466178, 4542898.530432259663939 ], [ 619787.89644835377112, 4542865.619404618628323 ], [ 619976.07868390053045, 4543867.89538523927331 ], [ 616977.910947157652117, 4543819.460651967674494 ], [ 617166.279404108528979, 4544821.706776769831777 ], [ 618165.617430686252192, 4544837.745381193235517 ], [ 618353.970108813489787, 4545840.081503392197192 ], [ 621351.836901184287854, 4545889.105063308961689 ], [ 621163.635793491033837, 4544886.678875346668065 ], [ 623162.31833104591351, 4544919.982622642070055 ], [ 622974.252920285798609, 4543917.55639335885644 ], [ 623973.645804738742299, 4543934.382576314732432 ], [ 623785.665539039531723, 4542931.986366054974496 ], [ 624785.109663096023723, 4542948.918677136301994 ], [ 624597.214514827239327, 4541946.55246498528868 ], [ 626596.20598282921128, 4541980.765470843762159 ], [ 626784.000174888409674, 4542983.191996533423662 ], [ 627783.446574626490474, 4543000.533008442260325 ], [ 627971.224863899755292, 4544003.049923156388104 ], [ 628970.621538968989626, 4544020.557422615587711 ], [ 629158.383889015181921, 4545023.164824699983001 ] ], [ [ 672549.376151433680207, 4558915.519687346182764 ], [ 672363.245078475330956, 4557910.84944093413651 ], [ 673362.021173583576456, 4557934.493252624757588 ], [ 673548.10149232367985, 4558939.195271831937134 ], [ 672549.376151433680207, 4558915.519687346182764 ] ], [ [ 695436.746012258110568, 4526505.294349853880703 ], [ 694436.322755165514536, 4526478.85383456479758 ], [ 694252.71714996767696, 4525475.311749182641506 ], [ 695253.190656656981446, 4525501.720298438332975 ], [ 695436.746012258110568, 4526505.294349853880703 ] ], [ [ 626408.446386701194569, 4540978.399083603173494 ], [ 627407.99372797308024, 4540995.679712267592549 ], [ 627595.702861332334578, 4541998.07628146186471 ], [ 626596.20598282921128, 4541980.765470843762159 ], [ 626408.446386701194569, 4540978.399083603173494 ] ], [ [ 674987.720170559128746, 4555972.844239355996251 ], [ 673988.840579460607842, 4555948.99053868278861 ], [ 673802.912449088529684, 4554944.441027415916324 ], [ 674801.842747615650296, 4554968.262954286299646 ], [ 674987.720170559128746, 4555972.844239355996251 ] ], [ [ 674615.999127984512597, 4553963.743064543232322 ], [ 675614.981146802892908, 4553987.669869163073599 ], [ 675800.774074224405922, 4554992.221543001942337 ], [ 674801.842747615650296, 4554968.262954286299646 ], [ 674615.999127984512597, 4553963.743064543232322 ] ], [ [ 673617.018138343817554, 4553939.952891933731735 ], [ 673431.157651523710229, 4552935.526101734489202 ], [ 674430.189315968658775, 4552959.284539618529379 ], [ 674615.999127984512597, 4553963.743064543232322 ], [ 673617.018138343817554, 4553939.952891933731735 ] ], [ [ 637528.00137346656993, 4547174.256432474590838 ], [ 638527.253652442479506, 4547193.082087602466345 ], [ 638902.109920688904822, 4549199.267779693938792 ], [ 637902.958786318660714, 4549180.380914771929383 ], [ 637528.00137346656993, 4547174.256432474590838 ] ], [ [ 643587.761862957850099, 4542293.574754423461854 ], [ 644587.272666045464575, 4542313.201351658441126 ], [ 644400.42147944169119, 4541310.287145563401282 ], [ 645399.983628547750413, 4541330.019266705960035 ], [ 645213.217210006085224, 4540327.134820139966905 ], [ 646212.830696412129328, 4540346.972427172586322 ], [ 646026.1490185149014, 4539344.11771909147501 ], [ 647025.813833529595286, 4539364.060773999430239 ], [ 646839.216868870891631, 4538361.235783348791301 ], [ 647838.933003830723464, 4538381.284248118288815 ], [ 648398.675378882326186, 4541390.032915953546762 ], [ 647399.1105722556822, 4541369.892149811610579 ], [ 647585.810338164912537, 4542372.898595097474754 ], [ 646586.296897647902369, 4542352.86326991673559 ], [ 646959.900198951596394, 4544358.996215254068375 ], [ 645960.48863899265416, 4544339.035583859309554 ], [ 646147.392213827231899, 4545342.162115693092346 ], [ 644148.672762860544026, 4545302.588237255811691 ], [ 644335.711690430413, 4546305.713806955143809 ], [ 643336.403801536653191, 4546286.100625580176711 ], [ 643710.685693775070831, 4548292.472031092271209 ], [ 642711.479782175738364, 4548272.933736842125654 ], [ 642149.956772432662547, 4545263.559669674374163 ], [ 643149.314338061143644, 4545283.005790636874735 ], [ 642962.259201772511005, 4544279.971494073979557 ], [ 643961.668146378593519, 4544299.523225339129567 ], [ 643587.761862957850099, 4542293.574754423461854 ] ], [ [ 667761.998313118587248, 4543805.908980429172516 ], [ 668761.481218343018554, 4543828.837372705340385 ], [ 668947.188676035148092, 4544832.61892600171268 ], [ 667947.756295105675235, 4544809.659093639813364 ], [ 667761.998313118587248, 4543805.908980429172516 ] ], [ [ 681275.564344382495619, 4536132.553889255970716 ], [ 683275.37047756917309, 4536182.128241145052016 ], [ 682906.212425003992394, 4534174.713073804043233 ], [ 683906.217946199816652, 4534199.640912363305688 ], [ 683721.739829157711938, 4533195.993097024038434 ], [ 685721.854996300651692, 4533246.193426954559982 ], [ 685906.232382138259709, 4534249.904798257164657 ], [ 687906.251383360126056, 4534300.712980137206614 ], [ 687721.974733436363749, 4533296.937933557666838 ], [ 688722.036330989794806, 4533322.514259766787291 ], [ 688537.843655979144387, 4532318.768407905474305 ], [ 689537.95676901715342, 4532344.448893477208912 ], [ 689722.099089323077351, 4533348.226638159714639 ], [ 691722.228112702840008, 4533400.059562309645116 ], [ 691906.303276257938705, 4534403.962317467667162 ], [ 690906.288551527773961, 4534377.945854688063264 ], [ 691090.447656790493056, 4535381.877784153446555 ], [ 690090.484492262359709, 4535355.965447339229286 ], [ 690274.727566197281703, 4536359.926572434604168 ], [ 687274.996241718763486, 4536282.910474923439324 ], [ 687090.601960873929784, 4535279.045113469474018 ], [ 686090.643417583778501, 4535253.67721872869879 ], [ 686275.088098313426599, 4536257.510718642733991 ], [ 685275.181093857856467, 4536232.247096019797027 ], [ 685459.709830506006256, 4537236.109854539856315 ], [ 684459.854372725938447, 4537210.950541626662016 ], [ 684644.467192319920287, 4538214.842580043710768 ], [ 685644.272220051148906, 4538240.033733673393726 ], [ 686013.497940511908382, 4540248.064975088462234 ], [ 685013.79382170829922, 4540222.81008171569556 ], [ 684829.113676755921915, 4539218.795749963261187 ], [ 683829.360218663932756, 4539193.708954042755067 ], [ 683644.663289082702249, 4538189.787614439614117 ], [ 681645.058831956470385, 4538140.08623680844903 ], [ 681275.564344382495619, 4536132.553889255970716 ] ], [ [ 702707.763504857779481, 4522706.75319123454392 ], [ 703708.398899778723717, 4522734.287773044779897 ], [ 703891.401846644934267, 4523737.967458981089294 ], [ 702890.816664392128587, 4523710.400700572878122 ], [ 702707.763504857779481, 4522706.75319123454392 ] ] ], [ [ [ 681310.761432919185609, 4547127.279305317439139 ], [ 681495.96365308878012, 4548131.624296433292329 ], [ 682495.257980828755535, 4548156.45252148155123 ], [ 682310.106347753899172, 4547152.075644193217158 ], [ 681310.761432919185609, 4547127.279305317439139 ] ] ], [ [ [ 698222.711946313735098, 4552565.306319587863982 ], [ 697669.23298396426253, 4549550.174901662394404 ], [ 696669.972326266230084, 4549523.266903043724597 ], [ 696485.495584127842449, 4548518.378853607922792 ], [ 695486.185475397505797, 4548491.639722473919392 ], [ 695670.712838658480905, 4549496.495448135770857 ], [ 694671.454515259480104, 4549469.86053413618356 ], [ 695040.710935093346052, 4551479.692295428365469 ], [ 694041.55505606753286, 4551453.129332891665399 ], [ 694226.284151628613472, 4552458.105400971136987 ], [ 696224.495728717418388, 4552511.432599135674536 ], [ 696039.867969756014645, 4551506.39185584988445 ], [ 697039.026165911462158, 4551533.228016952052712 ], [ 697223.603254530462436, 4552538.301142671145499 ], [ 698222.711946313735098, 4552565.306319587863982 ] ] ], [ [ [ 693227.180088666034862, 4552431.646740764379501 ], [ 693411.993356088758446, 4553436.65219116769731 ], [ 694411.046736364718527, 4553463.143163713626564 ], [ 694226.284151628613472, 4552458.105400971136987 ], [ 693227.180088666034862, 4552431.646740764379501 ] ] ] ] } }
]
}
