{
"type": "FeatureCollection",
"name": "urban-2030",
"crs": { "type": "name", "properties": { "name": "urn:ogc:def:crs:EPSG::32635" } },
"features": [
{ "type": "Feature", "properties": { "year": 2030 }, "geometry": { "type": "MultiPolygon", "coordinates": [ [ [ [ 680799.240833891090006, 4528129.328545829281211 ], [ 680246.212673372821882, 4525119.853247176855803 ], [ 677244.848173066275194, 4525047.146591754630208 ], [ 677429.30783866182901, 4526050.149817386642098 ], [ 675428.504180318675935, 4526002.29482689499855 ], [ 675797.725909450207837, 4528008.35755131393671 ], [ 677798.328557573142461, 4528056.338315712288022 ], [ 677613.801301578525454, 4527053.213715347461402 ], [ 678614.15454251493793, 4527077.376413876190782 ], [ 678798.631536296219565, 4528080.532512069679797 ], [ 680799.240833891090006, 4528129.328545829281211 ] ] ], [ [ [ 715080.408288991544396, 4525054.262255364097655 ], [ 718082.064402147079818, 4525142.357233645394444 ], [ 717899.73143929312937, 4524138.162563725374639 ], [ 718900.336446785368025, 4524167.766654939390719 ], [ 718718.086862238822505, 4523163.600735561922193 ], [ 717717.43162008957006, 4523134.029269102029502 ], [ 717535.164949044119567, 4522129.957319442182779 ], [ 718535.870409489609301, 4522159.496180530637503 ], [ 718171.53691741602961, 4520151.471042215824127 ], [ 717170.731069430708885, 4520121.997333753854036 ], [ 716806.429836420109496, 4518114.282364314422011 ], [ 715805.525040563428774, 4518085.00939517095685 ], [ 715259.171625643968582, 4515073.993195186369121 ], [ 711254.964679520344362, 4514958.646514508873224 ], [ 711437.249685050803237, 4515962.127995879389346 ], [ 710436.251427674666047, 4515933.597940684296191 ], [ 710618.619805632391945, 4516937.108148567378521 ], [ 709617.672997749294154, 4516908.681399325840175 ], [ 709800.124774818657897, 4517912.220355112105608 ], [ 706797.442687117028981, 4517827.657054039649665 ], [ 706614.840539977536537, 4516824.214817455038428 ], [ 705613.899021711782552, 4516796.330502219498158 ], [ 705248.694553495733999, 4514789.693211362697184 ], [ 703246.615054254420102, 4514734.459806472063065 ], [ 703063.96272302349098, 4513731.296666660346091 ], [ 698058.536232486832887, 4513595.744841550476849 ], [ 698241.438889255281538, 4514598.748116753064096 ], [ 697240.407477064523846, 4514572.012354020960629 ], [ 697606.413387182867154, 4516578.137376555241644 ], [ 696605.48340236779768, 4516551.473367241211236 ], [ 696788.586694375728257, 4517554.595146648585796 ], [ 695787.708066874416545, 4517528.03483101259917 ], [ 695970.89497840392869, 4518531.185516694560647 ], [ 696971.723482381436042, 4518557.777733244001865 ], [ 697154.893762037740089, 4519561.021157109178603 ], [ 696154.115397801855579, 4519534.397020342759788 ], [ 696337.369320722878911, 4520537.669372051022947 ], [ 695336.642351109883748, 4520511.148987571708858 ], [ 695153.338273490546271, 4519507.908545560203493 ], [ 693151.787719586165622, 4519455.338570795021951 ], [ 693335.192102844128385, 4520458.515282901003957 ], [ 692334.46881168615073, 4520432.401957164518535 ], [ 692151.014277461217716, 4519429.257065275683999 ], [ 691150.242050198256038, 4519403.311210661195219 ], [ 690966.770950793637894, 4518400.258860710076988 ], [ 692968.416888495208696, 4518452.222648831084371 ], [ 692785.079613896785304, 4517449.167486941441894 ], [ 689782.462173087755218, 4517371.520489084534347 ], [ 690149.471031530061737, 4519377.501004218123853 ], [ 689148.701215187553316, 4519351.82644322887063 ], [ 689515.944787575514056, 4521357.986406533978879 ], [ 691517.284998400369659, 4521409.598195257596672 ], [ 691700.856838561943732, 4522412.832890059798956 ], [ 689699.616988436086103, 4522361.157532764598727 ], [ 690250.835197945591062, 4525371.035850869491696 ], [ 689250.36769766791258, 4525345.306437253020704 ], [ 689434.224532160675153, 4526348.689139967784286 ], [ 686432.979825870133936, 4526272.22053034696728 ], [ 686617.02103508845903, 4527275.568807673640549 ], [ 684616.29756464320235, 4527225.205538629554212 ], [ 684800.472962268744595, 4528228.551249652169645 ], [ 681799.547165093244985, 4528153.930388359352946 ], [ 681983.907089857151732, 4529157.241968699730933 ], [ 679983.396113314083777, 4529108.11098491307348 ], [ 680167.890352482558228, 4530111.420183196663857 ], [ 679167.686837554676458, 4530087.026994057931006 ], [ 679352.26513651269488, 4531090.365438101813197 ], [ 678352.113041533506475, 4531066.076632187701762 ], [ 678536.775427327491343, 4532069.444343225099146 ], [ 677536.674760209745727, 4532045.259958227165043 ], [ 677721.421259901020676, 4533048.65695749502629 ], [ 676721.372028585290536, 4533024.577031111344695 ], [ 676906.202669248217717, 4534028.00333983451128 ], [ 675906.204881703597493, 4534004.027909769676626 ], [ 676091.119690425461158, 4535007.483549176715314 ], [ 674091.2280921934871, 4534959.877832558006048 ], [ 674276.27748255210463, 4535963.33132014516741 ], [ 672276.490923139150254, 4535916.206977367401123 ], [ 672461.674951559514739, 4536919.658384970389307 ], [ 670461.993406633031555, 4536873.015595845878124 ], [ 670647.312129615689628, 4537876.464995278045535 ], [ 669647.523335400503129, 4537853.316392491571605 ], [ 669832.926380502409302, 4538856.795238680206239 ], [ 668833.18904920713976, 4538833.751402844674885 ], [ 669018.676443609176204, 4539837.259716985747218 ], [ 668018.990583434468135, 4539814.320685863494873 ], [ 668575.807676008436829, 4542825.116802317090333 ], [ 667576.274262706749141, 4542802.219830682501197 ], [ 667019.305743144941516, 4539791.517859593033791 ], [ 663020.57646039489191, 4539701.668555397540331 ], [ 662834.786414789268747, 4538698.348030981607735 ], [ 660835.326859719003551, 4538654.302904822863638 ], [ 660649.469987368676811, 4537651.105434693396091 ], [ 658649.913506039883941, 4537607.667143603786826 ], [ 658463.989879169152118, 4536604.592501038685441 ], [ 655464.511190904071555, 4536540.54901057947427 ], [ 655092.46394455851987, 4534534.767350934445858 ], [ 652092.691552899545059, 4534472.133980241604149 ], [ 652278.849207181017846, 4535474.901920064352453 ], [ 650279.106353809242137, 4535433.764843692071736 ], [ 650465.398962463252246, 4536436.531587278470397 ], [ 649465.579299933509901, 4536416.136342021636665 ], [ 649651.956524331704713, 4537418.932729483582079 ], [ 647652.420725020347163, 4537378.488953850232065 ], [ 647465.942709443042986, 4536375.754073701798916 ], [ 642466.866901344270445, 4536277.179600797593594 ], [ 642280.171267361496575, 4535274.65825616940856 ], [ 634281.291965465294197, 4535124.25762387458235 ], [ 634468.390584662789479, 4536126.535471178591251 ], [ 633468.584809546708129, 4536108.317175125703216 ], [ 634217.525646673864685, 4540117.908785295672715 ], [ 633217.922328412649222, 4540099.705243224278092 ], [ 633405.29418737150263, 4541102.223283678293228 ], [ 631406.190868026693352, 4541066.164023833349347 ], [ 630843.876170288422145, 4538058.972353770397604 ], [ 627844.773253478924744, 4538006.176939864642918 ], [ 628032.328208075719886, 4539008.423368817195296 ], [ 626033.030998021247797, 4538973.846604843623936 ], [ 626220.721390450722538, 4539976.092804901301861 ], [ 624221.528105948353186, 4539942.000310132279992 ], [ 624409.353994466830045, 4540944.246352615766227 ], [ 623409.808931451058015, 4540927.374246713705361 ], [ 623597.719913300592452, 4541929.650266159325838 ], [ 621598.732945120777003, 4541896.254467851482332 ], [ 621786.77952459466178, 4542898.530432259663939 ], [ 619787.89644835377112, 4542865.619404618628323 ], [ 619976.07868390053045, 4543867.89538523927331 ], [ 616977.910947157652117, 4543819.460651967674494 ], [ 617166.279404108528979, 4544821.706776769831777 ], [ 613168.934276763349771, 4544758.915115844458342 ], [ 613357.539565566927195, 4545761.101721682585776 ], [ 605363.28572864481248, 4545641.821610953658819 ], [ 605552.330111946095712, 4546643.830364990979433 ], [ 603553.874161661253311, 4546615.314083731733263 ], [ 603743.054574842215516, 4547617.323498231358826 ], [ 602743.878083302639425, 4547603.240273588337004 ], [ 602554.647119175759144, 4546601.260415684431791 ], [ 595560.074674758361652, 4546506.701425218954682 ], [ 595370.524943836033344, 4545504.987303550355136 ], [ 590374.166379523230717, 4545441.680497677996755 ], [ 590184.399146971176378, 4544440.172125113196671 ], [ 589185.078566335723735, 4544427.948703157715499 ], [ 588995.296004333999008, 4543426.528957949951291 ], [ 585997.185947863385081, 4543390.763267623260617 ], [ 585807.287118068081327, 4542389.490093268454075 ], [ 584807.867656616028398, 4542377.86957994196564 ], [ 585187.80154590040911, 4544380.417363618500531 ], [ 587186.439007687615231, 4544403.91056624148041 ], [ 587376.357795375864953, 4545405.331628186628222 ], [ 589374.896317234146409, 4545429.427942600101233 ], [ 589564.749253315851092, 4546430.96670594625175 ], [ 591563.188851768150926, 4546455.666417459025979 ], [ 591752.975869297981262, 4547457.32310739159584 ], [ 590753.806348965037614, 4547444.875902075320482 ], [ 590943.679078404093161, 4548446.562993327155709 ], [ 592941.917535537853837, 4548471.652202175930142 ], [ 592752.145937818917446, 4547469.906640145927668 ], [ 593751.316560482024215, 4547482.626501653343439 ], [ 593941.037592308712192, 4548484.401343469507992 ], [ 595939.279391971766017, 4548510.308706466108561 ], [ 596318.624424595269375, 4550514.15490341372788 ], [ 598316.66615238878876, 4550540.725365589372814 ], [ 597937.523479403113015, 4548536.761519075371325 ], [ 599935.769902128609829, 4548563.75979236792773 ], [ 600125.222552655613981, 4549565.77074084803462 ], [ 601124.296072272933088, 4549579.503935161046684 ], [ 601313.733136079390533, 4550581.604245415888727 ], [ 602312.756658831844106, 4550595.503394129686058 ], [ 602502.178100152872503, 4551597.693164324387908 ], [ 601503.205191691406071, 4551583.764440909959376 ], [ 601692.712235303712077, 4552585.984551520086825 ], [ 603690.557398761389777, 4552614.037675856612623 ], [ 603311.780788865871727, 4550609.538972973823547 ], [ 605309.830894429702312, 4550638.01942694094032 ], [ 605499.100491888821125, 4551640.298099030740559 ], [ 606498.075864247512072, 4551654.77267037332058 ], [ 606119.672811484662816, 4549650.215921726077795 ], [ 607118.750029023038223, 4549664.767532398924232 ], [ 606929.651458053151146, 4548662.549417031928897 ], [ 607928.779896178166382, 4548677.207721871323884 ], [ 607739.766796714044176, 4547675.019853630103171 ], [ 610737.307698177057318, 4547719.723792326636612 ], [ 611303.996400652569719, 4550726.735267629846931 ], [ 613302.056790150585584, 4550757.398748703300953 ], [ 613113.22691964067053, 4549754.941818161867559 ], [ 615111.391200667130761, 4549786.091235712170601 ], [ 615300.119868796085939, 4550788.608018063008785 ], [ 614301.087990376981907, 4550772.935159036889672 ], [ 614489.90204433305189, 4551775.482137615792453 ], [ 616487.865250292466953, 4551807.024255897849798 ], [ 616299.152431313879788, 4550804.417327421717346 ], [ 617298.185683835647069, 4550820.363088767044246 ], [ 617109.558219361817464, 4549817.786335949786007 ], [ 616110.474364846828394, 4549801.87057467084378 ], [ 615733.222505050711334, 4547796.957476465031505 ], [ 613734.854550962918438, 4547765.654925268143415 ], [ 613923.564239804982208, 4548768.021582813002169 ], [ 611925.300140013103373, 4548737.204755455255508 ], [ 611547.71331454149913, 4546732.650878866203129 ], [ 616543.884284109342843, 4546810.416948407888412 ], [ 616355.395804749103263, 4545808.080676363781095 ], [ 618353.970108813489787, 4545840.081503392197192 ], [ 618542.357511023292318, 4546842.477709645405412 ], [ 619541.595185249811038, 4546858.712596940807998 ], [ 619353.258322133333422, 4545856.286379082128406 ], [ 620352.547250934992917, 4545872.627565152011812 ], [ 620164.295619398006238, 4544870.231428779661655 ], [ 622162.976695380872115, 4544903.262606054544449 ], [ 621974.860775988432579, 4543900.866468357853591 ], [ 622974.252920285798609, 4543917.55639335885644 ], [ 622786.222161540063098, 4542915.190285015851259 ], [ 625784.55453971226234, 4542965.987220032140613 ], [ 625408.899810874601826, 4540961.254630985669792 ], [ 627407.99372797308024, 4540995.679712267592549 ], [ 627595.702861332334578, 4541998.07628146186471 ], [ 626596.20598282921128, 4541980.765470843762159 ], [ 626784.000174888409674, 4542983.191996533423662 ], [ 627783.446574626490474, 4543000.533008442260325 ], [ 627971.224863899755292, 4544003.049923156388104 ], [ 628970.621538968989626, 4544020.557422615587711 ], [ 629158.383889015181921, 4545023.164824699983001 ], [ 630157.730828444124199, 4545040.838892278261483 ], [ 630345.477202770416625, 4546043.536880133673549 ], [ 632344.072375322924927, 4546079.354644604027271 ], [ 632156.427058010944165, 4545076.595930173061788 ], [ 631157.078549451660365, 4545058.649260147474706 ], [ 630781.790421209880151, 4543053.373474861495197 ], [ 634779.593284459318966, 4543125.734837681055069 ], [ 634967.018096682731993, 4544128.464128253050148 ], [ 635966.420330040156841, 4544146.925548260100186 ], [ 636341.272284077480435, 4546152.626193688251078 ], [ 635341.971096537774429, 4546134.103799129836261 ], [ 635529.499276144080795, 4547137.014239519834518 ], [ 634530.249445910565555, 4547118.597697793506086 ], [ 634717.862635779427364, 4548121.538075536489487 ], [ 632719.46650577778928, 4548085.053169006481767 ], [ 632907.215310919331387, 4549087.99303908739239 ], [ 633906.362399533041753, 4549106.197760838083923 ], [ 634094.095099088619463, 4550109.228561695665121 ], [ 635093.192390936193988, 4550127.600223345682025 ], [ 635280.908948181197047, 4551130.722053628414869 ], [ 639277.103754711919464, 4551205.695719138719141 ], [ 639464.652248761849478, 4552209.000607001595199 ], [ 635468.659953168360516, 4552133.904428331181407 ], [ 635844.265290242270567, 4554140.45093163754791 ], [ 634845.370535589405335, 4554121.957015193067491 ], [ 634281.862266494776122, 4551112.31985742598772 ], [ 633282.81638100114651, 4551094.0541454218328 ], [ 634034.432247936842032, 4555106.902666192501783 ], [ 635033.275534152053297, 4555125.290591850876808 ], [ 635221.214980422286317, 4556128.684814190492034 ], [ 634222.422384282224812, 4556110.26628649700433 ], [ 634598.506032285979018, 4558117.175526642240584 ], [ 633599.815650948090479, 4558098.832426829263568 ], [ 633411.705877347732894, 4557095.378074670210481 ], [ 632412.965555353439413, 4557077.202244809828699 ], [ 632789.321028804173693, 4559084.110464052297175 ], [ 634786.599535865243524, 4559120.721206951886415 ], [ 634974.727487103664316, 4560124.327634433284402 ], [ 632977.550487417727709, 4560087.655620846897364 ], [ 633165.814421910326928, 4561091.261516104452312 ], [ 634164.351762560661882, 4561109.559788918122649 ], [ 634352.59938322706148, 4562113.257112393155694 ], [ 635351.086716357851401, 4562131.722852050326765 ], [ 635162.889881952200085, 4561127.994839366525412 ], [ 636161.428785849595442, 4561146.566669373773038 ], [ 635785.239965060260147, 4559139.231657573021948 ], [ 636783.881185752572492, 4559157.878830213099718 ], [ 636595.889159662183374, 4558154.271799257025123 ], [ 637594.581917307572439, 4558173.024975935928524 ], [ 637406.675034184474498, 4557169.448000411503017 ], [ 638405.419319689157419, 4557188.307143096812069 ], [ 638217.597551942570135, 4556184.760201956145465 ], [ 639216.393356242915615, 4556203.72527261916548 ], [ 638840.954379571485333, 4554196.752140562050045 ], [ 637842.057206379598938, 4554177.848492367193103 ], [ 637654.338636679574847, 4553174.483663447201252 ], [ 640651.184598442167044, 4553231.51221823785454 ], [ 640463.652370514115319, 4552228.115955976769328 ], [ 641462.653323162579909, 4552247.367830650880933 ], [ 641087.793204602785408, 4550240.695846013724804 ], [ 645084.210430037230253, 4550318.822266329079866 ], [ 645271.420851848786697, 4551322.251077179796994 ], [ 646270.476680467254482, 4551342.154729769565165 ], [ 646457.670755504397675, 4552345.6751605020836 ], [ 645458.665560241090134, 4552325.740626837126911 ], [ 645645.944551115855575, 4553329.290945541113615 ], [ 646644.899096873006783, 4553349.256379741244018 ], [ 647019.458562161773443, 4555356.601304798386991 ], [ 649017.16755634220317, 4555397.065776072442532 ], [ 649391.661208715289831, 4557404.778271950781345 ], [ 650390.415599555009976, 4557425.277569790370762 ], [ 650203.202381090493873, 4556421.359779764898121 ], [ 654198.431675065308809, 4556504.599355738610029 ], [ 654385.442019630689174, 4557508.641714551486075 ], [ 656382.960624953382649, 4557551.143989509902894 ], [ 656196.051722329575568, 4556547.039167610928416 ], [ 657194.863116383552551, 4556568.464087243191898 ], [ 656821.249023221665993, 4554560.375174755230546 ], [ 658819.077378176385537, 4554603.509886045008898 ], [ 658632.422823527362198, 4553599.494486133567989 ], [ 660630.356270962976851, 4553643.113048350438476 ], [ 660443.837105095852166, 4552639.096096079796553 ], [ 661442.855908748228103, 4552661.078926611691713 ], [ 661256.421428094385192, 4551657.091707866638899 ], [ 663254.563197593670338, 4551701.404339496046305 ], [ 663440.896384351537563, 4552705.454302943311632 ], [ 664439.91806802386418, 4552727.846853386610746 ], [ 664626.23458111518994, 4553731.989373059943318 ], [ 663627.263562047388405, 4553709.56538606621325 ], [ 663813.664726454997435, 4554713.737619268707931 ], [ 668808.276173784164712, 4554827.381234050728381 ], [ 668994.457825220539235, 4555831.772323772311211 ], [ 669993.332368614268489, 4555854.942603153176606 ], [ 670365.695904667605646, 4557863.972046825103462 ], [ 669366.922814390156418, 4557840.738459509797394 ], [ 670112.259418181842193, 4561859.407410772517323 ], [ 669113.690415737917647, 4561836.183828771114349 ], [ 669300.160070589277893, 4562840.9729880457744 ], [ 668301.642862454173155, 4562817.854557600803673 ], [ 668861.407649740576744, 4565832.495951881632209 ], [ 671856.504585462389514, 4565902.547834277153015 ], [ 671483.599303524242714, 4563892.534696041606367 ], [ 672482.068632234237157, 4563916.095594780519605 ], [ 672295.717592187342234, 4562911.149589026346803 ], [ 673294.238750867778435, 4562934.815567371435463 ], [ 672921.739798244903795, 4560925.044587294571102 ], [ 673920.363581695593894, 4560948.783776093274355 ], [ 674106.545343701494858, 4561953.670322343707085 ], [ 675105.119332700502127, 4561977.578208425082266 ], [ 674918.988375038723461, 4560972.659800796769559 ], [ 675917.614184022531845, 4560996.672663897275925 ], [ 675731.56780922668986, 4559991.783943837508559 ], [ 673734.215629798010923, 4559943.958769459277391 ], [ 673548.10149232367985, 4558939.195271831937134 ], [ 676544.283610650571063, 4559011.042692570015788 ], [ 676358.355561172007583, 4558006.245175928808749 ], [ 679354.699223647126928, 4558079.22788420598954 ], [ 679168.957178588258103, 4557074.396166771650314 ], [ 681166.626342792529613, 4557123.671154740266502 ], [ 680981.019487065030262, 4556118.837056964635849 ], [ 681979.906389015261084, 4556143.647652564570308 ], [ 681794.383949660230428, 4555138.843115275725722 ], [ 680795.44633229332976, 4555114.064502397552133 ], [ 680424.401143012917601, 4553104.703900582157075 ], [ 681423.440142159350216, 4553129.41860667988658 ], [ 681238.018782715080306, 4552124.798574252054095 ], [ 682237.109520615311339, 4552149.617946396581829 ], [ 681681.199576279846951, 4549136.030625619925559 ], [ 682680.443300609244034, 4549160.890756343491375 ], [ 682310.106347753899172, 4547152.075644193217158 ], [ 684308.799453402752988, 4547202.077662812545896 ], [ 684123.782656462863088, 4546197.698289759457111 ], [ 686122.581319422693923, 4546248.182171413674951 ], [ 686307.496966484002769, 4547252.625486736185849 ], [ 687306.847390605835244, 4547278.104082294739783 ], [ 687676.678355071460828, 4549287.23904914688319 ], [ 688675.92869376973249, 4549312.918254061602056 ], [ 689045.792790448525921, 4551322.36339171230793 ], [ 690044.942979170475155, 4551348.243406227789819 ], [ 689860.044785545906052, 4550343.457915815524757 ], [ 690859.246746568707749, 4550369.442330867983401 ], [ 690674.432746089994907, 4549364.686231664381921 ], [ 689675.180155479931273, 4549338.733980666846037 ], [ 689305.551603590371087, 4547329.470653949305415 ], [ 690304.905404282733798, 4547355.358635424636304 ], [ 690120.192071743193083, 4546350.787077315151691 ], [ 692119.004255943698809, 4546402.908144552260637 ], [ 691934.425620309077203, 4545398.333777555264533 ], [ 690934.968389221816324, 4545372.237169524654746 ], [ 690750.372739675687626, 4544367.756389899179339 ], [ 691749.880521125625819, 4544393.820871727541089 ], [ 691565.368962786742486, 4543389.369396585971117 ], [ 692564.928432597080246, 4543415.538125084713101 ], [ 692196.106977592571639, 4541406.75513028819114 ], [ 693195.768631870858371, 4541432.995940500870347 ], [ 692642.93940661358647, 4538420.185297693125904 ], [ 693642.753647386911325, 4538446.466051903553307 ], [ 693458.594742014771327, 4537442.286372755654156 ], [ 695458.327649521408603, 4537495.192272432148457 ], [ 695090.31208030146081, 4535486.888331680558622 ], [ 696090.281157845398411, 4535513.481282413937151 ], [ 695906.374013947322965, 4534509.389097854495049 ], [ 696906.394688437925652, 4534536.086039110086858 ], [ 696722.571411171928048, 4533532.022976708598435 ], [ 697722.643675001221709, 4533558.823871001601219 ], [ 697906.416571102803573, 4534562.919084413908422 ], [ 698906.439668014645576, 4534589.888236586935818 ], [ 699090.195619454956613, 4535594.076932476833463 ], [ 701090.144678596057929, 4535648.488058982416987 ], [ 700722.867784294765443, 4533640.043027249164879 ], [ 698722.717154409037903, 4533585.760842300020158 ], [ 698539.028083047596738, 4532581.69471925124526 ], [ 699539.153151637408882, 4532608.73557907436043 ], [ 699355.547878130571917, 4531604.698525028303266 ], [ 700355.724528371705674, 4531631.843235911801457 ], [ 700539.279449325753376, 4532635.912491712719202 ], [ 702539.535756374476478, 4532690.674486874602735 ], [ 701989.273282887297682, 4529678.457074456848204 ], [ 704990.120189717388712, 4529761.329818838275969 ], [ 704806.91707585810218, 4528757.283054595813155 ], [ 706807.588644946692511, 4528813.146773338317871 ], [ 706624.519473736407235, 4527809.096627992577851 ], [ 708625.296775478404015, 4527865.439416857436299 ], [ 708442.361491756979376, 4526861.385818181559443 ], [ 709442.802370512508787, 4526889.728706574998796 ], [ 709259.950649105827324, 4525885.703996238298714 ], [ 708259.459501717239618, 4525857.393491888418794 ], [ 708076.590809809975326, 4524853.462407669983804 ], [ 707076.050711774267256, 4524825.320110940374434 ], [ 706893.165087890578434, 4523821.482553915120661 ], [ 707893.755420481320471, 4523849.592535233125091 ], [ 707710.953338173450902, 4522845.783844306133687 ], [ 709712.238359623472206, 4522902.346567487344146 ], [ 709529.569996948586777, 4521898.534384838305414 ], [ 711530.960700146970339, 4521955.575502277351916 ], [ 711713.528648857260123, 4522959.452447390183806 ], [ 712714.175784422201104, 4522988.209078620187938 ], [ 712349.173539716517553, 4520980.451554102823138 ], [ 714350.672636820119806, 4521038.242369510233402 ], [ 714533.056751815602183, 4522042.155425877310336 ], [ 713532.356726712780073, 4522013.15968098025769 ], [ 713897.324997962918133, 4524021.104602608829737 ], [ 714897.924582385225222, 4524050.165338502265513 ], [ 715080.408288991544396, 4525054.262255364097655 ] ], [ [ 672549.376151433680207, 4558915.519687346182764 ], [ 672363.245078475330956, 4557910.84944093413651 ], [ 673362.021173583576456, 4557934.493252624757588 ], [ 673548.10149232367985, 4558939.195271831937134 ], [ 672549.376151433680207, 4558915.519687346182764 ] ], [ [ 708528.876626052777283, 4521870.217466574162245 ], [ 708346.19135816663038, 4520866.498760721646249 ], [ 709346.934917562874034, 4520894.783361916430295 ], [ 709529.569996948586777, 4521898.534384838305414 ], [ 708528.876626052777283, 4521870.217466574162245 ] ], [ [ 714168.32172798877582, 4520034.390539399348199 ], [ 715169.123480960726738, 4520063.457085429690778 ], [ 715351.424208775861189, 4521067.341392510570586 ], [ 714350.672636820119806, 4521038.242369510233402 ], [ 714168.32172798877582, 4520034.390539399348199 ] ], [ [ 650827.785926099051721, 4554434.249830760993063 ], [ 651826.694188050692901, 4554454.929193697869778 ], [ 652013.737629247480072, 4555458.787224594503641 ], [ 651014.880052952677943, 4555438.076773352921009 ], [ 650827.785926099051721, 4554434.249830760993063 ] ], [ [ 674987.720170559128746, 4555972.844239355996251 ], [ 673988.840579460607842, 4555948.99053868278861 ], [ 673802.912449088529684, 4554944.441027415916324 ], [ 674801.842747615650296, 4554968.262954286299646 ], [ 674987.720170559128746, 4555972.844239355996251 ] ], [ [ 674615.999127984512597, 4553963.743064543232322 ], [ 675614.981146802892908, 4553987.669869163073599 ], [ 675800.774074224405922, 4554992.221543001942337 ], [ 674801.842747615650296, 4554968.262954286299646 ], [ 674615.999127984512597, 4553963.743064543232322 ] ], [ [ 673617.018138343817554, 4553939.952891933731735 ], [ 673431.157651523710229, 4552935.526101734489202 ], [ 674430.189315968658775, 4552959.284539618529379 ], [ 674615.999127984512597, 4553963.743064543232322 ], [ 673617.018138343817554, 4553939.952891933731735 ] ], [ [ 677798.639834980247542, 4555040.548715994693339 ], [ 679796.50977793673519, 4555089.422566606663167 ], [ 679982.133646945236251, 4556094.163168303668499 ], [ 677984.365128973149695, 4556045.225501507520676 ], [ 677798.639834980247542, 4555040.548715994693339 ] ], [ [ 652638.644750177394599, 4553471.916981785558164 ], [ 653637.605476856930181, 4553492.838434886187315 ], [ 653824.513399511924945, 4554496.697746274061501 ], [ 652825.603343908209354, 4554475.74516480974853 ], [ 652638.644750177394599, 4553471.916981785558164 ] ], [ [ 678055.213375723222271, 4551046.697020414285362 ], [ 677056.076245571486652, 4551022.455808332189918 ], [ 676870.51976645225659, 4550018.08598745893687 ], [ 675871.333057176321745, 4549994.013091078959405 ], [ 675685.759741085348651, 4548989.736317823641002 ], [ 676684.997063248883933, 4549013.777468046173453 ], [ 676499.508140265359543, 4548009.530219645239413 ], [ 678498.087143857264891, 4548057.958450940437615 ], [ 678127.412951041944325, 4546049.520676813088357 ], [ 679126.805198695976287, 4546073.875915789045393 ], [ 679682.715367033495568, 4549086.719871102832258 ], [ 678683.474870324484073, 4549062.269242146983743 ], [ 678868.89634441351518, 4550066.641343370079994 ], [ 677869.707526902551763, 4550042.295404044911265 ], [ 678055.213375723222271, 4551046.697020414285362 ] ], [ [ 678941.56929202855099, 4545069.717114347033203 ], [ 679941.013165262527764, 4545094.176974307745695 ], [ 680126.198519736761227, 4546098.367563268169761 ], [ 679126.805198695976287, 4546073.875915789045393 ], [ 678941.56929202855099, 4545069.717114347033203 ] ], [ [ 681125.592920099850744, 4546122.995621818117797 ], [ 681310.761432919185609, 4547127.279305317439139 ], [ 680311.417602183995768, 4547102.619409929960966 ], [ 680126.198519736761227, 4546098.367563268169761 ], [ 681125.592920099850744, 4546122.995621818117797 ] ], [ [ 667761.998313118587248, 4543805.908980429172516 ], [ 668761.481218343018554, 4543828.837372705340385 ], [ 668947.188676035148092, 4544832.61892600171268 ], [ 667947.756295105675235, 4544809.659093639813364 ], [ 667761.998313118587248, 4543805.908980429172516 ] ], [ [ 648212.060334844514728, 4540387.056199118494987 ], [ 648398.675378882326186, 4541390.032915953546762 ], [ 647399.1105722556822, 4541369.892149811610579 ], [ 647212.445069349836558, 4540366.946219467557967 ], [ 648212.060334844514728, 4540387.056199118494987 ] ], [ [ 646212.830696412129328, 4540346.972427172586322 ], [ 646026.1490185149014, 4539344.11771909147501 ], [ 647025.813833529595286, 4539364.060773999430239 ], [ 647212.445069349836558, 4540366.946219467557967 ], [ 646212.830696412129328, 4540346.972427172586322 ] ], [ [ 695354.853520524688065, 4531497.479882723651826 ], [ 696355.025285641429946, 4531524.080518764443696 ], [ 696538.781608776422217, 4532528.021146702580154 ], [ 695538.660190901136957, 4532501.388428336940706 ], [ 695354.853520524688065, 4531497.479882723651826 ] ] ], [ [ [ 581669.469759101746604, 4536349.163736373186111 ], [ 581479.666582522913814, 4535348.392017786391079 ], [ 580479.895669807447121, 4535337.381691523827612 ], [ 580290.077448654104955, 4534336.697819600813091 ], [ 578290.436373004224151, 4534315.142429698258638 ], [ 578670.30962503363844, 4536316.454470552504063 ], [ 579670.02918067923747, 4536327.221568830311298 ], [ 579859.968455787864514, 4537327.994914731010795 ], [ 580859.63810560060665, 4537338.926745659671724 ], [ 581429.516688403557055, 4540341.68804473336786 ], [ 582429.035558940609917, 4540352.842328294180334 ], [ 582809.030263836379163, 4542355.03706799633801 ], [ 583808.448707212810405, 4542366.385238585993648 ], [ 582669.19079407886602, 4536360.338807942345738 ], [ 581669.469759101746604, 4536349.163736373186111 ] ] ], [ [ [ 580429.99831157643348, 4540330.669870460405946 ], [ 580620.078928190749139, 4541331.679926725104451 ], [ 581619.54684918303974, 4541342.726920549757779 ], [ 581429.516688403557055, 4540341.68804473336786 ], [ 580429.99831157643348, 4540330.669870460405946 ] ] ], [ [ [ 625972.433818072080612, 4543968.443723156116903 ], [ 626160.347700464306399, 4544970.960405262187123 ], [ 625161.003827610635199, 4544953.83152047265321 ], [ 625349.002835971419699, 4545956.378211543895304 ], [ 626348.296182938152924, 4545973.537296311929822 ], [ 626536.279261538526043, 4546976.174426280893385 ], [ 627535.52282338810619, 4546993.500082739628851 ], [ 627159.692330999416299, 4544988.225583021529019 ], [ 628159.037725191330537, 4545005.627055559307337 ], [ 627971.224863899755292, 4544003.049923156388104 ], [ 625972.433818072080612, 4543968.443723156116903 ] ] ], [ [ [ 619484.815246464684606, 4551855.361049954779446 ], [ 619296.254282508743927, 4550852.663974105380476 ], [ 618297.21963226608932, 4550836.44530376791954 ], [ 618485.831214921083301, 4551839.112300819717348 ], [ 619484.815246464684606, 4551855.361049954779446 ] ] ], [ [ [ 620672.345014805789106, 4552874.533753437921405 ], [ 620483.79998534929473, 4551871.746285803616047 ], [ 619484.815246464684606, 4551855.361049954779446 ], [ 619673.410911011509597, 4552858.118389713577926 ], [ 620672.345014805789106, 4552874.533753437921405 ] ] ], [ [ [ 663627.263562047388405, 4553709.56538606621325 ], [ 663440.896384351537563, 4552705.454302943311632 ], [ 662441.875666546751745, 4552683.19832812808454 ], [ 662628.293507897644304, 4553687.278004501014948 ], [ 663627.263562047388405, 4553709.56538606621325 ] ] ], [ [ [ 601882.254263104870915, 4553588.264607133343816 ], [ 601692.712235303712077, 4552585.984551520086825 ], [ 600693.790558134904131, 4552572.162721983157098 ], [ 600883.383231927407905, 4553574.413193805143237 ], [ 601882.254263104870915, 4553588.264607133343816 ] ] ], [ [ [ 624234.538771442486905, 4555933.59539823513478 ], [ 624046.04176392883528, 4554930.536163805983961 ], [ 625044.877432711538859, 4554947.558161914348602 ], [ 624856.465718649327755, 4553944.529073807410896 ], [ 625855.352792154531926, 4553961.657341263256967 ], [ 625667.026343856356107, 4552958.658378520980477 ], [ 626665.964812808437273, 4552975.892877146601677 ], [ 626289.516980763059109, 4550970.015560242347419 ], [ 627288.557457976508886, 4550987.325935561209917 ], [ 626724.296932307304814, 4547978.871825167909265 ], [ 625725.104685158003122, 4547961.652282335795462 ], [ 626101.344951265491545, 4549967.167471338994801 ], [ 625102.254617519909516, 4549950.023832527920604 ], [ 625478.734496006160043, 4551955.719826208427548 ], [ 624479.746132082189433, 4551938.652130806818604 ], [ 624668.088617117609829, 4552941.560406802222133 ], [ 623669.1516267178813, 4552924.598960201255977 ], [ 623857.579381032846868, 4553927.537361164577305 ], [ 622858.693773444625549, 4553910.682201559655368 ], [ 622481.7716086988803, 4551904.92622450646013 ], [ 621482.785437464364804, 4551888.268010077998042 ], [ 621671.279831437626854, 4552891.085635269992054 ], [ 620672.345014805789106, 4552874.533753437921405 ], [ 620860.924724900862202, 4553877.381534428335726 ], [ 621859.808890021638945, 4553893.963593229651451 ], [ 622048.372609270736575, 4554896.901914024725556 ], [ 621049.539111695368774, 4554880.289658835157752 ], [ 621804.34334695187863, 4558892.526192577555776 ], [ 622802.974013868486509, 4558909.259427661076188 ], [ 622425.604013962089084, 4556902.959764506667852 ], [ 623424.336845353944227, 4556919.769109362736344 ], [ 623235.754516688059084, 4555916.679707658477128 ], [ 624234.538771442486905, 4555933.59539823513478 ] ] ], [ [ [ 682351.052317152265459, 4558153.441446083597839 ], [ 682165.462512966245413, 4557148.51375263184309 ], [ 681166.626342792529613, 4557123.671154740266502 ], [ 681352.266895122593269, 4558128.566826329566538 ], [ 682351.052317152265459, 4558153.441446083597839 ] ] ], [ [ [ 662562.177136892336421, 4558686.285997511819005 ], [ 662188.934023399255238, 4556677.638912338763475 ], [ 660191.30284999741707, 4556633.558927828446031 ], [ 660378.008858235203661, 4557637.789033392444253 ], [ 658380.482889020931907, 4557594.193089793436229 ], [ 658754.200001303805038, 4559602.711392506957054 ], [ 656756.880725515540689, 4559559.537010565400124 ], [ 657130.937191875418648, 4561568.174737589433789 ], [ 660126.612809196230955, 4561633.329711408354342 ], [ 659939.719896889291704, 4560628.886091889813542 ], [ 660938.331075156689622, 4560650.846634292975068 ], [ 660564.748901320272125, 4558642.080332678742707 ], [ 662562.177136892336421, 4558686.285997511819005 ] ] ], [ [ [ 621993.131058022612706, 4559895.736485681496561 ], [ 621804.34334695187863, 4558892.526192577555776 ], [ 620805.713390404824167, 4558875.929653747938573 ], [ 620994.551848863251507, 4559879.109682948328555 ], [ 621993.131058022612706, 4559895.736485681496561 ] ] ], [ [ [ 647895.964978004340082, 4565376.645786046981812 ], [ 647708.274918465176597, 4564372.363873807713389 ], [ 648706.67125169490464, 4564392.670500601641834 ], [ 648519.066252768971026, 4563388.418606516905129 ], [ 649517.514271456864662, 4563408.830983601510525 ], [ 648767.639677722472697, 4559392.309942563064396 ], [ 642775.745455544558354, 4559272.633138516917825 ], [ 642588.057877172483131, 4558268.841341814957559 ], [ 641589.361042979406193, 4558249.404664325527847 ], [ 641964.872020222945139, 4560256.987404053099453 ], [ 639967.683826827211305, 4560218.400824406184256 ], [ 640155.592361788032576, 4561222.221823985688388 ], [ 642152.679006646387279, 4561260.870129730552435 ], [ 642716.305907905101776, 4564272.88409436121583 ], [ 641717.914596873568371, 4564253.39879484847188 ], [ 641905.90970363363158, 4565257.494524181820452 ], [ 643902.591468968428671, 4565296.663947806693614 ], [ 643714.698041669558734, 4564292.506276588886976 ], [ 645711.484800280537456, 4564332.161297393962741 ], [ 645899.276545207249001, 4565336.381029571406543 ], [ 647895.964978004340082, 4565376.645786046981812 ] ] ], [ [ [ 674479.010280753718689, 4563963.628156202845275 ], [ 674292.760911495191976, 4562958.618438832461834 ], [ 673294.238750867778435, 4562934.815567371435463 ], [ 673480.538956074160524, 4563939.793414011597633 ], [ 674479.010280753718689, 4563963.628156202845275 ] ] ], [ [ [ 671044.692241817945614, 4566884.127397160977125 ], [ 669048.063691234216094, 4566837.499526154249907 ], [ 668861.407649740576744, 4565832.495951881632209 ], [ 667863.04395244421903, 4565809.419268482364714 ], [ 667676.370935443788767, 4564804.5090002855286 ], [ 666677.957341501372866, 4564781.600985951721668 ], [ 667051.43901713960804, 4566791.419656194746494 ], [ 665054.818174125277437, 4566745.887768059968948 ], [ 665428.639111875439994, 4568755.825883378274739 ], [ 667425.056353072635829, 4568801.48459289688617 ], [ 667238.230729713337496, 4567796.421325905248523 ], [ 670233.016507047810592, 4567865.841940419748425 ], [ 670419.689396667992696, 4568871.000576694495976 ], [ 671417.902348945382982, 4568894.446692813187838 ], [ 671044.692241817945614, 4566884.127397160977125 ] ] ], [ [ [ 672854.872197603108361, 4565926.172413926571608 ], [ 671856.504585462389514, 4565902.547834277153015 ], [ 672229.545217769104056, 4567912.807508715428412 ], [ 673227.811047862051055, 4567936.495847770944238 ], [ 672854.872197603108361, 4565926.172413926571608 ] ] ], [ [ [ 684298.950780695187859, 4498276.885557062923908 ], [ 684116.036568609531969, 4497275.19599973410368 ], [ 683114.170028909109533, 4497250.484620860777795 ], [ 683297.134031652240083, 4498252.142929532565176 ], [ 684298.950780695187859, 4498276.885557062923908 ] ] ], [ [ [ 695319.016520116827451, 4498557.966008658520877 ], [ 695501.416508493945003, 4499560.061543243937194 ], [ 696503.198425417533144, 4499586.456147782504559 ], [ 696138.531618611887097, 4497582.262124854139984 ], [ 693132.890846782596782, 4497503.673045246861875 ], [ 693315.356894158641808, 4498505.645179997198284 ], [ 695319.016520116827451, 4498557.966008658520877 ] ] ], [ [ [ 685666.598698393907398, 4500305.38515823893249 ], [ 685300.768742794520222, 4498301.763199175707996 ], [ 684298.950780695187859, 4498276.885557062923908 ], [ 684664.880367843201384, 4500280.444901923649013 ], [ 685666.598698393907398, 4500305.38515823893249 ] ] ], [ [ [ 677652.885595422587357, 4500109.645036790519953 ], [ 677836.249811906600371, 4501111.296366369351745 ], [ 676834.590818097116426, 4501087.405532490462065 ], [ 676467.796563986688852, 4499084.225042024627328 ], [ 675466.039082579081878, 4499060.531408299691975 ], [ 675832.932982120779343, 4501063.649781873449683 ], [ 672827.966356100165285, 4500993.193004515022039 ], [ 673011.613623577402905, 4501994.749069111421704 ], [ 680022.86963921552524, 4502161.256968561559916 ], [ 680206.201765168458223, 4503163.09073300473392 ], [ 681207.76455410651397, 4503187.44926328305155 ], [ 681391.080578882945701, 4504189.374391755089164 ], [ 682392.594665827229619, 4504213.89934918936342 ], [ 682209.328524859738536, 4503211.942946530878544 ], [ 689220.30995510017965, 4503387.183231743052602 ], [ 689403.226879475172609, 4504389.359387271106243 ], [ 690404.750645413179882, 4504414.965901086106896 ], [ 690221.883613551734015, 4503412.758233173750341 ], [ 691223.458512099226937, 4503438.468411396257579 ], [ 691406.275650301133282, 4504440.707621475681663 ], [ 694410.858163249329664, 4504518.744049394503236 ], [ 694593.559165622340515, 4505521.138482470996678 ], [ 697598.003314418718219, 4505600.48699941392988 ], [ 697780.588069068267941, 4506603.037068692967296 ], [ 698782.022074878914282, 4506629.78887121938169 ], [ 698964.590374147985131, 4507632.4312839563936 ], [ 699965.975716282264329, 4507659.350213037803769 ], [ 700148.527522246935405, 4508662.085067397914827 ], [ 701149.864188401028514, 4508689.171204736456275 ], [ 700967.362351646181196, 4507686.404463150538504 ], [ 701968.750286649679765, 4507713.594037149101496 ], [ 701786.331846491899341, 4506710.856020404025912 ], [ 699783.45736877026502, 4506656.675962117500603 ], [ 699600.972484045429155, 4505654.062284715473652 ], [ 698599.487254562787712, 4505627.207012786529958 ], [ 697687.315488514257595, 4500615.204989177174866 ], [ 695683.850038234260865, 4500562.217384883202612 ], [ 695501.416508493945003, 4499560.061543243937194 ], [ 694499.635875315056182, 4499533.802012829110026 ], [ 694682.119240162312053, 4500535.92624001018703 ], [ 693680.389718129648827, 4500509.770196274854243 ], [ 693497.856519363820553, 4499507.677553758025169 ], [ 692496.078434122027829, 4499481.68816326931119 ], [ 692313.528992264415137, 4498479.687325237318873 ], [ 691311.702355716144666, 4498453.864506525918841 ], [ 691129.13670835562516, 4497451.955375176854432 ], [ 689125.38760974095203, 4497400.777719260193408 ], [ 689308.052852528286166, 4498402.623966322280467 ], [ 688306.229972819099203, 4498377.206239407882094 ], [ 688123.514933995087631, 4497375.391389829106629 ], [ 687121.643498558434658, 4497350.140055825002491 ], [ 686938.912343279924244, 4496348.416668492369354 ], [ 685936.992363802855834, 4496323.331646072678268 ], [ 686302.587924488820136, 4498326.775858502835035 ], [ 687304.408332317951135, 4498351.923537692986429 ], [ 688035.804367580683902, 4502359.659004335291684 ], [ 686032.563445655861869, 4502309.247698686085641 ], [ 685849.564225178910419, 4501307.286340934224427 ], [ 684847.895734481746331, 4501282.314748817123473 ], [ 684664.880367843201384, 4500280.444901923649013 ], [ 683663.163248232682236, 4500255.639719717204571 ], [ 683846.228453659219667, 4501257.478260574862361 ], [ 682844.562376209418289, 4501232.776873578317463 ], [ 682661.447333048097789, 4500230.969608995132148 ], [ 677652.885595422587357, 4500109.645036790519953 ] ], [ [ 691494.301613069255836, 4499455.833838609978557 ], [ 690492.526049685431644, 4499430.114577044732869 ], [ 690309.876977982698008, 4498428.176721125841141 ], [ 691311.702355716144666, 4498453.864506525918841 ], [ 691494.301613069255836, 4499455.833838609978557 ] ], [ [ 690675.208743205294013, 4500432.112644284032285 ], [ 688671.76102082116995, 4500381.016398289240897 ], [ 688488.978669839911163, 4499379.08123232703656 ], [ 690492.526049685431644, 4499430.114577044732869 ], [ 690675.208743205294013, 4500432.112644284032285 ] ] ], [ [ [ 709342.740139034111053, 4509913.817000220529735 ], [ 709160.604795370949432, 4508910.733280357904732 ], [ 710161.953376874444075, 4508939.037705798633397 ], [ 709979.90132280474063, 4507935.982636769302189 ], [ 710981.301242933375761, 4507964.390256722457707 ], [ 711345.338661405607127, 4509970.625611039809883 ], [ 713347.942627181531861, 4510027.975873704999685 ], [ 713166.007282284437679, 4509024.763274753466249 ], [ 716170.073563176905736, 4509111.707346182316542 ], [ 715988.321427113609388, 4508108.458715804852545 ], [ 718992.550234786816873, 4508196.524188538081944 ], [ 718629.445375488139689, 4506190.015437423251569 ], [ 713621.904680964769796, 4506044.239855558611453 ], [ 713985.509211135911755, 4508050.425248176790774 ], [ 712984.105180698796175, 4508021.611559404060245 ], [ 712802.236326854676008, 4507018.520697603933513 ], [ 711800.783703568275087, 4506989.874594169668853 ], [ 711618.898148771608248, 4505986.876762686297297 ], [ 710617.396945325890556, 4505958.398162613622844 ], [ 710435.494727871613577, 4504955.493263105861843 ], [ 709433.944956894149072, 4504927.182084457948804 ], [ 709252.026115023647435, 4503924.370018643327057 ], [ 708250.427789079141803, 4503896.226179520599544 ], [ 708614.398631604621187, 4505901.846840145066381 ], [ 702605.435972901759669, 4505735.439680298790336 ], [ 702423.134321248391643, 4504732.7909683175385 ], [ 700420.05751240090467, 4504678.467854663729668 ], [ 700602.459009304759093, 4505681.052818040363491 ], [ 701603.946836778195575, 4505708.178615611046553 ], [ 701786.331846491899341, 4506710.856020404025912 ], [ 702787.771043171756901, 4506738.148993515409529 ], [ 702970.139527704799548, 4507740.918937909416854 ], [ 701968.750286649679765, 4507713.594037149101496 ], [ 702151.2021529013291, 4508716.392695788294077 ], [ 704153.882002528291196, 4508771.241750538349152 ], [ 703971.530081220087595, 4507768.379168314859271 ], [ 706975.709680612548254, 4507851.571866489946842 ], [ 707340.147009052219801, 4509857.55001725256443 ], [ 708341.442903182702139, 4509885.615806745365262 ], [ 708523.66156309703365, 4510888.728198811411858 ], [ 709524.908786562853493, 4510916.961556691676378 ], [ 709707.110733545618132, 4511920.166979823261499 ], [ 710708.309273662045598, 4511948.567988040857017 ], [ 710890.494469394907355, 4512951.866540713235736 ], [ 711891.644313416909426, 4512980.435281253419816 ], [ 712073.812719526933506, 4513983.827061991207302 ], [ 713074.913854646030813, 4514012.563616876490414 ], [ 712528.658562553813681, 4511002.474263184703887 ], [ 710526.157356717856601, 4510945.330351382493973 ], [ 710344.038722982280888, 4509942.15360065549612 ], [ 709342.740139034111053, 4509913.817000220529735 ] ] ], [ [ [ 710895.534261610591784, 4523934.737369636073709 ], [ 710712.882842661463656, 4522930.831611350178719 ], [ 709712.238359623472206, 4522902.346567487344146 ], [ 709894.94000114093069, 4523906.219940112903714 ], [ 710895.534261610591784, 4523934.737369636073709 ] ] ], [ [ [ 682247.127964515239, 4525169.003322659991682 ], [ 681878.812119876500219, 4523162.863870229572058 ], [ 679877.695991255692206, 4523113.839932696893811 ], [ 680246.212673372821882, 4525119.853247176855803 ], [ 682247.127964515239, 4525169.003322659991682 ] ] ], [ [ [ 710260.443102890858427, 4525914.150376400910318 ], [ 710077.674917048658244, 4524910.154532987624407 ], [ 709077.132209505885839, 4524881.740547360852361 ], [ 709259.950649105827324, 4525885.703996238298714 ], [ 710260.443102890858427, 4525914.150376400910318 ] ] ], [ [ [ 715080.408288991544396, 4525054.262255364097655 ], [ 714079.858949424349703, 4525025.168994902633131 ], [ 714262.426105465972796, 4526029.294715276919305 ], [ 715262.925183827523142, 4526058.420519696548581 ], [ 715080.408288991544396, 4525054.262255364097655 ] ] ], [ [ [ 718264.430504139978439, 4526146.613309220410883 ], [ 715262.925183827523142, 4526058.420519696548581 ], [ 715810.674952738685533, 4529071.263701085932553 ], [ 716811.024488106137142, 4529100.623237491585314 ], [ 716445.925405084388331, 4527091.934453507885337 ], [ 718446.829740757588297, 4527150.930820825509727 ], [ 718264.430504139978439, 4526146.613309220410883 ] ] ], [ [ [ 703723.102998026646674, 4533722.486953430809081 ], [ 703539.665777921676636, 4532718.259575151838362 ], [ 702539.535756374476478, 4532690.674486874602735 ], [ 702723.023349488386884, 4533694.869554367847741 ], [ 703723.102998026646674, 4533722.486953430809081 ] ] ], [ [ [ 697274.141649995930493, 4536544.395982500165701 ], [ 697090.251436179154553, 4535540.21036425139755 ], [ 696090.281157845398411, 4535513.481282413937151 ], [ 696274.22178413788788, 4536517.634740645997226 ], [ 697274.141649995930493, 4536544.395982500165701 ] ] ], [ [ [ 698484.119321841746569, 4548572.266660165973008 ], [ 698299.777250958723016, 4547567.375543484464288 ], [ 696301.052299699396826, 4547513.552435050718486 ], [ 696485.495584127842449, 4548518.378853607922792 ], [ 698484.119321841746569, 4548572.266660165973008 ] ] ], [ [ [ 693856.859454111661762, 4550448.214928855188191 ], [ 694226.284151628613472, 4552458.105400971136987 ], [ 692228.07716829678975, 4552405.324702779762447 ], [ 692412.941117074224167, 4553410.29787072725594 ], [ 690414.840039495145902, 4553357.999175149947405 ], [ 690784.871301220613532, 4555368.001532242633402 ], [ 688786.977524183224887, 4555316.120583260431886 ], [ 688972.144921488361433, 4556321.14983575977385 ], [ 691968.835085992119275, 4556399.273067935369909 ], [ 691783.819868566701189, 4555394.147060825489461 ], [ 693781.720389958936721, 4555446.848239849321544 ], [ 693596.840124663780443, 4554441.71934731118381 ], [ 694595.842805841704831, 4554468.242651768028736 ], [ 694411.046736364718527, 4553463.143163713626564 ], [ 696409.156944029615261, 4553516.535076217725873 ], [ 696224.495728717418388, 4552511.432599135674536 ], [ 698222.711946313735098, 4552565.306319587863982 ], [ 697669.23298396426253, 4549550.174901662394404 ], [ 696669.972326266230084, 4549523.266903043724597 ], [ 696485.495584127842449, 4548518.378853607922792 ], [ 695486.185475397505797, 4548491.639722473919392 ], [ 695670.712838658480905, 4549496.495448135770857 ], [ 694671.454515259480104, 4549469.86053413618356 ], [ 694856.065984358312562, 4550474.745588289573789 ], [ 693856.859454111661762, 4550448.214928855188191 ] ] ], [ [ [ 685647.986253765178844, 4565240.272070919163525 ], [ 685833.743579903268255, 4566245.758062751032412 ], [ 684835.362616601982154, 4566220.352543284185231 ], [ 685021.204448942909949, 4567225.868185934610665 ], [ 690012.865485353744589, 4567354.427534986287355 ], [ 689827.278157354099676, 4566348.750302509404719 ], [ 688828.89289301133249, 4566322.79671292938292 ], [ 688457.717110176687129, 4564311.692876608110964 ], [ 686460.746319804689847, 4564260.325973103754222 ], [ 686646.419166934792884, 4565265.782335489057004 ], [ 685647.986253765178844, 4565240.272070919163525 ] ] ], [ [ [ 689641.724371455027722, 4565343.135057678446174 ], [ 689827.278157354099676, 4566348.750302509404719 ], [ 690825.664511134149507, 4566374.840916349552572 ], [ 690640.161613577511162, 4565369.193283531814814 ], [ 689641.724371455027722, 4565343.135057678446174 ] ] ], [ [ [ 692009.537477052421309, 4567406.810634856112301 ], [ 691824.051960020675324, 4566401.068557170219719 ], [ 690825.664511134149507, 4566374.840916349552572 ], [ 691011.200934322201647, 4567380.550556478090584 ], [ 692009.537477052421309, 4567406.810634856112301 ] ] ] ] } }
]
}
