{
"type": "FeatureCollection",
"name": "urban-1985",
"crs": { "type": "name", "properties": { "name": "urn:ogc:def:crs:EPSG::32733" } },
"features": [
{ "type": "Feature", "properties": { "year": 1985 }, "geometry": { "type": "MultiPolygon", "coordinates": [ [ [ [ 313732.695224660332315, 9030822.805332712829113 ], [ 314838.536229141172953, 9030827.771669816225767 ], [ 314886.167253505613189, 9029030.84822635166347 ], [ 317097.795916553412098, 9029040.70790409296751 ], [ 317073.987920985673554, 9029939.165538618341088 ], [ 318179.803372232243419, 9029944.046975629404187 ], [ 318227.422796743456274, 9028147.131878305226564 ], [ 319333.214381907484494, 9028151.99145427159965 ], [ 319357.047714261803776, 9027253.526298999786377 ], [ 320462.824702693149447, 9027258.360045183449984 ], [ 320486.670678855385631, 9026359.891072487458587 ], [ 321592.433096685446799, 9026364.698933228850365 ], [ 321640.172197178937495, 9024567.745588069781661 ], [ 320534.42833739775233, 9024562.930080266669393 ], [ 320510.538557132822461, 9025461.41441996768117 ], [ 319404.780111526779365, 9025456.572968672960997 ], [ 319428.679176182369702, 9024558.084778904914856 ], [ 318322.924680836382322, 9024553.209683248773217 ], [ 318346.854950090870261, 9023654.709924824535847 ], [ 317241.104383050580509, 9023649.801130997017026 ], [ 317289.049294778611511, 9021852.77070976793766 ], [ 318394.78124558692798, 9021857.687304887920618 ], [ 318466.83507938060211, 9019162.095506863668561 ], [ 319572.533680387423374, 9019166.993832182139158 ], [ 319548.503154580132104, 9020065.528289644047618 ], [ 320654.205764044891112, 9020070.392816390842199 ], [ 320630.206475766492076, 9020968.915702421218157 ], [ 321735.913115626666695, 9020973.746484398841858 ], [ 321783.914931522333063, 9019176.700608067214489 ], [ 322889.597647014539689, 9019181.50906010530889 ], [ 322913.622050803445745, 9018282.978298708796501 ], [ 320702.270044124219567, 9018273.323842898011208 ], [ 320726.335035667521879, 9017374.777740705758333 ], [ 322937.668338244548067, 9017384.439787881448865 ], [ 322961.736509207927156, 9016485.893520254641771 ], [ 324067.385943434899673, 9016490.683279894292355 ], [ 324091.466629998933058, 9015592.132999381050467 ], [ 325197.101503470214084, 9015596.896445270627737 ], [ 325269.446658128639683, 9012901.210096605122089 ], [ 323058.228025683260057, 9012891.630734317004681 ], [ 323009.938501181313768, 9014688.777685115113854 ], [ 321904.302586601581424, 9014683.950331458821893 ], [ 322001.006763604294974, 9011089.610164122655988 ], [ 320895.403192479745485, 9011084.737516053020954 ], [ 320871.184897840954363, 9011983.338047159835696 ], [ 319765.566626781830564, 9011978.439020013436675 ], [ 319741.360826636780985, 9012877.035580113530159 ], [ 316424.445743170042988, 9012862.169075280427933 ], [ 316231.363222030457109, 9020050.755119659006596 ], [ 312914.174446827091742, 9020035.712549351155758 ], [ 312890.109842866717372, 9020934.26290232501924 ], [ 310678.604417601309251, 9020924.092939186841249 ], [ 310726.792946946225129, 9019126.968328855931759 ], [ 312938.261012603587005, 9019137.154476705938578 ], [ 313010.652479566575494, 9016441.433867199346423 ], [ 307482.080761049233843, 9016415.682515565305948 ], [ 307579.098044426529668, 9012821.198304064571857 ], [ 306473.404365757887717, 9012815.941252553835511 ], [ 306522.063878143089823, 9011018.644246952608228 ], [ 304310.697047880385071, 9011008.022883843630552 ], [ 304261.9998381229816, 9012805.336670774966478 ], [ 303156.288923803775106, 9012799.989138901233673 ], [ 303059.121267026639543, 9016394.540556382387877 ], [ 299741.840704178786837, 9016378.368541376665235 ], [ 299693.332854299456812, 9018175.62362395785749 ], [ 300799.117665767436847, 9018181.035692021250725 ], [ 300774.906203318503685, 9019079.647327065467834 ], [ 301880.694495427189395, 9019085.025092300027609 ], [ 301832.356441921496298, 9020882.216631311923265 ], [ 302938.157581222709268, 9020887.555867927148938 ], [ 302865.843847752432339, 9023583.272628391161561 ], [ 303971.667145554558374, 9023588.569182720035315 ], [ 303923.586800364078954, 9025385.666781364008784 ], [ 305029.422914360358845, 9025390.925038419663906 ], [ 305005.425080044486094, 9026289.458105722442269 ], [ 307217.098637624876574, 9026299.876902300864458 ], [ 307193.141387177165598, 9027198.393921967595816 ], [ 310510.636918278411031, 9027213.78662815131247 ], [ 310462.844023564714007, 9029010.772939670830965 ], [ 311568.683150812750682, 9029015.836254633963108 ], [ 311497.186384513508528, 9031711.246181884780526 ], [ 313708.903402393800206, 9031721.259597081691027 ], [ 313732.695224660332315, 9030822.805332712829113 ] ], [ [ 313780.344733069650829, 9029025.873897213488817 ], [ 313756.509001594036818, 9029924.343435203656554 ], [ 312650.671730867237784, 9029919.343467444181442 ], [ 312674.516709743067622, 9029020.869906893 ], [ 313780.344733069650829, 9029025.873897213488817 ] ], [ [ 317217.16481866221875, 9024548.304792560636997 ], [ 317193.247182093327865, 9025446.800764564424753 ], [ 316087.472632866003551, 9025441.870010271668434 ], [ 316111.39955696213292, 9024543.370106097310781 ], [ 317217.16481866221875, 9024548.304792560636997 ] ], [ [ 306255.526207817601971, 9020903.394088890403509 ], [ 307361.304261906887405, 9020908.613668918609619 ], [ 307337.214977337396704, 9021807.176758261397481 ], [ 305125.634482390072662, 9021796.71605634316802 ], [ 305173.872403136687353, 9019999.565434837713838 ], [ 306279.646838022919837, 9020004.81912537664175 ], [ 306255.526207817601971, 9020903.394088890403509 ] ], [ [ 304068.092214375617914, 9019994.28180317953229 ], [ 304092.253559703473002, 9019095.690710844472051 ], [ 305198.024397260276601, 9019100.978565772995353 ], [ 305173.872403136687353, 9019999.565434837713838 ], [ 304068.092214375617914, 9019994.28180317953229 ] ], [ [ 302986.476936657272745, 9019090.372886622324586 ], [ 303010.6696739414474, 9018191.769831655547023 ], [ 304116.436936033656821, 9018197.091904850676656 ], [ 304092.253559703473002, 9019095.690710844472051 ], [ 302986.476936657272745, 9019090.372886622324586 ] ], [ [ 306400.580193456960842, 9015511.828516045585275 ], [ 306376.349495530710556, 9016410.442101299762726 ], [ 304164.869781205430627, 9016399.871122509241104 ], [ 304189.119249799055979, 9015501.249131474643946 ], [ 306400.580193456960842, 9015511.828516045585275 ] ], [ [ 319717.176935331954155, 9013775.624351600185037 ], [ 319693.014952997269575, 9014674.205341836437583 ], [ 318587.363168632320594, 9014669.287704396992922 ], [ 318611.534540266031399, 9013770.702856766059995 ], [ 319717.176935331954155, 9013775.624351600185037 ] ] ], [ [ [ 342039.092050254461356, 9048009.83067980594933 ], [ 342062.253089923586231, 9047111.608389616012573 ], [ 339850.491675483121071, 9047103.246296932920814 ], [ 339804.155150912643876, 9048899.696774924173951 ], [ 343121.844511441246141, 9048912.17620156519115 ], [ 343144.974780008196831, 9048013.964765392243862 ], [ 342039.092050254461356, 9048009.83067980594933 ] ] ], [ [ [ 339781.019513318897225, 9049797.910722345113754 ], [ 339804.155150912643876, 9048899.696774924173951 ], [ 338698.249261697928887, 9048895.478881899267435 ], [ 338675.104591160197742, 9049793.69623115286231 ], [ 339781.019513318897225, 9049797.910722345113754 ] ] ], [ [ [ 347499.242319246055558, 9050724.783143291249871 ], [ 347591.575434632075485, 9047132.004453249275684 ], [ 346485.720113750780001, 9047127.983428673818707 ], [ 346439.492098935763352, 9048924.394262738525867 ], [ 345333.614156646188349, 9048920.350615251809359 ], [ 345264.407814913778566, 9051614.920090401545167 ], [ 346370.31281270692125, 9051618.954019919037819 ], [ 346393.3508764738217, 9050720.774956880137324 ], [ 347499.242319246055558, 9050724.783143291249871 ] ] ], [ [ [ 354111.522340275987517, 9051646.380772801116109 ], [ 354134.497361652902327, 9050748.223630484193563 ], [ 353028.632502080406994, 9050744.389335751533508 ], [ 353051.63817329966696, 9049846.221614023670554 ], [ 349734.044412725488655, 9049834.535536983981729 ], [ 349711.011700350209139, 9050732.712566398084164 ], [ 351922.763293834868819, 9050740.526060551404953 ], [ 351899.770265102619305, 9051638.689329175278544 ], [ 353005.648477499140427, 9051642.549527548253536 ], [ 352982.686099690035917, 9052540.702196793630719 ], [ 354088.56895705498755, 9052544.530390955507755 ], [ 354065.637212125468068, 9053442.672492329031229 ], [ 355171.524736701394431, 9053446.468735944479704 ], [ 355217.391886177530978, 9051650.183065518736839 ], [ 354111.522340275987517, 9051646.380772801116109 ] ] ], [ [ [ 355171.524736701394431, 9053446.468735944479704 ], [ 355148.623606612440199, 9054344.600300950929523 ], [ 356254.515820650907699, 9054348.364647682756186 ], [ 356277.407975264475681, 9053450.236082296818495 ], [ 355171.524736701394431, 9053446.468735944479704 ] ] ], [ [ [ 357291.883917121100239, 9057046.431892877444625 ], [ 357314.702258631354198, 9056148.328798146918416 ], [ 355102.886236406222451, 9056140.840927470475435 ], [ 355057.235387059277855, 9057937.051598547026515 ], [ 356163.163416869123466, 9057940.803930705413222 ], [ 356185.969085344229825, 9057042.705341959372163 ], [ 357291.883917121100239, 9057046.431892877444625 ] ] ] ] } }
]
}
