{
"type": "FeatureCollection",
"name": "urban-2100",
"crs": { "type": "name", "properties": { "name": "urn:ogc:def:crs:EPSG::32733" } },
"features": [
{ "type": "Feature", "properties": { "year": 2100 }, "geometry": { "type": "MultiPolygon", "coordinates": [ [ [ [ 298798.039621832198463, 8970526.383256817236543 ], [ 299903.327457330247853, 8970532.085344891995192 ], [ 299979.659727358433884, 8967834.919031905010343 ], [ 298874.401423676637933, 8967829.204069085419178 ], [ 298899.899509585578926, 8966930.12810373865068 ], [ 297794.645150679221842, 8966924.37729062512517 ], [ 297820.175183521292638, 8966025.288881240412593 ], [ 296714.924747827346437, 8966019.502163961529732 ], [ 296689.384842666448094, 8966918.5949144102633 ], [ 295584.118552988918964, 8966912.780974220484495 ], [ 295533.085301401268225, 8968710.950844181701541 ], [ 294427.793274327646941, 8968705.114136081188917 ], [ 294351.37964352616109, 8971402.321340676397085 ], [ 295456.701190135790966, 8971408.144840184599161 ], [ 295431.284024520660751, 8972307.193319298326969 ], [ 298747.242135122534819, 8972324.462198847904801 ], [ 298798.039621832198463, 8970526.383256817236543 ] ] ], [ [ [ 292089.847215837799013, 8973188.695539508014917 ], [ 293195.200540994526818, 8973194.572973515838385 ], [ 293169.807969452231191, 8974093.614145493134856 ], [ 294275.165013371617533, 8974099.455767303705215 ], [ 294351.37964352616109, 8971402.321340676397085 ], [ 293246.052044347045012, 8971396.466412344947457 ], [ 293220.615232668118551, 8972295.523731589317322 ], [ 292115.271723580546677, 8972289.641834689304233 ], [ 292089.847215837799013, 8973188.695539508014917 ] ] ], [ [ [ 320501.927594985405449, 8985016.88392411917448 ], [ 321607.259671915555373, 8985021.896961450576782 ], [ 321632.134907133702654, 8984123.059068212285638 ], [ 320526.812504311907105, 8984118.042257128283381 ], [ 320501.927594985405449, 8985016.88392411917448 ] ] ], [ [ [ 329319.653190505458042, 8985954.924540635198355 ], [ 328214.34755472058896, 8985950.132055537775159 ], [ 328189.574029908981174, 8986848.931829161942005 ], [ 330400.199571245815605, 8986858.47869024798274 ], [ 330449.729852803226095, 8985060.885405225679278 ], [ 329344.438901620043907, 8985056.120328741148114 ], [ 329319.653190505458042, 8985954.924540635198355 ] ] ], [ [ [ 306007.393985126109328, 8989443.239600870758295 ], [ 307112.845651884912513, 8989448.635005312040448 ], [ 307087.976623186958022, 8990347.476222537457943 ], [ 309298.882206399925053, 8990358.166221287101507 ], [ 309348.603717384743504, 8988560.492219066247344 ], [ 308243.173028906108811, 8988555.154472462832928 ], [ 308268.076423924649134, 8987656.301437292248011 ], [ 309373.497460963961203, 8987661.643265640363097 ], [ 309448.310642495634966, 8984965.048507576808333 ], [ 303921.293704005889595, 8984937.968112036585808 ], [ 303946.323856211383827, 8984039.066554222255945 ], [ 301735.496259317500517, 8984028.008878108114004 ], [ 301685.41923804365797, 8985825.820907277986407 ], [ 302790.855317393899895, 8985831.356784729287028 ], [ 302765.859560750541277, 8986730.246582021936774 ], [ 303871.29950440779794, 8986735.747260436415672 ], [ 303846.33545727096498, 8987634.624865766614676 ], [ 304951.779286925797351, 8987640.090399002656341 ], [ 304926.846930944593623, 8988538.955843664705753 ], [ 306032.294668296293821, 8988544.386285576969385 ], [ 306007.393985126109328, 8989443.239600870758295 ] ] ], [ [ [ 303846.33545727096498, 8987634.624865766614676 ], [ 302740.885847939702217, 8987629.128404252231121 ], [ 302715.934179088741075, 8988528.002258788794279 ], [ 303821.393445412744768, 8988533.494501676410437 ], [ 303846.33545727096498, 8987634.624865766614676 ] ] ], [ [ [ 279125.242800677428022, 9001889.110308872535825 ], [ 281336.701055108394939, 9001901.218299958854914 ], [ 281311.921049748489168, 9002800.051549533382058 ], [ 282417.650024292175658, 9002806.055016977712512 ], [ 282492.02802858868381, 9000109.546101870015264 ], [ 279174.907661405508406, 9000091.401130262762308 ], [ 279125.242800677428022, 9001889.110308872535825 ] ] ], [ [ [ 328884.692192357790191, 9043466.557696487754583 ], [ 328791.395100623602048, 9047059.689897144213319 ], [ 329897.327011091867462, 9047064.176493186503649 ], [ 329874.066386689082719, 9047962.437070723623037 ], [ 322132.372063637711108, 9047930.445782698690891 ], [ 322109.069892303203233, 9048828.724941905587912 ], [ 321003.083714173524641, 9048824.042279025539756 ], [ 320933.28140790713951, 9051518.846313571557403 ], [ 319827.262809586769436, 9051514.146202486008406 ], [ 319780.819384270638693, 9053310.652579959481955 ], [ 320886.856021864688955, 9053315.344945799559355 ], [ 320863.676174657419324, 9054213.583066683262587 ], [ 319757.630530388036277, 9054208.894575886428356 ], [ 319642.014853679807857, 9058699.992920722812414 ], [ 320748.105401725973934, 9058704.662012198939919 ], [ 320725.056940627284348, 9059602.855520851910114 ], [ 319618.957437743549235, 9059598.190314052626491 ], [ 319572.908326262142509, 9061394.562883714213967 ], [ 318466.785596233210526, 9061389.876779509708285 ], [ 318443.784971005981788, 9062288.055887335911393 ], [ 319549.916630962747149, 9062292.738074701279402 ], [ 319526.946842788136564, 9063190.905879558995366 ], [ 318420.806261541729327, 9063186.227610629051924 ], [ 318397.84946796274744, 9064084.391956716775894 ], [ 321716.28194326418452, 9064098.32923574000597 ], [ 321693.373774730367586, 9064996.47452917508781 ], [ 323905.653433956438676, 9065005.615455374121666 ], [ 323951.456041784840636, 9063209.332794040441513 ], [ 325057.570224006311037, 9063213.867985842749476 ], [ 325034.666891337605193, 9064112.009222224354744 ], [ 326140.784798801469151, 9064116.512044835835695 ], [ 326186.595506240846589, 9062320.229695396497846 ], [ 327292.690444092091639, 9062324.71138808131218 ], [ 327361.543625060585327, 9059630.243548899888992 ], [ 329573.664608433027752, 9059639.143112830817699 ], [ 329619.640154128312133, 9057842.808850318193436 ], [ 330725.675159557838924, 9057847.222827052697539 ], [ 330748.686712516238913, 9056949.048178872093558 ], [ 332960.723798106308095, 9056957.79699894413352 ], [ 332983.739230520033743, 9056059.622089736163616 ], [ 331877.732146429247223, 9056055.25850123167038 ], [ 331946.936220185365528, 9053360.678276924416423 ], [ 333052.916343107586727, 9053365.052592426538467 ], [ 333076.018985325994436, 9052466.847812255844474 ], [ 335287.94643491844181, 9052475.5167779289186 ], [ 335218.757880431599915, 9055170.087491381913424 ], [ 338536.693503002054058, 9055182.842742554843426 ], [ 338559.707620013563428, 9054284.670380525290966 ], [ 342983.519107789441478, 9054301.286944003775716 ], [ 343006.519030628260225, 9053403.120578011497855 ], [ 345218.378789077396505, 9053411.262172004207969 ], [ 345195.396837150445208, 9054309.421964371576905 ], [ 347407.256239572889172, 9054317.441483760252595 ], [ 347384.313944979803637, 9055215.587319567799568 ], [ 348490.24582896073116, 9055219.550575228407979 ], [ 348467.334189625282306, 9056117.685731763020158 ], [ 351785.129954958276358, 9056129.393005900084972 ], [ 351762.266860569012351, 9057027.511259621009231 ], [ 350656.330416167154908, 9057023.640766490250826 ], [ 350633.480033185565844, 9057921.754659004509449 ], [ 349527.530222253524698, 9057917.858518492430449 ], [ 349459.082277986628469, 9060612.164857482537627 ], [ 353882.962247279996518, 9060627.539585031569004 ], [ 353905.720881049870513, 9059729.457352176308632 ], [ 355011.671059645246714, 9059733.232373230159283 ], [ 354966.193255236139521, 9061529.383310556411743 ], [ 358284.071626354358159, 9061540.518235193565488 ], [ 358352.240550840040669, 9058846.307495513930917 ], [ 361670.000953437993303, 9058857.210688481107354 ], [ 361715.501329259597696, 9057061.050234816968441 ], [ 362821.395367327728309, 9057064.632857637479901 ], [ 362912.619234231649898, 9053472.233349572867155 ], [ 361806.761024054430891, 9053468.639374958351254 ], [ 361829.629893446399365, 9052570.517876764759421 ], [ 359617.919131519447546, 9052563.237495396286249 ], [ 359686.709189810615499, 9049868.810572501271963 ], [ 358580.874589596351143, 9049865.118260366842151 ], [ 358626.860642832994927, 9048068.790104912593961 ], [ 357521.03990053589223, 9048065.062915753573179 ], [ 357498.027046991279349, 9048963.23370510712266 ], [ 356392.193063583807088, 9048959.480418303981423 ], [ 356438.258443499100395, 9047163.125357499346137 ], [ 353120.785065437899902, 9047151.673195406794548 ], [ 353166.991224247962236, 9045355.269797941669822 ], [ 345426.193172292667441, 9045327.485813580453396 ], [ 345403.015858778264374, 9046225.713339852169156 ], [ 344297.160476534976624, 9046221.63086755014956 ], [ 344320.346852634043898, 9045323.40008270740509 ], [ 342108.640366094652563, 9045315.141172137111425 ], [ 342155.114570497651584, 9043518.643722714856267 ], [ 344366.784749115468003, 9043526.915821932256222 ], [ 344436.604452554136515, 9040832.132592387497425 ], [ 343330.798975234909449, 9040828.001306915655732 ], [ 343354.12475348834414, 9039929.721767839044333 ], [ 341142.518101619614754, 9039921.364701516926289 ], [ 341212.680575904436409, 9037226.460548108443618 ], [ 342318.458830461138859, 9037230.663721408694983 ], [ 342365.324198801419698, 9035434.029498063027859 ], [ 345682.576199517934583, 9035446.482252020388842 ], [ 345706.013978385832161, 9034548.163484258577228 ], [ 343494.535593682317995, 9034539.884593743830919 ], [ 343565.034260343702044, 9031844.862856160849333 ], [ 342459.315701594750863, 9031840.669322676956654 ], [ 342530.037494825723115, 9029145.568695947527885 ], [ 343635.728419889928773, 9029149.772085700184107 ], [ 343659.336581974348519, 9028251.393120432272553 ], [ 344765.013659611460753, 9028255.57012252882123 ], [ 344788.634306451247539, 9027357.186710495501757 ], [ 346999.956266368972138, 9027365.458132054656744 ], [ 347023.580138752004132, 9026467.073431931436062 ], [ 349234.8655364906881, 9026475.232383940368891 ], [ 349329.503868700936437, 9022881.641525622457266 ], [ 350435.10282520588953, 9022885.688861386850476 ], [ 350553.841968715540133, 9018393.541315641254187 ], [ 351659.390011843701359, 9018397.574199631810188 ], [ 351730.865508762421086, 9015702.201443394646049 ], [ 355047.399505899404176, 9015714.147428458556533 ], [ 355142.891042742179707, 9012120.243740901350975 ], [ 354037.421476680785418, 9012116.279869014397264 ], [ 354109.295440629008226, 9009420.760780209675431 ], [ 355214.736832824593876, 9009424.733577586710453 ], [ 355190.766604274220299, 9010323.244827594608068 ], [ 356296.213123795809224, 9010327.184440823271871 ], [ 356272.273917362268548, 9011225.684878310188651 ], [ 357377.725586255430244, 9011229.591361002996564 ], [ 357449.579881067504175, 9008534.07519824616611 ], [ 358554.999150713440031, 9008537.960173076018691 ], [ 358531.035510270274244, 9009436.470543963834643 ], [ 359636.460011818271596, 9009440.322392811998725 ], [ 359756.447159436822403, 9004947.705912780016661 ], [ 360861.820415286230855, 9004951.541684210300446 ], [ 360885.873187858029269, 9004052.997496355324984 ], [ 359780.50937882240396, 9004049.158898361027241 ], [ 359804.593194493791088, 9003150.603960460051894 ], [ 360909.94754808471771, 9003154.445383319631219 ], [ 360934.043495822930709, 9002255.885337667539716 ], [ 359828.69860630761832, 9002252.041091641411185 ], [ 359901.144417162286118, 8999556.304825320839882 ], [ 358795.823841331177391, 8999552.421583503484726 ], [ 358747.486065017175861, 9001349.592735167592764 ], [ 355431.442297827801667, 9001337.777190485969186 ], [ 355455.62883667438291, 9000439.186884976923466 ], [ 352139.575166563328821, 9000427.088030965998769 ], [ 352115.360165948863141, 9001325.687288079410791 ], [ 351009.99077763792593, 9001321.596349393948913 ], [ 350961.606792871141806, 9003118.777151700109243 ], [ 347645.415268537472002, 9003106.339988335967064 ], [ 347669.62485028692754, 9002207.744259491562843 ], [ 348775.016999659943394, 9002211.923537624999881 ], [ 348799.238788796472363, 9001313.323011485859752 ], [ 349904.616996125550941, 9001317.474924068897963 ], [ 350026.003629610175267, 8996824.36866289190948 ], [ 352236.65172918519238, 8996832.611515291035175 ], [ 352260.975009171583224, 8995933.972477423027158 ], [ 353366.282977825263515, 8995938.050971819087863 ], [ 353341.96922928118147, 8996836.687007004395127 ], [ 354447.282406386220828, 8996840.73187654837966 ], [ 354422.999826598679647, 8997739.356961973011494 ], [ 355528.318234125734307, 8997743.368260273709893 ], [ 355504.066804966540076, 8998641.98242730461061 ], [ 358820.025135858799331, 8998653.824072949588299 ], [ 358844.248034441494383, 8997755.218596000224352 ], [ 359949.549602467450313, 8997759.107523508369923 ], [ 359998.041168879484758, 8995961.878319514915347 ], [ 358892.758643194974866, 8995957.983713153749704 ], [ 358941.355666436022148, 8994160.71687544696033 ], [ 362257.133672138908878, 8994172.32560926862061 ], [ 362305.759780353750102, 8992375.043588478118181 ], [ 363410.991848114528693, 8992378.857267778366804 ], [ 363435.327702288748696, 8991480.206973584368825 ], [ 362330.10520023771096, 8991476.390546344220638 ], [ 362354.472197110997513, 8990577.729473119601607 ], [ 357933.579607271414716, 8990562.144684929400682 ], [ 357982.455049520125613, 8988764.775919308885932 ], [ 351351.105080591281876, 8988740.439003240317106 ], [ 351375.632864688988775, 8987841.724877232685685 ], [ 352480.85900707996916, 8987845.861214838922024 ], [ 352529.960317171993665, 8986048.414848450571299 ], [ 351424.753421154164243, 8986044.272486891597509 ], [ 351400.182311590877362, 8986943.002707596868277 ], [ 349189.736100610927679, 8986934.631233170628548 ], [ 349214.326468230516184, 8986035.894908176735044 ], [ 345898.652647993178107, 8986023.096391575410962 ], [ 345923.293616082752123, 8985124.342655126005411 ], [ 344818.069617071188986, 8985120.011400559917092 ], [ 344842.741941688698716, 8984221.246435033157468 ], [ 342632.299504405236803, 8984212.484550992026925 ], [ 342657.012865366530605, 8983313.705100299790502 ], [ 341551.794373692071531, 8983309.274389158934355 ], [ 341527.071350068436004, 8984208.057091975584626 ], [ 334895.6032720397925, 8984180.84105746820569 ], [ 334870.844042593496852, 8985079.635800180956721 ], [ 333765.572872219898272, 8985074.994686666876078 ], [ 333716.100493251113221, 8986872.56695550866425 ], [ 330400.199571245815605, 8986858.47869024798274 ], [ 330375.46717098238878, 8987757.263301694765687 ], [ 328164.822349475463852, 8987747.723588000983 ], [ 328189.574029908981174, 8986848.931829161942005 ], [ 327084.253683470771648, 8986844.111991185694933 ], [ 327109.036858622333966, 8985945.308604545891285 ], [ 326003.721069622086361, 8985940.45418693125248 ], [ 326028.535757747653406, 8985041.639141175895929 ], [ 324923.224504394223914, 8985036.750090185552835 ], [ 324873.597676097997464, 8986834.379496723413467 ], [ 323768.26194997841958, 8986829.466838764026761 ], [ 323793.074082555365749, 8985930.652448885142803 ], [ 322687.742819307954051, 8985925.705126972869039 ], [ 322712.586494067218155, 8985026.879001067951322 ], [ 321607.259671915555373, 8985021.896961450576782 ], [ 321483.21193996060174, 8989515.966287337243557 ], [ 320377.831622505153064, 8989510.972144702449441 ], [ 320353.078143771621399, 8990409.765817701816559 ], [ 313720.626194416778162, 8990379.176120359450579 ], [ 313695.836917932028882, 8991277.98510998673737 ], [ 311484.956790217780508, 8991267.549823606386781 ], [ 311509.765309842303395, 8990368.732851764187217 ], [ 310404.32655178575078, 8990363.464957159012556 ], [ 310379.508408949070144, 8991262.285961167886853 ], [ 307063.129604114568792, 8991246.309487286955118 ], [ 307038.304594796150923, 8992145.134806936606765 ], [ 305932.82404517789837, 8992139.751827482134104 ], [ 305957.658673438883852, 8991240.922364452853799 ], [ 303746.699622784333769, 8991230.055666584521532 ], [ 303697.01391976053128, 8993027.723397847265005 ], [ 302591.506498680450022, 8993022.252273907884955 ], [ 302541.889738679863513, 8994819.896763911470771 ], [ 300330.818997978931293, 8994808.879304135218263 ], [ 300455.122385706868954, 8990314.665951548144221 ], [ 299349.626286666491069, 8990309.089607639238238 ], [ 299299.819485654123127, 8992106.807337168604136 ], [ 298194.298210946493782, 8992101.208812095224857 ], [ 298219.200202939333394, 8991202.349578842520714 ], [ 297113.682607730384916, 8991196.715895781293511 ], [ 297014.168656825553626, 8994792.122774176299572 ], [ 294803.03856193064712, 8994780.798184141516685 ], [ 294778.196105205395725, 8995679.638955494388938 ], [ 292567.022617595852353, 8995668.200431618839502 ], [ 292542.183089966478292, 8996567.042247153818607 ], [ 289225.348132922779769, 8996549.667887263000011 ], [ 289275.106884810258634, 8994751.94916370883584 ], [ 288169.502041441039182, 8994746.087202014401555 ], [ 288194.424252101220191, 8993847.211424961686134 ], [ 283771.980552395631094, 8993823.437736295163631 ], [ 283796.963410541880876, 8992924.535451928153634 ], [ 282691.346255289274268, 8992918.510429570451379 ], [ 282716.3609398502158, 8992019.595530750229955 ], [ 283821.968461095471866, 8992025.62527322769165 ], [ 283872.045138942252379, 8990227.781203476712108 ], [ 284977.626995808794163, 8990233.789519237354398 ], [ 285002.68896392127499, 8989334.860301084816456 ], [ 283897.116765993705485, 8989328.847297748550773 ], [ 283922.210584969492629, 8988429.905468333512545 ], [ 282816.641686718445271, 8988423.856862565502524 ], [ 282741.397825393942185, 8991120.672731976956129 ], [ 281635.79354278370738, 8991114.607435770332813 ], [ 281610.747013378015254, 8992013.534980336204171 ], [ 279399.499814195209183, 8992001.321452021598816 ], [ 279374.456220658030361, 8992900.250675536692142 ], [ 280480.092692989506759, 8992906.368042293936014 ], [ 280455.080955436511431, 8993805.284574331715703 ], [ 279349.434854316874407, 8993799.172011578455567 ], [ 279224.661434715264477, 8998293.66063622571528 ], [ 281436.043185281800106, 8998305.807052297517657 ], [ 281460.934244414442219, 8997406.934641407802701 ], [ 283672.271046291687526, 8997418.968077136203647 ], [ 283647.399151986814104, 8998317.830999860540032 ], [ 284753.067548031918705, 8998323.797050230205059 ], [ 284728.227418851514813, 8999222.647417919710279 ], [ 285833.899037747934926, 8999228.578176569193602 ], [ 285784.304448800627142, 9001026.246025424450636 ], [ 286889.988864550483413, 9001032.136892985552549 ], [ 286815.7919070571661, 9003728.56597631983459 ], [ 287921.498638123041019, 9003734.412425369024277 ], [ 287896.820170783845242, 9004633.201854400336742 ], [ 289002.530160292051733, 9004639.013250682502985 ], [ 288928.656207791471388, 9007335.320905987173319 ], [ 290034.388462373055518, 9007341.088139029219747 ], [ 290009.817592576262541, 9008239.837191922590137 ], [ 291115.55312942765886, 9008245.569531487300992 ], [ 291066.49674747500103, 9010043.03518521040678 ], [ 296595.177237237221561, 9010071.197504814714193 ], [ 296570.729491556878202, 9010969.896276276558638 ], [ 294359.256639919592999, 9010958.730979271233082 ], [ 294334.81210772076156, 9011857.430864533409476 ], [ 293229.057153315166943, 9011851.807363707572222 ], [ 293253.511125739780255, 9010953.102996481582522 ], [ 289936.237837588181719, 9010936.037700729444623 ], [ 289960.742280063277576, 9010037.311965443193913 ], [ 287749.214714341098443, 9010025.774763153865933 ], [ 287798.327894718036987, 9008228.281585736200213 ], [ 286692.573668356635608, 9008222.458317363634706 ], [ 286766.438107408466749, 9005526.146295761689544 ], [ 285660.706060369091574, 9005520.278720384463668 ], [ 285636.05291231663432, 9006419.061844788491726 ], [ 284530.305039481841959, 9006413.168565912172198 ], [ 284579.652523636701517, 9004615.585141887888312 ], [ 282368.175699986168183, 9004603.688554918393493 ], [ 282343.471841756952927, 9005502.493624225258827 ], [ 283449.222960216691718, 9005508.452385511249304 ], [ 283399.900850723613985, 9007306.029668353497982 ], [ 284505.664575613569468, 9007311.948595153167844 ], [ 284456.45020489039598, 9009109.4853247217834 ], [ 285562.226529580017086, 9009115.364520721137524 ], [ 285537.662089538527653, 9010014.116538025438786 ], [ 286643.441550666291732, 9010019.960778884589672 ], [ 286594.39810743345879, 9011817.432199813425541 ], [ 287700.19017368007917, 9011823.23689323477447 ], [ 287675.711143541964702, 9012721.95633384026587 ], [ 288781.506379900733009, 9012727.726205762475729 ], [ 288757.058938500471413, 9013626.433284267783165 ], [ 289862.857366731506772, 9013632.168388651683927 ], [ 289838.441495702369139, 9014530.86313640512526 ], [ 290944.243137575802393, 9014536.563527209684253 ], [ 290919.858818556182086, 9015435.245975565165281 ], [ 292025.66369585058419, 9015440.911706743761897 ], [ 292001.310910485917702, 9016339.581887055188417 ], [ 293107.119044990336988, 9016345.213012555614114 ], [ 293058.498622355517, 9018142.521188199520111 ], [ 294164.319415347243194, 9018148.113268252462149 ], [ 294140.051751178165432, 9019046.751300603151321 ], [ 295245.875835204322357, 9019052.308908566832542 ], [ 295221.639641106652562, 9019950.934772618114948 ], [ 296327.467037988710217, 9019956.457962425425649 ], [ 296303.262295633321628, 9020855.071689547970891 ], [ 297409.093027201830409, 9020860.560515128076077 ], [ 297433.288419405813329, 9019961.95120458304882 ], [ 298539.103818059142213, 9019967.414499923586845 ], [ 298587.542127651511692, 9018170.181555971503258 ], [ 299693.332854299456812, 9018175.62362395785749 ], [ 299669.112027634866536, 9019074.239590106531978 ], [ 300774.906203318503685, 9019079.647327065467834 ], [ 300750.716797878558282, 9019978.251253459602594 ], [ 301856.514444443397224, 9019983.624713296070695 ], [ 301735.944918909401167, 9024476.507420295849442 ], [ 302841.783350335783325, 9024481.829521497711539 ], [ 302793.728476847754791, 9026278.920311156660318 ], [ 303899.579675504297484, 9026284.204083586111665 ], [ 303851.631521868985146, 9028081.25573050789535 ], [ 304957.495481504127383, 9028086.501277837902308 ], [ 304933.563717525452375, 9028985.011397320777178 ], [ 306039.431177095219027, 9028990.223037390038371 ], [ 306015.530691626830958, 9029888.72130810469389 ], [ 307121.401673050480895, 9029893.899094799533486 ], [ 307097.532447824720293, 9030792.385548148304224 ], [ 308203.406973030534573, 9030797.529535349458456 ], [ 308179.568989785795566, 9031696.004202742129564 ], [ 309285.447080711775925, 9031701.114444324746728 ], [ 309333.126567882020026, 9029904.16575369797647 ], [ 308227.266954229038674, 9029899.047243069857359 ], [ 308251.148933257500175, 9029000.55731856636703 ], [ 307145.292904766683932, 9028995.405010877177119 ], [ 307193.141387177165598, 9027198.393921967595816 ], [ 308298.978884310577996, 9027203.554543532431126 ], [ 308275.052909992518835, 9028102.059754500165582 ], [ 309380.894011734693777, 9028107.186527565121651 ], [ 309356.99929528508801, 9029005.679961239919066 ], [ 310462.844023564714007, 9029010.772939670830965 ], [ 310438.980546727660112, 9029909.254627455025911 ], [ 311544.828923483612016, 9029914.313865115866065 ], [ 311497.186384513508528, 9031711.246181884780526 ], [ 313708.903402393800206, 9031721.259597081691027 ], [ 313685.133534919121303, 9032619.706235658377409 ], [ 314790.99298882635776, 9032624.6645741276443 ], [ 314814.753635914879851, 9031726.221935693174601 ], [ 315920.598396115936339, 9031731.154695983976126 ], [ 315944.371761348214932, 9030832.708401231095195 ], [ 319261.845851483580191, 9030847.340968793258071 ], [ 319285.613450391392689, 9029948.898781813681126 ], [ 320391.418188174022362, 9029953.720957906916738 ], [ 320367.659821748733521, 9030852.159284884110093 ], [ 321473.468483312870376, 9030856.947998978197575 ], [ 321449.741242437623441, 9031755.374848626554012 ], [ 322555.553849778370932, 9031760.130154529586434 ], [ 322531.857716250815429, 9032658.545558273792267 ], [ 323637.67429137264844, 9032663.267509788274765 ], [ 323519.567842682939954, 9037155.211270498111844 ], [ 324625.425130806921516, 9037159.884883025661111 ], [ 324531.370354613987729, 9040753.288045879453421 ], [ 325637.259038550080732, 9040757.917295658960938 ], [ 325566.974931287462823, 9043452.878936938941479 ], [ 324461.058902473829221, 9043448.260920695960522 ], [ 324414.293950573075563, 9045244.871758304536343 ], [ 326626.157220216235146, 9045254.063635850325227 ], [ 326649.510584067378659, 9044355.769458141177893 ], [ 327755.425422501575667, 9044360.325351381674409 ], [ 327778.791543489089236, 9043462.027324141934514 ], [ 328884.692192357790191, 9043466.557696487754583 ] ], [ [ 322845.336645345378201, 9063204.768988205119967 ], [ 322868.2796756651951, 9062306.612774459645152 ], [ 323974.390154816792347, 9062311.180389272049069 ], [ 323951.456041784840636, 9063209.332794040441513 ], [ 322845.336645345378201, 9063204.768988205119967 ] ], [ [ 330840.951123390346766, 9053356.275051156058908 ], [ 330864.0717752337805, 9052458.063098737969995 ], [ 331970.047866722103208, 9052462.469924308359623 ], [ 331946.936220185365528, 9053360.678276924416423 ], [ 330840.951123390346766, 9053356.275051156058908 ] ], [ [ 351326.598959441122133, 8989639.145093055441976 ], [ 350221.34922510368051, 8989634.98394407145679 ], [ 350245.864948840928264, 8988736.274810610339046 ], [ 351351.105080591281876, 8988740.439003240317106 ], [ 351326.598959441122133, 8989639.145093055441976 ] ], [ [ 350172.382792975869961, 8991432.378137327730656 ], [ 349067.109464640903752, 8991428.192292645573616 ], [ 349116.095078033744358, 8989630.791952218860388 ], [ 350221.34922510368051, 8989634.98394407145679 ], [ 350172.382792975869961, 8991432.378137327730656 ] ], [ [ 349165.16741294338135, 8987833.35951055213809 ], [ 348059.928038429177832, 8987829.130480211228132 ], [ 348084.506348002585582, 8986930.399107923731208 ], [ 349189.736100610927679, 8986934.631233170628548 ], [ 349165.16741294338135, 8987833.35951055213809 ] ], [ [ 335926.676561454252806, 8986881.804456392303109 ], [ 335852.689258383587003, 8989578.082070861011744 ], [ 338063.303737971815281, 8989587.175534185022116 ], [ 337989.570081151498016, 8992283.360772617161274 ], [ 339094.898937489488162, 8992287.851184736937284 ], [ 339070.374165515997447, 8993186.56026454269886 ], [ 334648.991640654508956, 8993168.427575178444386 ], [ 334673.554735833429731, 8992269.704925391823053 ], [ 333568.2065866246121, 8992265.091437067836523 ], [ 333592.801067107706331, 8991366.35734742693603 ], [ 331382.109209183254279, 8991357.03105727955699 ], [ 331406.74469600059092, 8990458.281984267756343 ], [ 333617.4173493552953, 8990467.615271417424083 ], [ 333642.055433230649214, 8989568.865201631560922 ], [ 334747.374780299374834, 8989573.489062331616879 ], [ 334772.025047640316188, 8988674.734445372596383 ], [ 333666.715318596572615, 8988670.107130659744143 ], [ 333716.100493251113221, 8986872.56695550866425 ], [ 335926.676561454252806, 8986881.804456392303109 ] ], [ [ 296375.942798035684973, 9018159.20741693302989 ], [ 296424.506924388697371, 9016361.926034240052104 ], [ 294212.921070345910266, 9016350.814078353345394 ], [ 294310.389683601271827, 9012756.122992519289255 ], [ 295416.147997531399596, 9012761.711841320618987 ], [ 295440.560991214413662, 9011863.024169601500034 ], [ 296546.30383647850249, 9011868.587279755622149 ], [ 296448.822124626487494, 9015463.273760611191392 ], [ 297554.596625179750845, 9015468.789060600101948 ], [ 297530.29081846337067, 9016367.436926009133458 ], [ 298636.068734162778128, 9016372.917761445045471 ], [ 298587.542127651511692, 9018170.181555971503258 ], [ 296375.942798035684973, 9018159.20741693302989 ] ], [ [ 329119.463380902539939, 9034483.197441730648279 ], [ 330225.267557006562129, 9034487.734894204884768 ], [ 330201.701362606312614, 9035386.101496769115329 ], [ 329095.888006463530473, 9035381.567666258662939 ], [ 329119.463380902539939, 9034483.197441730648279 ] ], [ [ 338201.974783277430106, 9025534.829923238605261 ], [ 339307.647533268434927, 9025539.165445292368531 ], [ 339331.379636204103008, 9024640.742370115593076 ], [ 340437.038373473566025, 9024645.051495306193829 ], [ 340460.782956651062705, 9023746.624053230509162 ], [ 341566.427707245282363, 9023750.906725833192468 ], [ 341518.978825823636726, 9025547.747226800769567 ], [ 340413.315536555135623, 9025543.471212929114699 ], [ 340389.614446030696854, 9026441.883213490247726 ], [ 339283.937185363494791, 9026437.580805066972971 ], [ 339236.581755180319306, 9028234.388407941907644 ], [ 338130.881255959975533, 9028230.063050577417016 ], [ 338083.594391200691462, 9030026.846665196120739 ], [ 336977.870651284174528, 9030022.498474285006523 ], [ 336954.250649144174531, 9030920.88218486495316 ], [ 335848.512874938896857, 9030916.507824577391148 ], [ 335824.905437344219536, 9031814.887318573892117 ], [ 334719.153602783451788, 9031810.48684461414814 ], [ 334813.750933149305638, 9028216.908937834203243 ], [ 337025.175974344660062, 9028225.708020210266113 ], [ 337048.861294999776874, 9027327.301261957734823 ], [ 338154.557334508514032, 9027331.659709569066763 ], [ 338201.974783277430106, 9025534.829923238605261 ] ], [ [ 305005.425080044486094, 9026289.458105722442269 ], [ 306111.264723181026056, 9026294.682378364726901 ], [ 306087.298192995367572, 9027193.203579857945442 ], [ 304981.449269051488955, 9027187.983516417443752 ], [ 305005.425080044486094, 9026289.458105722442269 ] ], [ [ 348271.368267347919755, 9021080.716178443282843 ], [ 349376.953096855897456, 9021084.799610752612352 ], [ 349353.217644388845656, 9021983.224448164924979 ], [ 348247.623522260575555, 9021979.144147910177708 ], [ 348271.368267347919755, 9021080.716178443282843 ] ], [ [ 347284.874556840688456, 9016584.330607270821929 ], [ 348390.417269137105905, 9016588.459697652608156 ], [ 348366.564099057926796, 9017486.926569620147347 ], [ 346155.455491890897974, 9017478.64469481818378 ], [ 346131.605349265795667, 9018377.110104277729988 ], [ 345026.03491935756756, 9018372.927379474043846 ], [ 345049.894392106041778, 9017474.4587625823915 ], [ 343944.328717971511651, 9017470.242832947522402 ], [ 343992.13148336391896, 9015673.275756349787116 ], [ 347308.758756912546232, 9015685.852783214300871 ], [ 347284.874556840688456, 9016584.330607270821929 ] ], [ [ 343102.851944163907319, 9007582.255087206140161 ], [ 346419.239361976855434, 9007595.009292172268033 ], [ 346395.150505012425128, 9008493.560820531100035 ], [ 343078.734808770066593, 9008480.816264411434531 ], [ 343102.851944163907319, 9007582.255087206140161 ] ], [ [ 350865.098807106376626, 9006713.043807884678245 ], [ 353075.946725352318026, 9006721.158829052001238 ], [ 353051.892749597493093, 9007619.699681892991066 ], [ 350841.025974770716857, 9007611.590734299272299 ], [ 350865.098807106376626, 9006713.043807884678245 ] ], [ [ 339021.38989802566357, 8994983.954491166397929 ], [ 340126.742721330840141, 8994988.404158508405089 ], [ 340004.710513200494461, 8999481.733798610046506 ], [ 338899.310015078517608, 8999477.300794579088688 ], [ 338948.076690005371347, 8997679.986109836027026 ], [ 336737.299505392904393, 8997671.014950633049011 ], [ 336761.734555135830306, 8996772.338949955999851 ], [ 338972.492666732752696, 8996781.316856563091278 ], [ 339021.38989802566357, 8994983.954491166397929 ] ], [ [ 344621.472745361214038, 8992309.841748654842377 ], [ 345726.773640351020731, 8992314.147566758096218 ], [ 345677.860711007029749, 8994111.518667520955205 ], [ 344572.540678498276975, 8994107.219225749373436 ], [ 344621.472745361214038, 8992309.841748654842377 ] ] ], [ [ [ 323308.354540890082717, 9045240.232077931985259 ], [ 323284.995788770378567, 9046138.529973490163684 ], [ 324390.944279860472307, 9046143.165875475853682 ], [ 324414.293950573075563, 9045244.871758304536343 ], [ 323308.354540890082717, 9045240.232077931985259 ] ] ], [ [ [ 318512.852593486779369, 9059593.496380964294076 ], [ 319618.957437743549235, 9059598.190314052626491 ], [ 319642.014853679807857, 9058699.992920722812414 ], [ 318535.918965267948806, 9058695.295075591653585 ], [ 318512.852593486779369, 9059593.496380964294076 ] ] ], [ [ [ 366161.389980456326157, 8972614.337136887013912 ], [ 367266.397696239873767, 8972618.116806907579303 ], [ 367291.17875879368512, 8971719.296033227816224 ], [ 366186.180795776075684, 8971715.513735534623265 ], [ 366161.389980456326157, 8972614.337136887013912 ] ] ], [ [ [ 357049.052911616803613, 8982469.732289860025048 ], [ 358154.19983936654171, 8982473.731382524594665 ], [ 358129.600037985481322, 8983372.476267091929913 ], [ 359234.752445113495924, 8983376.441462317481637 ], [ 359259.342590446351096, 8982477.699417814612389 ], [ 361469.615692837978713, 8982485.542318671941757 ], [ 361543.45770587248262, 8979789.284326201304793 ], [ 362648.559111286711413, 8979793.16745656915009 ], [ 362722.566288964124396, 8977096.844575606286526 ], [ 363827.634565132320859, 8977100.704734817147255 ], [ 363877.06112324167043, 8975303.120843159034848 ], [ 364982.105959743494168, 8975306.955164350569248 ], [ 364957.391617960180156, 8976205.748500607907772 ], [ 366062.442200262565166, 8976209.548887131735682 ], [ 366037.759126236895099, 8977108.331398254260421 ], [ 367142.815476259449497, 8977112.097903633490205 ], [ 367167.488840714795515, 8976213.318028936162591 ], [ 368272.531571856699884, 8976217.055926596745849 ], [ 368297.216759011498652, 8975318.270494375377893 ], [ 367192.183745090849698, 8975314.529989387840033 ], [ 367241.63817300403025, 8973516.929385846480727 ], [ 366136.620713094598614, 8973513.15234525129199 ], [ 366161.389980456326157, 8972614.337136887013912 ], [ 365056.378326786216348, 8972610.52611275203526 ], [ 365106.001021391595714, 8970812.86580129340291 ], [ 362896.004808566474821, 8970805.138907687738538 ], [ 362920.868035466817673, 8969906.291061354801059 ], [ 360710.875237812637351, 8969898.433031035587192 ], [ 360611.473679704300594, 8973493.797229219228029 ], [ 359506.432098520279396, 8973489.832219302654266 ], [ 359432.078439771779813, 8976186.277876963838935 ], [ 360537.149219438433647, 8976190.234495783224702 ], [ 360512.417582677910104, 8977089.030599286779761 ], [ 359407.337087470106781, 8977085.076780995354056 ], [ 359357.919184675673023, 8978882.650161033496261 ], [ 358252.815144205000252, 8978878.67078285291791 ], [ 358228.128903391421773, 8979777.44810688868165 ], [ 357123.010998642304912, 8979773.44042239151895 ], [ 357098.336684490437619, 8980672.212487583979964 ], [ 355993.20488954189932, 8980668.1765526086092 ], [ 355968.542518480098806, 8981566.943397246301174 ], [ 354863.396807406214066, 8981562.879267627373338 ], [ 354789.510480932134669, 8984259.139981718733907 ], [ 355894.685169179283548, 8984263.195344965904951 ], [ 355919.28265815298073, 8983364.452785976231098 ], [ 357024.443453186599072, 8983368.480041846632957 ], [ 357049.052911616803613, 8982469.732289860025048 ] ] ], [ [ [ 367953.58354033989599, 8987900.526103787124157 ], [ 367977.988809098082129, 8987001.846254801377654 ], [ 366872.830144924577326, 8986998.139780959114432 ], [ 366848.41527120443061, 8987896.822259869426489 ], [ 367953.58354033989599, 8987900.526103787124157 ] ] ], [ [ [ 365694.45877231634222, 8989690.433608930557966 ], [ 365718.840150832838845, 8988791.76459744386375 ], [ 364613.654406692832708, 8988788.001662084832788 ], [ 364589.263438525551464, 8989686.673361646011472 ], [ 365694.45877231634222, 8989690.433608930557966 ] ] ], [ [ [ 369058.747919971647207, 8987904.199059652164578 ], [ 367953.58354033989599, 8987900.526103787124157 ], [ 367929.199804812611546, 8988799.197883240878582 ], [ 366824.021939348080195, 8988795.496670976281166 ], [ 366799.650149503839202, 8989694.163021733984351 ], [ 365694.45877231634222, 8989690.433608930557966 ], [ 365670.098944592755288, 8990589.094569252803922 ], [ 367880.496934046212118, 8990596.517263391986489 ], [ 367904.837602665123995, 8989697.861600622534752 ], [ 369010.021164375706576, 8989701.529346153140068 ], [ 369058.747919971647207, 8987904.199059652164578 ] ] ], [ [ [ 355142.891042742179707, 9012120.243740901350975 ], [ 356248.356334248092026, 9012124.177456820383668 ], [ 356272.273917362268548, 9011225.684878310188651 ], [ 355166.818007532972842, 9011221.748212892562151 ], [ 355142.891042742179707, 9012120.243740901350975 ] ] ], [ [ [ 350152.339078659424558, 9033666.053802352398634 ], [ 351258.044329533702694, 9033670.034230336546898 ], [ 351211.238742202986032, 9035466.64785660803318 ], [ 352316.957926325441804, 9035470.592635242268443 ], [ 352387.171292640850879, 9032775.669918490573764 ], [ 353492.858607791422401, 9032779.59438861720264 ], [ 353539.757402617135085, 9030982.946959294378757 ], [ 352434.088466461631469, 9030979.01640573143959 ], [ 352457.579531844006851, 9030080.678116675466299 ], [ 351351.915438757627271, 9030076.714913738891482 ], [ 351375.437368299928494, 9029178.365861427038908 ], [ 348058.44624786026543, 9029166.289226856082678 ], [ 348034.89667639817344, 9030064.647638104856014 ], [ 346929.214818938227836, 9030060.565988590940833 ], [ 346905.677726820053067, 9030958.919884141534567 ], [ 345799.982138259219937, 9030954.81182480789721 ], [ 345752.954649711842649, 9032751.502986991778016 ], [ 346858.668628935643937, 9032755.604634653776884 ], [ 346835.196623440482654, 9033653.935504401102662 ], [ 349046.629399153403938, 9033662.043872440233827 ], [ 349023.197434061090462, 9034560.360743850469589 ], [ 350128.916284404927865, 9034564.367545867338777 ], [ 350152.339078659424558, 9033666.053802352398634 ] ] ], [ [ [ 346811.746313756273594, 9034552.258713658899069 ], [ 346835.196623440482654, 9033653.935504401102662 ], [ 345729.473461829009466, 9033649.837065044790506 ], [ 345706.013978385832161, 9034548.163484258577228 ], [ 346811.746313756273594, 9034552.258713658899069 ] ] ], [ [ [ 343400.841477767680772, 9038133.139870690181851 ], [ 343424.232423527049832, 9037234.837497858330607 ], [ 342318.458830461138859, 9037230.663721408694983 ], [ 342295.058742522029206, 9038128.969392830505967 ], [ 343400.841477767680772, 9038133.139870690181851 ] ] ] ] } }
]
}
