{
"type": "FeatureCollection",
"name": "urban-2070",
"crs": { "type": "name", "properties": { "name": "urn:ogc:def:crs:EPSG::32733" } },
"features": [
{ "type": "Feature", "properties": { "year": 2070 }, "geometry": { "type": "MultiPolygon", "coordinates": [ [ [ [ 297743.651338504161686, 8968722.529730996116996 ], [ 297820.175183521292638, 8966025.288881240412593 ], [ 296714.924747827346437, 8966019.502163961529732 ], [ 296689.384842666448094, 8966918.5949144102633 ], [ 295584.118552988918964, 8966912.780974220484495 ], [ 295558.5908762057079, 8967811.869968047365546 ], [ 296663.867030660971068, 8967817.67953802831471 ], [ 296638.37131193827372, 8968716.756042193621397 ], [ 294427.793274327646941, 8968705.114136081188917 ], [ 294351.37964352616109, 8971402.321340676397085 ], [ 297667.326255937456153, 8971419.697556251659989 ], [ 297692.745865196338855, 8970520.649716034531593 ], [ 298798.039621832198463, 8970526.383256817236543 ], [ 298848.925413661985658, 8968728.271911460906267 ], [ 297743.651338504161686, 8968722.529730996116996 ] ] ], [ [ [ 306107.128825575229712, 8985847.778517225757241 ], [ 306057.217369513586164, 8987645.525004787370563 ], [ 307162.649737643834669, 8987650.928683945909142 ], [ 307112.845651884912513, 8989448.635005312040448 ], [ 309323.731965820130426, 8989459.333201821893454 ], [ 309348.603717384743504, 8988560.492219066247344 ], [ 308243.173028906108811, 8988555.154472462832928 ], [ 308317.949215519591235, 8985858.571430610492826 ], [ 306107.128825575229712, 8985847.778517225757241 ] ] ], [ [ [ 282791.538198948663194, 8989322.803405221551657 ], [ 282741.397825393942185, 8991120.672731976956129 ], [ 281635.79354278370738, 8991114.607435770332813 ], [ 281610.747013378015254, 8992013.534980336204171 ], [ 283821.968461095471866, 8992025.62527322769165 ], [ 283872.045138942252379, 8990227.781203476712108 ], [ 284977.626995808794163, 8990233.789519237354398 ], [ 285002.68896392127499, 8989334.860301084816456 ], [ 282791.538198948663194, 8989322.803405221551657 ] ] ], [ [ [ 281610.747013378015254, 8992013.534980336204171 ], [ 280505.12664903968107, 8992007.443621067330241 ], [ 280455.080955436511431, 8993805.284574331715703 ], [ 281560.720583726535551, 8993811.366382088512182 ], [ 281610.747013378015254, 8992013.534980336204171 ] ] ], [ [ [ 305957.658673438883852, 8991240.922364452853799 ], [ 303746.699622784333769, 8991230.055666584521532 ], [ 303721.84575331461383, 8992128.893498506397009 ], [ 304827.337775558116846, 8992134.338058277964592 ], [ 304802.515554484329186, 8993033.163757769390941 ], [ 303697.01391976053128, 8993027.723397847265005 ], [ 303672.204122248571366, 8993926.545371973887086 ], [ 304777.715360774600413, 8993931.981530327349901 ], [ 304752.937194555997849, 8994830.791383322328329 ], [ 305858.452272259688471, 8994836.192629955708981 ], [ 305883.220844460709486, 8993937.386952865868807 ], [ 308094.214677818468772, 8993948.1055937577039 ], [ 308143.779457032680511, 8992150.48699745349586 ], [ 305932.82404517789837, 8992139.751827482134104 ], [ 305957.658673438883852, 8991240.922364452853799 ] ] ], [ [ [ 300306.024506931891665, 8995707.698229169473052 ], [ 300330.818997978931293, 8994808.879304135218263 ], [ 299225.274814240750857, 8994803.324507029727101 ], [ 299200.470732299028896, 8995702.147746566683054 ], [ 300306.024506931891665, 8995707.698229169473052 ] ] ], [ [ [ 289225.348132922779769, 8996549.667887263000011 ], [ 289250.216434211935848, 8995650.812465926632285 ], [ 288144.601988658017945, 8995644.955092556774616 ], [ 288119.724093874217942, 8996543.815103929489851 ], [ 289225.348132922779769, 8996549.667887263000011 ] ] ], [ [ [ 290968.649591075605713, 9013637.873348612338305 ], [ 290993.07817893603351, 9012739.175432441756129 ], [ 292098.854806988907512, 9012744.854788931086659 ], [ 292123.296095314668491, 9011846.153666272759438 ], [ 291017.528901036188472, 9011840.46977137029171 ], [ 291042.001757256046403, 9010941.756358070299029 ], [ 289936.237837588181719, 9010936.037700729444623 ], [ 289960.742280063277576, 9010037.311965443193913 ], [ 287749.214714341098443, 9010025.774763153865933 ], [ 287798.327894718036987, 9008228.281585736200213 ], [ 286692.573668356635608, 9008222.458317363634706 ], [ 286766.438107408466749, 9005526.146295761689544 ], [ 285660.706060369091574, 9005520.278720384463668 ], [ 285636.05291231663432, 9006419.061844788491726 ], [ 283424.55080836894922, 9006407.244919123128057 ], [ 283399.900850723613985, 9007306.029668353497982 ], [ 284505.664575613569468, 9007311.948595153167844 ], [ 284456.45020489039598, 9009109.4853247217834 ], [ 285562.226529580017086, 9009115.364520721137524 ], [ 285537.662089538527653, 9010014.116538025438786 ], [ 286643.441550666291732, 9010019.960778884589672 ], [ 286594.39810743345879, 9011817.432199813425541 ], [ 287700.19017368007917, 9011823.23689323477447 ], [ 287675.711143541964702, 9012721.95633384026587 ], [ 288781.506379900733009, 9012727.726205762475729 ], [ 288757.058938500471413, 9013626.433284267783165 ], [ 289862.857366731506772, 9013632.168388651683927 ], [ 289838.441495702369139, 9014530.86313640512526 ], [ 290944.243137575802393, 9014536.563527209684253 ], [ 290919.858818556182086, 9015435.245975565165281 ], [ 292025.66369585058419, 9015440.911706743761897 ], [ 292001.310910485917702, 9016339.581887055188417 ], [ 293107.119044990336988, 9016345.213012555614114 ], [ 293058.498622355517, 9018142.521188199520111 ], [ 294164.319415347243194, 9018148.113268252462149 ], [ 294140.051751178165432, 9019046.751300603151321 ], [ 295245.875835204322357, 9019052.308908566832542 ], [ 295221.639641106652562, 9019950.934772618114948 ], [ 296327.467037988710217, 9019956.457962425425649 ], [ 296303.262295633321628, 9020855.071689547970891 ], [ 297409.093027201830409, 9020860.560515128076077 ], [ 297433.288419405813329, 9019961.95120458304882 ], [ 298539.103818059142213, 9019967.414499923586845 ], [ 298587.542127651511692, 9018170.181555971503258 ], [ 296375.942798035684973, 9018159.20741693302989 ], [ 296424.506924388697371, 9016361.926034240052104 ], [ 294212.921070345910266, 9016350.814078353345394 ], [ 294285.98936768254498, 9013654.807370560243726 ], [ 290968.649591075605713, 9013637.873348612338305 ] ] ], [ [ [ 329920.609462758293375, 9046165.908390259370208 ], [ 331026.527274058549665, 9046170.369499014690518 ], [ 330980.002322829444893, 9047966.890946177765727 ], [ 332085.933258290868253, 9047971.315746538341045 ], [ 332062.712559219216928, 9048869.561595231294632 ], [ 327638.922482433379628, 9048851.702471578493714 ], [ 327592.474219053809065, 9050648.200716080144048 ], [ 329804.415478340815753, 9050657.173724513500929 ], [ 329827.610620185907464, 9049758.935679033398628 ], [ 332039.513670398388058, 9049767.799930000677705 ], [ 332016.336591956554912, 9050666.030758200213313 ], [ 333122.289676028827671, 9050670.415786195546389 ], [ 333145.457724256557412, 9049772.188525594770908 ], [ 334251.396840953500941, 9049776.548102151602507 ], [ 334344.250846818904392, 9046183.578049078583717 ], [ 335450.148859837907366, 9046187.922642590478063 ], [ 335473.407771725673229, 9045289.664804393425584 ], [ 337685.171087535563856, 9045298.273538090288639 ], [ 337661.9303154789377, 9046196.524448812007904 ], [ 338767.813823583594058, 9046200.781662821769714 ], [ 338814.298988762078807, 9044404.27913367934525 ], [ 339920.159583832602948, 9044408.514011552557349 ], [ 339943.42571848933585, 9043510.254802044481039 ], [ 341049.272495032753795, 9043514.463865377008915 ], [ 341072.551286376314238, 9042616.20044950209558 ], [ 343284.212587165413424, 9042624.53760296292603 ], [ 343330.798975234909449, 9040828.001306915655732 ], [ 340013.354616240481846, 9040815.43172718398273 ], [ 340083.479251895274501, 9038120.540327988564968 ], [ 341189.271344803564716, 9038124.769545475021005 ], [ 341212.680575904436409, 9037226.460548108443618 ], [ 340106.897627142374404, 9037222.227977322414517 ], [ 340153.799621885933448, 9035425.580405332148075 ], [ 341259.564256460755132, 9035429.819677798077464 ], [ 341283.038705650018528, 9034531.48779009282589 ], [ 342388.78947893588338, 9034535.700931377708912 ], [ 342435.785230466164649, 9032739.020851068198681 ], [ 341330.052821185672656, 9032734.801072681322694 ], [ 341306.534893936477602, 9033633.148257514461875 ], [ 339095.03759925236227, 9033624.626814819872379 ], [ 339118.573902106960304, 9032726.272912461310625 ], [ 340224.315722633968107, 9032730.551760027185082 ], [ 340247.864584653987549, 9031832.19357212074101 ], [ 341353.59248726523947, 9031836.44622821174562 ], [ 341447.968537209439091, 9028242.950106287375093 ], [ 342553.654885403870139, 9028247.186448562890291 ], [ 342577.294005508767441, 9027348.796502962708473 ], [ 343682.966464952100068, 9027353.006455291062593 ], [ 343706.618068688316271, 9026454.612082889303565 ], [ 342600.954855005606078, 9026450.398851756006479 ], [ 342624.637433759577107, 9025551.993487553671002 ], [ 341518.978825823636726, 9025547.747226800769567 ], [ 341471.616895432467572, 9027344.556852869689465 ], [ 340365.935102034010924, 9027340.287504371255636 ], [ 340318.641654159990139, 9029137.072986649349332 ], [ 339212.936673169373535, 9029132.780665814876556 ], [ 339165.711775975418277, 9030929.542131343856454 ], [ 338059.983605255838484, 9030925.226953567937016 ], [ 338036.394583777873777, 9031823.59957248903811 ], [ 336930.652420107740909, 9031819.258227644488215 ], [ 336907.075964306946844, 9032717.626610001549125 ], [ 334695.558746138878632, 9032708.862160060554743 ], [ 334648.43440490757348, 9034505.589849079027772 ], [ 331331.06671474466566, 9034492.242860496044159 ], [ 331354.645546936721075, 9033593.872222462669015 ], [ 329143.060589442728087, 9033584.819590419530869 ], [ 329190.320508307893761, 9031788.04097799025476 ], [ 330296.09709244890837, 9031792.589286483824253 ], [ 330319.750587910239119, 9030894.192126013338566 ], [ 332531.270316737296525, 9030903.207187553867698 ], [ 332578.605878159985878, 9029106.404172990471125 ], [ 333684.33985379972728, 9029110.874373661354184 ], [ 333755.479012673604302, 9026415.62284385599196 ], [ 334861.180338759440929, 9026420.073894187808037 ], [ 334884.927726208581589, 9025521.644823977723718 ], [ 335990.614912435295992, 9025526.069613242521882 ], [ 336014.374819436925463, 9024627.636301258578897 ], [ 337120.047891870606691, 9024632.03477375023067 ], [ 337143.820302018662915, 9023733.597181925550103 ], [ 339355.133494035922922, 9023742.311572147533298 ], [ 339378.909106630540919, 9022843.873044000938535 ], [ 343801.441688512335531, 9022860.957372816279531 ], [ 343825.201894011115655, 9021962.524353217333555 ], [ 342719.585038649267517, 9021958.294752979651093 ], [ 342743.3762616639724, 9021059.850712930783629 ], [ 343848.983819455723278, 9021064.083581993356347 ], [ 343872.787464710243512, 9020165.635051753371954 ], [ 344978.381106292246841, 9020169.841272005811334 ], [ 344907.06321982096415, 9022865.153868656605482 ], [ 346012.680170818930492, 9022869.320531228557229 ], [ 345965.26201817614492, 9024666.150417312979698 ], [ 347070.89296756015392, 9024670.280865397304296 ], [ 347118.292574181687087, 9022873.457361163571477 ], [ 348223.900462584046181, 9022877.564359087496996 ], [ 348271.368267347919755, 9021080.716178443282843 ], [ 347165.778957524045836, 9021076.602860037237406 ], [ 347213.352116492227651, 9019279.717302817851305 ], [ 346107.776908770028967, 9019275.56772917881608 ], [ 346131.605349265795667, 9018377.110104277729988 ], [ 345026.03491935756756, 9018372.927379474043846 ], [ 345049.894392106041778, 9017474.4587625823915 ], [ 343944.328717971511651, 9017470.242832947522402 ], [ 343992.13148336391896, 9015673.275756349787116 ], [ 347308.758756912546232, 9015685.852783214300871 ], [ 347284.874556840688456, 9016584.330607270821929 ], [ 348390.417269137105905, 9016588.459697652608156 ], [ 348366.564099057926796, 9017486.926569620147347 ], [ 347261.012049988028593, 9017482.800630286335945 ], [ 347237.171236492926255, 9018381.262859668582678 ], [ 349448.289513555238955, 9018389.478464728221297 ], [ 349472.111671761027537, 9017491.022513441741467 ], [ 350577.654800756950863, 9017495.088462371379137 ], [ 350625.345467071630992, 9015698.159352440387011 ], [ 349519.821016302565113, 9015694.087212504819036 ], [ 349591.547601361991838, 9012998.625654056668282 ], [ 346275.031732151983306, 9012986.200620027258992 ], [ 346251.073080940055661, 9013884.70506333373487 ], [ 347356.592236163211055, 9013888.873702354729176 ], [ 347332.664650065940805, 9014787.367150710895658 ], [ 345121.603073571808636, 9014779.006140578538179 ], [ 345193.507146988296881, 9012083.483206121250987 ], [ 344087.99764095019782, 9012079.247902978211641 ], [ 344040.021124721737579, 9013876.277466099709272 ], [ 342934.488258421537466, 9013872.018506612628698 ], [ 343006.513762340066023, 9011176.452659871429205 ], [ 341901.004415233619511, 9011172.153753988444805 ], [ 341925.065772848145571, 9010273.612861394882202 ], [ 343030.565717720543034, 9010277.915043337270617 ], [ 343054.639399909647182, 9009379.369580652564764 ], [ 341949.148865912575275, 9009375.064124336466193 ], [ 342021.528556434146594, 9006679.370772333815694 ], [ 343126.990805954206735, 9006683.686041632667184 ], [ 343151.151394002721645, 9005785.109120281413198 ], [ 344256.599571484141052, 9005789.397302875295281 ], [ 344232.448427868308499, 9006687.970983974635601 ], [ 347548.793854315415956, 9006700.643855707719922 ], [ 347597.06117859238293, 9004903.507716787979007 ], [ 348702.481726956320927, 9004907.677617698907852 ], [ 348726.638468599820044, 9004009.100833313539624 ], [ 347621.227377926348709, 9004004.927804961800575 ], [ 347645.415268537472002, 9003106.339988335967064 ], [ 344329.183306647115387, 9003093.628920638933778 ], [ 344377.681048967002425, 9001296.41047590970993 ], [ 345483.077285737148486, 9001300.684343865141273 ], [ 345555.958262991625816, 8998604.806846622377634 ], [ 346661.321434746321756, 8998609.059745702892542 ], [ 346612.731423082528636, 9000406.312998490408063 ], [ 348823.482260150020011, 9000414.714556587859988 ], [ 348920.672964923200198, 8996820.201300958171487 ], [ 347815.337846831185743, 8996816.003314360976219 ], [ 347864.082368423230946, 8995018.692698501050472 ], [ 348969.398406951921061, 8995022.896907582879066 ], [ 348945.024845251464285, 8995921.553090920671821 ], [ 350050.34597548621241, 8995925.723537599667907 ], [ 350074.709994092292618, 8995027.070437291637063 ], [ 352285.319944606162608, 8995035.325461117550731 ], [ 352309.6865353458561, 8994136.670458938926458 ], [ 350099.095685285865329, 8994128.409354541450739 ], [ 350123.503048925893381, 8993229.740281917154789 ], [ 349018.210573901829775, 8993225.560591287910938 ], [ 349042.649178868508898, 8992326.880443474277854 ], [ 347937.36182451073546, 8992322.666913524270058 ], [ 347912.91364950989373, 8993221.350166575983167 ], [ 346807.612243153969757, 8993217.109007146209478 ], [ 346734.369194987695664, 8995913.12024087831378 ], [ 344523.69547430856619, 8995904.564777661114931 ], [ 344548.107218499295413, 8995005.895988641306758 ], [ 343442.773048406350426, 8995001.56905566714704 ], [ 343516.167271638289094, 8992305.505166538059711 ], [ 341305.542457608971745, 8992296.739707631990314 ], [ 341281.03684102918487, 8993195.442166604101658 ], [ 340175.707858347916044, 8993191.016585227102041 ], [ 340151.214414708898403, 8994089.71435908600688 ], [ 341256.5529659219319, 8994094.136642009019852 ], [ 341158.834882997092791, 8997688.834856288507581 ], [ 342264.206939166644588, 8997693.213326409459114 ], [ 342215.497390032629482, 8999490.508163943886757 ], [ 341110.106293979566544, 8999486.136254843324423 ], [ 341061.464674734976143, 9001283.405926749110222 ], [ 338850.630379105568863, 9001274.58376632258296 ], [ 338874.959317153843585, 9000375.946240872144699 ], [ 337769.544559027068317, 9000371.486053518950939 ], [ 337818.28674335218966, 8998574.180504098534584 ], [ 335607.480907309101894, 8998565.154942031949759 ], [ 335631.903709694626741, 8997666.483464555814862 ], [ 334526.503068248333875, 8997661.921373249962926 ], [ 334502.070735421380959, 8998560.596294537186623 ], [ 333396.655684132128954, 8998556.007068485021591 ], [ 333421.097548438585363, 8997657.328676024451852 ], [ 332315.687117649358697, 8997652.705372182652354 ], [ 332340.160325849137735, 8996754.015548370778561 ], [ 333445.561215464782435, 8996758.642349036410451 ], [ 333543.633908043266274, 8993163.81754775159061 ], [ 331332.903692919178866, 8993154.505261927843094 ], [ 331357.495541444048285, 8992255.772147364914417 ], [ 330252.132580266392324, 8992251.066344575956464 ], [ 330326.067852167063393, 8989554.808499496430159 ], [ 332536.731184582575224, 8989564.210488064214587 ], [ 332586.092003472964279, 8987766.679376492276788 ], [ 331480.782069558801595, 8987761.986793596297503 ], [ 331456.081126324832439, 8988660.759859833866358 ], [ 329245.427071185724344, 8988651.289062423631549 ], [ 329220.728703207452781, 8989550.061223076656461 ], [ 328115.384522284031846, 8989545.283090943470597 ], [ 328140.092513555311598, 8988646.507339460775256 ], [ 327034.752892423595767, 8988641.694732695817947 ], [ 327059.49236135953106, 8987742.907364768907428 ], [ 324848.817067433614284, 8987733.182181887328625 ], [ 324749.913339140592143, 8991328.312974501401186 ], [ 323644.529475262330379, 8991323.418817980214953 ], [ 323669.232211336260661, 8990424.644393503665924 ], [ 321458.46808333118679, 8990414.7561762239784 ], [ 321433.746123599936254, 8991313.538090266287327 ], [ 319222.941722682677209, 8991303.534137999638915 ], [ 319198.222449362103362, 8992202.31568706408143 ], [ 320303.636903129401617, 8992207.329251723363996 ], [ 320278.949141486315057, 8993106.099027521908283 ], [ 321384.367895363422576, 8993111.078023387119174 ], [ 321359.711627123819198, 8994009.836057245731354 ], [ 320254.283285804500338, 8994004.860852368175983 ], [ 320229.63933621684555, 8994903.614733647555113 ], [ 319124.19611690210877, 8994898.612624051049352 ], [ 319173.525090537383221, 8993101.089279502630234 ], [ 318068.095709903631359, 8993096.048778569325805 ], [ 318117.531547232996672, 8991298.485950767993927 ], [ 317012.116011643782258, 8991293.406955122947693 ], [ 317036.87643159495201, 8990394.60973353497684 ], [ 315931.465121013461612, 8990389.496033396571875 ], [ 315906.695083304541185, 8991288.297150293365121 ], [ 314801.268729604664259, 8991283.156535506248474 ], [ 314776.511022090213373, 8992181.953617947176099 ], [ 312565.622684547211975, 8992171.587886299937963 ], [ 312590.399615674163215, 8991272.782872948795557 ], [ 310379.508408949070144, 8991262.285961167886853 ], [ 310354.712249839911237, 8992161.099014917388558 ], [ 311460.170245647197589, 8992166.35884346999228 ], [ 311435.405676260648761, 8993065.159918732941151 ], [ 309224.464882294065319, 8993054.61757368594408 ], [ 309125.549681323289406, 8996649.775004830211401 ], [ 310231.061214730027132, 8996655.045287877321243 ], [ 310206.396960696787573, 8997553.810794923454523 ], [ 309100.875863693887368, 8997548.544583415612578 ], [ 309002.400527474004775, 9001143.544002022594213 ], [ 307896.835629710927606, 9001138.263580158352852 ], [ 307872.262258539441973, 9002036.997855149209499 ], [ 305661.096387226833031, 9002026.353764466941357 ], [ 305685.688804337347392, 9001127.611192477867007 ], [ 304580.106811438221484, 9001122.23922504670918 ], [ 304678.734862117329612, 8997527.173498569056392 ], [ 305784.278669814695604, 8997532.562207216396928 ], [ 305808.981184809410479, 8996633.780249765142798 ], [ 306914.509698994574137, 8996639.142486579716206 ], [ 306939.224657623271924, 8995740.356781899929047 ], [ 303622.650635858648457, 8995724.165574038401246 ], [ 303597.906947234179825, 8996622.96381670422852 ], [ 299175.688721498008817, 8996600.963089825585485 ], [ 299200.470732299028896, 8995702.147746566683054 ], [ 298094.911037446639966, 8995696.56657874584198 ], [ 298070.119443314382806, 8996595.386265598237514 ], [ 295858.962992381595541, 8996584.140640243887901 ], [ 295883.773756536887959, 8995685.312184061855078 ], [ 294778.196105205395725, 8995679.638955494388938 ], [ 294753.375754353124648, 8996578.471837412565947 ], [ 293647.782464428571984, 8996572.772373337298632 ], [ 293622.974640433734749, 8997471.601827993988991 ], [ 292517.365685704280622, 8997465.876184020191431 ], [ 292492.570404932368547, 8998364.702249566093087 ], [ 289175.677978758583777, 8998347.355116654187441 ], [ 289150.876126127026509, 8999246.18693939037621 ], [ 288045.223358730843756, 8999240.347936414182186 ], [ 288070.03477878915146, 8998341.511518519371748 ], [ 286964.385328779695556, 8998335.637308662757277 ], [ 287038.981296485755593, 8995639.067025309428573 ], [ 288144.601988658017945, 8995644.955092556774616 ], [ 288169.502041441039182, 8994746.087202014401555 ], [ 287063.890952595742419, 8994740.194519056007266 ], [ 287088.822775274398737, 8993841.314128004014492 ], [ 285983.215021475218236, 8993835.386081507429481 ], [ 285958.273585632559843, 8994734.271113945171237 ], [ 284852.649907907587476, 8994728.316985780373216 ], [ 284827.721041706157848, 8995627.198805615305901 ], [ 282616.435408705321606, 8995615.207799656316638 ], [ 282666.353771831549238, 8993817.417435770854354 ], [ 281560.720583726535551, 8993811.366382088512182 ], [ 281535.7406837202725, 8994710.270253943279386 ], [ 280430.091436500661075, 8994704.19322451390326 ], [ 280380.179054956301115, 8996501.986908631399274 ], [ 279274.504119659890421, 8996495.88876816816628 ], [ 279249.571663292474113, 8997394.77862761169672 ], [ 281460.934244414442219, 8997406.934641407802701 ], [ 281485.847513944725506, 8996508.05437627248466 ], [ 282591.509529277100228, 8996514.091172007843852 ], [ 282566.605851431610063, 8997412.966681072488427 ], [ 283672.271046291687526, 8997418.968077136203647 ], [ 283647.399151986814104, 8998317.830999860540032 ], [ 284753.067548031918705, 8998323.797050230205059 ], [ 284728.227418851514813, 8999222.647417919710279 ], [ 285833.899037747934926, 8999228.578176569193602 ], [ 285784.304448800627142, 9001026.246025424450636 ], [ 286889.988864550483413, 9001032.136892985552549 ], [ 286815.7919070571661, 9003728.56597631983459 ], [ 287921.498638123041019, 9003734.412425369024277 ], [ 287896.820170783845242, 9004633.201854400336742 ], [ 289002.530160292051733, 9004639.013250682502985 ], [ 288928.656207791471388, 9007335.320905987173319 ], [ 290034.388462373055518, 9007341.088139029219747 ], [ 290009.817592576262541, 9008239.837191922590137 ], [ 291115.55312942765886, 9008245.569531487300992 ], [ 291066.49674747500103, 9010043.03518521040678 ], [ 296595.177237237221561, 9010071.197504814714193 ], [ 296570.729491556878202, 9010969.896276276558638 ], [ 294359.256639919592999, 9010958.730979271233082 ], [ 294310.389683601271827, 9012756.122992519289255 ], [ 295416.147997531399596, 9012761.711841320618987 ], [ 295440.560991214413662, 9011863.024169601500034 ], [ 296546.30383647850249, 9011868.587279755622149 ], [ 296448.822124626487494, 9015463.273760611191392 ], [ 297554.596625179750845, 9015468.789060600101948 ], [ 297530.29081846337067, 9016367.436926009133458 ], [ 298636.068734162778128, 9016372.917761445045471 ], [ 298587.542127651511692, 9018170.181555971503258 ], [ 299693.332854299456812, 9018175.62362395785749 ], [ 299669.112027634866536, 9019074.239590106531978 ], [ 300774.906203318503685, 9019079.647327065467834 ], [ 300750.716797878558282, 9019978.251253459602594 ], [ 301856.514444443397224, 9019983.624713296070695 ], [ 301735.944918909401167, 9024476.507420295849442 ], [ 302841.783350335783325, 9024481.829521497711539 ], [ 302793.728476847754791, 9026278.920311156660318 ], [ 303899.579675504297484, 9026284.204083586111665 ], [ 303851.631521868985146, 9028081.25573050789535 ], [ 304957.495481504127383, 9028086.501277837902308 ], [ 304933.563717525452375, 9028985.011397320777178 ], [ 306039.431177095219027, 9028990.223037390038371 ], [ 306015.530691626830958, 9029888.72130810469389 ], [ 307121.401673050480895, 9029893.899094799533486 ], [ 307097.532447824720293, 9030792.385548148304224 ], [ 308203.406973030534573, 9030797.529535349458456 ], [ 308179.568989785795566, 9031696.004202742129564 ], [ 309285.447080711775925, 9031701.114444324746728 ], [ 309333.126567882020026, 9029904.16575369797647 ], [ 308227.266954229038674, 9029899.047243069857359 ], [ 308251.148933257500175, 9029000.55731856636703 ], [ 307145.292904766683932, 9028995.405010877177119 ], [ 307193.141387177165598, 9027198.393921967595816 ], [ 308298.978884310577996, 9027203.554543532431126 ], [ 308275.052909992518835, 9028102.059754500165582 ], [ 309380.894011734693777, 9028107.186527565121651 ], [ 309356.99929528508801, 9029005.679961239919066 ], [ 310462.844023564714007, 9029010.772939670830965 ], [ 310438.980546727660112, 9029909.254627455025911 ], [ 311544.828923483612016, 9029914.313865115866065 ], [ 311497.186384513508528, 9031711.246181884780526 ], [ 313708.903402393800206, 9031721.259597081691027 ], [ 313685.133534919121303, 9032619.706235658377409 ], [ 314790.99298882635776, 9032624.6645741276443 ], [ 314814.753635914879851, 9031726.221935693174601 ], [ 315920.598396115936339, 9031731.154695983976126 ], [ 315944.371761348214932, 9030832.708401231095195 ], [ 319261.845851483580191, 9030847.340968793258071 ], [ 319285.613450391392689, 9029948.898781813681126 ], [ 320391.418188174022362, 9029953.720957906916738 ], [ 320367.659821748733521, 9030852.159284884110093 ], [ 321473.468483312870376, 9030856.947998978197575 ], [ 321449.741242437623441, 9031755.374848626554012 ], [ 322555.553849778370932, 9031760.130154529586434 ], [ 322531.857716250815429, 9032658.545558273792267 ], [ 323637.67429137264844, 9032663.267509788274765 ], [ 323543.145377527340315, 9036256.837740765884519 ], [ 324648.993497816845775, 9036261.515115356072783 ], [ 324531.370354613987729, 9040753.288045879453421 ], [ 326743.142566134978551, 9040762.517248023301363 ], [ 326790.089671380119398, 9038965.845740446820855 ], [ 327895.949806273391005, 9038970.423767499625683 ], [ 327849.020970102283172, 9040767.08790366910398 ], [ 328954.894283185363747, 9040771.62926328741014 ], [ 328908.071054082829505, 9042568.255781747400761 ], [ 330013.957539498689584, 9042572.760577533394098 ], [ 329920.609462758293375, 9046165.908390259370208 ] ], [ [ 339990.02323482488282, 9041713.71366723254323 ], [ 338884.189919793163426, 9041709.468617970123887 ], [ 338907.530411815852858, 9040811.183290721848607 ], [ 340013.354616240481846, 9040815.43172718398273 ], [ 339990.02323482488282, 9041713.71366723254323 ] ], [ [ 331307.509699372632895, 9035390.605868456885219 ], [ 329095.888006463530473, 9035381.567666258662939 ], [ 329119.463380902539939, 9034483.197441730648279 ], [ 331331.06671474466566, 9034492.242860496044159 ], [ 331307.509699372632895, 9035390.605868456885219 ] ], [ [ 340940.24112662387779, 9005776.441691495478153 ], [ 340988.665316608268768, 9003979.251076839864254 ], [ 344304.967011012020521, 9003992.226278617978096 ], [ 344280.772432578145526, 9004890.815736893564463 ], [ 343175.333708171732724, 9004886.524315742775798 ], [ 343151.151394002721645, 9005785.109120281413198 ], [ 340940.24112662387779, 9005776.441691495478153 ] ], [ [ 346685.648989267647266, 8997710.421201601624489 ], [ 347790.998121198033914, 8997714.646672330796719 ], [ 347766.680085861240514, 8998613.282073557376862 ], [ 346661.321434746321756, 8998609.059745702892542 ], [ 346685.648989267647266, 8997710.421201601624489 ] ], [ [ 333347.837364221340977, 9000353.340079437941313 ], [ 334453.271452512010001, 9000357.922358026728034 ], [ 334428.904502701945603, 9001256.57351503148675 ], [ 335534.343214005348273, 9001261.121820854023099 ], [ 335510.007554642972536, 9002159.761620605364442 ], [ 334404.559347502887249, 9002155.216765414923429 ], [ 334380.235987049876712, 9003053.852116573601961 ], [ 336591.14652375492733, 9003062.904481222853065 ], [ 336566.863914226996712, 9003961.5250598564744 ], [ 335461.401594342547469, 9003957.017524737864733 ], [ 335437.131293676444329, 9004855.633643919602036 ], [ 331015.195272277516779, 9004837.313346561044455 ], [ 330990.908906968019437, 9005735.93558088876307 ], [ 329885.403056454262696, 9005731.283102365210652 ], [ 329909.698887140257284, 9004832.657301165163517 ], [ 328804.197484814096242, 9004827.970865946263075 ], [ 328852.873594121891074, 9003030.688462050631642 ], [ 329958.356037652876694, 9003035.382080648094416 ], [ 330031.505484264169354, 9000339.410093694925308 ], [ 332242.398361832951196, 9000348.727276319637895 ], [ 332291.235720823344309, 8998551.387263178825378 ], [ 333396.655684132128954, 8998556.007068485021591 ], [ 333347.837364221340977, 9000353.340079437941313 ] ], [ [ 321409.046060899563599, 8992212.312036857008934 ], [ 323619.848618890275247, 8992222.185271566733718 ], [ 323595.189642354438547, 8993120.943761656060815 ], [ 321384.367895363422576, 8993111.078023387119174 ], [ 321409.046060899563599, 8992212.312036857008934 ] ], [ [ 324719.829811913252342, 9033566.360149975866079 ], [ 325825.645195899880491, 9033571.019283870235085 ], [ 325802.020415231585503, 9034469.40816031396389 ], [ 326907.83984273171518, 9034474.034075478091836 ], [ 326860.674219134089071, 9036270.781560430303216 ], [ 324648.993497816845775, 9036261.515115356072783 ], [ 324719.829811913252342, 9033566.360149975866079 ] ], [ [ 325684.224414894124493, 9038961.238361947238445 ], [ 325731.277233915752731, 9037164.529087979346514 ], [ 326837.124184735643212, 9037169.143886065110564 ], [ 326790.089671380119398, 9038965.845740446820855 ], [ 325684.224414894124493, 9038961.238361947238445 ] ], [ [ 306111.264723181026056, 9026294.682378364726901 ], [ 306087.298192995367572, 9027193.203579857945442 ], [ 304981.449269051488955, 9027187.983516417443752 ], [ 305005.425080044486094, 9026289.458105722442269 ], [ 306111.264723181026056, 9026294.682378364726901 ] ], [ [ 339498.113486337591894, 9018351.564191978424788 ], [ 339569.897162700188346, 9015656.085645649582148 ], [ 340675.462764691445045, 9015660.428254714235663 ], [ 340651.522471246076748, 9016558.92554946988821 ], [ 341757.092721646011341, 9016563.234790332615376 ], [ 341685.430314478464425, 9019258.670007707551122 ], [ 340579.832061718567275, 9019254.370717415586114 ], [ 340603.707119624130428, 9018355.896773423999548 ], [ 339498.113486337591894, 9018351.564191978424788 ] ], [ [ 340699.424803045403678, 9014761.923161579295993 ], [ 341804.976342008332722, 9014766.23902777954936 ], [ 341781.023663692758419, 9015664.740809084847569 ], [ 340675.462764691445045, 9015660.428254714235663 ], [ 340699.424803045403678, 9014761.923161579295993 ] ], [ [ 318018.747565751196817, 8994893.579816279932857 ], [ 316913.293650144943967, 8994888.516309568658471 ], [ 316937.966342511237599, 8993989.750885974615812 ], [ 318043.410676114493981, 8993994.818267492577434 ], [ 318018.747565751196817, 8994893.579816279932857 ] ], [ [ 315832.516612912528217, 8993984.652777383103967 ], [ 315881.946985964139458, 8992187.090308334678411 ], [ 316987.377523391740397, 8992192.196216136217117 ], [ 316937.966342511237599, 8993989.750885974615812 ], [ 315832.516612912528217, 8993984.652777383103967 ] ] ], [ [ [ 326463.295562148792669, 9051541.912305109202862 ], [ 327569.282854867866263, 9051546.438595533370972 ], [ 327592.474219053809065, 9050648.200716080144048 ], [ 326486.495952889788896, 9050643.67071963660419 ], [ 326463.295562148792669, 9051541.912305109202862 ] ] ], [ [ [ 324066.345331504009664, 9058718.496771764010191 ], [ 324043.323728896735702, 9059616.67879057303071 ], [ 322937.240053418790922, 9059612.099758412688971 ], [ 322891.244587199878879, 9061408.449169799685478 ], [ 323997.346140428795479, 9061413.020591992884874 ], [ 324020.323998496867716, 9060514.853394871577621 ], [ 325126.411405937047675, 9060519.399926725775003 ], [ 325195.449361141247209, 9057824.865188620984554 ], [ 326301.504740630742162, 9057829.394268615171313 ], [ 326347.621418078837451, 9056033.008122539147735 ], [ 325241.583981432486326, 9056028.471554847434163 ], [ 325264.684086249733809, 9055130.263573432341218 ], [ 326370.71253852150403, 9055134.80388256534934 ], [ 326463.295562148792669, 9051541.912305109202862 ], [ 325357.303133736131713, 9051537.357046315446496 ], [ 325380.512552034109831, 9050639.111727461218834 ], [ 323168.530215209000744, 9050629.906753147020936 ], [ 323145.302738783764653, 9051528.159620855003595 ], [ 319827.262809586769436, 9051514.146202486008406 ], [ 319780.819384270638693, 9053310.652579959481955 ], [ 320886.856021864688955, 9053315.344945799559355 ], [ 320863.676174657419324, 9054213.583066683262587 ], [ 319757.630530388036277, 9054208.894575886428356 ], [ 319665.094176248938311, 9057801.788111954927444 ], [ 322983.323043010837864, 9057815.720695380121469 ], [ 322960.270607855345588, 9058713.913937017321587 ], [ 324066.345331504009664, 9058718.496771764010191 ] ], [ [ 321969.716516383341514, 9054218.242667712271214 ], [ 321992.887357925588731, 9053320.008394503965974 ], [ 324204.934256525360979, 9053329.24854332767427 ], [ 324181.781423291424289, 9054227.475203275680542 ], [ 323075.751588337938301, 9054222.873379675671458 ], [ 323052.611631549429148, 9055121.096375646069646 ], [ 320840.518224825209472, 9055111.813733862712979 ], [ 320863.676174657419324, 9054213.583066683262587 ], [ 321969.716516383341514, 9054218.242667712271214 ] ] ], [ [ [ 325103.442481430247426, 9061417.563345428556204 ], [ 326209.533642992028035, 9061422.077430792152882 ], [ 326232.49363493162673, 9060523.917763147503138 ], [ 325126.411405937047675, 9060519.399926725775003 ], [ 325103.442481430247426, 9061417.563345428556204 ] ] ], [ [ [ 319503.998961860546842, 9064089.066305618733168 ], [ 321716.28194326418452, 9064098.32923574000597 ], [ 321808.133517137728631, 9060505.674242103472352 ], [ 320702.030377646326087, 9060501.041619796305895 ], [ 320656.042946530098561, 9062297.391617873683572 ], [ 319549.916630962747149, 9062292.738074701279402 ], [ 319503.998961860546842, 9064089.066305618733168 ] ] ], [ [ [ 322822.415496363886632, 9064102.917818365618587 ], [ 321716.28194326418452, 9064098.32923574000597 ], [ 321693.373774730367586, 9064996.47452917508781 ], [ 322799.516228844411671, 9065001.059272274374962 ], [ 322822.415496363886632, 9064102.917818365618587 ] ] ], [ [ [ 345751.262665205053054, 8991415.450023299083114 ], [ 347961.831688961596228, 8991423.975659172981977 ], [ 347986.323242720565759, 8990525.276396097615361 ], [ 346881.050575444241986, 8990521.025844039395452 ], [ 346905.57341535424348, 8989622.315437372773886 ], [ 349116.095078033744358, 8989630.791952218860388 ], [ 349140.620405370136723, 8988732.079747756943107 ], [ 350245.864948840928264, 8988736.274810610339046 ], [ 350270.402344169910066, 8987837.557642681524158 ], [ 348059.928038429177832, 8987829.130480211228132 ], [ 348084.506348002585582, 8986930.399107923731208 ], [ 345874.033385655435268, 8986921.842078167945147 ], [ 345824.859978803782724, 8988719.309331497177482 ], [ 344719.597462616802659, 8988714.990781364962459 ], [ 344818.069617071188986, 8985120.011400559917092 ], [ 339291.88041244877968, 8985097.890371421352029 ], [ 339316.6010071283672, 8984199.109136605635285 ], [ 338211.358753373031504, 8984194.58863889798522 ], [ 338186.628501569153741, 8985093.373209647834301 ], [ 334870.844042593496852, 8985079.635800180956721 ], [ 334821.390960274497047, 8986877.201173078268766 ], [ 335926.676561454252806, 8986881.804456392303109 ], [ 335951.382563525112346, 8985983.029207702726126 ], [ 339267.181575290858746, 8985996.663559330627322 ], [ 339193.215610339597333, 8988692.934915849938989 ], [ 340298.501325597288087, 8988697.407839816063643 ], [ 340273.899132737074979, 8989596.145597109571099 ], [ 339168.603804661193863, 8989591.675990356132388 ], [ 339119.44546809734311, 8991389.134117383509874 ], [ 340224.759995853877626, 8991393.597084540873766 ], [ 340200.223052109126002, 8992292.31082951836288 ], [ 341305.542457608971745, 8992296.739707631990314 ], [ 341403.782335866009817, 8988701.849887680262327 ], [ 343614.33037178881932, 8988710.64135779067874 ], [ 343589.757011188776232, 8989609.36932759359479 ], [ 345800.30583457229659, 8989618.030913095921278 ], [ 345751.262665205053054, 8991415.450023299083114 ] ], [ [ 341477.690523183438927, 8986005.598331656306982 ], [ 341428.396657716832124, 8987803.107399573549628 ], [ 340323.125267883762717, 8987798.662063578143716 ], [ 340372.438400177867152, 8986001.146424582228065 ], [ 341477.690523183438927, 8986005.598331656306982 ] ] ], [ [ [ 350196.855173101066612, 8990533.685050498694181 ], [ 350172.382792975869961, 8991432.378137327730656 ], [ 353488.176419810159132, 8991444.750944931060076 ], [ 353537.085320255486295, 8989647.374864935874939 ], [ 351326.598959441122133, 8989639.145093055441976 ], [ 351302.114501381700393, 8990537.843154113739729 ], [ 350196.855173101066612, 8990533.685050498694181 ] ] ], [ [ [ 335705.302828791900538, 8994970.421374838799238 ], [ 335680.814670572814066, 8995869.116688366979361 ], [ 337891.563281372538768, 8995878.162656804546714 ], [ 337940.523146137828007, 8994080.7776567209512 ], [ 336835.170363572251517, 8994076.263235926628113 ], [ 336810.669984362786636, 8994974.96310001052916 ], [ 335705.302828791900538, 8994970.421374838799238 ] ] ], [ [ [ 354301.911507345037535, 9002232.363032765686512 ], [ 354350.281918539083563, 9000435.184445990249515 ], [ 353244.930706039420329, 9000431.151494856923819 ], [ 353196.541328971856274, 9002228.336051071062684 ], [ 354301.911507345037535, 9002232.363032765686512 ] ] ], [ [ [ 334428.904502701945603, 9001256.57351503148675 ], [ 332218.012399939878378, 9001247.385413266718388 ], [ 332193.648249961377587, 9002146.035646993666887 ], [ 334404.559347502887249, 9002155.216765414923429 ], [ 334428.904502701945603, 9001256.57351503148675 ] ] ], [ [ [ 353196.541328971856274, 9002228.336051071062684 ], [ 350985.78795271506533, 9002220.190712917596102 ], [ 350937.44729824794922, 9004017.355673167854548 ], [ 352042.84510246978607, 9004021.437485918402672 ], [ 352018.716727902647108, 9004920.005052113905549 ], [ 349807.897812878713012, 9004911.817140141502023 ], [ 349783.772202064399607, 9005810.382923668250442 ], [ 354205.430356106255203, 9005826.62510759755969 ], [ 354229.518184667336755, 9004928.071457661688328 ], [ 355334.912447763141245, 9004932.059097055345774 ], [ 355383.134111445921008, 9003134.933992004022002 ], [ 353172.379112072987482, 9003126.916433250531554 ], [ 353196.541328971856274, 9002228.336051071062684 ] ] ], [ [ [ 351898.399710856960155, 9009412.724468978121877 ], [ 351874.401279590209015, 9010311.244721472263336 ], [ 350768.93747386225732, 9010307.184261936694384 ], [ 350744.951306058559567, 9011205.699712002649903 ], [ 354061.357824128121138, 9011217.781364155933261 ], [ 354133.296709400427062, 9008522.23868627846241 ], [ 353027.860422494704835, 9008518.232651138678193 ], [ 353003.849744185106829, 9009416.757744207978249 ], [ 351898.399710856960155, 9009412.724468978121877 ] ] ], [ [ [ 346347.037893060536589, 9010290.640286557376385 ], [ 346371.083348660846241, 9009392.104482855647802 ], [ 345265.606608642439824, 9009387.889759266749024 ], [ 345241.551745183183812, 9010286.428755274042487 ], [ 344136.061030951095745, 9010282.187007749453187 ], [ 344112.018476797617041, 9011180.721375579014421 ], [ 345217.518591252388433, 9011184.959901757538319 ], [ 345193.507146988296881, 9012083.483206121250987 ], [ 346299.01208466803655, 9012087.688347734510899 ], [ 346323.014138350030407, 9011189.168239047750831 ], [ 349639.473701946495567, 9011201.612123940140009 ], [ 349663.469264985178597, 9010303.09358929656446 ], [ 346347.037893060536589, 9010290.640286557376385 ] ] ], [ [ [ 351826.46939032204682, 9012108.261654933914542 ], [ 350720.986804738116916, 9012104.207311525940895 ], [ 350697.04397003975464, 9013002.707067916169763 ], [ 351802.535932600381784, 9013006.758350733667612 ], [ 351826.46939032204682, 9012108.261654933914542 ] ] ], [ [ [ 352860.240306854131632, 9014807.743318416178226 ], [ 353965.742279237078037, 9014811.728324165567756 ], [ 354013.506769956089556, 9013014.770525690168142 ], [ 351802.535932600381784, 9013006.758350733667612 ], [ 351778.62413300643675, 9013905.247209133580327 ], [ 352884.121089454507455, 9013909.265326602384448 ], [ 352860.240306854131632, 9014807.743318416178226 ] ] ], [ [ [ 351328.415169972926378, 9030975.056269386783242 ], [ 348011.368791576533113, 9030962.998357649892569 ], [ 347964.378082398558035, 9032759.676751201972365 ], [ 351281.479615223943256, 9032771.71592028811574 ], [ 351328.415169972926378, 9030975.056269386783242 ] ] ], [ [ [ 348536.134152826736681, 9053423.257795026525855 ], [ 348559.110837091924623, 9052525.100156608968973 ], [ 349665.011293209099676, 9052529.044057363644242 ], [ 349596.173228521365672, 9055223.484984815120697 ], [ 350702.096176417486276, 9055227.39054892398417 ], [ 350725.01155342021957, 9054329.254209119826555 ], [ 354042.727105621190276, 9054340.807084305211902 ], [ 353951.303066546330228, 9057933.270505871623755 ], [ 355057.235387059277855, 9057937.051598547026515 ], [ 355034.442408043658361, 9058835.145719246938825 ], [ 356140.379370265291072, 9058838.895043747499585 ], [ 356163.163416869123466, 9057940.803930705413222 ], [ 357269.087188735604286, 9057944.527502916753292 ], [ 357291.883917121100239, 9057046.431892877444625 ], [ 361715.501329259597696, 9057061.050234816968441 ], [ 361738.283885268960148, 9056162.958775004372001 ], [ 358420.603918386972509, 9056152.029512083157897 ], [ 358512.057535789441317, 9052559.553921459242702 ], [ 357406.191753222839907, 9052555.841424610465765 ], [ 357429.118158331257291, 9051657.700795641168952 ], [ 356323.257147947966587, 9051653.956406274810433 ], [ 356346.214165747398511, 9050755.805280864238739 ], [ 357452.066175752785057, 9050759.552637659013271 ], [ 357475.035805351275485, 9049861.396943278610706 ], [ 356369.19280433782842, 9049857.646620670333505 ], [ 356392.193063583807088, 9048959.480418303981423 ], [ 354180.512318336521275, 9048951.886743817478418 ], [ 354203.552253372967243, 9048053.70698469504714 ], [ 347568.459621652611531, 9048030.210434349253774 ], [ 347591.575434632075485, 9047132.004453249275684 ], [ 345379.860251577221788, 9047123.933310639113188 ], [ 345333.614156646188349, 9048920.350615251809359 ], [ 344227.731638395693153, 9048916.277928400784731 ], [ 344273.995815374073572, 9047119.854098528623581 ], [ 342062.253089923586231, 9047111.608389616012573 ], [ 342085.435861914127599, 9046213.378556182608008 ], [ 339873.692562198149972, 9046205.009751627221704 ], [ 339850.491675483121071, 9047103.246296932920814 ], [ 338744.603878040099517, 9047099.021605098620057 ], [ 338721.415690701222047, 9047997.254009000957012 ], [ 339827.312538344296627, 9048001.475302243605256 ], [ 339804.155150912643876, 9048899.696774924173951 ], [ 338698.249261697928887, 9048895.478881899267435 ], [ 338675.104591160197742, 9049793.69623115286231 ], [ 339781.019513318897225, 9049797.910722345113754 ], [ 339757.905625693616457, 9050696.11715186946094 ], [ 337546.052958358661272, 9050687.665987968444824 ], [ 337476.78775129688438, 9053382.260764990001917 ], [ 336370.827196253347211, 9053378.002083957195282 ], [ 336324.741255152272061, 9055174.368094481527805 ], [ 337430.719785087625496, 9055178.619844656437635 ], [ 337453.742884256178513, 9054280.444043751806021 ], [ 338559.707620013563428, 9054284.670380525290966 ], [ 338605.801131643704139, 9052488.303210705518723 ], [ 340817.680326515925117, 9052496.682829605415463 ], [ 340840.74170772387879, 9051598.494793105870485 ], [ 341946.665217425092123, 9051602.644555553793907 ], [ 341923.612841335358098, 9052500.829240079969168 ], [ 344135.463869511964731, 9052509.035266226157546 ], [ 344158.498238269006833, 9051610.857203578576446 ], [ 345264.407814913778566, 9051614.920090401545167 ], [ 345241.382448375574313, 9052513.09488313831389 ], [ 347453.205899414257146, 9052521.127327721565962 ], [ 347430.220224428514484, 9053419.288155602291226 ], [ 348536.134152826736681, 9053423.257795026525855 ] ], [ [ 344204.632122842594981, 9049814.478542037308216 ], [ 343098.735966833774, 9049810.380107615143061 ], [ 343121.844511441246141, 9048912.17620156519115 ], [ 344227.731638395693153, 9048916.277928400784731 ], [ 344204.632122842594981, 9049814.478542037308216 ] ], [ [ 343052.584050023113377, 9051606.765358837321401 ], [ 343075.6491463171551, 9050708.576490916311741 ], [ 344181.554322756477632, 9050712.671631306409836 ], [ 344158.498238269006833, 9051610.857203578576446 ], [ 343052.584050023113377, 9051606.765358837321401 ] ] ], [ [ [ 330794.77527839911636, 9055152.676536709070206 ], [ 330840.951123390346766, 9053356.275051156058908 ], [ 328628.96587712969631, 9053347.381866157054901 ], [ 328582.754056762962136, 9055143.797924753278494 ], [ 330794.77527839911636, 9055152.676536709070206 ] ] ], [ [ [ 330794.77527839911636, 9055152.676536709070206 ], [ 330748.686712516238913, 9056949.048178872093558 ], [ 332960.723798106308095, 9056957.79699894413352 ], [ 332983.739230520033743, 9056059.622089736163616 ], [ 331877.732146429247223, 9056055.25850123167038 ], [ 331900.778359911288135, 9055157.072558034211397 ], [ 330794.77527839911636, 9055152.676536709070206 ] ] ], [ [ [ 361741.319413151300978, 8972598.904909873381257 ], [ 362846.343075665005017, 8972602.809999827295542 ], [ 362871.163155249319971, 8971703.978551356121898 ], [ 363976.173026531992946, 8971707.854995178058743 ], [ 364001.004915454774164, 8970809.018059477210045 ], [ 361791.000668200314976, 8970801.228345341980457 ], [ 361741.319413151300978, 8972598.904909873381257 ] ] ], [ [ [ 360561.902447961852886, 8975291.430237913504243 ], [ 361666.959399889805354, 8975295.358380526304245 ], [ 361642.215894548455253, 8976194.159866968169808 ], [ 362747.278497644234449, 8976198.053991107270122 ], [ 362796.767638292512856, 8974400.448341054841876 ], [ 366111.87299384153448, 8974411.959368100389838 ], [ 366136.620713094598614, 8973513.15234525129199 ], [ 360611.473679704300594, 8973493.797229219228029 ], [ 360561.902447961852886, 8975291.430237913504243 ] ] ], [ [ [ 367192.183745090849698, 8975314.529989387840033 ], [ 367216.900189237552695, 8974415.733777513727546 ], [ 366111.87299384153448, 8974411.959368100389838 ], [ 366087.146822847484145, 8975310.758212901651859 ], [ 367192.183745090849698, 8975314.529989387840033 ] ] ], [ [ [ 362697.875654912379105, 8977995.627009708434343 ], [ 362722.566288964124396, 8977096.844575606286526 ], [ 361617.493972327443771, 8977092.953197292983532 ], [ 361592.793633375898935, 8977991.738378966227174 ], [ 362697.875654912379105, 8977995.627009708434343 ] ] ], [ [ [ 361568.114877841435373, 8978890.515419449657202 ], [ 361592.793633375898935, 8977991.738378966227174 ], [ 360487.707537828478962, 8977987.818555882200599 ], [ 360463.019085037754849, 8978886.598373033106327 ], [ 361568.114877841435373, 8978890.515419449657202 ] ] ], [ [ [ 358178.821250825596508, 8981574.978399269282818 ], [ 360389.083280495833606, 8981582.889062387868762 ], [ 360463.019085037754849, 8978886.598373033106327 ], [ 359357.919184675673023, 8978882.650161033496261 ], [ 359308.587685275007971, 8980680.191020088270307 ], [ 358203.464272215845995, 8980676.217309875413775 ], [ 358178.821250825596508, 8981574.978399269282818 ] ] ], [ [ [ 357049.052911616803613, 8982469.732289860025048 ], [ 358154.19983936654171, 8982473.731382524594665 ], [ 358178.821250825596508, 8981574.978399269282818 ], [ 357073.683988766802941, 8981570.976440923288465 ], [ 357049.052911616803613, 8982469.732289860025048 ] ] ], [ [ [ 367977.988809098082129, 8987001.846254801377654 ], [ 366872.830144924577326, 8986998.139780959114432 ], [ 366848.41527120443061, 8987896.822259869426489 ], [ 367953.58354033989599, 8987900.526103787124157 ], [ 367977.988809098082129, 8987001.846254801377654 ] ] ], [ [ [ 367929.199804812611546, 8988799.197883240878582 ], [ 366824.021939348080195, 8988795.496670976281166 ], [ 366775.299901820137165, 8990592.821319606155157 ], [ 367880.496934046212118, 8990596.517263391986489 ], [ 367904.837602665123995, 8989697.861600622534752 ], [ 369010.021164375706576, 8989701.529346153140068 ], [ 369058.747919971647207, 8987904.199059652164578 ], [ 367953.58354033989599, 8987900.526103787124157 ], [ 367929.199804812611546, 8988799.197883240878582 ] ] ], [ [ [ 356755.166287612053566, 8993254.173045065253973 ], [ 357860.428529682569206, 8993258.137614566832781 ], [ 357884.790610580821522, 8992359.481323935091496 ], [ 360095.283440386061557, 8992367.323966845870018 ], [ 360070.940480536781251, 8993265.974566707387567 ], [ 361176.190254499786533, 8993269.846950531005859 ], [ 361224.878641883144155, 8991472.543337605893612 ], [ 353488.176419810159132, 8991444.750944931060076 ], [ 353439.354103735066019, 8993242.094955615699291 ], [ 352334.074781248345971, 8993238.007463455200195 ], [ 352309.6865353458561, 8994136.670458938926458 ], [ 353414.97541519504739, 8994140.754953559488058 ], [ 353366.282977825263515, 8995938.050971819087863 ], [ 355576.885981755098328, 8995946.116012657061219 ], [ 355552.591293103119824, 8996844.746124535799026 ], [ 358868.492536935023963, 8996856.605145214125514 ], [ 358892.758643194974866, 8995957.983713153749704 ], [ 357787.471958511217963, 8995954.058460287749767 ], [ 357811.769203503383324, 8995055.426175303757191 ], [ 356706.487863322487101, 8995051.467383775860071 ], [ 356755.166287612053566, 8993254.173045065253973 ] ] ], [ [ [ 359804.593194493791088, 9003150.603960460051894 ], [ 359901.144417162286118, 8999556.304825320839882 ], [ 358795.823841331177391, 8999552.421583503484726 ], [ 358699.234706650604494, 9003146.732110487297177 ], [ 359804.593194493791088, 9003150.603960460051894 ] ] ], [ [ [ 361761.088019828894176, 9055264.859816685318947 ], [ 362866.964161168027204, 9055268.448118621483445 ], [ 362912.619234231649898, 9053472.233349572867155 ], [ 360700.898724344384391, 9053465.016506440937519 ], [ 360678.042462281533517, 9054363.133346829563379 ], [ 361783.913732802961022, 9054366.753352466970682 ], [ 361761.088019828894176, 9055264.859816685318947 ] ] ], [ [ [ 357246.312073610490188, 9058842.615635648369789 ], [ 356140.379370265291072, 9058838.895043747499585 ], [ 356117.616945667250548, 9059736.978688467293978 ], [ 357223.558571879984811, 9059740.696298455819488 ], [ 357246.312073610490188, 9058842.615635648369789 ] ] ] ] } }
]
}
