{
"type": "FeatureCollection",
"name": "urban-2045",
"crs": { "type": "name", "properties": { "name": "urn:ogc:def:crs:EPSG::32733" } },
"features": [
{ "type": "Feature", "properties": { "year": 2045 }, "geometry": { "type": "MultiPolygon", "coordinates": [ [ [ [ 298823.471479671250563, 8969627.331638244912028 ], [ 298848.925413661985658, 8968728.271911460906267 ], [ 294427.793274327646941, 8968705.114136081188917 ], [ 294351.37964352616109, 8971402.321340676397085 ], [ 296562.016716748708859, 8971413.936911750584841 ], [ 296587.446154854667839, 8970514.884721677750349 ], [ 297692.745865196338855, 8970520.649716034531593 ], [ 297718.187559427693486, 8969621.593776741996408 ], [ 298823.471479671250563, 8969627.331638244912028 ] ] ], [ [ [ 312565.622684547211975, 8992171.587886299937963 ], [ 311460.170245647197589, 8992166.35884346999228 ], [ 311435.405676260648761, 8993065.159918732941151 ], [ 310329.938074587960728, 8993059.904125783592463 ], [ 310255.747453264077194, 8995756.271874811500311 ], [ 312466.734626451390795, 8995766.728550279513001 ], [ 312491.423690754338168, 8994867.955277943983674 ], [ 313596.89939038985176, 8994873.141588117927313 ], [ 313646.324238220986445, 8993075.57923036813736 ], [ 312540.867719931935426, 8993070.384953331202269 ], [ 312565.622684547211975, 8992171.587886299937963 ] ] ], [ [ [ 282666.353771831549238, 8993817.417435770854354 ], [ 281560.720583726535551, 8993811.366382088512182 ], [ 281535.7406837202725, 8994710.270253943279386 ], [ 282641.383489597006701, 8994716.316556688398123 ], [ 282666.353771831549238, 8993817.417435770854354 ] ] ], [ [ [ 281510.782993752975017, 8995609.166249560192227 ], [ 281535.7406837202725, 8994710.270253943279386 ], [ 280430.091436500661075, 8994704.19322451390326 ], [ 280405.124136300873943, 8995603.094000170007348 ], [ 281510.782993752975017, 8995609.166249560192227 ] ] ], [ [ [ 334526.503068248333875, 8997661.921373249962926 ], [ 334453.271452512010001, 9000357.922358026728034 ], [ 335558.700659327965695, 9000362.474112777039409 ], [ 335534.343214005348273, 9001261.121820854023099 ], [ 337745.206119582871906, 9001270.12694581784308 ], [ 337793.904766996041872, 8999472.837242079898715 ], [ 336688.494736334425397, 8999468.343140438199043 ], [ 336712.886232413467951, 8998569.683011658489704 ], [ 335607.480907309101894, 8998565.154942031949759 ], [ 335631.903709694626741, 8997666.483464555814862 ], [ 334526.503068248333875, 8997661.921373249962926 ] ] ], [ [ [ 338826.323201070423238, 9002173.213378340005875 ], [ 338850.630379105568863, 9001274.58376632258296 ], [ 337745.206119582871906, 9001270.12694581784308 ], [ 337720.889448799891397, 9002168.75992638617754 ], [ 338826.323201070423238, 9002173.213378340005875 ] ] ], [ [ [ 287798.327894718036987, 9008228.281585736200213 ], [ 286692.573668356635608, 9008222.458317363634706 ], [ 286741.794459548371378, 9006424.924756642431021 ], [ 285636.05291231663432, 9006419.061844788491726 ], [ 285611.421941088105086, 9007317.837181426584721 ], [ 284505.664575613569468, 9007311.948595153167844 ], [ 284481.046297376859002, 9008210.720845649018884 ], [ 285586.813146802713163, 9008216.604737630113959 ], [ 285562.226529580017086, 9009115.364520721137524 ], [ 286667.996525263821241, 9009121.213431861251593 ], [ 286594.39810743345879, 9011817.432199813425541 ], [ 287700.19017368007917, 9011823.23689323477447 ], [ 287675.711143541964702, 9012721.95633384026587 ], [ 288781.506379900733009, 9012727.726205762475729 ], [ 288757.058938500471413, 9013626.433284267783165 ], [ 290968.649591075605713, 9013637.873348612338305 ], [ 291042.001757256046403, 9010941.756358070299029 ], [ 289936.237837588181719, 9010936.037700729444623 ], [ 289960.742280063277576, 9010037.311965443193913 ], [ 287749.214714341098443, 9010025.774763153865933 ], [ 287798.327894718036987, 9008228.281585736200213 ] ] ], [ [ [ 295440.560991214413662, 9011863.024169601500034 ], [ 294334.81210772076156, 9011857.430864533409476 ], [ 294310.389683601271827, 9012756.122992519289255 ], [ 295416.147997531399596, 9012761.711841320618987 ], [ 295440.560991214413662, 9011863.024169601500034 ] ] ], [ [ [ 296424.506924388697371, 9016361.926034240052104 ], [ 294212.921070345910266, 9016350.814078353345394 ], [ 294285.98936768254498, 9013654.807370560243726 ], [ 290968.649591075605713, 9013637.873348612338305 ], [ 290919.858818556182086, 9015435.245975565165281 ], [ 292025.66369585058419, 9015440.911706743761897 ], [ 292001.310910485917702, 9016339.581887055188417 ], [ 293107.119044990336988, 9016345.213012555614114 ], [ 293058.498622355517, 9018142.521188199520111 ], [ 294164.319415347243194, 9018148.113268252462149 ], [ 294140.051751178165432, 9019046.751300603151321 ], [ 295245.875835204322357, 9019052.308908566832542 ], [ 295221.639641106652562, 9019950.934772618114948 ], [ 296327.467037988710217, 9019956.457962425425649 ], [ 296303.262295633321628, 9020855.071689547970891 ], [ 297409.093027201830409, 9020860.560515128076077 ], [ 297433.288419405813329, 9019961.95120458304882 ], [ 298539.103818059142213, 9019967.414499923586845 ], [ 298587.542127651511692, 9018170.181555971503258 ], [ 296375.942798035684973, 9018159.20741693302989 ], [ 296424.506924388697371, 9016361.926034240052104 ] ] ], [ [ [ 341876.964793205610476, 9012070.686809523031116 ], [ 341949.148865912575275, 9009375.064124336466193 ], [ 340843.653668639599346, 9009370.728422479704022 ], [ 340867.767917544813827, 9008472.168533511459827 ], [ 341973.253694289945997, 9008476.50753540918231 ], [ 341997.380257842945866, 9007577.94308721087873 ], [ 339786.422868802619632, 9007569.228185798972845 ], [ 339762.277445893851109, 9008467.7992580588907 ], [ 338656.782246696122456, 9008463.399708390235901 ], [ 338705.113715887186117, 9006666.242996133863926 ], [ 340916.061646673711948, 9006675.025175424292684 ], [ 340940.24112662387779, 9005776.441691495478153 ], [ 339834.77897146018222, 9005772.062443992123008 ], [ 339858.989650935400277, 9004873.467759635299444 ], [ 340964.442349980934523, 9004877.850327769294381 ], [ 340988.665316608268768, 9003979.251076839864254 ], [ 342094.103861064591911, 9003983.606553565710783 ], [ 342118.33909843408037, 9003085.002697901800275 ], [ 343223.763514318852685, 9003089.331027463078499 ], [ 343248.01100602070801, 9002190.722528900951147 ], [ 344353.421319345245138, 9002195.023655541241169 ], [ 344377.681048967002425, 9001296.41047590970993 ], [ 345483.077285737148486, 9001300.684343865141273 ], [ 345555.958262991625816, 8998604.806846622377634 ], [ 346661.321434746321756, 8998609.059745702892542 ], [ 346685.648989267647266, 8997710.421201601624489 ], [ 347790.998121198033914, 8997714.646672330796719 ], [ 347839.699262619775254, 8995917.351992225274444 ], [ 346734.369194987695664, 8995913.12024087831378 ], [ 346709.998242728179321, 8996811.774702467024326 ], [ 345604.654120008752216, 8996807.515464637428522 ], [ 345629.034609751892276, 8995908.857836237177253 ], [ 342313.003422378504183, 8995895.886696089059114 ], [ 342337.434263916453347, 8994997.211440093815327 ], [ 343442.773048406350426, 8995001.56905566714704 ], [ 343516.167271638289094, 8992305.505166538059711 ], [ 341305.542457608971745, 8992296.739707631990314 ], [ 341158.834882997092791, 8997688.834856288507581 ], [ 342264.206939166644588, 8997693.213326409459114 ], [ 342166.874776085896883, 9001287.771268006414175 ], [ 341061.464674734976143, 9001283.405926749110222 ], [ 341037.176479122950695, 9002182.028883738443255 ], [ 339931.752200303017162, 9002177.63636390119791 ], [ 339907.476265493663959, 9003076.254726996645331 ], [ 336591.14652375492733, 9003062.904481222853065 ], [ 336542.603082418208942, 9004860.137750670313835 ], [ 332120.686672862968408, 9004841.939002836123109 ], [ 332096.409771891776472, 9005740.557697655633092 ], [ 329885.403056454262696, 9005731.283102365210652 ], [ 329909.698887140257284, 9004832.657301165163517 ], [ 328804.197484814096242, 9004827.970865946263075 ], [ 328901.637056008272339, 9001233.374524848535657 ], [ 330007.100506127113476, 9001238.075320027768612 ], [ 330080.38092766655609, 8998542.055912002921104 ], [ 331185.810812874697149, 8998546.736877918243408 ], [ 331234.754493679909501, 8996749.358113028109074 ], [ 332340.160325849137735, 8996754.015548370778561 ], [ 332438.27126966661308, 8993159.176776900887489 ], [ 331332.903692919178866, 8993154.505261927843094 ], [ 331357.495541444048285, 8992255.772147364914417 ], [ 330252.132580266392324, 8992251.066344575956464 ], [ 330227.531145195709541, 8993149.803002120926976 ], [ 328016.771006394526921, 8993140.306245164945722 ], [ 328041.391617717221379, 8992241.562419563531876 ], [ 326936.013551135722082, 8992236.764295900240541 ], [ 326985.339514618506655, 8990439.245481198653579 ], [ 330301.400933887809515, 8990453.569100668653846 ], [ 330326.067852167063393, 8989554.808499496430159 ], [ 328115.384522284031846, 8989545.283090943470597 ], [ 328140.092513555311598, 8988646.507339460775256 ], [ 327034.752892423595767, 8988641.694732695817947 ], [ 327059.49236135953106, 8987742.907364768907428 ], [ 324848.817067433614284, 8987733.182181887328625 ], [ 324799.32146174547961, 8989530.763553004711866 ], [ 325904.68093415198382, 8989535.634256636723876 ], [ 325879.975555217068177, 8990434.409282743930817 ], [ 324774.606464990589302, 8990429.542253756895661 ], [ 324700.592700691660866, 8993125.83050555549562 ], [ 323595.189642354438547, 8993120.943761656060815 ], [ 323570.55254578765016, 8994019.694295642897487 ], [ 322465.1347029133467, 8994014.780538087710738 ], [ 322489.781384782341775, 8993116.026267848908901 ], [ 321384.367895363422576, 8993111.078023387119174 ], [ 321359.711627123819198, 8994009.836057245731354 ], [ 320254.283285804500338, 8994004.860852368175983 ], [ 320229.63933621684555, 8994903.614733647555113 ], [ 319124.19611690210877, 8994898.612624051049352 ], [ 319099.564502355176955, 8995797.362390933558345 ], [ 317994.106378944707103, 8995792.3334323130548 ], [ 318018.747565751196817, 8994893.579816279932857 ], [ 315807.834337463078555, 8994883.422103151679039 ], [ 315881.946985964139458, 8992187.090308334678411 ], [ 316987.377523391740397, 8992192.196216136217117 ], [ 317012.116011643782258, 8991293.406955122947693 ], [ 314801.268729604664259, 8991283.156535506248474 ], [ 314776.511022090213373, 8992181.953617947176099 ], [ 313671.069599156442564, 8992176.786144195124507 ], [ 313646.324238220986445, 8993075.57923036813736 ], [ 314751.775263745337725, 8993080.742750631645322 ], [ 314677.699685030500405, 8995777.06252396479249 ], [ 313572.219903754303232, 8995771.910874452441931 ], [ 313547.562375478562899, 8996670.672242261469364 ], [ 311336.567153138283174, 8996660.284921269863844 ], [ 311311.912461609696038, 8997559.046384148299694 ], [ 309100.875863693887368, 8997548.544583415612578 ], [ 309002.400527474004775, 9001143.544002022594213 ], [ 307896.835629710927606, 9001138.263580158352852 ], [ 307872.262258539441973, 9002036.997855149209499 ], [ 305661.096387226833031, 9002026.353764466941357 ], [ 305685.688804337347392, 9001127.611192477867007 ], [ 304580.106811438221484, 9001122.23922504670918 ], [ 304604.73078166693449, 9000223.484602827578783 ], [ 303499.152559487498365, 9000218.077903350815177 ], [ 303523.808101159171201, 8999319.311199571937323 ], [ 302418.233627935522236, 8999313.869714181870222 ], [ 302442.920759379107039, 8998415.090897515416145 ], [ 303548.485679757897742, 8998420.536622110754251 ], [ 303573.185295158298686, 8997521.754163607954979 ], [ 305784.278669814695604, 8997532.562207216396928 ], [ 305808.981184809410479, 8996633.780249765142798 ], [ 306914.509698994574137, 8996639.142486579716206 ], [ 306939.224657623271924, 8995740.356781899929047 ], [ 303622.650635858648457, 8995724.165574038401246 ], [ 303597.906947234179825, 8996622.96381670422852 ], [ 299175.688721498008817, 8996600.963089825585485 ], [ 299150.928781961963978, 8997499.770544158294797 ], [ 296939.765121201577131, 8997488.594955008476973 ], [ 296964.54421115538571, 8996589.778782688081264 ], [ 293647.782464428571984, 8996572.772373337298632 ], [ 293598.188931243494153, 8998370.42340962216258 ], [ 290281.314961338764988, 8998353.168103953823447 ], [ 290256.522674997861031, 8999251.995358917862177 ], [ 288045.223358730843756, 8999240.347936414182186 ], [ 288070.03477878915146, 8998341.511518519371748 ], [ 286964.385328779695556, 8998335.637308662757277 ], [ 287063.890952595742419, 8994740.194519056007266 ], [ 285958.273585632559843, 8994734.271113945171237 ], [ 285933.354325050255284, 8995633.148263294249773 ], [ 281510.782993752975017, 8995609.166249560192227 ], [ 281485.847513944725506, 8996508.05437627248466 ], [ 279274.504119659890421, 8996495.88876816816628 ], [ 279249.571663292474113, 8997394.77862761169672 ], [ 283672.271046291687526, 8997418.968077136203647 ], [ 283647.399151986814104, 8998317.830999860540032 ], [ 284753.067548031918705, 8998323.797050230205059 ], [ 284728.227418851514813, 8999222.647417919710279 ], [ 285833.899037747934926, 8999228.578176569193602 ], [ 285784.304448800627142, 9001026.246025424450636 ], [ 286889.988864550483413, 9001032.136892985552549 ], [ 286815.7919070571661, 9003728.56597631983459 ], [ 287921.498638123041019, 9003734.412425369024277 ], [ 287896.820170783845242, 9004633.201854400336742 ], [ 289002.530160292051733, 9004639.013250682502985 ], [ 288928.656207791471388, 9007335.320905987173319 ], [ 290034.388462373055518, 9007341.088139029219747 ], [ 290009.817592576262541, 9008239.837191922590137 ], [ 291115.55312942765886, 9008245.569531487300992 ], [ 291066.49674747500103, 9010043.03518521040678 ], [ 296595.177237237221561, 9010071.197504814714193 ], [ 296570.729491556878202, 9010969.896276276558638 ], [ 295464.996084298705682, 9010964.328738920390606 ], [ 295440.560991214413662, 9011863.024169601500034 ], [ 296546.30383647850249, 9011868.587279755622149 ], [ 296448.822124626487494, 9015463.273760611191392 ], [ 297554.596625179750845, 9015468.789060600101948 ], [ 297530.29081846337067, 9016367.436926009133458 ], [ 298636.068734162778128, 9016372.917761445045471 ], [ 298587.542127651511692, 9018170.181555971503258 ], [ 299693.332854299456812, 9018175.62362395785749 ], [ 299669.112027634866536, 9019074.239590106531978 ], [ 300774.906203318503685, 9019079.647327065467834 ], [ 300750.716797878558282, 9019978.251253459602594 ], [ 301856.514444443397224, 9019983.624713296070695 ], [ 301735.944918909401167, 9024476.507420295849442 ], [ 302841.783350335783325, 9024481.829521497711539 ], [ 302793.728476847754791, 9026278.920311156660318 ], [ 303899.579675504297484, 9026284.204083586111665 ], [ 303851.631521868985146, 9028081.25573050789535 ], [ 304957.495481504127383, 9028086.501277837902308 ], [ 304933.563717525452375, 9028985.011397320777178 ], [ 306039.431177095219027, 9028990.223037390038371 ], [ 306015.530691626830958, 9029888.72130810469389 ], [ 307121.401673050480895, 9029893.899094799533486 ], [ 307097.532447824720293, 9030792.385548148304224 ], [ 308203.406973030534573, 9030797.529535349458456 ], [ 308179.568989785795566, 9031696.004202742129564 ], [ 309285.447080711775925, 9031701.114444324746728 ], [ 309333.126567882020026, 9029904.16575369797647 ], [ 308227.266954229038674, 9029899.047243069857359 ], [ 308251.148933257500175, 9029000.55731856636703 ], [ 307145.292904766683932, 9028995.405010877177119 ], [ 307193.141387177165598, 9027198.393921967595816 ], [ 308298.978884310577996, 9027203.554543532431126 ], [ 308275.052909992518835, 9028102.059754500165582 ], [ 309380.894011734693777, 9028107.186527565121651 ], [ 309356.99929528508801, 9029005.679961239919066 ], [ 310462.844023564714007, 9029010.772939670830965 ], [ 310438.980546727660112, 9029909.254627455025911 ], [ 311544.828923483612016, 9029914.313865115866065 ], [ 311497.186384513508528, 9031711.246181884780526 ], [ 313708.903402393800206, 9031721.259597081691027 ], [ 313685.133534919121303, 9032619.706235658377409 ], [ 314790.99298882635776, 9032624.6645741276443 ], [ 314814.753635914879851, 9031726.221935693174601 ], [ 315920.598396115936339, 9031731.154695983976126 ], [ 315944.371761348214932, 9030832.708401231095195 ], [ 319261.845851483580191, 9030847.340968793258071 ], [ 319285.613450391392689, 9029948.898781813681126 ], [ 320391.418188174022362, 9029953.720957906916738 ], [ 320367.659821748733521, 9030852.159284884110093 ], [ 321473.468483312870376, 9030856.947998978197575 ], [ 321449.741242437623441, 9031755.374848626554012 ], [ 322555.553849778370932, 9031760.130154529586434 ], [ 322531.857716250815429, 9032658.545558273792267 ], [ 323637.67429137264844, 9032663.267509788274765 ], [ 323614.009246996836737, 9033561.671499053016305 ], [ 325825.645195899880491, 9033571.019283870235085 ], [ 325802.020415231585503, 9034469.40816031396389 ], [ 326907.83984273171518, 9034474.034075478091836 ], [ 326837.124184735643212, 9037169.143886065110564 ], [ 327942.966015990939923, 9037173.729277979582548 ], [ 327849.020970102283172, 9040767.08790366910398 ], [ 328954.894283185363747, 9040771.62926328741014 ], [ 328908.071054082829505, 9042568.255781747400761 ], [ 331119.838997487910092, 9042577.236133385449648 ], [ 331096.478339330642484, 9043475.53080209903419 ], [ 332202.3639029111946, 9043479.973536722362041 ], [ 332155.726215725298971, 9045276.533043349161744 ], [ 329943.913741560303606, 9045267.63275458663702 ], [ 329920.609462758293375, 9046165.908390259370208 ], [ 332132.440086672431789, 9046174.801477953791618 ], [ 332039.513670398388058, 9049767.799930000677705 ], [ 334251.396840953500941, 9049776.548102151602507 ], [ 334367.518830103683285, 9045285.316706102341413 ], [ 337685.171087535563856, 9045298.273538090288639 ], [ 337708.433626165089663, 9044400.015075888484716 ], [ 339920.159583832602948, 9044408.514011552557349 ], [ 339990.02323482488282, 9041713.71366723254323 ], [ 338884.189919793163426, 9041709.468617970123887 ], [ 338954.27666759036947, 9039014.58985897526145 ], [ 337848.465948657831177, 9039010.305308952927589 ], [ 337871.880849635286722, 9038111.993780056014657 ], [ 338977.682431078632362, 9038116.281739730387926 ], [ 339048.030262365471572, 9035421.311680026352406 ], [ 340153.799621885933448, 9035425.580405332148075 ], [ 340177.283241117023863, 9034527.245169252157211 ], [ 339071.52305262745358, 9034522.973068214952946 ], [ 339118.573902106960304, 9032726.272912461310625 ], [ 338012.827326899569016, 9032721.964529337361455 ], [ 338036.394583777873777, 9031823.59957248903811 ], [ 336930.652420107740909, 9031819.258227644488215 ], [ 336907.075964306946844, 9032717.626610001549125 ], [ 334695.558746138878632, 9032708.862160060554743 ], [ 334624.904920583125204, 9035403.942237393930554 ], [ 329095.888006463530473, 9035381.567666258662939 ], [ 329119.463380902539939, 9034483.197441730648279 ], [ 330225.267557006562129, 9034487.734894204884768 ], [ 330248.85557686741231, 9033589.360663212835789 ], [ 329143.060589442728087, 9033584.819590419530869 ], [ 329213.983218373788986, 9030889.640202142298222 ], [ 330319.750587910239119, 9030894.192126013338566 ], [ 330343.425908311328385, 9029995.787307646125555 ], [ 332554.927193685318343, 9030004.809514556080103 ], [ 332602.30637002986623, 9028207.991155480965972 ], [ 333708.031108178314753, 9028212.464884489774704 ], [ 333779.235662526334636, 9025517.190277639776468 ], [ 334884.927726208581589, 9025521.644823977723718 ], [ 334908.696903244592249, 9024623.20804500579834 ], [ 336014.374819436925463, 9024627.636301258578897 ], [ 336038.156507251318544, 9023729.195271467790008 ], [ 338249.479286719171796, 9023737.969281930476427 ], [ 338273.264183608291205, 9022839.527372200042009 ], [ 341590.184754255809821, 9022852.47487878613174 ], [ 341613.963538619340397, 9021954.035290842875838 ], [ 342719.585038649267517, 9021958.294752979651093 ], [ 342743.3762616639724, 9021059.850712930783629 ], [ 343848.983819455723278, 9021064.083581993356347 ], [ 343872.787464710243512, 9020165.635051753371954 ], [ 342767.189213124685921, 9020161.398915531113744 ], [ 342791.023892895784229, 9019262.939353387802839 ], [ 341685.430314478464425, 9019258.670007707551122 ], [ 341661.586318866058718, 9020157.132862698286772 ], [ 340555.978749263798818, 9020152.836892604827881 ], [ 340579.832061718567275, 9019254.370717415586114 ], [ 339474.22910194681026, 9019250.041481856256723 ], [ 339426.525595569983125, 9021046.972767619416118 ], [ 337215.26816416985821, 9021038.238015800714493 ], [ 337191.430438302108087, 9021936.698810337111354 ], [ 336085.785224788065534, 9021932.290028939023614 ], [ 336109.632254243537318, 9021033.825801432132721 ], [ 335003.99150459858356, 9021029.383693866431713 ], [ 335051.769539341330528, 9019232.42507379129529 ], [ 336157.391653862432577, 9019236.874097011983395 ], [ 336181.304023758042604, 9018338.386605322360992 ], [ 339498.113486337591894, 9018351.564191978424788 ], [ 339545.947516849555541, 9016554.586281269788742 ], [ 338440.367825793917291, 9016550.216985074803233 ], [ 338488.307586515555158, 9014753.201182367280126 ], [ 341804.976342008332722, 9014766.23902777954936 ], [ 341852.946906901197508, 9012969.212035398930311 ], [ 342958.475032553833444, 9012973.5043841060251 ], [ 342982.483533905469812, 9012074.982437659054995 ], [ 341876.964793205610476, 9012070.686809523031116 ] ], [ [ 338860.871185189229436, 9042607.746362632140517 ], [ 337755.024002621765248, 9042603.475467570126057 ], [ 337778.351840186980553, 9041705.194306718185544 ], [ 338884.189919793163426, 9041709.468617970123887 ], [ 338860.871185189229436, 9042607.746362632140517 ] ], [ [ 337382.741843632655218, 9014748.795068034902215 ], [ 337358.751719107851386, 9015647.310260804370046 ], [ 335147.587071626621764, 9015638.414649231359363 ], [ 335171.595925334841013, 9014739.892586581408978 ], [ 334066.015684599697124, 9014735.396218111738563 ], [ 334114.117514018435031, 9012938.321746351197362 ], [ 335219.678996577858925, 9012942.825061744078994 ], [ 335243.753213844029233, 9012044.279584774747491 ], [ 336349.300442132400349, 9012048.756203640252352 ], [ 336373.387047302210703, 9011150.206349011510611 ], [ 337478.920047370367683, 9011154.656215623021126 ], [ 337406.753738856175914, 9013850.272074528038502 ], [ 338512.310110027785413, 9013854.68158108368516 ], [ 338488.307586515555158, 9014753.201182367280126 ], [ 337382.741843632655218, 9014748.795068034902215 ] ], [ [ 305005.425080044486094, 9026289.458105722442269 ], [ 306111.264723181026056, 9026294.682378364726901 ], [ 306087.298192995367572, 9027193.203579857945442 ], [ 304981.449269051488955, 9027187.983516417443752 ], [ 305005.425080044486094, 9026289.458105722442269 ] ], [ [ 299126.190913816273678, 8998398.570116924121976 ], [ 300231.773409049608745, 8998404.107645753771067 ], [ 300207.067168592649978, 8999302.895022962242365 ], [ 299101.475117185909767, 8999297.36181547306478 ], [ 299126.190913816273678, 8998398.570116924121976 ] ] ], [ [ [ 338791.045527201378718, 9045302.534174803644419 ], [ 337685.171087535563856, 9045298.273538090288639 ], [ 337661.9303154789377, 9046196.524448812007904 ], [ 338767.813823583594058, 9046200.781662821769714 ], [ 338791.045527201378718, 9045302.534174803644419 ] ] ], [ [ [ 323145.302738783764653, 9051528.159620855003595 ], [ 324251.305536868807394, 9051532.772818462923169 ], [ 324228.10896109289024, 9052431.014417503029108 ], [ 320910.057766322686803, 9052417.099363874644041 ], [ 320933.28140790713951, 9051518.846313571557403 ], [ 319827.262809586769436, 9051514.146202486008406 ], [ 319780.819384270638693, 9053310.652579959481955 ], [ 324204.934256525360979, 9053329.24854332767427 ], [ 324181.781423291424289, 9054227.475203275680542 ], [ 325287.806054013955873, 9054232.048139212653041 ], [ 325264.684086249733809, 9055130.263573432341218 ], [ 326370.71253852150403, 9055134.80388256534934 ], [ 326463.295562148792669, 9051541.912305109202862 ], [ 325357.303133736131713, 9051537.357046315446496 ], [ 325380.512552034109831, 9050639.111727461218834 ], [ 323168.530215209000744, 9050629.906753147020936 ], [ 323145.302738783764653, 9051528.159620855003595 ] ] ], [ [ [ 320863.676174657419324, 9054213.583066683262587 ], [ 319757.630530388036277, 9054208.894575886428356 ], [ 319734.463582520955242, 9055107.129119714722037 ], [ 320840.518224825209472, 9055111.813733862712979 ], [ 320863.676174657419324, 9054213.583066683262587 ] ] ], [ [ [ 324135.541371325030923, 9056023.906154906377196 ], [ 324158.650461516284849, 9055125.694404689595103 ], [ 323052.611631549429148, 9055121.096375646069646 ], [ 323029.493554982356727, 9056019.311922028660774 ], [ 321923.440499629650731, 9056014.688855517655611 ], [ 321946.567563576740213, 9055116.469485603272915 ], [ 320840.518224825209472, 9055111.813733862712979 ], [ 320817.382172492099926, 9056010.03695466928184 ], [ 319711.318540792854037, 9056005.356218781322241 ], [ 319688.19540532771498, 9056903.575880417600274 ], [ 320794.268017782014795, 9056908.252736439928412 ], [ 320771.175760818761773, 9057806.461086506024003 ], [ 322983.323043010837864, 9057815.720695380121469 ], [ 323006.397358761401847, 9056917.520026162266731 ], [ 324112.454152842692565, 9056922.110461266711354 ], [ 324020.323998496867716, 9060514.853394871577621 ], [ 325126.411405937047675, 9060519.399926725775003 ], [ 325195.449361141247209, 9057824.865188620984554 ], [ 326301.504740630742162, 9057829.394268615171313 ], [ 326324.552152073592879, 9056931.204915443435311 ], [ 325218.505739687941968, 9056926.672090796753764 ], [ 325241.583981432486326, 9056028.471554847434163 ], [ 324135.541371325030923, 9056023.906154906377196 ] ] ], [ [ [ 326209.533642992028035, 9061422.077430792152882 ], [ 326232.49363493162673, 9060523.917763147503138 ], [ 325126.411405937047675, 9060519.399926725775003 ], [ 325103.442481430247426, 9061417.563345428556204 ], [ 326209.533642992028035, 9061422.077430792152882 ] ] ], [ [ [ 321762.163950500078499, 9062302.016517559066415 ], [ 319549.916630962747149, 9062292.738074701279402 ], [ 319503.998961860546842, 9064089.066305618733168 ], [ 321716.28194326418452, 9064098.32923574000597 ], [ 321762.163950500078499, 9062302.016517559066415 ] ] ], [ [ [ 322822.415496363886632, 9064102.917818365618587 ], [ 321716.28194326418452, 9064098.32923574000597 ], [ 321693.373774730367586, 9064996.47452917508781 ], [ 322799.516228844411671, 9065001.059272274374962 ], [ 322822.415496363886632, 9064102.917818365618587 ] ] ], [ [ [ 343712.841047524125315, 8985115.649163123220205 ], [ 340397.127589905750938, 8985102.3765469789505 ], [ 340372.438400177867152, 8986001.146424582228065 ], [ 341477.690523183438927, 8986005.598331656306982 ], [ 341403.782335866009817, 8988701.849887680262327 ], [ 342509.058673734078184, 8988706.261060116812587 ], [ 342533.663376181561034, 8987807.521832780912519 ], [ 344744.182929345406592, 8987816.257993498817086 ], [ 344793.419006714131683, 8986018.768310524523258 ], [ 343688.180793871812057, 8986014.409273961558938 ], [ 343712.841047524125315, 8985115.649163123220205 ] ] ], [ [ [ 346954.684188045852352, 8987824.870551018044353 ], [ 345849.435829211841337, 8987820.57972233183682 ], [ 345824.859978803782724, 8988719.309331497177482 ], [ 344719.597462616802659, 8988714.990781364962459 ], [ 344695.033710713265464, 8989613.715543387457728 ], [ 345800.30583457229659, 8989618.030913095921278 ], [ 345775.773396659118589, 8990516.744474552571774 ], [ 346881.050575444241986, 8990521.025844039395452 ], [ 346930.11795293528121, 8988723.597008842974901 ], [ 348035.371417596121319, 8988727.853814046829939 ], [ 348084.506348002585582, 8986930.399107923731208 ], [ 346979.272120543813799, 8986926.13605647161603 ], [ 346954.684188045852352, 8987824.870551018044353 ] ] ], [ [ [ 347986.323242720565759, 8990525.276396097615361 ], [ 346881.050575444241986, 8990521.025844039395452 ], [ 346856.549433346721344, 8991419.728236272931099 ], [ 347961.831688961596228, 8991423.975659172981977 ], [ 347986.323242720565759, 8990525.276396097615361 ] ] ], [ [ [ 347888.48716410016641, 8994120.02542576007545 ], [ 346783.176195341395214, 8994115.787400642409921 ], [ 346758.761845905799419, 8995014.457809410989285 ], [ 347864.082368423230946, 8995018.692698501050472 ], [ 347888.48716410016641, 8994120.02542576007545 ] ] ], [ [ [ 346612.731423082528636, 9000406.312998490408063 ], [ 348823.482260150020011, 9000414.714556587859988 ], [ 348847.747413580538705, 8999516.098165508359671 ], [ 347742.383740961435251, 8999511.909525467082858 ], [ 347766.680085861240514, 8998613.282073557376862 ], [ 346661.321434746321756, 8998609.059745702892542 ], [ 346612.731423082528636, 9000406.312998490408063 ] ] ], [ [ [ 348726.638468599820044, 9004009.100833313539624 ], [ 347621.227377926348709, 9004004.927804961800575 ], [ 347597.06117859238293, 9004903.507716787979007 ], [ 348702.481726956320927, 9004907.677617698907852 ], [ 348726.638468599820044, 9004009.100833313539624 ] ] ], [ [ [ 343199.537748323229607, 9003987.931620605289936 ], [ 344304.967011012020521, 9003992.226278617978096 ], [ 344280.772432578145526, 9004890.815736893564463 ], [ 345386.206564031017479, 9004895.076777022331953 ], [ 345337.901454810751602, 9006692.225600004196167 ], [ 347548.793854315415956, 9006700.643855707719922 ], [ 347597.06117859238293, 9004903.507716787979007 ], [ 346491.636135159875266, 9004899.307436773553491 ], [ 346540.009151132777333, 9003102.133400432765484 ], [ 343223.763514318852685, 9003089.331027463078499 ], [ 343199.537748323229607, 9003987.931620605289936 ] ] ], [ [ [ 346371.083348660846241, 9009392.104482855647802 ], [ 345265.606608642439824, 9009387.889759266749024 ], [ 345241.551745183183812, 9010286.428755274042487 ], [ 344136.061030951095745, 9010282.187007749453187 ], [ 344112.018476797617041, 9011180.721375579014421 ], [ 345217.518591252388433, 9011184.959901757538319 ], [ 345193.507146988296881, 9012083.483206121250987 ], [ 346299.01208466803655, 9012087.688347734510899 ], [ 346323.014138350030407, 9011189.168239047750831 ], [ 349639.473701946495567, 9011201.612123940140009 ], [ 349663.469264985178597, 9010303.09358929656446 ], [ 346347.037893060536589, 9010290.640286557376385 ], [ 346371.083348660846241, 9009392.104482855647802 ] ] ], [ [ [ 345145.549388010287657, 9013880.506318127736449 ], [ 345193.507146988296881, 9012083.483206121250987 ], [ 344087.99764095019782, 9012079.247902978211641 ], [ 344040.021124721737579, 9013876.277466099709272 ], [ 345145.549388010287657, 9013880.506318127736449 ] ] ], [ [ [ 341781.023663692758419, 9015664.740809084847569 ], [ 343992.13148336391896, 9015673.275756349787116 ], [ 344040.021124721737579, 9013876.277466099709272 ], [ 342934.488258421537466, 9013872.018506612628698 ], [ 342910.523211646126583, 9014770.524812581017613 ], [ 341804.976342008332722, 9014766.23902777954936 ], [ 341781.023663692758419, 9015664.740809084847569 ] ] ], [ [ [ 345097.678469350212254, 9015677.49815053679049 ], [ 347308.758756912546232, 9015685.852783214300871 ], [ 347284.874556840688456, 9016584.330607270821929 ], [ 348390.417269137105905, 9016588.459697652608156 ], [ 348486.046793919929769, 9012994.514108538627625 ], [ 347380.541515066171996, 9012990.372430736199021 ], [ 347332.664650065940805, 9014787.367150710895658 ], [ 345121.603073571808636, 9014779.006140578538179 ], [ 345097.678469350212254, 9015677.49815053679049 ] ] ], [ [ [ 343968.219241103623062, 9016571.763192653656006 ], [ 341757.092721646011341, 9016563.234790332615376 ], [ 341733.183516004006378, 9017461.720978921279311 ], [ 343944.328717971511651, 9017470.242832947522402 ], [ 343968.219241103623062, 9016571.763192653656006 ] ] ], [ [ [ 343944.328717971511651, 9017470.242832947522402 ], [ 343920.459914104314521, 9018368.714684627950191 ], [ 342814.880300841177814, 9018364.472019100561738 ], [ 342791.023892895784229, 9019262.939353387802839 ], [ 343896.612829638528638, 9019267.178755097091198 ], [ 343872.787464710243512, 9020165.635051753371954 ], [ 344978.381106292246841, 9020169.841272005811334 ], [ 345002.197157374175731, 9019271.388213481754065 ], [ 346107.776908770028967, 9019275.56772917881608 ], [ 346131.605349265795667, 9018377.110104277729988 ], [ 345026.03491935756756, 9018372.927379474043846 ], [ 345049.894392106041778, 9017474.4587625823915 ], [ 343944.328717971511651, 9017470.242832947522402 ] ] ], [ [ [ 347118.292574181687087, 9022873.457361163571477 ], [ 347189.554690123419277, 9020178.16396714001894 ], [ 344978.381106292246841, 9020169.841272005811334 ], [ 344907.06321982096415, 9022865.153868656605482 ], [ 347118.292574181687087, 9022873.457361163571477 ] ] ], [ [ [ 343801.441688512335531, 9022860.957372816279531 ], [ 343825.201894011115655, 9021962.524353217333555 ], [ 342719.585038649267517, 9021958.294752979651093 ], [ 342695.815544216195121, 9022856.731043072417378 ], [ 343801.441688512335531, 9022860.957372816279531 ] ] ], [ [ [ 342600.954855005606078, 9026450.398851756006479 ], [ 341495.286991682020016, 9026446.155895503237844 ], [ 341471.616895432467572, 9027344.556852869689465 ], [ 340365.935102034010924, 9027340.287504371255636 ], [ 340318.641654159990139, 9029137.072986649349332 ], [ 339212.936673169373535, 9029132.780665814876556 ], [ 339165.711775975418277, 9030929.542131343856454 ], [ 338059.983605255838484, 9030925.226953567937016 ], [ 338036.394583777873777, 9031823.59957248903811 ], [ 340247.864584653987549, 9031832.19357212074101 ], [ 340271.43519400380319, 9030933.827718844637275 ], [ 341377.153892041067593, 9030938.083716720342636 ], [ 341447.968537209439091, 9028242.950106287375093 ], [ 342553.654885403870139, 9028247.186448562890291 ], [ 342600.954855005606078, 9026450.398851756006479 ] ] ], [ [ [ 342062.253089923586231, 9047111.608389616012573 ], [ 340956.374735197110567, 9047107.441891560330987 ], [ 340979.566564062028192, 9046209.208715869113803 ], [ 339873.692562198149972, 9046205.009751627221704 ], [ 339804.155150912643876, 9048899.696774924173951 ], [ 338698.249261697928887, 9048895.478881899267435 ], [ 338675.104591160197742, 9049793.69623115286231 ], [ 341992.835168407938909, 9049806.252659942954779 ], [ 342015.952743038767949, 9048908.04543412476778 ], [ 344227.731638395693153, 9048916.277928400784731 ], [ 344250.85286928358255, 9048018.069783020764589 ], [ 342039.092050254461356, 9048009.83067980594933 ], [ 342062.253089923586231, 9047111.608389616012573 ] ] ], [ [ [ 361666.959399889805354, 8975295.358380526304245 ], [ 361642.215894548455253, 8976194.159866968169808 ], [ 362747.278497644234449, 8976198.053991107270122 ], [ 362821.544569962657988, 8973501.633260572329164 ], [ 360611.473679704300594, 8973493.797229219228029 ], [ 360561.902447961852886, 8975291.430237913504243 ], [ 361666.959399889805354, 8975295.358380526304245 ] ] ], [ [ [ 361592.793633375898935, 8977991.738378966227174 ], [ 360487.707537828478962, 8977987.818555882200599 ], [ 360463.019085037754849, 8978886.598373033106327 ], [ 361568.114877841435373, 8978890.515419449657202 ], [ 361592.793633375898935, 8977991.738378966227174 ] ] ], [ [ [ 360463.019085037754849, 8978886.598373033106327 ], [ 359357.919184675673023, 8978882.650161033496261 ], [ 359308.587685275007971, 8980680.191020088270307 ], [ 358203.464272215845995, 8980676.217309875413775 ], [ 358178.821250825596508, 8981574.978399269282818 ], [ 360389.083280495833606, 8981582.889062387868762 ], [ 360463.019085037754849, 8978886.598373033106327 ] ] ], [ [ [ 358154.19983936654171, 8982473.731382524594665 ], [ 358178.821250825596508, 8981574.978399269282818 ], [ 357073.683988766802941, 8981570.976440923288465 ], [ 357049.052911616803613, 8982469.732289860025048 ], [ 358154.19983936654171, 8982473.731382524594665 ] ] ], [ [ [ 347888.48716410016641, 8994120.02542576007545 ], [ 350099.095685285865329, 8994128.409354541450739 ], [ 350123.503048925893381, 8993229.740281917154789 ], [ 349018.210573901829775, 8993225.560591287910938 ], [ 349042.649178868508898, 8992326.880443474277854 ], [ 347937.36182451073546, 8992322.666913524270058 ], [ 347888.48716410016641, 8994120.02542576007545 ] ] ], [ [ [ 356755.166287612053566, 8993254.173045065253973 ], [ 357860.428529682569206, 8993258.137614566832781 ], [ 357909.174303159001283, 8991460.81701653636992 ], [ 354593.432284660986625, 8991448.813640732318163 ], [ 354569.019877147395164, 8992347.486684268340468 ], [ 353463.75443865446141, 8992343.426955219358206 ], [ 353439.354103735066019, 8993242.094955615699291 ], [ 352334.074781248345971, 8993238.007463455200195 ], [ 352309.6865353458561, 8994136.670458938926458 ], [ 354520.259975051274523, 8994144.808743951842189 ], [ 354471.586624486255459, 8995942.098816692829132 ], [ 355576.885981755098328, 8995946.116012657061219 ], [ 355552.591293103119824, 8996844.746124535799026 ], [ 356657.895922033116221, 8996848.729751575738192 ], [ 356682.181082230701577, 8995950.102560320869088 ], [ 357787.471958511217963, 8995954.058460287749767 ], [ 357811.769203503383324, 8995055.426175303757191 ], [ 356706.487863322487101, 8995051.467383775860071 ], [ 356755.166287612053566, 8993254.173045065253973 ] ] ], [ [ [ 352285.319944606162608, 8995035.325461117550731 ], [ 352309.6865353458561, 8994136.670458938926458 ], [ 351204.393302908225451, 8994132.555259473621845 ], [ 351180.017162443953566, 8995031.213288260623813 ], [ 352285.319944606162608, 8995035.325461117550731 ] ] ], [ [ [ 348896.342766107700299, 8997718.841545118018985 ], [ 347790.998121198033914, 8997714.646672330796719 ], [ 347766.680085861240514, 8998613.282073557376862 ], [ 348872.03424894658383, 8998617.473830826580524 ], [ 348896.342766107700299, 8997718.841545118018985 ] ] ], [ [ [ 353196.541328971856274, 9002228.336051071062684 ], [ 352091.166821634047665, 9002224.27861132659018 ], [ 351994.610010200412944, 9005818.564714139327407 ], [ 353100.022349618840963, 9005822.610085189342499 ], [ 353124.119622255209833, 9004924.053442884236574 ], [ 355334.912447763141245, 9004932.059097055345774 ], [ 355383.134111445921008, 9003134.933992004022002 ], [ 353172.379112072987482, 9003126.916433250531554 ], [ 353196.541328971856274, 9002228.336051071062684 ] ] ], [ [ [ 352955.893334508058615, 9011213.784331500530243 ], [ 353003.849744185106829, 9009416.757744207978249 ], [ 351898.399710856960155, 9009412.724468978121877 ], [ 351850.42450603179168, 9011209.757114319130778 ], [ 352955.893334508058615, 9011213.784331500530243 ] ] ], [ [ [ 350720.986804738116916, 9012104.207311525940895 ], [ 350697.04397003975464, 9013002.707067916169763 ], [ 351802.535932600381784, 9013006.758350733667612 ], [ 351826.46939032204682, 9012108.261654933914542 ], [ 350720.986804738116916, 9012104.207311525940895 ] ] ], [ [ [ 351802.535932600381784, 9013006.758350733667612 ], [ 351778.62413300643675, 9013905.247209133580327 ], [ 352884.121089454507455, 9013909.265326602384448 ], [ 352860.240306854131632, 9014807.743318416178226 ], [ 353965.742279237078037, 9014811.728324165567756 ], [ 354013.506769956089556, 9013014.770525690168142 ], [ 351802.535932600381784, 9013006.758350733667612 ] ] ], [ [ [ 349495.955506056314334, 9016592.558765169233084 ], [ 348390.417269137105905, 9016588.459697652608156 ], [ 348342.732613701489754, 9018385.385646278038621 ], [ 349448.289513555238955, 9018389.478464728221297 ], [ 349472.111671761027537, 9017491.022513441741467 ], [ 350577.654800756950863, 9017495.088462371379137 ], [ 350625.345467071630992, 9015698.159352440387011 ], [ 349519.821016302565113, 9015694.087212504819036 ], [ 349495.955506056314334, 9016592.558765169233084 ] ] ], [ [ [ 349093.558364870783407, 9031865.387130884453654 ], [ 347987.862593531375751, 9031861.341392884030938 ], [ 347964.378082398558035, 9032759.676751201972365 ], [ 350175.783542843884788, 9032767.732393408194184 ], [ 350199.249676822335459, 9031869.403311643749475 ], [ 351304.936562082672026, 9031873.389935771003366 ], [ 351328.415169972926378, 9030975.056269386783242 ], [ 349117.055365224252455, 9030967.04724595323205 ], [ 349093.558364870783407, 9031865.387130884453654 ] ] ], [ [ [ 355286.354831611504778, 9048955.698098065331578 ], [ 354180.512318336521275, 9048951.886743817478418 ], [ 354157.494021051505115, 9049850.058956617489457 ], [ 351945.777977822173852, 9049842.355263613164425 ], [ 351968.814316930482164, 9048944.176930975168943 ], [ 349757.098797459329944, 9048936.350975109264255 ], [ 349780.174854417680763, 9048038.158873392269015 ], [ 347568.459621652611531, 9048030.210434349253774 ], [ 347591.575434632075485, 9047132.004453249275684 ], [ 345379.860251577221788, 9047123.933310639113188 ], [ 345241.382448375574313, 9052513.09488313831389 ], [ 347453.205899414257146, 9052521.127327721565962 ], [ 347430.220224428514484, 9053419.288155602291226 ], [ 348536.134152826736681, 9053423.257795026525855 ], [ 348582.109202735126019, 9051626.935009479522705 ], [ 350793.887670340482146, 9051634.800177101045847 ], [ 350770.907300515158568, 9052532.959030585363507 ], [ 352982.686099690035917, 9052540.702196793630719 ], [ 352936.826284926733933, 9054336.984997171908617 ], [ 354042.727105621190276, 9054340.807084305211902 ], [ 354065.637212125468068, 9053442.672492329031229 ], [ 355171.524736701394431, 9053446.468735944479704 ], [ 355125.744106469210237, 9055242.724362330511212 ], [ 354019.83863767713774, 9055238.9341742657125 ], [ 353996.971808427129872, 9056137.053769594058394 ], [ 355102.886236406222451, 9056140.840927470475435 ], [ 355080.049996558227576, 9057038.950003746896982 ], [ 353974.126618005568162, 9057035.165877670049667 ], [ 353951.303066546330228, 9057933.270505871623755 ], [ 355057.235387059277855, 9057937.051598547026515 ], [ 355034.442408043658361, 9058835.145719246938825 ], [ 356140.379370265291072, 9058838.895043747499585 ], [ 356163.163416869123466, 9057940.803930705413222 ], [ 357269.087188735604286, 9057944.527502916753292 ], [ 357337.542213132139295, 9055250.218211341649294 ], [ 358443.434916508034803, 9055253.921873420476913 ], [ 358512.057535789441317, 9052559.553921459242702 ], [ 356300.321751075156499, 9052552.10000428929925 ], [ 356346.214165747398511, 9050755.805280864238739 ], [ 355240.357905294629745, 9050752.02894532866776 ], [ 355286.354831611504778, 9048955.698098065331578 ] ], [ [ 356231.645287369727157, 9055246.485707832500339 ], [ 356254.515820650907699, 9054348.364647682756186 ], [ 357360.403780487598851, 9054352.100125074386597 ], [ 357337.542213132139295, 9055250.218211341649294 ], [ 356231.645287369727157, 9055246.485707832500339 ] ], [ [ 347499.242319246055558, 9050724.783143291249871 ], [ 347476.213264397694729, 9051622.95899274200201 ], [ 346370.31281270692125, 9051618.954019919037819 ], [ 346393.3508764738217, 9050720.774956880137324 ], [ 347499.242319246055558, 9050724.783143291249871 ] ] ], [ [ [ 357223.558571879984811, 9059740.696298455819488 ], [ 357246.312073610490188, 9058842.615635648369789 ], [ 356140.379370265291072, 9058838.895043747499585 ], [ 356117.616945667250548, 9059736.978688467293978 ], [ 357223.558571879984811, 9059740.696298455819488 ] ] ] ] } }
]
}
