{
"type": "FeatureCollection",
"name": "urban-1990",
"crs": { "type": "name", "properties": { "name": "urn:ogc:def:crs:EPSG::32618" } },
"features": [
{ "type": "Feature", "properties": { "year": 1990 }, "geometry": { "type": "MultiPolygon", "coordinates": [ [ [ [ 561070.720879372442141, 467719.276093279884662 ], [ 559961.534556731698103, 467718.497161732928362 ], [ 559907.562807324109599, 468613.41719379479764 ], [ 561016.744670853600837, 468614.196921916212887 ], [ 561070.720879372442141, 467719.276093279884662 ] ] ], [ [ [ 562125.928383270162158, 468614.99095599539578 ], [ 561016.744670853600837, 468614.196921916212887 ], [ 560908.483172704465687, 470404.049365103477612 ], [ 563126.834582619485445, 470405.655065579805523 ], [ 563181.025802242686041, 469510.725384786201175 ], [ 562071.844678292050958, 469509.91619742650073 ], [ 562125.928383270162158, 468614.99095599539578 ] ] ], [ [ [ 556471.802229947876185, 470401.01028992322972 ], [ 556525.966598373255692, 469506.085258931387216 ], [ 555416.796255069668405, 469505.362070072733331 ], [ 555362.636355916620232, 470400.28642164968187 ], [ 556471.802229947876185, 470401.01028992322972 ] ] ], [ [ [ 568618.430440274416469, 471304.858518944936804 ], [ 568672.747168229427189, 470409.920633106783498 ], [ 567563.560623990837485, 470409.038797218934633 ], [ 567509.248392467037775, 471303.97570732125314 ], [ 568618.430440274416469, 471304.858518944936804 ] ] ], [ [ [ 555254.007606123574078, 472190.146014010126237 ], [ 555362.636355916620232, 470400.28642164968187 ], [ 554253.472159328055568, 470399.576913359807804 ], [ 554144.852370055275969, 472189.435213468852453 ], [ 555254.007606123574078, 472190.146014010126237 ] ] ], [ [ [ 560799.809569420525804, 472193.91623773437459 ], [ 560854.197883976623416, 471298.980994120473042 ], [ 559745.029448582907207, 471298.198900155199226 ], [ 559690.64562700514216, 472193.133363139582798 ], [ 560799.809569420525804, 472193.91623773437459 ] ] ], [ [ [ 566291.143712347373366, 473092.989998683740851 ], [ 566345.657585113192908, 472198.046840598515701 ], [ 567454.833084246725775, 472198.916208034264855 ], [ 567509.248392467037775, 471303.97570732125314 ], [ 564181.714387386920862, 471301.413603668101132 ], [ 564236.013139852089807, 470406.479456963890698 ], [ 563126.834582619485445, 470405.655065579805523 ], [ 563072.540319768711925, 471300.588345753960311 ], [ 561963.368163169245236, 471299.7774759461754 ], [ 561908.975353929796256, 472194.713527490268461 ], [ 560799.809569420525804, 472193.91623773437459 ], [ 560745.318229486350901, 473088.855103183304891 ], [ 562963.642666202271357, 473090.46573312941473 ], [ 563018.143014145200141, 472195.525232529267669 ], [ 564127.312583673512563, 472196.351352975761984 ], [ 564072.807729166001081, 473091.292712102876976 ], [ 566291.143712347373366, 473092.989998683740851 ] ] ], [ [ [ 555254.007606123574078, 472190.146014010126237 ], [ 555199.538756387541071, 473085.081269344780594 ], [ 557417.845293319202028, 473086.547476435487624 ], [ 557472.323134027072228, 472191.61085895675933 ], [ 555254.007606123574078, 472190.146014010126237 ] ] ], [ [ [ 561635.465809168410487, 476669.448197355144657 ], [ 561580.45480370183941, 477564.406064419075847 ], [ 563798.737710697576404, 477566.05390772985993 ], [ 563853.75781232258305, 476671.094391194870695 ], [ 562744.610860373126343, 476670.264018318557646 ], [ 562854.332845184369944, 474880.357604707533028 ], [ 563963.488869591266848, 474881.186288688972127 ], [ 564018.199824318289757, 473986.237688267370686 ], [ 560690.723864631028846, 473983.79759770835517 ], [ 560745.318229486350901, 473088.855103183304891 ], [ 557417.845293319202028, 473086.547476435487624 ], [ 557363.264453079667874, 473981.487735029135365 ], [ 558472.415807593730278, 473982.243219691154081 ], [ 558417.727453319355845, 474877.187840654572938 ], [ 560636.026475311489776, 474878.743728552479297 ], [ 560526.322625104337931, 476668.646928179892711 ], [ 561635.465809168410487, 476669.448197355144657 ] ] ], [ [ [ 564962.906698619481176, 476671.939316111151129 ], [ 565072.64683178672567, 474882.029470107750967 ], [ 563963.488869591266848, 474881.186288688972127 ], [ 563853.75781232258305, 476671.094391194870695 ], [ 564962.906698619481176, 476671.939316111151129 ] ] ], [ [ [ 571452.377220044960268, 479362.223796463862527 ], [ 571562.790527052013204, 477572.280615522002336 ], [ 564907.882046331302263, 477566.899698333523702 ], [ 564852.754337517661043, 478461.863729663658887 ], [ 565961.896078506251797, 478462.724988675734494 ], [ 565906.660744283464737, 479357.693561216001399 ], [ 569234.084371818462387, 479360.367798658146057 ], [ 569123.276998305809684, 481150.321529702632688 ], [ 570232.41317897324916, 481151.244187192758545 ], [ 570176.850257305777632, 482046.227523510577157 ], [ 571285.983961752615869, 482047.165879525709897 ], [ 571341.55148693441879, 481152.181534042174462 ], [ 572450.691955785616301, 481153.133570394362323 ], [ 572561.526873925118707, 479363.173747642606031 ], [ 571452.377220044960268, 479362.223796463862527 ] ] ], [ [ [ 566626.234569384600036, 485623.459488279360812 ], [ 566514.00255498313345, 487413.461061833775602 ], [ 567623.10221575864125, 487414.360745705140289 ], [ 567566.826948118046857, 488309.368007965560537 ], [ 568675.92399727285374, 488310.283497805357911 ], [ 568732.203924347180873, 487415.275309768330771 ], [ 569841.307714340277016, 487416.204754163161851 ], [ 569953.567608959157951, 485626.197588755807374 ], [ 566626.234569384600036, 485623.459488279360812 ] ] ], [ [ [ 557838.189789074007422, 501728.048214349662885 ], [ 557780.303652738337405, 502623.110035447229166 ], [ 558889.309798187459819, 502623.91701832099352 ], [ 558947.200715199927799, 501728.854557057376951 ], [ 557838.189789074007422, 501728.048214349662885 ] ] ], [ [ [ 564143.24792780331336, 507103.570308887748979 ], [ 564201.67802929575555, 506208.484924765711185 ], [ 563092.681879986659624, 506207.598159687768202 ], [ 563151.004108046414331, 505312.517412201268598 ], [ 562042.005046300822869, 505311.646832503145561 ], [ 562100.21941920556128, 504416.570695640868507 ], [ 560991.21742357336916, 504415.716250874858815 ], [ 561107.327469737734646, 502625.577014371112455 ], [ 558889.309798187459819, 502623.91701832099352 ], [ 558773.218936352524906, 504414.053555959835649 ], [ 559882.217273810994811, 504414.877204357122537 ], [ 559824.01252209325321, 505309.951950017886702 ], [ 560933.007862172788009, 505310.791678485751618 ], [ 560816.279665161855519, 507100.954188957461156 ], [ 564143.24792780331336, 507103.570308887748979 ] ] ], [ [ [ 561513.439247441245243, 513367.507467048591934 ], [ 561631.619529135059565, 511577.288793621759396 ], [ 560522.656262529897504, 511576.428795331972651 ], [ 560581.586987966788001, 510681.326035626640078 ], [ 557254.693440046627074, 510678.841613613360096 ], [ 557077.636079542571679, 513364.156120457395446 ], [ 559295.534075541887432, 513365.800451489281841 ], [ 559354.665957604534924, 512470.690459829114843 ], [ 560463.62251561798621, 512471.535488894151058 ], [ 560404.48574772675056, 513366.646123638551217 ], [ 561513.439247441245243, 513367.507467048591934 ] ] ], [ [ [ 561722.832220788230188, 526795.541400145040825 ], [ 561783.524274745490402, 525900.369531272328459 ], [ 557347.991074991645291, 525896.920566434389912 ], [ 557287.319075563224033, 526792.090072976658121 ], [ 561722.832220788230188, 526795.541400145040825 ] ] ], [ [ [ 571520.0187600342324, 529489.808071713894606 ], [ 570411.134903556667268, 529488.77377917827107 ], [ 570349.990261666709557, 530383.967782913357951 ], [ 571458.869050597422756, 530385.002934769843705 ], [ 571520.0187600342324, 529489.808071713894606 ] ] ], [ [ [ 576016.643007629318163, 528598.912326375953853 ], [ 576077.606728686252609, 527703.721772551885806 ], [ 574968.703895571641624, 527702.624772434006445 ], [ 575029.559427231666632, 526807.439199490007013 ], [ 572811.750434915069491, 526805.295411673258059 ], [ 572750.90499698149506, 527700.479102542973123 ], [ 573859.803329516435042, 527701.543882486061193 ], [ 573798.849723014747724, 528596.732508588465862 ], [ 572689.956444882205687, 528595.666805738466792 ], [ 572567.75000021874439, 530386.054278215509839 ], [ 571458.869050597422756, 530385.002934769843705 ], [ 571397.616237020818517, 531280.201836489839479 ], [ 570288.742524123867042, 531279.165829814737663 ], [ 570165.937764129019342, 533069.574082315666601 ], [ 569057.076350139919668, 533068.552652877522632 ], [ 568995.524428281700239, 533963.762059117550962 ], [ 567886.670199773274362, 533962.756116198957898 ], [ 567825.020298914751038, 534857.968817218672484 ], [ 570042.7206276912475, 534859.998595102108084 ], [ 570104.380742707522586, 533964.784302520332858 ], [ 571213.239176581380889, 533965.822846563649364 ], [ 571151.57395158323925, 534861.037975879968144 ], [ 572260.429426515824161, 534862.09368475957308 ], [ 572322.099763429490849, 533966.877691406174563 ], [ 573430.962536784354597, 533967.948837209260091 ], [ 573676.633144065388478, 530387.121813411242329 ], [ 574785.518515672534704, 530388.205540519906208 ], [ 574907.745232751592994, 528597.814348745741881 ], [ 576016.643007629318163, 528598.912326375953853 ] ] ], [ [ [ 573307.508516700239852, 535758.386672660824843 ], [ 573369.287086014635861, 534863.165721902274527 ], [ 572260.429426515824161, 534862.09368475957308 ], [ 572198.655979548115283, 535757.313748718705028 ], [ 573307.508516700239852, 535758.386672660824843 ] ] ], [ [ [ 575504.151460593915544, 551876.432791778817773 ], [ 575631.349228150560521, 550085.841047823545523 ], [ 574522.573148718802258, 550084.704180567990988 ], [ 574459.031104870373383, 550979.997070389566943 ], [ 573350.262547762948088, 550978.876132996287197 ], [ 573286.622656998690218, 551874.172352725989185 ], [ 572177.861593201872893, 551873.067404307075776 ], [ 572050.283040861482732, 553663.670803873566911 ], [ 573159.033524898113683, 553664.777400369057432 ], [ 573222.87964919838123, 552769.472772740758955 ], [ 574331.637639521621168, 552770.595422195270658 ], [ 574395.385934960329905, 551875.294148492743261 ], [ 575504.151460593915544, 551876.432791778817773 ] ] ], [ [ [ 617591.599665517685935, 486575.177589951374102 ], [ 617647.879450329346582, 485680.108689688844606 ], [ 616538.644926114939153, 485678.543493284611031 ], [ 616369.509374213754199, 488363.754376732744277 ], [ 617478.729709299048409, 488365.32596729247598 ], [ 617535.216418345808052, 487470.250013526179828 ], [ 618644.44505159498658, 487471.834365575807169 ], [ 618700.833030292647891, 486576.75978330092039 ], [ 617591.599665517685935, 486575.177589951374102 ] ] ], [ [ [ 582582.677422991371714, 496378.91168614581693 ], [ 582697.113037318224087, 494588.803501193353441 ], [ 581588.019348989590071, 494587.68535179249011 ], [ 581530.85788835817948, 495482.736335645138752 ], [ 580421.771419126307592, 495481.632066809281241 ], [ 580364.511532819131389, 496376.685561546881218 ], [ 581473.59324461966753, 496377.791046232916415 ], [ 581416.225418257410638, 497272.849490701628383 ], [ 582525.304828864173032, 497273.971369557140861 ], [ 582410.250069106929004, 499064.101953952747863 ], [ 584628.397285792976618, 499066.396354208001867 ], [ 584685.985835852799937, 498171.326647128385957 ], [ 583576.906174912350252, 498170.173113363387529 ], [ 583691.764101515640505, 496380.047481456655078 ], [ 582582.677422991371714, 496378.91168614581693 ] ] ], [ [ [ 622626.414330118801445, 494639.115505236142781 ], [ 622569.075879224692471, 495534.230827586783562 ], [ 621459.875708687584847, 495532.566693587170448 ], [ 621229.506256343214773, 499113.054883744101971 ], [ 622338.687074173474684, 499114.727897436998319 ], [ 622396.439524666289799, 498219.598249176109675 ], [ 624614.822013478493318, 498222.985502862022258 ], [ 624672.480655392981134, 497327.854928802931681 ], [ 623563.282695084344596, 497326.155965405341703 ], [ 623735.623030420509167, 494640.792517267982475 ], [ 622626.414330118801445, 494639.115505236142781 ] ] ], [ [ [ 623390.010785106569529, 500011.551639759272803 ], [ 623447.871595898759551, 499116.416156183811836 ], [ 622338.687074173474684, 499114.727897436998319 ], [ 622280.831125023309141, 500009.861144344613422 ], [ 623390.010785106569529, 500011.551639759272803 ] ] ], [ [ [ 604823.742671075626276, 512518.166343325225171 ], [ 605001.123686297913082, 509832.712678703246638 ], [ 603892.052945188595913, 509831.246996799774934 ], [ 604243.994719726964831, 504460.451205096382182 ], [ 603134.897704454488121, 504459.011508539144415 ], [ 603193.188044305425137, 503563.893648008292075 ], [ 602084.089279595762491, 503562.471080106915906 ], [ 602316.19773768633604, 499982.043562429898884 ], [ 601207.082671700627543, 499980.643200437596533 ], [ 601322.507199593354017, 498190.455000737623777 ], [ 602431.631909715477377, 498191.851922962639946 ], [ 602489.193979748990387, 497296.761608535423875 ], [ 600270.938010427285917, 497293.986402515438385 ], [ 600385.732934457017109, 495503.823624844488222 ], [ 598167.469941059243865, 495501.115819017752074 ], [ 598281.832452877541073, 493710.974353188474197 ], [ 596063.562264511827379, 493708.333542613254394 ], [ 595949.218836485873908, 495498.468536129803397 ], [ 597058.342919465620071, 495499.784612308605574 ], [ 596770.652709792251699, 499975.194429340830538 ], [ 595661.552626894204877, 499973.870404742890969 ], [ 595603.709507823106833, 500868.961872267944273 ], [ 594494.617144654737785, 500867.65156485105399 ], [ 594552.455439857207239, 499972.561647007183637 ], [ 593443.361115095554851, 499971.268155932950322 ], [ 593327.59089462668635, 501761.448669768695254 ], [ 591109.429991781944409, 501758.901569652894977 ], [ 591051.399643606157042, 502653.99447217467241 ], [ 592160.473863861174323, 502655.261821048217826 ], [ 592102.335415649577044, 503550.359924141608644 ], [ 589884.199417307158001, 503547.83769171097083 ], [ 589825.967408262193203, 504442.936669077258557 ], [ 587607.85198810743168, 504440.473172163648997 ], [ 587666.074301288579591, 503545.376959706307389 ], [ 583229.855641759117134, 503540.639990991447121 ], [ 582996.424697633250616, 507121.026799212791957 ], [ 585214.490028079482727, 507123.374669304350391 ], [ 585155.864556963089854, 508018.483393614355009 ], [ 586264.896196268382482, 508019.681850965949707 ], [ 586088.385839144932106, 510705.034776123822667 ], [ 587197.405399898183532, 510706.252691637724638 ], [ 587079.205905169830658, 512496.509707205754239 ], [ 588188.21826530538965, 512497.745880237489473 ], [ 588128.958747872733511, 513392.881465314072557 ], [ 590346.981636433280073, 513395.403488694981206 ], [ 590287.608998497133143, 514290.54563787614461 ], [ 592505.632926544873044, 514293.13319762336323 ], [ 592446.147126890718937, 515188.282009811373428 ], [ 593555.158313538995571, 515189.600798084225971 ], [ 593495.564280262449756, 516084.75489574536914 ], [ 592386.558061080868356, 516083.434658384008799 ], [ 592326.865729622426443, 516978.591150454361923 ], [ 591217.867279658326879, 516977.285253660462331 ], [ 591098.182795707485639, 518767.606975121307187 ], [ 587771.233768291771412, 518763.775857168715447 ], [ 587711.251630569458939, 519658.93846939370269 ], [ 584384.341470440034755, 519655.246100294461939 ], [ 584324.271099635283463, 520550.408812286739703 ], [ 583215.311191192711703, 520549.20854584639892 ], [ 583155.142620553844608, 521444.373963606369216 ], [ 584264.097525484394282, 521445.57543430221267 ], [ 584203.820748499128968, 522340.745973521145061 ], [ 585312.773188289022073, 522341.964591801923234 ], [ 585191.899974373518489, 524132.319891547143925 ], [ 586300.844937312300317, 524133.556953339430038 ], [ 586361.338182355626486, 523238.376094336505048 ], [ 587470.290790289989673, 523239.627885998808779 ], [ 587530.685842751292512, 522344.449672376038507 ], [ 589748.609087393269874, 522346.998546238115523 ], [ 589869.109573469846509, 520556.648545440286398 ], [ 590978.085289435693994, 520557.94417359714862 ], [ 591038.185670106788166, 519662.773636167636141 ], [ 593256.155410211533308, 519665.409748656500597 ], [ 593196.045011000707746, 520560.583113006839994 ], [ 594305.029083710513078, 520561.926424663339276 ], [ 594184.488420883310027, 522352.287680099136196 ], [ 596402.445046572713181, 522355.027943333087023 ], [ 596220.829164263093844, 525040.607843891950324 ], [ 597329.796677907113917, 525042.006456164875999 ], [ 597269.04639100364875, 525937.209050457575358 ], [ 598378.011777200968936, 525938.625231824815273 ], [ 598317.15310774021782, 526833.83325825270731 ], [ 599426.116387603571638, 526835.267059080419131 ], [ 599242.905219680978917, 529520.919232749263756 ], [ 600351.856204204028472, 529522.373855354846455 ], [ 600290.574060560320504, 530417.600644390331581 ], [ 598072.685326499398798, 530414.704457049258053 ], [ 598011.310107939876616, 531309.932065527886152 ], [ 599120.247850865358487, 531311.373598454287276 ], [ 598935.486922771902755, 533997.08466388087254 ], [ 600044.412232069065794, 533998.547087587649003 ], [ 600229.188591004698537, 531312.83135503763333 ], [ 601338.132361899712123, 531314.30533550074324 ], [ 601399.522959890426137, 530419.073032808490098 ], [ 602508.474925479968078, 530420.561618024366908 ], [ 602569.767310801427811, 529525.331608586595394 ], [ 601460.810223394422792, 529523.844647225691006 ], [ 601583.074744852725416, 527733.399599060881883 ], [ 604909.986011341796257, 527737.899045121041127 ], [ 604848.890098529169336, 528633.124598162597977 ], [ 605957.861710970057175, 528634.658359094057232 ], [ 605896.657317783916369, 529529.889511895715259 ], [ 604787.69082444801461, 529528.354040690581314 ], [ 604664.982194570824504, 531318.824622435146011 ], [ 606882.897851783549413, 531321.918603988247924 ], [ 607066.836527773295529, 528636.208263131324202 ], [ 608175.814582487451844, 528637.77431051118765 ], [ 608236.92583272641059, 527742.543531261500902 ], [ 609345.912275291746482, 527744.123925536172464 ], [ 609710.439137617358938, 522372.809379029669799 ], [ 608601.422177246422507, 522371.239858679356985 ], [ 608902.325892325490713, 517895.258767812803853 ], [ 607793.287031619925983, 517893.714246929972433 ], [ 607853.152585657080635, 516998.531254820642062 ], [ 606744.111976737971418, 516997.004344889894128 ], [ 606863.522935840301216, 515206.653325016261078 ], [ 605754.475567282177508, 515205.145752349460963 ], [ 605932.801753462757915, 512519.652908143238164 ], [ 604823.742671075626276, 512518.166343325225171 ] ], [ [ 601704.925922112888657, 525942.970134376431815 ], [ 602813.90341102774255, 525944.450555448536761 ], [ 602753.024403171031736, 526839.664985181065276 ], [ 601644.052001767675392, 526838.182922321604565 ], [ 601704.925922112888657, 525942.970134376431815 ] ] ], [ [ [ 607972.573537742951885, 515208.176631156995427 ], [ 607853.152585657080635, 516998.531254820642062 ], [ 610071.243626321433112, 517001.632439894368872 ], [ 610250.249945804360323, 514316.095100383739918 ], [ 609141.187789091374725, 514314.54218966991175 ], [ 609081.627406554762274, 515209.715671004843898 ], [ 607972.573537742951885, 515208.176631156995427 ] ] ], [ [ [ 615255.574390492867678, 522380.896275530569255 ], [ 615315.99228324345313, 521485.681054756161757 ], [ 613097.917827779660001, 521482.40233778039692 ], [ 613037.510064895730466, 522377.613656998379156 ], [ 615255.574390492867678, 522380.896275530569255 ] ] ], [ [ [ 590857.574764912482351, 522348.296906137431506 ], [ 589748.609087393269874, 522346.998546238115523 ], [ 589688.203976602642797, 523242.179396395804361 ], [ 590797.164622081560083, 523243.479115520603955 ], [ 590857.574764912482351, 522348.296906137431506 ] ] ], [ [ [ 583034.495896850712597, 523234.716571204655338 ], [ 584143.440769185777754, 523235.920437127060723 ], [ 584203.820748499128968, 522340.745973521145061 ], [ 581985.923476054449566, 522338.356580040883273 ], [ 582046.190230872947723, 521443.188413177675102 ], [ 579828.292863056529313, 521440.865072398737539 ], [ 579768.036122786696069, 522336.030976121895947 ], [ 578659.0960819729371, 522334.89209480205318 ], [ 578598.741186389932409, 523230.060854463488795 ], [ 579707.676214269711636, 523231.200821964768693 ], [ 579647.213138012797572, 524126.374617142719217 ], [ 575211.507230130722746, 524121.906428290705662 ], [ 575150.961095021688379, 525017.080034673563205 ], [ 576259.87905184191186, 525018.17407541081775 ], [ 576138.467310082633048, 526808.535217616590671 ], [ 577247.377495453460142, 526809.647318777628243 ], [ 577186.511862404062413, 527704.834883007453755 ], [ 578295.419330260716379, 527705.964103970793076 ], [ 578477.721918052062392, 525020.410242340527475 ], [ 580695.574277978157625, 525022.710524353664368 ], [ 580756.145553330541588, 524127.531668026000261 ], [ 582974.017744804150425, 524129.893775426666252 ], [ 583034.495896850712597, 523234.716571204655338 ] ] ], [ [ [ 596160.083946607657708, 525935.808928469312377 ], [ 596220.829164263093844, 525040.607843891950324 ], [ 594002.902833985630423, 525037.858714709524065 ], [ 593942.167749030748382, 525933.056861775345169 ], [ 596160.083946607657708, 525935.808928469312377 ] ] ], [ [ [ 591724.262916073086672, 525930.369030059780926 ], [ 591663.434696058509871, 526825.568270734394901 ], [ 593881.329386939876713, 526828.258921809843741 ], [ 593942.167749030748382, 525933.056861775345169 ], [ 591724.262916073086672, 525930.369030059780926 ] ] ], [ [ [ 606882.897851783549413, 531321.918603988247924 ], [ 606821.378205341519788, 532217.163178168586455 ], [ 603494.524918282870203, 532212.541452850331552 ], [ 603617.429990874603391, 530422.066400265321136 ], [ 602508.474925479968078, 530420.561618024366908 ], [ 602262.271958800731227, 534001.52085263223853 ], [ 603371.206443316419609, 534003.032194424653426 ], [ 603432.917355833342299, 533107.784858976956457 ], [ 607868.707536239875481, 533113.986487854504958 ], [ 607991.860511654755101, 531323.489932549535297 ], [ 606882.897851783549413, 531321.918603988247924 ] ] ], [ [ [ 606698.028783944551833, 534007.66405966237653 ], [ 605589.08482234692201, 534006.103797704912722 ], [ 605527.260221034521237, 534901.358408624306321 ], [ 606636.199010042357258, 534902.920381081174128 ], [ 606698.028783944551833, 534007.66405966237653 ] ] ], [ [ [ 584396.161308874841779, 535770.015505514806136 ], [ 581069.540206651901826, 535766.355110187316313 ], [ 581007.622548899613321, 536661.58707454719115 ], [ 582116.48860763956327, 536662.79194980696775 ], [ 582054.462617898127064, 537558.029059045016766 ], [ 584272.19190041499678, 537560.490237214951776 ], [ 584334.228205940453336, 536665.250853820121847 ], [ 586551.978002197341993, 536667.775297082145698 ], [ 586675.761601048056036, 534877.303834281978197 ], [ 584457.991208693711087, 534874.784185085562058 ], [ 584396.161308874841779, 535770.015505514806136 ] ] ], [ [ [ 609338.894878290360793, 543860.537028753315099 ], [ 609464.550052653299645, 542069.938816355308518 ], [ 608355.643228273140267, 542068.313664355082437 ], [ 608543.334800276788883, 539382.451403995160945 ], [ 607434.415541082853451, 539380.84800496569369 ], [ 607559.015879751415923, 537590.296445821411908 ], [ 606450.089441853109747, 537588.712952710222453 ], [ 606574.265861373394728, 535798.180632355506532 ], [ 605465.332253541913815, 535796.616953939781524 ], [ 605527.260221034521237, 534901.358408624306321 ], [ 602200.462863403372467, 534896.770495902979746 ], [ 602138.550427568610758, 535792.024087191559374 ], [ 601029.629372955998406, 535790.525853661471047 ], [ 600967.618779046344571, 536685.781807879568078 ], [ 602076.534651819965802, 536687.281633588136174 ], [ 601952.193082703975961, 538477.808620072552003 ], [ 603061.101648131967522, 538479.328059257473797 ], [ 602748.413180478150025, 542955.723219702020288 ], [ 604966.187394715845585, 542958.82780323526822 ], [ 605028.942272554268129, 542063.537528146523982 ], [ 606137.839371754787862, 542065.113020495511591 ], [ 605949.248879276099615, 544751.000841342611238 ], [ 604840.367555394535884, 544749.420354753034189 ], [ 604777.302594984765165, 545644.722645362373441 ], [ 608103.940373787772842, 545649.519058517878875 ], [ 608040.756194970919751, 546544.830403036088683 ], [ 609149.636654024943709, 546546.464265290182084 ], [ 609275.912198025267571, 544755.842111479607411 ], [ 610384.806531735346653, 544757.489139137091115 ], [ 610447.794487083563581, 543862.182287043193355 ], [ 609338.894878290360793, 543860.537028753315099 ] ], [ [ 604107.677115751663223, 539376.13663464889396 ], [ 605216.586732355528511, 539377.690620534005575 ], [ 605154.141941908048466, 540272.968943878542632 ], [ 604045.237547411117703, 540271.413302160450257 ], [ 604107.677115751663223, 539376.13663464889396 ] ] ], [ [ [ 616911.894108619075269, 546558.36864256078843 ], [ 616975.120666159084067, 545663.042670961935073 ], [ 613648.402462861384265, 545657.846337789786048 ], [ 613585.191812550299801, 546553.166619407944381 ], [ 614694.089100391836837, 546554.8839354935335 ], [ 614630.769713104120456, 547450.210071154637262 ], [ 616848.564097257796675, 547453.698589572333731 ], [ 616785.130632618092932, 548349.032519010943361 ], [ 619002.928492757375352, 548352.591826279764064 ], [ 619066.372606850345619, 547457.253985542338341 ], [ 617957.466569609474391, 547455.467927728430368 ], [ 618020.801896061748266, 546560.13603407505434 ], [ 616911.894108619075269, 546558.36864256078843 ] ] ], [ [ [ 621157.18247946142219, 549251.563954625045881 ], [ 621220.740738394670188, 548356.218122521182522 ], [ 619002.928492757375352, 548352.591826279764064 ], [ 618939.380908693186939, 549247.933647149591707 ], [ 621157.18247946142219, 549251.563954625045881 ] ] ], [ [ [ 574649.347856097272597, 548294.130936509347521 ], [ 573540.563512506429106, 548293.012602272909135 ], [ 573413.799320957623422, 550083.584106225753203 ], [ 574522.573148718802258, 550084.704180567990988 ], [ 574649.347856097272597, 548294.130936509347521 ] ] ], [ [ [ 615229.343607662362047, 554614.714317346923053 ], [ 614120.490962601965293, 554612.963449507253245 ], [ 614056.240670460276306, 555508.325764053734019 ], [ 612947.396859763306566, 555506.590010948246345 ], [ 613011.641765467473306, 554611.229519004467875 ], [ 611902.79598274489399, 554609.512525573722087 ], [ 611966.93208959302865, 553714.157886394183151 ], [ 610858.084314043517224, 553712.459602465271018 ], [ 610922.111640743678436, 552817.110791085055098 ], [ 609813.261851557763293, 552815.431166480877437 ], [ 609492.118060573819093, 557292.207141868537292 ], [ 613927.429793333401904, 557299.062565519241616 ], [ 613862.869209450436756, 558194.437066551297903 ], [ 614971.700248870998621, 558196.195305711240508 ], [ 615036.266247072606348, 557300.818968939827755 ], [ 616145.106176056433469, 557302.592391896527261 ], [ 616209.574143407517113, 556407.218251829501241 ], [ 615100.728806641302072, 556405.446696654893458 ], [ 615229.343607662362047, 554614.714317346923053 ] ] ] ] } }
]
}
