{
"type": "FeatureCollection",
"name": "urban-1975",
"crs": { "type": "name", "properties": { "name": "urn:ogc:def:crs:EPSG::32618" } },
"features": [
{ "type": "Feature", "properties": { "year": 1975 }, "geometry": { "type": "MultiPolygon", "coordinates": [ [ [ [ 562179.909052589791827, 467720.069303483818658 ], [ 559961.534556731698103, 467718.497161732928362 ], [ 559907.562807324109599, 468613.41719379479764 ], [ 561016.744670853600837, 468614.196921916212887 ], [ 560908.483172704465687, 470404.049365103477612 ], [ 563126.834582619485445, 470405.655065579805523 ], [ 563235.113978186156601, 468615.799296153883915 ], [ 562125.928383270162158, 468614.99095599539578 ], [ 562179.909052589791827, 467720.069303483818658 ] ] ], [ [ [ 567509.248392467037775, 471303.97570732125314 ], [ 568618.430440274416469, 471304.858518944936804 ], [ 568672.747168229427189, 470409.920633106783498 ], [ 567563.560623990837485, 470409.038797218934633 ], [ 567509.248392467037775, 471303.97570732125314 ] ] ], [ [ [ 560799.809569420525804, 472193.91623773437459 ], [ 560908.483172704465687, 470404.049365103477612 ], [ 559799.310252797207795, 470403.268055765249301 ], [ 559690.64562700514216, 472193.133363139582798 ], [ 560799.809569420525804, 472193.91623773437459 ] ] ], [ [ [ 564181.714387386920862, 471301.413603668101132 ], [ 564236.013139852089807, 470406.479456963890698 ], [ 563126.834582619485445, 470405.655065579805523 ], [ 563072.540319768711925, 471300.588345753960311 ], [ 561963.368163169245236, 471299.7774759461754 ], [ 561908.975353929796256, 472194.713527490268461 ], [ 560799.809569420525804, 472193.91623773437459 ], [ 560745.318229486350901, 473088.855103183304891 ], [ 566291.143712347373366, 473092.989998683740851 ], [ 566345.657585113192908, 472198.046840598515701 ], [ 567454.833084246725775, 472198.916208034264855 ], [ 567509.248392467037775, 471303.97570732125314 ], [ 564181.714387386920862, 471301.413603668101132 ] ] ], [ [ [ 564907.882046331302263, 477566.899698333523702 ], [ 564852.754337517661043, 478461.863729663658887 ], [ 565961.896078506251797, 478462.724988675734494 ], [ 565906.660744283464737, 479357.693561216001399 ], [ 569234.084371818462387, 479360.367798658146057 ], [ 569123.276998305809684, 481150.321529702632688 ], [ 572450.691955785616301, 481153.133570394362323 ], [ 572561.526873925118707, 479363.173747642606031 ], [ 571452.377220044960268, 479362.223796463862527 ], [ 571562.790527052013204, 477572.280615522002336 ], [ 564907.882046331302263, 477566.899698333523702 ] ] ], [ [ [ 566570.170096599962562, 486518.458418463880662 ], [ 567679.274406557437032, 486519.357199725345708 ], [ 567623.10221575864125, 487414.360745705140289 ], [ 568732.203924347180873, 487415.275309768330771 ], [ 568844.454522034619004, 485625.270062915806193 ], [ 566626.234569384600036, 485623.459488279360812 ], [ 566570.170096599962562, 486518.458418463880662 ] ] ], [ [ [ 563034.256610583746806, 507102.682788539095782 ], [ 563151.004108046414331, 505312.517412201268598 ], [ 560933.007862172788009, 505310.791678485751618 ], [ 560816.279665161855519, 507100.954188957461156 ], [ 563034.256610583746806, 507102.682788539095782 ] ] ], [ [ [ 557254.693440046627074, 510678.841613613360096 ], [ 557195.777315817191266, 511573.942499897617381 ], [ 558304.735189428320155, 511574.755648597842082 ], [ 558245.711195412441157, 512469.861074594256934 ], [ 560463.62251561798621, 512471.535488894151058 ], [ 560404.48574772675056, 513366.646123638551217 ], [ 561513.439247441245243, 513367.507467048591934 ], [ 561631.619529135059565, 511577.288793621759396 ], [ 559413.694827145896852, 511575.584413700446021 ], [ 559472.620683674002066, 510680.48230576980859 ], [ 557254.693440046627074, 510678.841613613360096 ] ] ], [ [ [ 577429.355500484933145, 524124.108520125679206 ], [ 575211.507230130722746, 524121.906428290705662 ], [ 575150.961095021688379, 525017.080034673563205 ], [ 576259.87905184191186, 525018.17407541081775 ], [ 576199.224751304485835, 525913.352654319256544 ], [ 577308.13997982244473, 525914.463741714484058 ], [ 577186.511862404062413, 527704.834883007453755 ], [ 578295.419330260716379, 527705.964103970793076 ], [ 578477.721918052062392, 525020.410242340527475 ], [ 577368.799315004609525, 525019.284144576522522 ], [ 577429.355500484933145, 524124.108520125679206 ] ] ], [ [ [ 572811.750434915069491, 526805.295411673258059 ], [ 572750.90499698149506, 527700.479102542973123 ], [ 573859.803329516435042, 527701.543882486061193 ], [ 573798.849723014747724, 528596.732508588465862 ], [ 572689.956444882205687, 528595.666805738466792 ], [ 572567.75000021874439, 530386.054278215509839 ], [ 573676.633144065388478, 530387.121813411242329 ], [ 573737.792994359857403, 529491.925149806309491 ], [ 574846.683439280372113, 529493.007935686502606 ], [ 575029.559427231666632, 526807.439199490007013 ], [ 572811.750434915069491, 526805.295411673258059 ] ] ], [ [ [ 572322.099763429490849, 533966.877691406174563 ], [ 572445.131105029722676, 532176.457887344644405 ], [ 573554.004080616403371, 532177.527236878406256 ], [ 573615.370172647875734, 531282.32250667642802 ], [ 572506.492108684265986, 531281.254062056890689 ], [ 572567.75000021874439, 530386.054278215509839 ], [ 571458.869050597422756, 530385.002934769843705 ], [ 571397.616237020818517, 531280.201836489839479 ], [ 570288.742524123867042, 531279.165829814737663 ], [ 570104.380742707522586, 533964.784302520332858 ], [ 572322.099763429490849, 533966.877691406174563 ] ] ], [ [ [ 616425.991344923502766, 487468.680550218326971 ], [ 617535.216418345808052, 487470.250013526179828 ], [ 617647.879450329346582, 485680.108689688844606 ], [ 616538.644926114939153, 485678.543493284611031 ], [ 616425.991344923502766, 487468.680550218326971 ] ] ], [ [ [ 581416.225418257410638, 497272.849490701628383 ], [ 582525.304828864173032, 497273.971369557140861 ], [ 582639.946825968916528, 495483.855732404044829 ], [ 581530.85788835817948, 495482.736335645138752 ], [ 581416.225418257410638, 497272.849490701628383 ] ] ], [ [ [ 622569.075879224692471, 495534.230827586783562 ], [ 621459.875708687584847, 495532.566693587170448 ], [ 621402.438582368078642, 496427.683360868657473 ], [ 622511.633927686372772, 496429.349721117818262 ], [ 622454.088476001517847, 497324.47219269227935 ], [ 621344.89796454005409, 497322.803610406175721 ], [ 621287.253855700022541, 498217.927449072769377 ], [ 623505.628899390692823, 498221.284267019829713 ], [ 623735.623030420509167, 494640.792517267982475 ], [ 622626.414330118801445, 494639.115505236142781 ], [ 622569.075879224692471, 495534.230827586783562 ] ] ], [ [ [ 604823.742671075626276, 512518.166343325225171 ], [ 605001.123686297913082, 509832.712678703246638 ], [ 603892.052945188595913, 509831.246996799774934 ], [ 604243.994719726964831, 504460.451205096382182 ], [ 603134.897704454488121, 504459.011508539144415 ], [ 603193.188044305425137, 503563.893648008292075 ], [ 602084.089279595762491, 503562.471080106915906 ], [ 602316.19773768633604, 499982.043562429898884 ], [ 601207.082671700627543, 499980.643200437596533 ], [ 601322.507199593354017, 498190.455000737623777 ], [ 602431.631909715477377, 498191.851922962639946 ], [ 602489.193979748990387, 497296.761608535423875 ], [ 600270.938010427285917, 497293.986402515438385 ], [ 600385.732934457017109, 495503.823624844488222 ], [ 597058.342919465620071, 495499.784612308605574 ], [ 596770.652709792251699, 499975.194429340830538 ], [ 595661.552626894204877, 499973.870404742890969 ], [ 595603.709507823106833, 500868.961872267944273 ], [ 594494.617144654737785, 500867.65156485105399 ], [ 594552.455439857207239, 499972.561647007183637 ], [ 593443.361115095554851, 499971.268155932950322 ], [ 593327.59089462668635, 501761.448669768695254 ], [ 591109.429991781944409, 501758.901569652894977 ], [ 591051.399643606157042, 502653.99447217467241 ], [ 592160.473863861174323, 502655.261821048217826 ], [ 592102.335415649577044, 503550.359924141608644 ], [ 589884.199417307158001, 503547.83769171097083 ], [ 589767.63215271779336, 505338.039410498167854 ], [ 587549.526445511146449, 505335.573157236271072 ], [ 587666.074301288579591, 503545.376959706307389 ], [ 586557.015740207512863, 503544.169655891892035 ], [ 586498.798272187705152, 504439.264526852173731 ], [ 585389.747174273012206, 504438.071283390396275 ], [ 585447.959798974916339, 503542.977726622484624 ], [ 583229.855641759117134, 503540.639990991447121 ], [ 583171.652698161778972, 504435.731001288106199 ], [ 584280.698660789756104, 504436.893441595777404 ], [ 584222.387673748889938, 505331.98949693213217 ], [ 583113.346559281344526, 505330.825801321247127 ], [ 582996.424697633250616, 507121.026799212791957 ], [ 585214.490028079482727, 507123.374669304350391 ], [ 585155.864556963089854, 508018.483393614355009 ], [ 587373.93044616736006, 508020.895819385943469 ], [ 587315.191990852821618, 508916.010966171685141 ], [ 586206.162628799909726, 508914.795677732559852 ], [ 586088.385839144932106, 510705.034776123822667 ], [ 587197.405399898183532, 510706.252691637724638 ], [ 587079.205905169830658, 512496.509707205754239 ], [ 588188.21826530538965, 512497.745880237489473 ], [ 588128.958747872733511, 513392.881465314072557 ], [ 590346.981636433280073, 513395.403488694981206 ], [ 590287.608998497133143, 514290.54563787614461 ], [ 592505.632926544873044, 514293.13319762336323 ], [ 592446.147126890718937, 515188.282009811373428 ], [ 593555.158313538995571, 515189.600798084225971 ], [ 593435.866972785675898, 516979.912832524394616 ], [ 592326.865729622426443, 516978.591150454361923 ], [ 592267.070133019587956, 517873.751493137562647 ], [ 591158.076665726141073, 517872.444183328188956 ], [ 591038.185670106788166, 519662.773636167636141 ], [ 593256.155410211533308, 519665.409748656500597 ], [ 593196.045011000707746, 520560.583113006839994 ], [ 594305.029083710513078, 520561.926424663339276 ], [ 594184.488420883310027, 522352.287680099136196 ], [ 596402.445046572713181, 522355.027943333087023 ], [ 596281.471087150159292, 524145.410656247229781 ], [ 597390.443661482306197, 524146.80775434843963 ], [ 597269.04639100364875, 525937.209050457575358 ], [ 599486.980138752609491, 525940.057472787215374 ], [ 599365.149317029165104, 527730.480543111101724 ], [ 600474.110511657665484, 527731.932013760786504 ], [ 600413.03502141055651, 528627.15098084078636 ], [ 599304.078927548136562, 528625.697931969654746 ], [ 599242.905219680978917, 529520.919232749263756 ], [ 601460.810223394422792, 529523.844647225691006 ], [ 601704.925922112888657, 525942.970134376431815 ], [ 602813.90341102774255, 525944.450555448536761 ], [ 602692.042050167452544, 527734.883299236185849 ], [ 604909.986011341796257, 527737.899045121041127 ], [ 604848.890098529169336, 528633.124598162597977 ], [ 607066.836527773295529, 528636.208263131324202 ], [ 607127.942663582158275, 527740.979253259603865 ], [ 608236.92583272641059, 527742.543531261500902 ], [ 608297.933695408864878, 526847.316621004720218 ], [ 609406.925245766062289, 526848.89521411282476 ], [ 609710.439137617358938, 522372.809379029669799 ], [ 608601.422177246422507, 522371.239858679356985 ], [ 608902.325892325490713, 517895.258767812803853 ], [ 607793.287031619925983, 517893.714246929972433 ], [ 607853.152585657080635, 516998.531254820642062 ], [ 606744.111976737971418, 516997.004344889894128 ], [ 606863.522935840301216, 515206.653325016261078 ], [ 605754.475567282177508, 515205.145752349460963 ], [ 605932.801753462757915, 512519.652908143238164 ], [ 604823.742671075626276, 512518.166343325225171 ] ] ], [ [ [ 610071.243626321433112, 517001.632439894368872 ], [ 610190.684575850842521, 515211.270444794907235 ], [ 607972.573537742951885, 515208.176631156995427 ], [ 607853.152585657080635, 516998.531254820642062 ], [ 610071.243626321433112, 517001.632439894368872 ] ] ], [ [ [ 588760.136575976968743, 520555.368811384076253 ], [ 590978.085289435693994, 520557.94417359714862 ], [ 591038.185670106788166, 519662.773636167636141 ], [ 589929.204947733669542, 519661.479380513017531 ], [ 589989.197075471747667, 518766.314096378919203 ], [ 588880.21407752064988, 518765.037057126522996 ], [ 588820.226945740170777, 519660.200991653488018 ], [ 584384.341470440034755, 519655.246100294461939 ], [ 584264.097525484394282, 521445.57543430221267 ], [ 585373.054979217005894, 521446.792825448676012 ], [ 585252.388186504947953, 523237.140278108825441 ], [ 587470.290790289989673, 523239.627885998808779 ], [ 587530.685842751292512, 522344.449672376038507 ], [ 588639.646124523831531, 522345.716135049704462 ], [ 588760.136575976968743, 520555.368811384076253 ] ] ], [ [ [ 584143.440769185777754, 523235.920437127060723 ], [ 584203.820748499128968, 522340.745973521145061 ], [ 581985.923476054449566, 522338.356580040883273 ], [ 582046.190230872947723, 521443.188413177675102 ], [ 580937.240322889643721, 521442.018782834697049 ], [ 580876.978576297638938, 522337.185804476088379 ], [ 578659.0960819729371, 522334.89209480205318 ], [ 578598.741186389932409, 523230.060854463488795 ], [ 579707.676214269711636, 523231.200821964768693 ], [ 579586.646894528414123, 525021.552368874661624 ], [ 580695.574277978157625, 525022.710524353664368 ], [ 580756.145553330541588, 524127.531668026000261 ], [ 582974.017744804150425, 524129.893775426666252 ], [ 583034.495896850712597, 523234.716571204655338 ], [ 584143.440769185777754, 523235.920437127060723 ] ] ], [ [ [ 605341.166222132509574, 537587.14587602915708 ], [ 605527.260221034521237, 534901.358408624306321 ], [ 603309.392181255156174, 534898.283466270426288 ], [ 603247.474570178310387, 535793.538681593141519 ], [ 602138.550427568610758, 535792.024087191559374 ], [ 602014.415536689106375, 537582.543142183567397 ], [ 603123.329303087550215, 537584.060971001628786 ], [ 602998.770646274555475, 539374.599119333317503 ], [ 605216.586732355528511, 539377.690620534005575 ], [ 605091.593788461992517, 541168.251244055689313 ], [ 606200.496128935366869, 541169.825062443967909 ], [ 606137.839371754787862, 542065.113020495511591 ], [ 607246.739679149352014, 542066.705065817106515 ], [ 607496.767401035060175, 538485.570248626056127 ], [ 606387.846172060584649, 538483.985035915044136 ], [ 606450.089441853109747, 537588.712952710222453 ], [ 605341.166222132509574, 537587.14587602915708 ] ] ], [ [ [ 608355.643228273140267, 542068.313664355082437 ], [ 607246.739679149352014, 542066.705065817106515 ], [ 607183.974299592315219, 542961.998706931830384 ], [ 606075.079244059626944, 542960.40496494283434 ], [ 605886.178643261315301, 545646.304787459550425 ], [ 606995.057891685282812, 545647.903591763344593 ], [ 607058.133405322674662, 544752.597962830215693 ], [ 608167.021167063619941, 544754.211719460319728 ], [ 608040.756194970919751, 546544.830403036088683 ], [ 609149.636654024943709, 546546.464265290182084 ], [ 609401.774163344409317, 542965.23593273118604 ], [ 608292.872594843385741, 542963.609029446030036 ], [ 608355.643228273140267, 542068.313664355082437 ] ] ], [ [ [ 615165.087927020154893, 555510.078481806442142 ], [ 615229.343607662362047, 554614.714317346923053 ], [ 614120.490962601965293, 554612.963449507253245 ], [ 614056.240670460276306, 555508.325764053734019 ], [ 615165.087927020154893, 555510.078481806442142 ] ] ], [ [ [ 609749.239887929172255, 553710.778227776754647 ], [ 609492.118060573819093, 557292.207141868537292 ], [ 613927.429793333401904, 557299.062565519241616 ], [ 614056.240670460276306, 555508.325764053734019 ], [ 612947.396859763306566, 555506.590010948246345 ], [ 613011.641765467473306, 554611.229519004467875 ], [ 611902.79598274489399, 554609.512525573722087 ], [ 611966.93208959302865, 553714.157886394183151 ], [ 609749.239887929172255, 553710.778227776754647 ] ] ] ] } }
]
}
