{
"type": "FeatureCollection",
"name": "urban-2100",
"crs": { "type": "name", "properties": { "name": "urn:ogc:def:crs:EPSG::32618" } },
"features": [
{ "type": "Feature", "properties": { "year": 2100 }, "geometry": { "type": "MultiPolygon", "coordinates": [ [ [ [ 566345.657585113192908, 472198.046840598515701 ], [ 567454.833084246725775, 472198.916208034264855 ], [ 567509.248392467037775, 471303.97570732125314 ], [ 564181.714387386920862, 471301.413603668101132 ], [ 564236.013139852089807, 470406.479456963890698 ], [ 563126.834582619485445, 470405.655065579805523 ], [ 563072.540319768711925, 471300.588345753960311 ], [ 561963.368163169245236, 471299.7774759461754 ], [ 561854.479510845267214, 473089.653196864237543 ], [ 562963.642666202271357, 473090.46573312941473 ], [ 563018.143014145200141, 472195.525232529267669 ], [ 564127.312583673512563, 472196.351352975761984 ], [ 564072.807729166001081, 473091.292712102876976 ], [ 566291.143712347373366, 473092.989998683740851 ], [ 566345.657585113192908, 472198.046840598515701 ] ] ], [ [ [ 555362.636355916620232, 470400.28642164968187 ], [ 554253.472159328055568, 470399.576913359807804 ], [ 554199.213752229930833, 471294.50424412288703 ], [ 553090.05567381659057, 471293.808474884019233 ], [ 553144.309606573544443, 470398.881764945224859 ], [ 552035.148664041771553, 470398.200976299413014 ], [ 551926.546785645885393, 472188.05685570690548 ], [ 555254.007606123574078, 472190.146014010126237 ], [ 555199.538756387541071, 473085.081269344780594 ], [ 557417.845293319202028, 473086.547476435487624 ], [ 557363.264453079667874, 473981.487735029135365 ], [ 558472.415807593730278, 473982.243219691154081 ], [ 558417.727453319355845, 474877.187840654572938 ], [ 559526.876062633353285, 474877.958536131656729 ], [ 559472.080176148680039, 475772.907545977388509 ], [ 560581.226061984198168, 475773.693502960493788 ], [ 560526.322625104337931, 476668.646928179892711 ], [ 561635.465809168410487, 476669.448197355144657 ], [ 561580.45480370183941, 477564.406064419075847 ], [ 563798.737710697576404, 477566.05390772985993 ], [ 563743.614561026799493, 478461.017077423923183 ], [ 564852.754337517661043, 478461.863729663658887 ], [ 564797.523572645382956, 479356.831417325302027 ], [ 565906.660744283464737, 479357.693561216001399 ], [ 565851.322345977532677, 480252.665793246706016 ], [ 566960.456934417947195, 480253.543479456682689 ], [ 566905.010884446906857, 481148.520282238023356 ], [ 570232.41317897324916, 481151.244187192758545 ], [ 570176.850257305777632, 482046.227523510577157 ], [ 571285.983961752615869, 482047.165879525709897 ], [ 571341.55148693441879, 481152.181534042174462 ], [ 572450.691955785616301, 481153.133570394362323 ], [ 572561.526873925118707, 479363.173747642606031 ], [ 571452.377220044960268, 479362.223796463862527 ], [ 571562.790527052013204, 477572.280615522002336 ], [ 568235.326985011342913, 477569.524547496461309 ], [ 568290.365299653378315, 476674.561404403357301 ], [ 567181.210408679908141, 476673.672822582710069 ], [ 567126.176649882923812, 477568.635018084023613 ], [ 566017.02834819140844, 477567.760068407689687 ], [ 566126.983692085486837, 475777.841155828733463 ], [ 565017.82829392561689, 475776.982575775531586 ], [ 565072.64683178672567, 474882.029470107750967 ], [ 563963.488869591266848, 474881.186288688972127 ], [ 564018.199824318289757, 473986.237688267370686 ], [ 561799.880634369095787, 473984.59649130149046 ], [ 561854.479510845267214, 473089.653196864237543 ], [ 558527.001154331839643, 473087.302243087731767 ], [ 558581.483493078849278, 472192.364903586159926 ], [ 557472.323134027072228, 472191.61085895675933 ], [ 557526.697974749025889, 471296.677875329216477 ], [ 555308.373472783598118, 471295.214400537312031 ], [ 555362.636355916620232, 470400.28642164968187 ] ] ], [ [ [ 565684.68877121899277, 482937.604518492589705 ], [ 565628.93812123592943, 483832.591460707481019 ], [ 566738.054306585923769, 483833.472738557436969 ], [ 566793.809570063953288, 482938.484904570213985 ], [ 565684.68877121899277, 482937.604518492589705 ] ] ], [ [ [ 573224.827371857711114, 486524.073902211093809 ], [ 573280.919715263531543, 485629.069122072716709 ], [ 567735.343520041089505, 485624.357362803479191 ], [ 567791.30955574021209, 484729.361227719462477 ], [ 568900.425191706162877, 484730.272989672725089 ], [ 569067.71867840422783, 482045.303884156572167 ], [ 567958.589191448758356, 482044.394961322774179 ], [ 567847.172513186698779, 483834.368787254963536 ], [ 566738.054306585923769, 483833.472738557436969 ], [ 566457.731945008039474, 488308.467425619252026 ], [ 569785.023126065963879, 488311.21389527869178 ], [ 569841.307714340277016, 487416.204754163161851 ], [ 570950.413619330269285, 487417.149079031660222 ], [ 571006.59976826258935, 486522.142661410733126 ], [ 573224.827371857711114, 486524.073902211093809 ] ] ], [ [ [ 570894.124368086806498, 488312.159200527938083 ], [ 569785.023126065963879, 488311.21389527869178 ], [ 569728.635444442857988, 489206.226751614303794 ], [ 570837.732015001121908, 489207.173033101309557 ], [ 570894.124368086806498, 488312.159200527938083 ] ] ], [ [ [ 568392.978098481777124, 492785.380372851737775 ], [ 567283.904473776812665, 492784.460316421929747 ], [ 567170.013962700613774, 494574.523506809666287 ], [ 569388.144420930184424, 494576.382313262496609 ], [ 569615.550803042599, 490996.263638794305734 ], [ 567397.38268884527497, 490994.412164689099882 ], [ 567340.695118552190252, 491889.43436434189789 ], [ 568449.773445116588846, 491890.353515784838237 ], [ 568392.978098481777124, 492785.380372851737775 ] ] ], [ [ [ 572601.005793153308332, 496369.371501179412007 ], [ 571491.942604915704578, 496368.387252414482646 ], [ 571434.617606974206865, 497263.43577505153371 ], [ 572543.676043724641204, 497264.421017030894291 ], [ 572601.005793153308332, 496369.371501179412007 ] ] ], [ [ [ 568107.455137547687627, 497260.57113506674068 ], [ 569216.507187465322204, 497261.51083421666408 ], [ 569159.088598508038558, 498156.561239771486726 ], [ 570268.137987419962883, 498157.517054108320735 ], [ 570152.982007476850413, 499947.631112569302786 ], [ 571262.023981696460396, 499948.604045849002432 ], [ 571204.286564395879395, 500843.667727814870887 ], [ 574531.411202093120664, 500846.681117030559108 ], [ 574589.162981248111464, 499951.614424280764069 ], [ 572371.068113015498966, 499949.592242126120254 ], [ 572428.707203174708411, 499054.53138029173715 ], [ 571319.658294882276095, 499053.54416454868624 ], [ 571434.617606974206865, 497263.43577505153371 ], [ 570325.561332747689448, 497262.46571416297229 ], [ 570382.881581007386558, 496367.418157437699847 ], [ 569273.822687842184678, 496366.464216101448983 ], [ 569331.035099156550132, 495471.421378193423152 ], [ 568221.973565562162548, 495470.483505870448425 ], [ 568107.455137547687627, 497260.57113506674068 ] ] ], [ [ [ 563209.223294273717329, 504417.440538786060642 ], [ 562100.21941920556128, 504416.570695640868507 ], [ 562158.330758259980939, 503521.498429839150049 ], [ 563267.33943818451371, 503522.36753215151839 ], [ 563325.3525392904412, 502627.298385008063633 ], [ 558889.309798187459819, 502623.91701832099352 ], [ 559062.673518999130465, 499938.741213067900389 ], [ 556844.634348984342068, 499937.146375210664701 ], [ 556786.958978007663973, 500832.19984984153416 ], [ 557895.972923949360847, 500832.990259458951186 ], [ 557722.314515429199673, 503518.175730074988678 ], [ 558831.315871743368916, 503518.983348849636968 ], [ 558773.218936352524906, 504414.053555959835649 ], [ 559882.217273810994811, 504414.877204357122537 ], [ 559824.01252209325321, 505309.951950017886702 ], [ 558715.018992497236468, 505309.127646971319336 ], [ 558656.716040666447952, 506204.205629205680452 ], [ 560874.695275873062201, 506205.870988743728958 ], [ 560816.279665161855519, 507100.954188957461156 ], [ 558598.310081341885962, 507099.287509986897931 ], [ 558539.801115014124662, 507994.37329664133722 ], [ 562975.728300323244184, 507997.771306051232386 ], [ 563034.256610583746806, 507102.682788539095782 ], [ 564143.24792780331336, 507103.570308887748979 ], [ 564260.005080973380245, 505313.40341771277599 ], [ 563151.004108046414331, 505312.517412201268598 ], [ 563209.223294273717329, 504417.440538786060642 ] ] ], [ [ [ 570680.010203717043623, 508899.413088518020231 ], [ 571789.00609813653864, 508900.410855565569364 ], [ 571847.676292479271069, 508005.311704390216619 ], [ 574065.684361336287111, 508007.351889712095726 ], [ 574124.261159822694026, 507112.254633939301129 ], [ 570797.237768863560632, 507109.220527490659151 ], [ 570680.010203717043623, 508899.413088518020231 ] ] ], [ [ [ 564084.714776983484626, 507998.659577367652673 ], [ 562975.728300323244184, 507997.771306051232386 ], [ 562917.096949698287062, 508892.863719521614257 ], [ 564026.078577329055406, 508893.752737494942266 ], [ 564084.714776983484626, 507998.659577367652673 ] ] ], [ [ [ 572898.004164922866039, 508901.424158786248881 ], [ 571789.00609813653864, 508900.410855565569364 ], [ 571494.108520425739698, 513375.964786986645777 ], [ 572603.08214102848433, 513376.982850641361438 ], [ 572898.004164922866039, 508901.424158786248881 ] ] ], [ [ [ 564958.520651865168475, 511579.962489766825456 ], [ 563849.55169024434872, 511579.055640703998506 ], [ 563790.503300150856376, 512474.164440374006517 ], [ 562681.541153335827403, 512473.272479033796117 ], [ 562740.58466052042786, 511578.164408701064531 ], [ 560522.656262529897504, 511576.428795331972651 ], [ 560699.139372457750142, 508891.132288499269634 ], [ 557372.21669823245611, 508888.651652308413759 ], [ 557313.506567680975422, 509783.744666864688043 ], [ 556204.540706290863454, 509782.948278519615997 ], [ 556145.732433596858755, 510678.04465106286807 ], [ 557254.693440046627074, 510678.841613613360096 ], [ 557136.758195485686883, 512469.047333062801044 ], [ 556027.806924269883893, 512468.249235110357404 ], [ 555968.689688618760556, 513363.35746132361237 ], [ 554859.744991004583426, 513362.574472947744653 ], [ 554918.857348206685856, 512467.466780614748131 ], [ 553809.909433742403053, 512466.6999694564729 ], [ 553868.913944065687247, 511571.596750979602803 ], [ 552759.962791319587268, 511570.846066669328138 ], [ 552641.860541494912468, 513361.055507992627099 ], [ 553750.801953148795292, 513361.80715520970989 ], [ 553691.59150277543813, 514256.918315612885635 ], [ 558127.354195681284182, 514260.083783571200911 ], [ 558186.584197331569158, 513364.970450471155345 ], [ 559295.534075541887432, 513365.800451489281841 ], [ 559176.961275829002261, 515156.03230074577732 ], [ 560285.903150978730991, 515156.879245986463502 ], [ 560345.245959348976612, 514261.760706892993767 ], [ 563672.097381324390881, 514264.393831424880773 ], [ 563612.739853581879288, 515159.514437416684814 ], [ 568048.549223084002733, 515163.248194391082507 ], [ 568167.200502966181375, 513373.004631524148863 ], [ 567058.235333401476964, 513372.049257700913586 ], [ 567176.464505033451132, 511581.823039628739934 ], [ 566067.491578942746855, 511580.884956028079614 ], [ 566008.433417485910468, 512475.995296277513262 ], [ 564899.467377015622333, 512475.072046075714752 ], [ 564958.520651865168475, 511579.962489766825456 ] ] ], [ [ [ 569335.343656109645963, 512478.858915307151619 ], [ 568226.371523474808782, 512477.888730748498347 ], [ 568167.200502966181375, 513373.004631524148863 ], [ 569276.167734953924082, 513373.975677579990588 ], [ 569335.343656109645963, 512478.858915307151619 ] ] ], [ [ [ 569157.506628323462792, 515164.22095036401879 ], [ 568048.549223084002733, 515163.248194391082507 ], [ 567989.068964700447395, 516058.375871037598699 ], [ 569098.021443841746077, 516059.349475414899644 ], [ 569157.506628323462792, 515164.22095036401879 ] ] ], [ [ [ 562325.116331460536458, 517844.003739208506886 ], [ 563434.049002994084731, 517844.899984976684209 ], [ 563612.739853581879288, 515159.514437416684814 ], [ 561394.846849951543845, 515157.741917090024799 ], [ 561275.842340626404621, 516947.992202332941815 ], [ 562384.778058669762686, 516948.871964240388479 ], [ 562325.116331460536458, 517844.003739208506886 ] ] ], [ [ [ 562265.35156932042446, 518739.139490569476038 ], [ 562205.483772746520117, 519634.279225649719592 ], [ 563314.406551447347738, 519635.17686448310269 ], [ 563374.279298671288416, 518740.036435071553569 ], [ 562265.35156932042446, 518739.139490569476038 ] ] ], [ [ [ 556178.44520400930196, 526791.267442809883505 ], [ 557287.319075563224033, 526792.090072976658121 ], [ 557165.666088979691267, 528582.441296394215897 ], [ 558274.531645961338654, 528583.281092921504751 ], [ 558213.545623675454408, 529478.463360754889436 ], [ 559322.407904715160839, 529479.319856028188951 ], [ 559261.313832921907306, 530374.506768168881536 ], [ 560370.172859289334156, 530375.380012427689508 ], [ 560492.268079774687067, 528585.009091860614717 ], [ 559383.398965048370883, 528584.13702469994314 ], [ 559444.287013411405496, 527688.958266813540831 ], [ 562770.91497883212287, 527691.621007224777713 ], [ 562710.011830279952846, 528586.801632864051498 ], [ 563818.886533129145391, 528587.722106980741955 ], [ 563940.599858317757025, 526797.363549485104159 ], [ 562831.715089528239332, 526796.44443422195036 ], [ 562953.006195317488164, 525006.103416757192463 ], [ 564061.900996178970672, 525007.021155281341635 ], [ 564122.396993592730723, 524111.856001083622687 ], [ 565231.298737065168098, 524112.789043972152285 ], [ 565291.696682885056362, 523217.627181798510719 ], [ 564182.789942655712366, 523216.694865717319772 ], [ 564423.331245297100395, 519636.090366090415046 ], [ 563314.406551447347738, 519635.17686448310269 ], [ 563254.430761826923117, 520530.321280532691162 ], [ 562145.512942242436111, 520529.422951777931303 ], [ 562205.483772746520117, 519634.279225649719592 ], [ 561096.562875644653104, 519633.397449452721048 ], [ 560976.528104148805141, 521423.687579266726971 ], [ 559867.618974293465726, 521422.820399352349341 ], [ 559747.182057963334955, 523213.125321204890497 ], [ 558638.284688136307523, 523212.272864347614814 ], [ 558577.916694533312693, 524107.430775200075004 ], [ 559686.809077040757984, 524108.28382235718891 ], [ 559626.333081621211022, 525003.446360134752467 ], [ 558517.445694887661375, 525002.592727125738747 ], [ 558456.871689700405113, 525897.758727491134778 ], [ 557347.991074991645291, 525896.920566434389912 ], [ 557408.560077838716097, 525001.75512016331777 ], [ 556299.676196935935877, 525000.93353911943268 ], [ 556178.44520400930196, 526791.267442809883505 ] ], [ [ 561844.113298297510482, 525005.201704816194251 ], [ 561904.599290932528675, 524110.037913431529887 ], [ 563013.497189395129681, 524110.938957616861444 ], [ 562953.006195317488164, 525006.103416757192463 ], [ 561844.113298297510482, 525005.201704816194251 ] ], [ [ 560735.222271578153595, 525004.316019320511259 ], [ 560674.638256040401757, 525899.483209778321907 ], [ 559565.754072205047123, 525898.612941895611584 ], [ 559626.333081621211022, 525003.446360134752467 ], [ 560735.222271578153595, 525004.316019320511259 ] ] ], [ [ [ 571642.008864430477843, 527699.430432441877201 ], [ 570533.114898323547095, 527698.397872022469528 ], [ 570472.176449279882945, 528593.583811312564649 ], [ 571581.06536481634248, 528594.617240033461712 ], [ 571642.008864430477843, 527699.430432441877201 ] ] ], [ [ [ 569179.870936460327357, 531278.146041872911155 ], [ 568071.001440498745069, 531277.142472508596256 ], [ 568009.660771080176346, 532172.342951164231636 ], [ 569118.52518637094181, 532173.347316233091988 ], [ 569179.870936460327357, 531278.146041872911155 ] ] ], [ [ [ 566654.425362652400509, 535752.194459301186725 ], [ 565545.585418361006305, 535751.21966638113372 ], [ 565421.790735733113252, 537541.662622318253852 ], [ 566530.620433162897825, 537542.638847558409907 ], [ 566654.425362652400509, 535752.194459301186725 ] ] ], [ [ [ 564985.263058990240097, 543808.343130341265351 ], [ 567202.852189540630206, 543810.321919283480383 ], [ 567265.532828189781867, 542915.068000603234395 ], [ 565047.933321742690168, 542913.090602522715926 ], [ 565110.500530008459464, 542017.842238717479631 ], [ 562892.898536009364761, 542015.932423709891737 ], [ 562830.341678865021095, 542911.179496643249877 ], [ 558395.180911355419084, 542907.556156855192967 ], [ 558332.541729268035851, 543802.80516733287368 ], [ 560550.108096959651448, 543804.584755514748394 ], [ 560487.355542360804975, 544699.839019077364355 ], [ 562704.918852428905666, 544701.686169584048912 ], [ 562579.083879960817285, 546492.20959450036753 ], [ 564796.63394904427696, 546494.125771533115767 ], [ 564859.613372116000392, 545598.860707478481345 ], [ 565968.396539323613979, 545599.843151400447823 ], [ 566031.278113387757912, 544704.581600920995697 ], [ 564922.489742272300646, 544703.599829537561163 ], [ 564985.263058990240097, 543808.343130341265351 ] ] ], [ [ [ 581758.884627432445996, 491902.554689220502041 ], [ 580649.7792136981152, 491901.455325747549068 ], [ 580535.981667505577207, 493691.536262999637984 ], [ 581645.07762603298761, 493692.63808753126068 ], [ 581758.884627432445996, 491902.554689220502041 ] ] ], [ [ [ 594840.097658527898602, 495497.167590280179866 ], [ 593730.979352002730593, 495495.881774561014026 ], [ 593673.662256778567098, 496390.951661597238854 ], [ 594782.775784069439396, 496392.239020826120395 ], [ 594840.097658527898602, 495497.167590280179866 ] ] ], [ [ [ 575291.751921652699821, 506218.202527872053906 ], [ 574182.734832606045529, 506217.161223796021659 ], [ 574124.261159822694026, 507112.254633939301129 ], [ 575233.273398427059874, 507113.296966307214461 ], [ 575291.751921652699821, 506218.202527872053906 ] ] ], [ [ [ 581945.903481412911788, 506224.774907535524108 ], [ 580836.872217236319557, 506223.640872568590567 ], [ 580778.369414141401649, 507118.740862009872217 ], [ 581887.395816803094931, 507119.876089088560548 ], [ 581945.903481412911788, 506224.774907535524108 ] ] ], [ [ [ 580778.369414141401649, 507118.740862009872217 ], [ 579669.345456076785922, 507117.621117803093512 ], [ 579610.744344402570277, 508012.723766550130676 ], [ 580719.763434284017421, 508013.84467126155505 ], [ 580778.369414141401649, 507118.740862009872217 ] ] ], [ [ [ 584563.933357723988593, 516969.781352684542071 ], [ 585672.915753238950856, 516970.992541930114385 ], [ 585792.137569104437716, 515180.699617242033128 ], [ 583574.15550611668732, 515178.297991121420637 ], [ 583514.606111977715045, 516073.440029977238737 ], [ 584623.590910087572411, 516074.634209025360178 ], [ 584563.933357723988593, 516969.781352684542071 ] ] ], [ [ [ 587890.888353364076465, 516973.462272951437626 ], [ 585672.915753238950856, 516970.992541930114385 ], [ 585613.150024208822288, 517866.144816098909359 ], [ 587831.112676059245132, 517868.617127404955681 ], [ 587890.888353364076465, 516973.462272951437626 ] ] ], [ [ [ 583454.953520494629629, 516968.585947368235793 ], [ 582345.97620799660217, 516967.406325798248872 ], [ 582405.62384048581589, 516072.261607371503487 ], [ 581296.644062050618231, 516071.098941027536057 ], [ 581237.001386670046486, 516966.242487794253975 ], [ 579019.05908330983948, 516963.962161774688866 ], [ 578959.323153730365448, 517859.107350392849185 ], [ 576741.40033044712618, 517856.888013112533372 ], [ 576681.571173680014908, 518752.034977569594048 ], [ 577790.526441194000654, 518753.137794787529856 ], [ 577730.589164582430385, 519648.2897349926061 ], [ 578839.541808282840066, 519649.409466250508558 ], [ 578899.484061886789277, 518754.256449480773881 ], [ 581117.406497019692324, 518756.541271979629528 ], [ 581177.255531491246074, 517861.389929046970792 ], [ 583395.197732168948278, 517863.735750470717903 ], [ 583454.953520494629629, 516968.585947368235793 ] ] ], [ [ [ 577610.405153634608723, 521438.605410544667393 ], [ 576501.464836948551238, 521437.499458780919667 ], [ 576441.223104245727882, 522332.662172570708208 ], [ 577550.158420309540816, 522333.769160342228133 ], [ 577610.405153634608723, 521438.605410544667393 ] ] ], [ [ [ 585009.816081024357118, 526817.882366465288214 ], [ 583900.888838861370459, 526816.657679163734429 ], [ 583839.992855572374538, 527711.851872533909045 ], [ 584948.915032630087808, 527713.077760255895555 ], [ 585009.816081024357118, 526817.882366465288214 ] ] ], [ [ [ 592650.404254799359478, 528617.318607591092587 ], [ 591541.468477984890342, 528615.978546343045309 ], [ 591480.330480957287364, 529511.189595567178912 ], [ 592589.261162057053298, 529512.531039404682815 ], [ 592650.404254799359478, 528617.318607591092587 ] ] ], [ [ [ 591419.089225961477496, 530406.404595268657431 ], [ 590310.166413497296162, 530405.077968196943402 ], [ 590248.827011915971525, 531300.295579239726067 ], [ 591357.74471351725515, 531301.6235525989905 ], [ 591419.089225961477496, 530406.404595268657431 ] ] ], [ [ [ 580145.789975803578272, 533079.499267030856572 ], [ 579036.908262278651819, 533078.331371630425565 ], [ 578975.310374693362974, 533973.549086449085735 ], [ 580084.186971221235581, 533974.718041540589184 ], [ 580145.789975803578272, 533079.499267030856572 ] ] ], [ [ [ 592220.234026955324225, 534883.888746043900028 ], [ 590002.436926918686368, 534881.205787984305061 ], [ 589940.581288610002957, 535776.443317151046358 ], [ 592158.368079529493116, 535779.128949840902351 ], [ 592220.234026955324225, 534883.888746043900028 ] ] ], [ [ [ 574354.47644988191314, 536654.701886000228114 ], [ 573245.626829360146075, 536653.61169677390717 ], [ 573183.642024513101205, 537548.84080153144896 ], [ 574292.486503757187165, 537549.93189575674478 ], [ 574354.47644988191314, 536654.701886000228114 ] ] ], [ [ [ 593940.140354848117568, 542048.692966436501592 ], [ 592831.276332897599787, 542047.299541451502591 ], [ 592705.778542768443003, 543837.851019102730788 ], [ 593814.632100428570993, 543839.247177441022359 ], [ 593940.140354848117568, 542048.692966436501592 ] ] ], [ [ [ 590425.186488189618103, 544730.387698384467512 ], [ 590362.189927793224342, 545625.670952352927998 ], [ 589253.355161696090363, 545624.322056916309521 ], [ 589063.761785428505391, 548310.192533250898123 ], [ 591281.402454878087156, 548312.914648730889894 ], [ 591471.027424730942585, 545627.036506842472591 ], [ 592579.867686027078889, 545628.418720593559556 ], [ 592705.778542768443003, 543837.851019102730788 ], [ 588270.391995671554469, 543832.432432268164121 ], [ 588207.509160275454633, 544727.709085480892099 ], [ 590425.186488189618103, 544730.387698384467512 ] ] ], [ [ [ 593499.054157704231329, 548315.703728925203905 ], [ 593562.37629344407469, 547420.404272919055074 ], [ 592453.543766944669187, 547419.002703338046558 ], [ 592390.226910362485796, 548314.300818133051507 ], [ 591281.402454878087156, 548312.914648730889894 ], [ 591217.987620008527301, 549208.215546137304045 ], [ 593435.628749438095838, 549211.007272138027474 ], [ 593372.10006918257568, 550106.314909737673588 ], [ 594480.919553915853612, 550107.737285194918513 ], [ 594607.884230424999259, 548317.123381321551278 ], [ 593499.054157704231329, 548315.703728925203905 ] ] ], [ [ [ 575631.349228150560521, 550085.841047823545523 ], [ 576740.12759275874123, 550086.994708165875636 ], [ 576803.577040320029482, 549191.704181957873516 ], [ 575694.793409560341388, 549190.551443943055347 ], [ 575631.349228150560521, 550085.841047823545523 ] ] ], [ [ [ 581365.366634583799168, 547405.906248078681529 ], [ 579147.761785177746788, 547403.487508226768114 ], [ 579084.508122118772008, 548298.771658275509253 ], [ 576866.923343756352551, 548296.417820077505894 ], [ 576803.577040320029482, 549191.704181957873516 ], [ 577912.362991761416197, 549192.873685932718217 ], [ 577721.689388891682029, 551878.760621607070789 ], [ 579939.236709932796657, 551881.155843633459881 ], [ 580193.304079090128653, 548299.973685808596201 ], [ 581302.102459270507097, 548301.192452542134561 ], [ 581365.366634583799168, 547405.906248078681529 ] ] ], [ [ [ 574586.01206597161945, 549189.415471712243743 ], [ 575694.793409560341388, 549190.551443943055347 ], [ 575758.13445534335915, 548295.266009052982554 ], [ 573540.563512506429106, 548293.012602272909135 ], [ 573286.622656998690218, 551874.172352725989185 ], [ 571069.102710066945292, 551871.979303066967987 ], [ 570941.534733479842544, 553662.581109162303619 ], [ 574267.786219092318788, 553665.900898818159476 ], [ 574331.637639521621168, 552770.595422195270658 ], [ 575440.397875514114276, 552771.734946471988223 ], [ 575631.349228150560521, 550085.841047823545523 ], [ 574522.573148718802258, 550084.704180567990988 ], [ 574586.01206597161945, 549189.415471712243743 ] ] ], [ [ [ 581048.01397649536375, 551882.378727177157998 ], [ 579939.236709932796657, 551881.155843633459881 ], [ 579875.461946218274534, 552776.46179532201495 ], [ 580984.233913098578341, 552777.685696373111568 ], [ 581048.01397649536375, 551882.378727177157998 ] ] ], [ [ [ 618757.117538000689819, 485681.688720210280735 ], [ 615429.413931741961278, 485676.993130758113693 ], [ 615260.292563522001728, 488362.197701986413449 ], [ 616369.509374213754199, 488363.754376732744277 ], [ 616312.92395073978696, 489258.831744463008363 ], [ 617422.139538863557391, 489260.405458131514024 ], [ 617251.748264087364078, 491945.665221929783002 ], [ 618360.953110265079886, 491947.260305289702956 ], [ 618587.953602392575704, 488366.912473906355444 ], [ 619697.181087101344019, 488368.513896816642955 ], [ 619753.677278280491009, 487473.433606609411072 ], [ 618644.44505159498658, 487471.834365575807169 ], [ 618757.117538000689819, 485681.688720210280735 ] ] ], [ [ [ 605220.95626601728145, 489243.916441071545705 ], [ 604111.777577884495258, 489242.507089041522704 ], [ 604055.140893405070528, 490137.566498856293038 ], [ 605164.314845960470848, 490138.977669430954847 ], [ 605220.95626601728145, 489243.916441071545705 ] ] ], [ [ [ 610710.233051424031146, 490146.258048984280322 ], [ 609601.042839299188927, 490144.772035444213543 ], [ 609714.260199727490544, 488354.638057199539617 ], [ 607495.870748720597476, 488351.718601818662137 ], [ 607439.323235454270616, 489246.779967879527248 ], [ 608548.511583964689635, 489248.234143095614854 ], [ 608491.855946293566376, 490143.300990942690987 ], [ 605164.314845960470848, 490138.977669430954847 ], [ 604993.770393461105414, 492824.182961911545135 ], [ 608321.268686214694753, 492828.523066943860613 ], [ 608378.234496933640912, 491933.445445916440804 ], [ 609487.411878457525745, 491934.920333497982938 ], [ 609544.279058687854558, 491039.844391024671495 ], [ 610653.464517550892197, 491041.332355497579556 ], [ 610710.233051424031146, 490146.258048984280322 ] ] ], [ [ [ 623505.628899390692823, 498221.284267019829713 ], [ 624614.822013478493318, 498222.985502862022258 ], [ 624672.480655392981134, 497327.854928802931681 ], [ 623563.282695084344596, 497326.155965405341703 ], [ 623735.623030420509167, 494640.792517267982475 ], [ 621517.209343004738912, 494637.453601690358482 ], [ 621402.438582368078642, 496427.683360868657473 ], [ 619184.058885768870823, 496424.396128693828359 ], [ 619298.810373924672604, 494634.175119043502491 ], [ 617080.425854360568337, 494630.95706732122926 ], [ 616965.693623887142166, 496421.169545943965204 ], [ 618074.874467287329026, 496422.775256265129428 ], [ 617959.718747386010364, 498213.006352661643177 ], [ 620178.07185889640823, 498216.271866454510018 ], [ 620120.329108810517937, 499111.397114849125501 ], [ 619011.155597981298342, 499109.754590498632751 ], [ 618953.314222552930005, 500004.881291281897575 ], [ 617844.149169005570002, 500003.251883808290586 ], [ 617786.209184127044864, 500898.380079665745143 ], [ 618895.369374869274907, 500900.011610312794801 ], [ 618837.321055428590626, 501795.145554489688948 ], [ 619946.479972240631469, 501796.794530290178955 ], [ 619888.323299605282955, 502691.934248489327729 ], [ 620997.480963701847941, 502693.60072006250266 ], [ 621229.506256343214773, 499113.054883744101971 ], [ 622338.687074173474684, 499114.727897436998319 ], [ 622280.831125023309141, 500009.861144344613422 ], [ 623390.010785106569529, 500011.551639759272803 ], [ 623505.628899390692823, 498221.284267019829713 ] ] ], [ [ [ 613278.520560776349157, 518796.791165009897668 ], [ 612169.473347319290042, 518795.181451732176356 ], [ 612109.380898978793994, 519690.379462421697099 ], [ 613218.423076237086207, 519691.991098766797222 ], [ 613278.520560776349157, 518796.791165009897668 ] ] ], [ [ [ 617594.405262643005699, 520593.80803092214046 ], [ 616485.354235952603631, 520592.13087933009956 ], [ 616425.034726797253825, 521487.344302992685698 ], [ 617534.080692319548689, 521489.023478066839743 ], [ 617594.405262643005699, 520593.80803092214046 ] ] ], [ [ [ 614712.401880785822868, 561777.741438756580465 ], [ 614777.381627987837419, 560882.348773485748097 ], [ 615886.199839746812358, 560884.129620172549039 ], [ 615821.214641718193889, 561779.524129488156177 ], [ 616930.030901004327461, 561781.323976580169983 ], [ 616995.021551946410909, 560885.927595909219235 ], [ 618103.846798094338737, 560887.742700970498845 ], [ 618168.739441790501587, 559992.348500057938509 ], [ 619277.573703866801225, 559994.178803981048986 ], [ 619407.059473370900378, 558203.398733543232083 ], [ 618298.214340199483559, 558201.572305358597077 ], [ 618362.796593803679571, 557306.190297504886985 ], [ 616145.106176056433469, 557302.592391896527261 ], [ 616273.938662960543297, 555511.848164474475197 ], [ 615165.087927020154893, 555510.078481806442142 ], [ 615229.343607662362047, 554614.714317346923053 ], [ 614120.490962601965293, 554612.963449507253245 ], [ 614248.681251284666359, 552822.250957523472607 ], [ 612030.964781414717436, 552818.80729762034025 ], [ 612158.719917789800093, 551028.11824304156471 ], [ 613267.587152007734403, 551029.828008286538534 ], [ 613203.755941909388639, 551925.172331518144347 ], [ 614312.62124673044309, 551926.900765988393687 ], [ 614376.457808847306296, 551031.554601363604888 ], [ 615485.331921828328632, 551033.298022536328062 ], [ 615549.070395529037341, 550137.954004397150129 ], [ 617766.839821062749252, 550141.487503402284347 ], [ 617830.485531566548161, 549246.14365538128186 ], [ 620048.279880148475058, 549249.740413472056389 ], [ 619984.623481625225395, 550145.088208776782267 ], [ 618875.729855203768238, 550143.2794551566476 ], [ 618811.975332838715985, 551038.629257307620719 ], [ 617703.090650302357972, 551036.835350238136016 ], [ 617639.238019828801043, 551932.187202906468883 ], [ 616530.362252169637941, 551930.408201414509676 ], [ 616338.199734163586982, 554616.482122791465372 ], [ 617447.059375625220127, 554618.266866110847332 ], [ 617382.792911793920211, 555513.634812328033149 ], [ 618491.650707037653774, 555515.438425640342757 ], [ 618620.09095795545727, 553724.702698731562123 ], [ 620837.838895674212836, 553728.352922168793157 ], [ 620965.886784819187596, 551937.62534576759208 ], [ 622074.776972229126841, 551939.471773773548193 ], [ 621882.533761410508305, 554625.575223631458357 ], [ 624100.292915531201288, 554629.331036856397986 ], [ 624164.488269291236065, 553733.955095560057089 ], [ 625273.378852458205074, 553735.856311358977109 ], [ 625209.178100217599422, 554631.234353082953021 ], [ 627426.959852444473654, 554635.09180621849373 ], [ 627298.226136610959657, 556425.868436840362847 ], [ 628407.111935859080404, 556427.826924939174205 ], [ 628342.584345919429325, 557323.223413182422519 ], [ 629451.468591961544007, 557325.20109245844651 ], [ 629580.431085921474732, 555534.407720925519243 ], [ 630689.330103881307878, 555536.397973048849963 ], [ 630753.661440763622522, 554641.005042069824412 ], [ 629644.757005297578871, 554639.017022233922035 ], [ 629708.979372194153257, 553743.630305664031766 ], [ 627491.171407864196226, 553739.7094816993922 ], [ 627555.279427547124214, 552844.331141763017513 ], [ 626446.375846505747177, 552842.398259794339538 ], [ 626510.374944559764117, 551947.026061935466714 ], [ 625401.4698010252323, 551945.11220289953053 ], [ 625465.359996249550022, 551049.746122224139981 ], [ 624356.453269462683238, 551047.85123588796705 ], [ 624420.234580646269023, 550152.491247482481413 ], [ 623311.326249839854427, 550150.615283609018661 ], [ 623374.998695764457807, 549255.261362539138645 ], [ 622266.08874015766196, 549253.404270886909217 ], [ 622329.652339595253579, 548358.05639219773002 ], [ 621220.740738394670188, 548356.218122521182522 ], [ 621284.195510107441805, 547460.876261238474399 ], [ 620175.282242506276816, 547459.056763287167996 ], [ 620238.628205250483006, 546563.720894415862858 ], [ 619129.713250429485925, 546561.920117935864255 ], [ 619256.084123866748996, 544771.264274121494964 ], [ 618147.162161106127314, 544769.48415208037477 ], [ 618210.187098615104333, 543874.164149732328951 ], [ 619319.114352641627192, 543875.942283921991475 ], [ 619382.041108727455139, 542980.624238871270791 ], [ 618273.108572058263235, 542978.848097149981186 ], [ 618398.641124590416439, 541188.227813298464753 ], [ 617289.701627578237094, 541186.472198814037256 ], [ 617352.30745082651265, 540291.169932521646842 ], [ 618461.252202602801844, 540292.923568042460829 ], [ 618710.661847078357823, 536711.745735091273673 ], [ 616492.734033396234736, 536708.270778991747648 ], [ 616430.547262049978599, 537603.555411770008504 ], [ 617539.504172819899395, 537605.286663946812041 ], [ 617414.809816473745741, 539395.871592608978972 ], [ 616305.863368120393716, 539394.136414224631153 ], [ 615992.343276080908254, 543870.657712319865823 ], [ 613774.513477349886671, 543867.217714414931834 ], [ 613648.402462861384265, 545657.846337789786048 ], [ 612539.503309482359327, 545656.147555024828762 ], [ 612602.605241515906528, 544760.833102376433089 ], [ 611493.704201722051948, 544759.152802684577182 ], [ 611682.373661315650679, 542073.238781738211401 ], [ 612791.290512661682442, 542074.913595625548624 ], [ 612916.563583911629394, 540284.320396773749962 ], [ 611807.636234543519095, 540282.649263111990876 ], [ 611994.754483916098252, 537596.794587446027435 ], [ 610885.814837913494557, 537595.145426168572158 ], [ 610947.975547810317948, 536699.8702334954869 ], [ 612056.92040211125277, 536701.517561372369528 ], [ 612118.982903623604216, 535806.244456494576298 ], [ 614336.893214734620415, 535809.5845257260371 ], [ 614398.862687184475362, 534914.311568081844598 ], [ 612180.94198791810777, 534910.975265790475532 ], [ 612242.797654467751272, 534015.709982238942757 ], [ 611133.837226880015805, 534014.06818186910823 ], [ 611010.032849624869414, 535804.598966574296355 ], [ 608792.142777032335289, 535801.357074866886251 ], [ 608977.663151558139361, 533115.57759479386732 ], [ 607868.707536239875481, 533113.986487854504958 ], [ 607930.335716415662318, 532218.736258113873191 ], [ 609039.296491094515659, 532220.325590877910145 ], [ 609100.826437100186013, 531325.077486620401032 ], [ 607991.860511654755101, 531323.489932549535297 ], [ 608236.92583272641059, 527742.543531261500902 ], [ 612672.891579030430876, 527748.961808426887728 ], [ 612611.759851487120613, 528644.199938283651136 ], [ 613720.75459902943112, 528645.84670601785183 ], [ 613903.854862120002508, 525960.1381314645987 ], [ 616121.885419786092825, 525963.468393419054337 ], [ 616243.455492759472691, 524173.007334968249779 ], [ 615134.428278590901755, 524171.338124806527048 ], [ 615195.053055435419083, 523276.115296557080001 ], [ 616304.085354683222249, 523277.782523849280551 ], [ 616425.034726797253825, 521487.344302992685698 ], [ 615315.99228324345313, 521485.681054756161757 ], [ 615436.51773975440301, 519695.26198608847335 ], [ 616545.570293147931807, 519696.921237565111369 ], [ 616665.692049597157165, 517906.51327190437587 ], [ 615556.629420836805366, 517904.858034830831457 ], [ 615496.625302482629195, 518800.058124264585786 ], [ 614387.571201309445314, 518798.416722437832505 ], [ 614327.468678641365841, 519693.618606572796125 ], [ 613218.423076237086207, 519691.991098766797222 ], [ 612916.384264395339414, 524168.047729778627399 ], [ 614025.404546990408562, 524169.684923160821199 ], [ 613964.681420622742735, 525064.909614497679286 ], [ 612855.666227819514461, 525063.270497316494584 ], [ 612733.919884615694173, 526853.727529645781033 ], [ 610515.920105051365681, 526850.489896426093765 ], [ 610576.834779997821897, 525955.263209546916187 ], [ 609467.834819566225633, 525953.670360181829892 ], [ 609710.439137617358938, 522372.809379029669799 ], [ 608601.422177246422507, 522371.239858679356985 ], [ 608722.093838902190328, 520580.835990862047765 ], [ 609831.120903096860275, 520582.401851020869799 ], [ 609891.306685639778152, 519687.20380313048372 ], [ 611000.342113301274367, 519688.783697290986311 ], [ 611060.429527373169549, 518793.587582358741201 ], [ 612169.473347319290042, 518795.181451732176356 ], [ 612408.808950165985152, 515214.42719515558565 ], [ 611299.74507919815369, 515212.840952765080146 ], [ 611359.315438478952274, 514317.663717967923731 ], [ 610250.249945804360323, 514316.095100383739918 ], [ 610309.711911871097982, 513420.923515412840061 ], [ 611418.782385270111263, 513422.490238246275112 ], [ 611478.145919060683809, 512527.320506622374523 ], [ 610369.070473542436957, 512525.755682896764483 ], [ 610428.325630309991539, 511630.591595851816237 ], [ 608210.174803688889369, 511627.512629901000764 ], [ 608091.580945109715685, 513417.837108190113213 ], [ 605873.4630612435285, 513414.813417323457543 ], [ 605932.801753462757915, 512519.652908143238164 ], [ 604823.742671075626276, 512518.166343325225171 ], [ 605118.860880074789748, 508042.428978153155185 ], [ 604009.780294808326289, 508040.966805777396075 ], [ 604302.289932559477165, 503565.331593471346423 ], [ 603193.188044305425137, 503563.893648008292075 ], [ 603309.45867419813294, 501773.669036960694939 ], [ 602200.350192997488193, 501772.249929442536086 ], [ 602546.652705146465451, 496401.674954971065745 ], [ 601437.518385211704299, 496400.281489421264268 ], [ 601552.116224638884887, 494610.122610394493677 ], [ 598224.702852866612375, 494606.043257779732812 ], [ 598281.832452877541073, 493710.974353188474197 ], [ 597172.69588756444864, 493709.646409942477476 ], [ 597286.635640812455676, 491919.522822813538369 ], [ 596177.492511952877976, 491918.213181088853162 ], [ 595891.892180966679007, 496393.541537491604686 ], [ 594782.775784069439396, 496392.239020826120395 ], [ 594725.350624483311549, 497287.314134714193642 ], [ 593616.241884987801313, 497286.025236187502742 ], [ 593558.718237118679099, 498181.102505395479966 ], [ 592449.617126337485388, 498179.827283642138354 ], [ 592391.995005956734531, 499074.906750988797285 ], [ 593501.091313658514991, 499076.183476287988015 ], [ 593443.361115095554851, 499971.268155932950322 ], [ 591225.180918068275787, 499968.7269729814725 ], [ 591167.357083431910723, 500863.812405618722551 ], [ 592276.440966041642241, 500865.076831723272335 ], [ 592218.509047490311787, 501760.167459270742256 ], [ 591109.429991781944409, 501758.901569652894977 ], [ 591051.399643606157042, 502653.99447217467241 ], [ 588833.259437535889447, 502651.505818212463055 ], [ 588949.197563702240586, 500861.329433361242991 ], [ 590058.275960513972677, 500862.563272895000409 ], [ 590173.810747801908292, 499072.399017085903324 ], [ 589064.722730180714279, 499071.168008098204155 ], [ 589007.011767147341743, 499966.24685433349805 ], [ 587897.931250018416904, 499965.02969364769524 ], [ 587955.637408752227202, 499069.95223750139121 ], [ 585737.474720140104182, 499067.566410738683771 ], [ 585679.778164518531412, 499962.641168621659745 ], [ 584570.705528983613476, 499961.469803916232195 ], [ 584685.985835852799937, 498171.326647128385957 ], [ 585795.068060479476117, 498172.495391250064131 ], [ 585852.558185050147586, 497277.428103033802472 ], [ 583634.386737808817998, 497275.108431114640553 ], [ 583691.764101515640505, 496380.047481456655078 ], [ 582582.677422991371714, 496378.91168614581693 ], [ 582639.946825968916528, 495483.855732404044829 ], [ 583749.03826554666739, 495484.990257256955374 ], [ 583806.209229419473559, 494589.936751384288073 ], [ 582697.113037318224087, 494588.803501193353441 ], [ 582754.176056551863439, 493693.754985378065612 ], [ 581645.07762603298761, 493692.63808753126068 ], [ 581530.85788835817948, 495482.736335645138752 ], [ 580421.771419126307592, 495481.632066809281241 ], [ 580134.440251408610493, 499956.936992991482839 ], [ 581243.502848279196769, 499958.047298887104262 ], [ 581127.838564070058055, 501748.197971525834873 ], [ 578909.735009569325484, 501745.987908248207532 ], [ 578851.757729973178357, 502641.066561078827363 ], [ 582178.902277178131044, 502644.408193112525623 ], [ 582120.807358621968888, 503539.494184272538405 ], [ 583229.855641759117134, 503540.639990991447121 ], [ 583113.346559281344526, 505330.825801321247127 ], [ 582004.307960247853771, 505329.677534323825967 ], [ 581945.903481412911788, 506224.774907535524108 ], [ 583054.937225607340224, 506225.924398244242184 ], [ 582996.424697633250616, 507121.026799212791957 ], [ 584105.456090201856568, 507122.192992558528204 ], [ 584046.835494680097327, 508017.300447147863451 ], [ 585155.864556963089854, 508018.483393614355009 ], [ 584979.368883393821307, 510703.832453592272941 ], [ 586088.385839144932106, 510705.034776123822667 ], [ 586029.342617955291644, 511600.160062035312876 ], [ 587138.357265256578103, 511601.379284589842428 ], [ 587019.95132013829425, 513391.643966627772897 ], [ 589237.968842117465101, 513394.134639272699133 ], [ 589178.601148884743452, 514289.275412545714062 ], [ 590287.608998497133143, 514290.54563787614461 ], [ 590228.133111000759527, 515185.691625060280785 ], [ 591337.138737231725827, 515186.978952203062363 ], [ 591217.867279658326879, 516977.285253660462331 ], [ 590108.871589333517477, 516975.995141943276394 ], [ 590049.085956173366867, 517871.152685900859069 ], [ 587831.112676059245132, 517868.617127404955681 ], [ 587771.233768291771412, 518763.775857168715447 ], [ 583335.338747506495565, 518758.889446463435888 ], [ 583215.311191192711703, 520549.20854584639892 ], [ 582106.353799903416075, 520548.024172369099688 ], [ 582046.190230872947723, 521443.188413177675102 ], [ 579828.292863056529313, 521440.865072398737539 ], [ 579888.446434570825659, 520545.703103581152391 ], [ 577670.54873522836715, 520543.445604503562208 ], [ 577610.405153634608723, 521438.605410544667393 ], [ 578719.347817820846103, 521439.72728169336915 ], [ 578659.0960819729371, 522334.89209480205318 ], [ 577550.158420309540816, 522333.769160342228133 ], [ 577429.355500484933145, 524124.108520125679206 ], [ 575211.507230130722746, 524121.906428290705662 ], [ 575271.950232039322145, 523226.736796255398076 ], [ 574163.024511862546206, 523225.660724386689253 ], [ 574223.359374732826836, 522330.496036418306176 ], [ 573114.430894188233651, 522329.436887706164271 ], [ 573174.657636407995597, 521434.277118121855892 ], [ 572065.726374238030985, 521433.23484223196283 ], [ 571763.586546118953265, 525909.068860391853377 ], [ 572872.492758165928535, 525910.115725855575874 ], [ 572689.956444882205687, 528595.666805738466792 ], [ 571581.06536481634248, 528594.617240033461712 ], [ 571520.0187600342324, 529489.808071713894606 ], [ 570411.134903556667268, 529488.77377917827107 ], [ 570349.990261666709557, 530383.967782913357951 ], [ 569241.113599890843034, 530382.94882248796057 ], [ 569179.870936460327357, 531278.146041872911155 ], [ 570288.742524123867042, 531279.165829814737663 ], [ 570227.391691439086571, 532174.367927181883715 ], [ 569118.52518637094181, 532173.347316233091988 ], [ 569057.076350139919668, 533068.552652877522632 ], [ 567948.217024000477977, 533067.54749662138056 ], [ 567886.670199773274362, 533962.756116198957898 ], [ 566777.818023653584532, 533961.766473610769026 ], [ 566654.425362652400509, 535752.194459301186725 ], [ 568872.111329743638635, 535754.193109642947093 ], [ 568933.869421310489997, 534858.9755422672024 ], [ 570042.7206276912475, 534859.998595102108084 ], [ 569857.121726245153695, 537545.665980212506838 ], [ 570965.959669282427058, 537546.70784392231144 ], [ 571089.805625022621825, 535756.257180342217907 ], [ 572198.655979548115283, 535757.313748718705028 ], [ 572136.779423046973534, 536652.53789058001712 ], [ 573245.626829360146075, 536653.61169677390717 ], [ 573492.534868490300141, 533072.736011295695789 ], [ 574601.404969178372994, 533073.822535047889687 ], [ 574539.827530173119158, 533969.036284136469476 ], [ 575648.694777127471752, 533970.140032354160212 ], [ 575587.009092829888687, 534865.358781634829938 ], [ 576695.873507204581983, 534866.479804560076445 ], [ 576634.07955919066444, 535761.703579534078017 ], [ 577742.941162126604468, 535762.841927404282615 ], [ 577804.740240263636224, 534867.617156418738887 ], [ 578913.609325538272969, 534868.770837384858169 ], [ 578851.805115329334512, 535763.996631684945896 ], [ 579960.671452327864245, 535765.167692553019151 ], [ 579898.758939057704993, 536660.398583539063111 ], [ 577681.038931965362281, 536658.070753552950919 ], [ 577494.713334547355771, 539343.781635588733479 ], [ 578603.556674395222217, 539344.940387573326007 ], [ 578665.773523601004854, 538449.698347288067453 ], [ 583101.191661957651377, 538454.493721700855531 ], [ 583163.326002157176845, 537559.251442166860215 ], [ 585381.060346198617481, 537561.745444379048422 ], [ 585318.915669244597666, 538456.990043551544659 ], [ 586427.781524757971056, 538458.262863799347542 ], [ 586365.528457879088819, 539353.512704132241197 ], [ 587474.391744186286815, 539354.803187696379609 ], [ 587598.805014465004206, 537564.305095824529417 ], [ 588707.681304002297111, 537565.609540497418493 ], [ 588831.691988578415476, 535775.125038642669097 ], [ 587722.805374124087393, 535773.823118422646075 ], [ 587846.392818970954977, 533983.357197950826958 ], [ 586737.498569694696926, 533982.07412385486532 ], [ 586675.761601048056036, 534877.303834281978197 ], [ 584457.991208693711087, 534874.784185085562058 ], [ 584519.717904875637032, 533979.556885319761932 ], [ 585628.606942840502597, 533980.807353042415343 ], [ 585690.235561592504382, 533085.582870519603603 ], [ 586799.13231712533161, 533086.84841781668365 ], [ 586860.662842819583602, 532191.626708975760266 ], [ 587969.567344823270105, 532192.907276906189509 ], [ 588092.328947519068606, 530402.473297827527858 ], [ 590310.166413497296162, 530405.077968196943402 ], [ 590432.535469425958581, 528614.654625344905071 ], [ 591541.468477984890342, 528615.978546343045309 ], [ 591602.503216522862203, 527720.771440447657369 ], [ 592711.44408050540369, 527722.110114619368687 ], [ 592650.404254799359478, 528617.318607591092587 ], [ 593759.342833413626067, 528618.674809293588623 ], [ 593698.194643013062887, 529513.888651002547704 ], [ 597025.01222045882605, 529518.058494446799159 ], [ 596902.375328685506247, 531308.506756038288586 ], [ 598011.310107939876616, 531309.932065527886152 ], [ 597888.249746566754766, 533100.399102767929435 ], [ 598997.177214754745364, 533101.843697018455714 ], [ 598935.486922771902755, 533997.08466388087254 ], [ 601153.340566232218407, 534000.025817096116953 ], [ 600905.504854326602072, 537581.041728852200322 ], [ 602014.415536689106375, 537582.543142183567397 ], [ 601889.867290391819552, 539373.078074352582917 ], [ 602998.770646274555475, 539374.599119333317503 ], [ 602936.336298049194738, 540269.87415832024999 ], [ 601827.438160287216306, 540268.351512122317217 ], [ 601764.90569291904103, 541163.628940484020859 ], [ 602873.798603985458612, 541165.153183312504552 ], [ 602748.413180478150025, 542955.723219702020288 ], [ 603857.298718030680902, 542957.267221567686647 ], [ 603731.489400152815506, 544747.856502820271999 ], [ 604840.367555394535884, 544749.420354753034189 ], [ 604777.302594984765165, 545644.722645362373441 ], [ 605886.178643261315301, 545646.304787459550425 ], [ 605823.005038879113272, 546541.61274830182083 ], [ 606931.879001096705906, 546543.213230789173394 ], [ 606868.596734096528962, 547438.526886989478953 ], [ 607977.468631154857576, 547440.145760088693351 ], [ 608040.756194970919751, 546544.830403036088683 ], [ 609149.636654024943709, 546546.464265290182084 ], [ 608959.447887441609055, 549232.427572887274437 ], [ 610068.315716814482585, 549234.083377857343294 ], [ 609620.885767721803859, 555501.484536875854246 ], [ 607403.228321266942658, 555498.165705936495215 ], [ 607338.906937317689881, 556393.521577916806564 ], [ 609556.553612240357324, 556396.843798842979595 ], [ 609362.936770883738063, 559082.946099451975897 ], [ 610471.748838088125922, 559084.637875647982582 ], [ 610406.997677940991707, 559980.015221403678879 ], [ 611515.807656903052703, 559981.72581501910463 ], [ 611450.947660286678001, 560877.109005015227012 ], [ 612559.755571763496846, 560878.838466175366193 ], [ 612494.786719961441122, 561774.227525287307799 ], [ 614712.401880785822868, 561777.741438756580465 ] ], [ [ 622138.651055925758556, 551044.11195468949154 ], [ 623247.550300530623645, 551045.973180138971657 ], [ 623183.670848384150304, 551941.335059107281268 ], [ 622074.776972229126841, 551939.471773773548193 ], [ 622138.651055925758556, 551044.11195468949154 ] ], [ [ 621029.755502125713974, 551042.267559255240485 ], [ 621093.520733855199069, 550146.913764539291151 ], [ 622202.42164541897364, 550148.756122722756118 ], [ 622138.651055925758556, 551044.11195468949154 ], [ 621029.755502125713974, 551042.267559255240485 ] ], [ [ 623055.601437785779126, 553732.070792287006043 ], [ 623119.687893953407183, 552836.700927495257929 ], [ 624228.580113234231248, 552838.583152952021919 ], [ 624164.488269291236065, 553733.955095560057089 ], [ 623055.601437785779126, 553732.070792287006043 ] ], [ [ 587782.209237434552051, 501755.195824155991431 ], [ 586673.141011642757803, 501753.991216145979706 ], [ 586788.853393670287915, 499963.827798471727874 ], [ 587897.931250018416904, 499965.02969364769524 ], [ 587782.209237434552051, 501755.195824155991431 ] ], [ [ 575090.311827218509279, 525912.2576226554811 ], [ 573981.401174018159509, 525911.178646555868909 ], [ 574102.586523781414144, 524120.829383894102648 ], [ 575211.507230130722746, 524121.906428290705662 ], [ 575090.311827218509279, 525912.2576226554811 ] ], [ [ 576199.224751304485835, 525913.352654319256544 ], [ 576138.467310082633048, 526808.535217616590671 ], [ 575029.559427231666632, 526807.439199490007013 ], [ 575090.311827218509279, 525912.2576226554811 ], [ 576199.224751304485835, 525913.352654319256544 ] ], [ [ 578975.310374693362974, 533973.549086449085735 ], [ 576757.564311178051867, 533971.260082030901685 ], [ 576819.1519705937244, 533076.044404683518223 ], [ 575710.277325368020684, 533074.925332787795924 ], [ 575894.406148574198596, 530389.305459707393311 ], [ 577003.296076310216449, 530390.421571141807362 ], [ 576880.636484930175357, 532180.83276525803376 ], [ 577989.51855733175762, 532181.967101871967316 ], [ 578112.188332412624732, 530391.553874993813224 ], [ 579221.082950419164263, 530392.70237143652048 ], [ 579098.402987770969048, 532183.117685683304444 ], [ 580207.289809782058001, 532184.284516867948696 ], [ 580329.97996386687737, 530393.867060645250604 ], [ 581438.879406292573549, 530395.047942798119038 ], [ 581500.074810246005654, 529499.844117226777598 ], [ 582608.981801999732852, 529501.040060152299702 ], [ 582731.073213902418502, 527710.642096392577514 ], [ 581622.156074079219252, 527709.4484316468006 ], [ 581683.041932932799682, 526814.256557205226272 ], [ 583900.888838861370459, 526816.657679163734429 ], [ 584022.371205614763312, 525026.281166243250482 ], [ 585131.308552409871481, 525027.503439297084697 ], [ 585070.613921122276224, 525922.690928541705944 ], [ 588397.426388215506449, 525926.457719485624693 ], [ 588336.613366833305918, 526821.652935912366956 ], [ 589445.551093690446578, 526822.941962216049433 ], [ 589262.477384162484668, 529508.555210355552845 ], [ 587044.635084291803651, 529505.985493756947108 ], [ 586922.09014625987038, 531296.408990142866969 ], [ 585813.183158959727734, 531295.145903444034047 ], [ 585751.760967137874104, 532190.362389719113708 ], [ 581316.179056899622083, 532185.46759560413193 ], [ 581131.354686849284917, 534871.127187346923165 ], [ 578913.609325538272969, 534868.770837384858169 ], [ 578975.310374693362974, 533973.549086449085735 ] ], [ [ 581007.622548899613321, 536661.58707454719115 ], [ 580945.601714112795889, 537556.823087663156912 ], [ 579836.743257267982699, 537555.633527836413123 ], [ 579898.758939057704993, 536660.398583539063111 ], [ 581007.622548899613321, 536661.58707454719115 ] ], [ [ 582301.947461472824216, 533977.104858381440863 ], [ 582363.56070588179864, 533081.883882578462362 ], [ 584581.341396897681989, 533084.333599007804878 ], [ 584519.717904875637032, 533979.556885319761932 ], [ 582301.947461472824216, 533977.104858381440863 ] ], [ [ 593820.387748227920383, 527723.464901939849369 ], [ 594929.334253231994808, 527724.835802616318688 ], [ 594868.284247369156219, 528620.047151658218354 ], [ 593759.342833413626067, 528618.674809293588623 ], [ 593820.387748227920383, 527723.464901939849369 ] ], [ [ 610536.396595111349598, 558189.264627476222813 ], [ 612754.041609690990299, 558192.695873969001696 ], [ 612689.383017182582989, 559088.072647590655833 ], [ 610471.748838088125922, 559084.637875647982582 ], [ 610536.396595111349598, 558189.264627476222813 ] ], [ [ 614630.769713104120456, 547450.210071154637262 ], [ 614503.820630910224281, 549240.87432467751205 ], [ 612286.06138749641832, 549237.445305364206433 ], [ 612222.442361249355599, 550132.779763118014671 ], [ 611113.573176804115064, 550131.088616895722225 ], [ 611240.697158689727075, 548340.427313413121738 ], [ 610131.820683089201339, 548338.756509482278489 ], [ 610258.520411784178577, 546548.114817800698802 ], [ 612476.29795752116479, 546551.465994603582658 ], [ 612412.989186175866053, 547446.788428155938163 ], [ 614630.769713104120456, 547450.210071154637262 ] ], [ [ 577125.543081189040095, 528600.026441646972671 ], [ 577064.471152319107205, 529495.2220019424567 ], [ 575955.57614742021542, 529494.1068863425171 ], [ 576016.643007629318163, 528598.912326375953853 ], [ 577125.543081189040095, 528600.026441646972671 ] ], [ [ 579282.26818654127419, 529497.50072865805123 ], [ 579343.350258505437523, 528602.303085795138031 ], [ 578234.445486968150362, 528601.156694729113951 ], [ 578356.29001688119024, 526810.775503143435344 ], [ 580574.122202077996917, 526813.080122181097977 ], [ 580391.170282938866876, 529498.664340122137219 ], [ 579282.26818654127419, 529497.50072865805123 ] ], [ [ 586240.248473906191066, 525028.741742205689661 ], [ 586300.844937312300317, 524133.556953339430038 ], [ 587409.792510419269092, 524134.810017871262971 ], [ 587349.191003650426865, 525029.996075158240274 ], [ 586240.248473906191066, 525028.741742205689661 ] ], [ [ 587470.290790289989673, 523239.627885998808779 ], [ 588579.246043856139295, 523240.895653287298046 ], [ 588518.742727239732631, 524136.079085333854891 ], [ 587409.792510419269092, 524134.810017871262971 ], [ 587470.290790289989673, 523239.627885998808779 ] ], [ [ 589627.695621322607622, 524137.364155921677593 ], [ 589567.084022070164792, 525032.55283196514938 ], [ 588458.136175189749338, 525031.266438346705399 ], [ 588518.742727239732631, 524136.079085333854891 ], [ 589627.695621322607622, 524137.364155921677593 ] ], [ [ 583403.845295932958834, 500855.389627017255407 ], [ 582294.782550578587689, 500854.24754274165025 ], [ 582410.250069106929004, 499064.101953952747863 ], [ 583519.322413309942931, 499065.241535338165704 ], [ 583403.845295932958834, 500855.389627017255407 ] ], [ [ 581301.180219602654688, 499062.977609877358191 ], [ 581416.225418257410638, 497272.849490701628383 ], [ 582525.304828864173032, 497273.971369557140861 ], [ 582410.250069106929004, 499064.101953952747863 ], [ 581301.180219602654688, 499062.977609877358191 ] ] ], [ [ [ 610086.622062050737441, 533117.18498210364487 ], [ 610024.880159578868188, 534012.442689673742279 ], [ 611133.837226880015805, 534014.06818186910823 ], [ 611195.584301262977533, 533118.80865003017243 ], [ 610086.622062050737441, 533117.18498210364487 ] ] ], [ [ [ 615445.853538933792152, 535811.279105547699146 ], [ 614336.893214734620415, 535809.5845257260371 ], [ 614274.820307854330167, 536704.861388447112404 ], [ 615383.775426379404962, 536706.557888156268746 ], [ 615445.853538933792152, 535811.279105547699146 ] ] ], [ [ [ 613165.868644280242734, 536703.18127960478887 ], [ 612056.92040211125277, 536701.517561372369528 ], [ 611994.754483916098252, 537596.794587446027435 ], [ 613103.697515789885074, 537598.460166388889775 ], [ 613165.868644280242734, 536703.18127960478887 ] ] ], [ [ [ 624379.68092562770471, 534930.133602978894487 ], [ 623270.686525241006166, 534928.310248101362959 ], [ 623332.594126077485271, 534033.024991992511787 ], [ 621114.606070880196057, 534029.431510125054047 ], [ 621052.708872838877141, 534924.712553227669559 ], [ 619943.725553729571402, 534922.938212681561708 ], [ 619881.730076039792039, 535818.221065616700798 ], [ 622099.689958407077938, 535821.790233843843453 ], [ 622037.58056987344753, 536717.081109315040521 ], [ 623146.560812259558588, 536718.892352494760416 ], [ 623084.342701183632016, 537614.189214669866487 ], [ 621975.367687097867019, 537612.375864976784214 ], [ 621788.108078654622659, 540298.283482686732896 ], [ 624006.030348694417626, 540301.939268588204868 ], [ 624068.564221402863041, 539406.628617693786509 ], [ 626286.512005111202598, 539410.346091612474993 ], [ 626348.952869117027149, 538515.035001306445338 ], [ 625239.971833475865424, 538513.1702059074305 ], [ 625426.657554022967815, 535827.266727549955249 ], [ 624317.664607812650502, 535825.424863762804307 ], [ 624379.68092562770471, 534930.133602978894487 ] ], [ [ 622959.595972540671937, 539404.794593722675927 ], [ 623022.021087766624987, 538509.489959428552538 ], [ 624130.994584206724539, 538511.321858708979562 ], [ 624068.564221402863041, 539406.628617693786509 ], [ 622959.595972540671937, 539404.794593722675927 ] ] ], [ [ [ 599672.0697852820158, 539370.085394467227161 ], [ 600780.967014572350308, 539371.573499473859556 ], [ 600905.504854326602072, 537581.041728852200322 ], [ 599796.597222467535175, 537579.556730778422207 ], [ 599920.711372804245912, 535789.043980774236843 ], [ 597702.884401727817021, 535786.129316023550928 ], [ 597764.776156344567426, 534890.881947797955945 ], [ 596655.861952974228188, 534889.45064298750367 ], [ 596593.975363731617108, 535784.696523714694194 ], [ 595485.069246047292836, 535783.280091157299466 ], [ 595423.084531691856682, 536678.528494089259766 ], [ 593205.29126113851089, 536675.741877996129915 ], [ 593267.265637483098544, 535780.496304433094338 ], [ 592158.368079529493116, 535779.128949840902351 ], [ 592096.398869238095358, 536674.373149678460322 ], [ 590987.509261544561014, 536673.020807566586882 ], [ 590925.44196154573001, 537568.267668740125373 ], [ 592034.32639660849236, 537569.62135271623265 ], [ 591972.150662166415714, 538464.873566117836162 ], [ 593081.032696318347007, 538466.24502821220085 ], [ 593018.748508891672827, 539361.502619179547764 ], [ 595236.51066277816426, 539364.297668650164269 ], [ 595174.112799616879784, 540259.562072568456642 ], [ 597391.876054634340107, 540262.425899137975648 ], [ 597454.284332160488702, 539367.158593162894249 ], [ 598563.175568987731822, 539368.613759105210193 ], [ 598625.485744588891976, 538473.348958368063904 ], [ 599734.385164466686547, 538474.819069856312126 ], [ 599672.0697852820158, 539370.085394467227161 ] ] ], [ [ [ 602748.413180478150025, 542955.723219702020288 ], [ 601639.530748527497053, 542954.195797402178869 ], [ 601764.90569291904103, 541163.628940484020859 ], [ 600656.015857928898185, 541162.121222372748889 ], [ 600718.543100596754812, 540266.845363334054127 ], [ 597391.876054634340107, 540262.425899137975648 ], [ 597204.031406215392053, 542948.251899227965623 ], [ 598312.901751023484394, 542949.713005574420094 ], [ 598250.075020301970653, 543844.997863714583218 ], [ 599358.943090197746642, 543846.477049611858092 ], [ 599296.007795074954629, 544741.767436913447455 ], [ 598187.144980153185315, 544740.286754729342647 ], [ 598124.111631112988107, 545635.579685756238177 ], [ 599232.969182498403825, 545637.061859602457844 ], [ 599106.582007126300596, 547427.662839673575945 ], [ 601324.285022829775698, 547430.683272659080103 ], [ 601387.540836078929715, 546535.377711095265113 ], [ 602496.402206913335249, 546536.911436964408495 ], [ 602369.776665444369428, 548327.529731563525274 ], [ 601260.925876602996141, 548325.992881718673743 ], [ 601133.897587366751395, 550116.624270825413987 ], [ 602242.737759927636944, 550118.164226024528034 ], [ 602179.063297003973275, 551013.487566002877429 ], [ 604396.742295960313641, 551016.621043992810883 ], [ 604650.862595354090445, 547435.339291751151904 ], [ 603542.000286623253487, 547433.770569124841131 ], [ 603731.489400152815506, 544747.856502820271999 ], [ 602622.614380025072023, 544746.309285305207595 ], [ 602748.413180478150025, 542955.723219702020288 ] ] ], [ [ [ 612412.989186175866053, 547446.788428155938163 ], [ 611304.104035353055224, 547445.102684283396229 ], [ 611240.697158689727075, 548340.427313413121738 ], [ 612349.576995987328701, 548342.114862727001309 ], [ 612412.989186175866053, 547446.788428155938163 ] ] ], [ [ [ 625209.178100217599422, 554631.234353082953021 ], [ 624100.292915531201288, 554629.331036856397986 ], [ 624035.99405250500422, 555524.710983822238632 ], [ 625144.87383007525932, 555526.61639576673042 ], [ 625209.178100217599422, 554631.234353082953021 ] ] ], [ [ [ 637084.316643774625845, 559130.363067034631968 ], [ 635975.415237881825306, 559128.26145915442612 ], [ 636040.188105729175732, 558232.841072535025887 ], [ 634931.285345111740753, 558230.758894368074834 ], [ 634995.949156821006909, 557335.344843915081583 ], [ 633887.045020826277323, 557333.282045250758529 ], [ 633951.599795267218724, 556437.874306206358597 ], [ 632842.694263224839233, 556435.83083683042787 ], [ 633035.720797097776085, 553749.6383974122582 ], [ 635253.568457109038718, 553753.728366016410291 ], [ 635381.756531516090035, 551962.943864705157466 ], [ 633163.887258941540495, 551958.863254701020196 ], [ 633291.639400352374651, 550168.10390095342882 ], [ 632182.700051436666399, 550166.093502644449472 ], [ 632246.415380883961916, 549270.72204441356007 ], [ 631137.474658935563639, 549268.730739203398116 ], [ 630817.889216516399756, 553745.616088503156789 ], [ 631926.803013641852885, 553747.618785650469363 ], [ 631669.248850413830951, 557329.207521103089675 ], [ 629451.468591961544007, 557325.20109245844651 ], [ 629386.832018490298651, 558220.603779198252596 ], [ 630495.714732019579969, 558222.600699849310331 ], [ 630366.120022009126842, 560013.422532038763165 ], [ 629257.248221353394911, 560011.421189391403459 ], [ 629192.300998808350414, 560906.83592675824184 ], [ 631410.037597376853228, 560910.86015261663124 ], [ 631344.975868031498976, 561806.283346303040162 ], [ 636889.359986504772678, 561816.655288140289485 ], [ 636954.449148302199319, 560921.220552623854019 ], [ 635845.558697822270915, 560919.114204464945942 ], [ 635910.538768392521888, 560023.685834160307422 ], [ 637019.434700914542191, 560025.789814557763748 ], [ 637084.316643774625845, 559130.363067034631968 ] ] ], [ [ [ 629386.832018490298651, 558220.603779198252596 ], [ 628277.953213819069788, 558218.623909124406055 ], [ 628148.380325368023477, 560009.43695194972679 ], [ 629257.248221353394911, 560011.421189391403459 ], [ 629386.832018490298651, 558220.603779198252596 ] ] ], [ [ [ 622668.909195286920294, 559104.37429692747537 ], [ 621560.058577402611263, 559102.494701874093153 ], [ 621495.253070693346672, 559997.890719820861705 ], [ 622604.098242464009672, 559999.772332305088639 ], [ 622668.909195286920294, 559104.37429692747537 ] ] ], [ [ [ 624756.874364394927397, 560898.993062871391885 ], [ 624886.621581593411975, 559108.184715663082898 ], [ 623777.763518846360967, 559106.27096809388604 ], [ 623712.947117821429856, 560001.671048214659095 ], [ 622604.098242464009672, 559999.772332305088639 ], [ 622539.183792340336367, 560895.174420048482716 ], [ 624756.874364394927397, 560898.993062871391885 ] ] ], [ [ [ 620256.501004048855975, 561786.826458781957626 ], [ 620386.41156899894122, 559996.026210474665277 ], [ 619277.573703866801225, 559994.178803981048986 ], [ 619212.675611697370186, 560889.57493563380558 ], [ 618103.846798094338737, 560887.742700970498845 ], [ 618038.850692149251699, 561783.140980307478458 ], [ 620256.501004048855975, 561786.826458781957626 ] ] ], [ [ [ 624756.874364394927397, 560898.993062871391885 ], [ 624691.845484509249218, 561794.403307749773376 ], [ 625800.690936896135099, 561796.340415847138502 ], [ 625865.725286439061165, 560900.928081118501723 ], [ 624756.874364394927397, 560898.993062871391885 ] ] ] ] } }
]
}
