{
"type": "FeatureCollection",
"name": "urban-2020",
"crs": { "type": "name", "properties": { "name": "urn:ogc:def:crs:EPSG::32638" } },
"features": [
{ "type": "Feature", "properties": { "year": 2020 }, "geometry": { "type": "MultiPolygon", "coordinates": [ [ [ [ 396544.415755440888461, 3669151.277700517792255 ], [ 395505.545044928672723, 3669162.335932547226548 ], [ 395767.297405795194209, 3670119.027322210371494 ], [ 396806.129494635621086, 3670107.993708692491055 ], [ 396544.415755440888461, 3669151.277700517792255 ] ] ], [ [ [ 392650.791507340210956, 3670152.791509429458529 ], [ 391611.952944255026523, 3670164.267358645331115 ], [ 391873.922193230129778, 3671120.902066408656538 ], [ 390835.120629204204306, 3671132.463976759463549 ], [ 391097.190896154905204, 3672089.115698794834316 ], [ 390058.426336243981495, 3672100.76370513252914 ], [ 390320.597645526984707, 3673057.432449676562101 ], [ 392398.047737270826474, 3673034.296120910905302 ], [ 392135.953791797626764, 3672077.578312116675079 ], [ 395252.232651792175602, 3672043.629855998326093 ], [ 394466.672734780469909, 3669173.504693507682532 ], [ 392388.923251992324367, 3669196.173807701095939 ], [ 392650.791507340210956, 3670152.791509429458529 ] ] ], [ [ [ 396029.112074730277527, 3671075.760314303915948 ], [ 396290.989049035706557, 3672032.534933985210955 ], [ 397329.74386134854285, 3672021.550624715164304 ], [ 397591.644483461277559, 3672978.391582915559411 ], [ 396552.928326011111494, 3672989.351206432562321 ], [ 397076.993777160882019, 3674903.108810384757817 ], [ 398115.632591671659611, 3674892.198625681456178 ], [ 397853.607394471531734, 3673935.274241499602795 ], [ 398892.283326692238916, 3673924.449993455782533 ], [ 398368.497104596637655, 3672010.676926843822002 ], [ 399407.24879465054255, 3671999.913839040324092 ], [ 399145.487737075891346, 3671043.065145538654178 ], [ 398106.697412994457409, 3671053.852952558547258 ], [ 397844.960004631720949, 3670097.070650691632181 ], [ 396806.129494635621086, 3670107.993708692491055 ], [ 397067.905530838819686, 3671064.751341702416539 ], [ 396029.112074730277527, 3671075.760314303915948 ] ] ], [ [ [ 400707.783634176244959, 3672946.176543123554438 ], [ 400445.998947376501746, 3671989.261359991505742 ], [ 399407.24879465054255, 3671999.913839040324092 ], [ 399669.072121684672311, 3672956.804252581205219 ], [ 400707.783634176244959, 3672946.176543123554438 ] ] ], [ [ [ 416565.240957843430806, 3681435.137004614342004 ], [ 415526.89562551653944, 3681444.099339643493295 ], [ 415788.838105969014578, 3682401.735451883170754 ], [ 416827.144749095430598, 3682392.798475032672286 ], [ 416565.240957843430806, 3681435.137004614342004 ] ] ], [ [ [ 385940.454043675970752, 3683666.109043718315661 ], [ 384902.141017928952351, 3683678.349039970897138 ], [ 384638.973200488253497, 3682721.419049191754311 ], [ 382562.264186043292284, 3682746.28094666544348 ], [ 382825.509709895006381, 3683703.161937377415597 ], [ 383863.826245251926593, 3683690.700004022102803 ], [ 384127.095349688024726, 3684647.647099111694843 ], [ 383088.81768109172117, 3684660.084523884113878 ], [ 383615.620954805868678, 3686574.054585217498243 ], [ 384653.820856709498912, 3686561.666245165280998 ], [ 384390.426887734909542, 3685604.635837741196156 ], [ 385428.663925831089728, 3685592.33396919304505 ], [ 385165.371260604821146, 3684635.320671555586159 ], [ 386203.645429581054486, 3684623.105239708442241 ], [ 385940.454043675970752, 3683666.109043718315661 ] ] ], [ [ [ 386466.899226973531768, 3685580.143124270252883 ], [ 385428.663925831089728, 3685592.33396919304505 ], [ 385692.019010922638699, 3686549.388958149589598 ], [ 386730.215433165780269, 3686537.222722675185651 ], [ 386466.899226973531768, 3685580.143124270252883 ] ] ], [ [ [ 413472.019324612047058, 3689142.520151749718934 ], [ 412433.977430618775543, 3689151.834485320840031 ], [ 412696.610554720566142, 3690109.68236824683845 ], [ 413734.61364667431917, 3690100.393433392513543 ], [ 413472.019324612047058, 3689142.520151749718934 ] ] ], [ [ [ 412696.610554720566142, 3690109.68236824683845 ], [ 411658.606142849836033, 3690119.082433594856411 ], [ 411921.340213264862541, 3691076.947305770590901 ], [ 412959.305807204334997, 3691067.572633742820472 ], [ 412696.610554720566142, 3690109.68236824683845 ] ] ], [ [ [ 404655.542913404351566, 3691145.682545623276383 ], [ 403617.566233535064384, 3691155.946527920663357 ], [ 403880.673244718811475, 3692113.651465936563909 ], [ 404918.611057350237388, 3692103.412675651255995 ], [ 404655.542913404351566, 3691145.682545623276383 ] ] ], [ [ [ 394539.165734412730671, 3692210.804608926642686 ], [ 394802.685091701103374, 3693168.326104119420052 ], [ 395840.597609666408971, 3693157.111454982776195 ], [ 395577.117174369515851, 3692199.564996846485883 ], [ 394539.165734412730671, 3692210.804608926642686 ] ] ], [ [ [ 389630.811911154771224, 3697067.858663155697286 ], [ 387555.274187616596464, 3697091.758106535300612 ], [ 388083.622443838394247, 3699006.864922486711293 ], [ 389121.314099417650141, 3698994.909249103162438 ], [ 388857.147801357321441, 3698037.309966701082885 ], [ 390932.604166843055282, 3698013.683028106112033 ], [ 390668.57827249658294, 3697056.075978076085448 ], [ 391706.342987708980218, 3697044.404648816678673 ], [ 391970.329879976576194, 3698002.03663516510278 ], [ 393008.053967512911186, 3697990.501624566502869 ], [ 393272.064202939567622, 3698948.200686938595027 ], [ 391196.692423741973471, 3698971.332144611515105 ], [ 391460.843040472595021, 3699929.023353089112788 ], [ 393536.136775959341321, 3699905.941886590328068 ], [ 393800.271683845086955, 3700863.725249058566988 ], [ 394837.877117887022905, 3700852.376731931231916 ], [ 394309.747677109669894, 3698936.802072131074965 ], [ 395347.429561792348977, 3698925.51486481865868 ], [ 395083.497328227385879, 3697967.765744789969176 ], [ 396121.216632619558368, 3697956.564872842747718 ], [ 395857.385699603881221, 3696998.832861760631204 ], [ 397932.897584825172089, 3696976.715066835749894 ], [ 398196.650567517266609, 3697934.497258006129414 ], [ 399234.365229238464963, 3697923.630512428935617 ], [ 399498.141517609532457, 3698881.480083246715367 ], [ 398460.465834895323496, 3698892.321674183476716 ], [ 398988.283212731475942, 3700808.097283829934895 ], [ 401063.477093473426066, 3700786.626313203945756 ], [ 400799.615262698323932, 3699828.66694238781929 ], [ 402874.88117693096865, 3699807.591253553982824 ], [ 403138.665029280062299, 3700765.601164180319756 ], [ 404176.256806783610955, 3700755.255769559647888 ], [ 404440.063897820131388, 3701713.33340721949935 ], [ 406515.165178004768677, 3701693.027724543586373 ], [ 406251.436058894440066, 3700734.8993338085711 ], [ 405213.847144795407075, 3700745.021826518233865 ], [ 404686.497570757812355, 3698828.943114012945443 ], [ 401573.488364156335592, 3698860.131102342624217 ], [ 401309.790019272186328, 3697902.231138342991471 ], [ 403385.20886881777551, 3697881.277245011180639 ], [ 403121.650677082827315, 3696923.369114228058606 ], [ 404159.396856919222046, 3696913.033947801683098 ], [ 403895.939829481067136, 3695955.142880523111671 ], [ 404933.723493990604766, 3695944.893775320611894 ], [ 404670.367606502666604, 3694987.019763282965869 ], [ 405708.188750563887879, 3694976.856684736441821 ], [ 405444.933978687215131, 3694018.999719661194831 ], [ 403369.212447358469944, 3694039.487649702001363 ], [ 403632.545025374914985, 3694997.294123013969511 ], [ 402594.720991541922558, 3695007.679765182547271 ], [ 402858.154717072378844, 3695965.503296142909676 ], [ 400782.580086047761142, 3695986.558063691016287 ], [ 400519.068503206828609, 3695028.78490190487355 ], [ 401556.895489364746027, 3695018.176691052503884 ], [ 401293.485085965774488, 3694060.420597596094012 ], [ 402331.349503244040534, 3694049.898495784960687 ], [ 402068.040254930616356, 3693092.159462405368686 ], [ 404143.842479110171553, 3693071.398634146433324 ], [ 403880.673244718811475, 3692113.651465936563909 ], [ 400766.85103527805768, 3692145.035025341436267 ], [ 401030.136933688540012, 3693102.706717532593757 ], [ 398954.325794613570906, 3693124.134916212409735 ], [ 398690.96209602477029, 3692166.513401523698121 ], [ 397653.015339509118348, 3692177.41939449403435 ], [ 398179.8828386713285, 3694092.654450292699039 ], [ 397142.012372262426652, 3694103.621587977744639 ], [ 396878.508555702748708, 3693146.00804152013734 ], [ 395840.597609666408971, 3693157.111454982776195 ], [ 396104.14035445114132, 3694114.699987938161939 ], [ 395066.266769591835327, 3694125.889651524368674 ], [ 395329.910765358130448, 3695083.495276608038694 ], [ 394292.07454691582825, 3695094.771224969066679 ], [ 393237.716752236359753, 3691264.700874065048993 ], [ 392199.723190970020369, 3691276.187790167983621 ], [ 391936.250668799330015, 3690318.800074737984687 ], [ 390898.216564303787891, 3690330.423008705023676 ], [ 390371.380779852159321, 3688415.822944845538586 ], [ 389333.267220433976036, 3688427.606580500956625 ], [ 388280.188604681519791, 3684599.007357199210674 ], [ 386203.645429581054486, 3684623.105239708442241 ], [ 386466.899226973531768, 3685580.143124270252883 ], [ 387505.132806896232069, 3685568.063301483634859 ], [ 387768.410139163141139, 3686525.167537255212665 ], [ 386730.215433165780269, 3686537.222722675185651 ], [ 386993.594045467965771, 3687494.344060219824314 ], [ 383879.116251964471303, 3687531.102110560517758 ], [ 383615.620954805868678, 3686574.054585217498243 ], [ 382577.419289490790106, 3686586.553979819640517 ], [ 383631.930773271596991, 3690414.896035054698586 ], [ 382593.883034982543904, 3690427.408269132021815 ], [ 383649.549436149885878, 3694256.319750003051013 ], [ 384687.441291177237872, 3694243.906093541998416 ], [ 384951.474999564292375, 3695201.26317375479266 ], [ 385989.326121911639348, 3695188.985525466501713 ], [ 385461.39910998090636, 3693274.263781652785838 ], [ 386499.326479817798827, 3693262.047948319930583 ], [ 387291.193656027375255, 3696134.267670928500593 ], [ 388329.002362260478549, 3696122.237440006807446 ], [ 387801.106483932759147, 3694207.332794416230172 ], [ 388838.991476224502549, 3694195.364246504381299 ], [ 388575.176096659852192, 3693237.950025569181889 ], [ 392726.855277358612511, 3693191.089114893227816 ], [ 393518.020971292804461, 3696063.756218167953193 ], [ 392480.220520349452272, 3696075.229809605982155 ], [ 392216.397314059489872, 3695117.657006026245654 ], [ 391178.556268373329658, 3695129.266841508448124 ], [ 391442.418449601100292, 3696086.814726090058684 ], [ 389366.809386182460003, 3696110.318539859261364 ], [ 389630.811911154771224, 3697067.858663155697286 ] ], [ [ 398443.410016390902456, 3695050.33518373966217 ], [ 398706.999475886346772, 3696008.058088223449886 ], [ 395593.617076272785198, 3696041.14300485374406 ], [ 395329.910765358130448, 3695083.495276608038694 ], [ 398443.410016390902456, 3695050.33518373966217 ] ], [ [ 394555.819818058807869, 3696052.393950378056616 ], [ 394819.627412739151623, 3697010.058781817555428 ], [ 393781.867542212712578, 3697021.396052089054137 ], [ 393518.020971292804461, 3696063.756218167953193 ], [ 394555.819818058807869, 3696052.393950378056616 ] ] ], [ [ [ 404686.497570757812355, 3698828.943114012945443 ], [ 405724.164418498403393, 3698818.769908300135285 ], [ 405987.769138135481626, 3699776.813403612468392 ], [ 407025.395611526444554, 3699766.776964169926941 ], [ 406761.829848344321363, 3698808.708095708396286 ], [ 407799.493875894753728, 3698798.7576750125736 ], [ 407536.029245951969642, 3697840.705859997775406 ], [ 404422.916104932141025, 3697870.96735043078661 ], [ 404686.497570757812355, 3698828.943114012945443 ] ] ], [ [ [ 422326.651757202809677, 3698671.147280506789684 ], [ 420251.358506229589693, 3698688.040767089929432 ], [ 420514.418266503082123, 3699646.442034886684269 ], [ 422589.63374115084298, 3699629.600106990430504 ], [ 422326.651757202809677, 3698671.147280506789684 ] ] ], [ [ [ 383424.127032045391388, 3700983.341218153014779 ], [ 385499.369472477119416, 3700958.526237214915454 ], [ 384706.214876515557989, 3698085.900495322421193 ], [ 383668.477347211504821, 3698098.326605138368905 ], [ 384197.26275998109486, 3700013.318910469301045 ], [ 383159.601596996304579, 3700025.806920666713268 ], [ 383424.127032045391388, 3700983.341218153014779 ] ] ], [ [ [ 387045.92910518537974, 3699018.932011899538338 ], [ 387310.235868439369369, 3699976.523573315236717 ], [ 388347.890163049974944, 3699964.48135376535356 ], [ 388083.622443838394247, 3699006.864922486711293 ], [ 387045.92910518537974, 3699018.932011899538338 ] ] ], [ [ [ 407025.395611526444554, 3699766.776964169926941 ], [ 407289.023564664181322, 3700724.888290196657181 ], [ 411439.359816062555183, 3700685.958582574967295 ], [ 411175.887685793393757, 3699727.745393260382116 ], [ 407025.395611526444554, 3699766.776964169926941 ] ] ], [ [ [ 422852.677747148554772, 3700588.095731454435736 ], [ 420777.54007125768112, 3700604.886055256705731 ], [ 420514.418266503082123, 3699646.442034886684269 ], [ 419476.808744737820234, 3699655.030106171965599 ], [ 420003.19221981044393, 3701571.909382567740977 ], [ 418965.659320835955441, 3701580.557373503688723 ], [ 419755.816735776723363, 3704456.119813007768244 ], [ 423905.47393511782866, 3704422.506725327577442 ], [ 423642.181869184598327, 3703463.839650795795023 ], [ 424679.632216164493002, 3703455.689304898492992 ], [ 424416.441087087092455, 3702497.039219352882355 ], [ 423378.95181399222929, 3702505.215477534104139 ], [ 422852.677747148554772, 3700588.095731454435736 ] ] ], [ [ [ 423658.426512159407139, 3707306.923712072428316 ], [ 422621.129713066795375, 3707315.193437447305769 ], [ 422884.747772059869021, 3708273.98040783777833 ], [ 423922.005579623219091, 3708265.736652440857142 ], [ 423658.426512159407139, 3707306.923712072428316 ] ] ], [ [ [ 422884.747772059869021, 3708273.98040783777833 ], [ 421847.488811366434675, 3708282.335820842999965 ], [ 422111.207896794308908, 3709241.139811691362411 ], [ 423148.427850098581985, 3709232.81036339700222 ], [ 422884.747772059869021, 3708273.98040783777833 ] ] ], [ [ [ 425504.782048730819952, 3714019.518369882833213 ], [ 426541.804560832388233, 3714011.542738080024719 ], [ 426014.042508824262768, 3712093.390874133910984 ], [ 423939.840170104114804, 3712109.558400415349752 ], [ 424203.768295930116437, 3713068.560556050855666 ], [ 425240.83097711467417, 3713060.446992482990026 ], [ 425504.782048730819952, 3714019.518369882833213 ] ] ], [ [ [ 423166.704484660120215, 3713076.785917489323765 ], [ 422129.639527847233694, 3713085.123077798169106 ], [ 422393.707790405896958, 3714044.116218915674835 ], [ 423430.733678966003936, 3714035.805109311360866 ], [ 423166.704484660120215, 3713076.785917489323765 ] ] ], [ [ [ 419832.243369351723231, 3719832.718251996673644 ], [ 418795.446329203667119, 3719841.432569059543312 ], [ 419060.14450824575033, 3720800.597290877252817 ], [ 420096.902378198574297, 3720791.909044274594635 ], [ 419832.243369351723231, 3719832.718251996673644 ] ] ], [ [ [ 430344.584205711493269, 3742834.067132882308215 ], [ 432416.280382709228434, 3742819.141942359507084 ], [ 431884.644419658288825, 3740898.484080071561038 ], [ 430848.71803870704025, 3740905.943853121716529 ], [ 431114.54445267067058, 3741866.224088601768017 ], [ 430078.656454532407224, 3741873.769758166745305 ], [ 430344.584205711493269, 3742834.067132882308215 ] ] ], [ [ [ 431635.924741302384064, 3633371.385582422837615 ], [ 431893.692998531740159, 3634327.628658371977508 ], [ 435014.264618860615883, 3634306.62153809890151 ], [ 434756.610356931108981, 3633350.303301376756281 ], [ 431635.924741302384064, 3633371.385582422837615 ] ] ], [ [ [ 441488.47892717923969, 3646723.52894695289433 ], [ 440971.852329559915233, 3644809.693330050446093 ], [ 438892.315412178344559, 3644822.375523312482983 ], [ 439150.674031682137866, 3645779.221450712531805 ], [ 440190.404838587215636, 3645772.850869825575501 ], [ 440448.787173002958298, 3646729.764268654864281 ], [ 441488.47892717923969, 3646723.52894695289433 ] ] ], [ [ [ 436548.607512959628366, 3647712.657756748143584 ], [ 436807.2661380256759, 3648669.553650586865842 ], [ 437846.88536402216414, 3648662.929744069464505 ], [ 437588.264904029201716, 3647706.008463488891721 ], [ 436548.607512959628366, 3647712.657756748143584 ] ] ], [ [ [ 442000.379515059874393, 3652472.129488121718168 ], [ 441224.305146109662019, 3649600.757121249567717 ], [ 440184.726922860601917, 3649607.025863062124699 ], [ 439926.120943692105357, 3648650.011604137253016 ], [ 440965.737329568946734, 3648643.717369138728827 ], [ 440448.787173002958298, 3646729.764268654864281 ], [ 438369.400877949199639, 3646742.564411313738674 ], [ 438886.503627210040577, 3648656.415728853084147 ], [ 437846.88536402216414, 3648662.929744069464505 ], [ 438105.567682009248529, 3649619.893100791610777 ], [ 439145.147773524746299, 3649613.404522648081183 ], [ 439662.621595517441165, 3651527.508506462909281 ], [ 438623.117880775185768, 3651533.946143578737974 ], [ 438881.985755950910971, 3652491.035880140028894 ], [ 442000.379515059874393, 3652472.129488121718168 ] ] ], [ [ [ 421470.494545589666814, 3653573.575632302556187 ], [ 420431.047873029019684, 3653581.942940331529826 ], [ 420690.728314502921421, 3654538.661976433824748 ], [ 421730.136676843219902, 3654530.319712444208562 ], [ 421470.494545589666814, 3653573.575632302556187 ] ] ], [ [ [ 426927.160683471884113, 3654490.259496764745563 ], [ 425887.758202677126974, 3654498.051395960152149 ], [ 426147.309125694562681, 3655454.937869849149138 ], [ 427186.673308462719433, 3655447.17117706220597 ], [ 426927.160683471884113, 3654490.259496764745563 ] ] ], [ [ [ 420690.728314502921421, 3654538.661976433824748 ], [ 418611.907900462509133, 3654555.676733364816755 ], [ 419131.608240664820187, 3656469.140166627708822 ], [ 418092.272838790551759, 3656477.762674649711698 ], [ 418612.298137916717678, 3658391.343358266633004 ], [ 419651.556813492206857, 3658382.770926530472934 ], [ 419391.551499375724234, 3657425.934618165716529 ], [ 420430.847301233559847, 3657417.447299174033105 ], [ 419911.099536668276414, 3655503.850140120368451 ], [ 420950.47079743957147, 3655495.422838502563536 ], [ 420690.728314502921421, 3654538.661976433824748 ] ] ], [ [ [ 429004.831116885296069, 3658310.577471677679569 ], [ 427965.583004599786364, 3658318.158229130785912 ], [ 427705.884471802972257, 3657361.120518011040986 ], [ 426666.596918448398355, 3657368.836731004528701 ], [ 426147.309125694562681, 3655454.937869849149138 ], [ 424068.577325377496891, 3655470.801553431898355 ], [ 423808.949792377476115, 3654513.965408304706216 ], [ 421730.136676843219902, 3654530.319712444208562 ], [ 421989.840838459262159, 3655487.105640858411789 ], [ 423029.209675761172548, 3655478.898546169511974 ], [ 423288.937537236430217, 3656435.751464694738388 ], [ 424328.266863769327756, 3656427.679616635665298 ], [ 424588.01840478728991, 3657384.599623118527234 ], [ 425627.308234781259671, 3657376.663099054712802 ], [ 425887.083434995554853, 3658333.650291389320046 ], [ 426926.333782639005221, 3658325.849168720655143 ], [ 427186.132621671771631, 3659282.903644856065512 ], [ 428225.343501110211946, 3659275.238001018762589 ], [ 428485.165958553669043, 3660232.359858950600028 ], [ 429524.33738389366772, 3660224.829771421849728 ], [ 430044.091438940318767, 3662139.250605970155448 ], [ 431083.185057523136493, 3662131.881571180187166 ], [ 430563.50772477616556, 3660217.409921164158732 ], [ 431602.676997187838424, 3660210.100307273678482 ], [ 431342.969573061680421, 3659252.902326816227287 ], [ 429264.553275491052773, 3659267.682567347772419 ], [ 429004.831116885296069, 3658310.577471677679569 ] ] ], [ [ [ 418093.388542873668484, 3660313.723993812222034 ], [ 417054.20413337519858, 3660322.46675517456606 ], [ 417314.510817330155987, 3661279.353520172648132 ], [ 414197.065129708382301, 3661306.168290908448398 ], [ 414457.54918725497555, 3662263.021866344381124 ], [ 418613.987154547241516, 3662227.58955744234845 ], [ 418353.656815409427509, 3661270.635819155722857 ], [ 419392.801557884900831, 3661262.028394296299666 ], [ 418612.298137916717678, 3658391.343358266633004 ], [ 417573.038208616140764, 3658400.025981104932725 ], [ 418093.388542873668484, 3660313.723993812222034 ] ] ], [ [ [ 444590.486706756637432, 3665882.737252286635339 ], [ 444850.205247033271007, 3666840.514015251304954 ], [ 445889.094633419357706, 3666834.707971462979913 ], [ 445629.414456943981349, 3665876.905312687624246 ], [ 444590.486706756637432, 3665882.737252286635339 ] ] ], [ [ [ 422038.592747897142544, 3690030.082519299350679 ], [ 422300.938850604405161, 3690988.202585245482624 ], [ 424376.843987415370066, 3690971.787460580468178 ], [ 424114.575422242400236, 3690013.616019588895142 ], [ 425152.565030563739128, 3690005.549448405392468 ], [ 424890.397221413382795, 3689047.394931792747229 ], [ 420738.276811036397703, 3689080.430592829827219 ], [ 421000.599650492542423, 3690038.482449831441045 ], [ 422038.592747897142544, 3690030.082519299350679 ] ] ], [ [ [ 422313.144376285257749, 3694829.380700157023966 ], [ 423350.943483091657981, 3694821.109223351813853 ], [ 422300.938850604405161, 3690988.202585245482624 ], [ 420225.029017490043771, 3691005.06230521062389 ], [ 420487.514723660890013, 3691963.173674734774977 ], [ 421525.431443528155796, 3691954.713879899121821 ], [ 422313.144376285257749, 3694829.380700157023966 ] ] ], [ [ [ 426977.312583301798441, 3692872.390912141185254 ], [ 425939.440411901334301, 3692880.269024746958166 ], [ 426201.856180907634553, 3693838.594311370048672 ], [ 427239.689561460108962, 3693830.742024316918105 ], [ 426977.312583301798441, 3692872.390912141185254 ] ] ], [ [ [ 425222.86432666098699, 3709216.486522789113224 ], [ 425486.528397468850017, 3710175.411548607517034 ], [ 427560.882398884103168, 3710159.586614102590829 ], [ 427824.53043296787655, 3711118.606939566787332 ], [ 428861.66679607128026, 3711110.888188103679568 ], [ 429389.0707101727603, 3713029.110697422642261 ], [ 427314.953011063393205, 3713044.5552550368011 ], [ 427578.825978344422765, 3714003.678930253256112 ], [ 426541.804560832388233, 3714011.542738080024719 ], [ 427069.81453065702226, 3715929.867348546627909 ], [ 426032.870161277009174, 3715937.790642069187015 ], [ 425768.79511106928112, 3714978.632911067456007 ], [ 424731.810559241392184, 3714986.694238163530827 ], [ 424467.758426592103206, 3714027.605826633051038 ], [ 423430.733678966003936, 3714035.805109311360866 ], [ 423958.978104477457236, 3715953.972873305436224 ], [ 424995.924691026855726, 3715945.825816663447767 ], [ 425260.100819096318446, 3716905.000588166061789 ], [ 423186.284713743138127, 3716921.354317958466709 ], [ 422922.030386199126951, 3715962.231812986545265 ], [ 421885.081520764681045, 3715970.602636708877981 ], [ 421620.850116653833538, 3715011.54934736341238 ], [ 420583.860988628934138, 3715020.058096422813833 ], [ 420319.652528689708561, 3714061.073922953568399 ], [ 419282.623124636360444, 3714069.720519448630512 ], [ 419546.870677958941087, 3715028.678703523240983 ], [ 418509.87916920700809, 3715037.411169711966068 ], [ 418774.227887229179032, 3715996.386422358453274 ], [ 417737.274278878467157, 3716005.204792548902333 ], [ 418530.810213908785954, 3718882.310984346549958 ], [ 419567.646412990638055, 3718873.570619702804834 ], [ 419832.243369351723231, 3719832.718251996673644 ], [ 420869.03921919176355, 3719824.115935302805156 ], [ 421133.659062477003317, 3720783.332826090045273 ], [ 420096.902378198574297, 3720791.909044274594635 ], [ 420361.623436685826164, 3721751.14302259683609 ], [ 418288.184863282425795, 3721768.579386617057025 ], [ 418553.046358654391952, 3722727.80437260819599 ], [ 415442.996991729654837, 3722754.721264391206205 ], [ 415708.038207364385016, 3723713.911277726758271 ], [ 416744.683339829556644, 3723704.852919015102088 ], [ 417009.747419053397607, 3724664.112131994217634 ], [ 418046.352089132647961, 3724655.191968041937798 ], [ 418311.43901123496471, 3725614.520480622537434 ], [ 417274.87358161091106, 3725623.414543724153191 ], [ 417540.061824658478145, 3726582.760180313140154 ], [ 419613.112976538366638, 3726565.136501553468406 ], [ 420408.814528401824646, 3729443.590123914647847 ], [ 421445.220518724236172, 3729435.025260624941438 ], [ 422506.867341027304064, 3733273.676026101689786 ], [ 424579.361477485101204, 3733257.093930527567863 ], [ 424313.935358298069332, 3732297.313284342642874 ], [ 425350.220060864055995, 3732289.164400473237038 ], [ 425615.606872316042427, 3733248.971471528057009 ], [ 426651.851171886781231, 3733240.961403735447675 ], [ 426386.503663602052256, 3732281.12787973601371 ], [ 427422.786181775329169, 3732273.203721156809479 ], [ 427953.464568311581388, 3734192.967349531594664 ], [ 436243.058958485955372, 3734134.044909258373082 ], [ 436508.176692236564122, 3735094.20540510257706 ], [ 439616.640859389328398, 3735074.044706874527037 ], [ 439881.702600813296158, 3736034.329551359638572 ], [ 441953.929026683792472, 3736021.505069559440017 ], [ 442484.080832851293962, 3737942.314381754025817 ], [ 443520.114184341044165, 3737936.124791374895722 ], [ 442990.040952220908366, 3736015.26152274524793 ], [ 444026.152039796172176, 3736009.130437643732876 ], [ 444291.118480666424148, 3736969.567043487448245 ], [ 445327.189472962287255, 3736963.575442311353981 ], [ 444267.851471563393716, 3733121.985218381043524 ], [ 445304.078665039443877, 3733115.998039564583451 ], [ 445039.437843758030795, 3732155.683557787910104 ], [ 448148.232294331421144, 3732138.315223587211221 ], [ 447883.770857554220129, 3731177.963748763781041 ], [ 450992.676000386243686, 3731161.525288596749306 ], [ 452050.42171529418556, 3735003.520942245144397 ], [ 451014.277552552928682, 3735008.779556187801063 ], [ 451278.907468957360834, 3735969.361709198914468 ], [ 452315.012401014741044, 3735964.130292202811688 ], [ 452579.664783583139069, 3736924.783869881182909 ], [ 453615.729776936757844, 3736919.692156596574932 ], [ 453351.116632157471031, 3735959.011330726090819 ], [ 454387.220177612965927, 3735954.004824149422348 ], [ 453858.257380031165667, 3734032.721414742060006 ], [ 454894.438679145881906, 3734027.772822627332062 ], [ 454101.574640533654019, 3731146.09766092011705 ], [ 453065.275790877989493, 3731151.127889818046242 ], [ 452801.071968328906223, 3730190.685032484587282 ], [ 449692.053698462317698, 3730206.53093195753172 ], [ 446788.593632652016822, 3719645.455321392975748 ], [ 445751.822538485284895, 3719651.257932951208204 ], [ 444697.715328563470393, 3715812.288282805588096 ], [ 442623.858459232433233, 3715824.443052277900279 ], [ 442887.370624966919422, 3716784.066623981576413 ], [ 441850.479937792522833, 3716790.285184501670301 ], [ 442114.092936891247518, 3717749.925716482102871 ], [ 443150.944591982464772, 3717743.733803653158247 ], [ 443414.580357362225186, 3718703.444617515895516 ], [ 442377.767745688033756, 3718709.609859754797071 ], [ 442641.504361267900094, 3719669.337640543002635 ], [ 439531.178518726781476, 3719688.425173015333712 ], [ 439003.532746657845564, 3717769.173003813251853 ], [ 437966.677556887385435, 3717775.812618468422443 ], [ 437175.555617995385546, 3714897.340405845548958 ], [ 438212.527923403889872, 3714890.621254104189575 ], [ 437685.500631639966741, 3712971.804118405561894 ], [ 438722.55002846813295, 3712965.143842395860702 ], [ 438195.848135753360111, 3711046.447478905785829 ], [ 436121.592471282579936, 3711059.985511212609708 ], [ 435331.769791213795543, 3708182.424468292389065 ], [ 436369.014970765449107, 3708175.520529896952212 ], [ 436105.903444863972254, 3707216.393760859966278 ], [ 437143.186605237307958, 3707209.575133199803531 ], [ 436880.175875889020972, 3706250.465307519305497 ], [ 435842.853794444585219, 3706257.310247283894569 ], [ 435054.0761248380295, 3703380.318979321047664 ], [ 436091.51490181783447, 3703373.395239926408976 ], [ 435828.751658037712332, 3702414.458267260342836 ], [ 438941.178901226259768, 3702394.277240337338299 ], [ 439203.82554408616852, 3703353.293044571299106 ], [ 440241.260580473870505, 3703346.815317677333951 ], [ 439978.652795628993772, 3702387.773180067539215 ], [ 441016.125789313926362, 3702381.380592818371952 ], [ 441278.694720606203191, 3703340.449091905262321 ], [ 442316.127980040211696, 3703334.194366478826851 ], [ 442578.719870235072449, 3704293.332566017750651 ], [ 441541.325471192889381, 3704299.560879095923156 ], [ 441804.018038182228338, 3705258.715980408713222 ], [ 438691.946163152053487, 3705277.990956686902791 ], [ 438954.817219308461063, 3706237.110193042550236 ], [ 445178.719811819144525, 3706199.722912761382759 ], [ 444653.506101761478931, 3704281.210522195324302 ], [ 445690.897965341515373, 3704275.316789977252483 ], [ 445166.00906819710508, 3702356.924958681222051 ], [ 444128.539521720726043, 3702362.871661488432437 ], [ 443866.148912708740681, 3701403.7672397387214 ], [ 444903.657283682376146, 3701397.794085789006203 ], [ 444641.367279071710072, 3700438.706540036015213 ], [ 445678.913631521048956, 3700432.818370738532394 ], [ 445941.164827351632994, 3701391.932372991461307 ], [ 446978.671559295675252, 3701386.182100634090602 ], [ 447240.945708061160985, 3702345.365960157476366 ], [ 449315.879180923919193, 3702334.252833087462932 ], [ 449578.137443309708033, 3703293.533235963433981 ], [ 451652.990250438975636, 3703282.919232112821192 ], [ 451128.690681345353369, 3701364.295401798561215 ], [ 450091.187040537304711, 3701369.599919263739139 ], [ 449829.091035799006931, 3700410.379809821024537 ], [ 450866.633463422127534, 3700405.048695241566747 ], [ 450604.637960473250132, 3699445.845426340587437 ], [ 451642.218421024561394, 3699440.599118217360228 ], [ 451380.32339578832034, 3698481.412681193090975 ], [ 453455.55965812865179, 3698471.200960961170495 ], [ 453717.377176797075663, 3699430.440641863271594 ], [ 452679.798154600488488, 3699435.464190267492086 ], [ 452941.716119638818782, 3700394.720692277420312 ], [ 455016.795947731181514, 3700384.838320067152381 ], [ 455278.69806193781551, 3701344.191696436144412 ], [ 453203.695777014247142, 3701354.020677461288869 ], [ 453727.840157073573209, 3703272.751201657112688 ], [ 454765.264061600784771, 3703267.834424898028374 ], [ 455289.577549049514346, 3705186.792717399541289 ], [ 454252.231271348311566, 3705191.655971641186625 ], [ 455564.288365118263755, 3709989.681594378780574 ], [ 454527.135689275397453, 3709994.522332208231091 ], [ 454789.771000231616199, 3710954.23170435288921 ], [ 455826.884784582594875, 3710949.417847998905927 ], [ 456615.043991332408041, 3713828.889339064247906 ], [ 454541.049245943431742, 3713838.46729089692235 ], [ 455066.952757007442415, 3715758.22627481026575 ], [ 457140.791723248665221, 3715748.756204311270267 ], [ 457403.758058554725721, 3716708.755477188620716 ], [ 458440.637621645350009, 3716704.215276319067925 ], [ 458966.677271159307566, 3718624.399796842131764 ], [ 457929.875653042981867, 3718628.885835097637028 ], [ 458193.026906290731858, 3719589.016972839366645 ], [ 459229.78953483508667, 3719584.558050285093486 ], [ 460019.496045834734105, 3722465.297100030817091 ], [ 462092.785466214059852, 3722456.878388302400708 ], [ 461040.278693761036266, 3718615.763546001166105 ], [ 460003.478279596834909, 3718620.025700653903186 ], [ 459740.466614785604179, 3717659.88433051481843 ], [ 461814.144799286790658, 3717651.417635817546397 ], [ 461288.462123962235637, 3715731.158356299158186 ], [ 459214.628137746010907, 3715739.733566269278526 ], [ 458951.801331462222151, 3714779.724119448568672 ], [ 459988.75755586347077, 3714775.353505857754499 ], [ 459726.031299120804761, 3713815.360923332627863 ], [ 458689.03615062800236, 3713819.758594384416938 ], [ 458426.332598209439311, 3712859.836964759044349 ], [ 457389.297917107061949, 3712864.373442891985178 ], [ 457126.617090448969975, 3711904.522665930911899 ], [ 458163.690677169302944, 3711899.959204275161028 ], [ 457638.591741070908029, 3709980.335185602772981 ], [ 456601.440377220045775, 3709984.952545702457428 ], [ 455814.137701880477834, 3707105.925555956549942 ], [ 456851.40564621827798, 3707101.227519568055868 ], [ 456326.923156946781091, 3705182.041010965127498 ], [ 457364.268110580393113, 3705177.40085175819695 ], [ 457102.158157424128149, 3704217.846270559821278 ], [ 461251.686938975821249, 3704200.29349750559777 ], [ 460727.962236922816373, 3702281.100355608388782 ], [ 459690.503399127686862, 3702285.375087805092335 ], [ 459166.947618335892912, 3700366.410448872949928 ], [ 460204.48396325064823, 3700362.081993039697409 ], [ 459681.25214156677248, 3698443.238200638908893 ], [ 458643.638334911607672, 3698447.620289023034275 ], [ 457597.759354295034427, 3694610.562571479473263 ], [ 458635.527948407339863, 3694606.073490960989147 ], [ 458113.035623955423944, 3692687.752156638074666 ], [ 457075.189704071555752, 3692692.294596882071346 ], [ 456552.866645152564161, 3690774.200267548672855 ], [ 457590.789845541410614, 3690769.604558377061039 ], [ 456547.03802045492921, 3686933.829738728236407 ], [ 457585.11498799326364, 3686929.238773411605507 ], [ 457063.686124248080887, 3685011.558083760086447 ], [ 458101.839576905476861, 3685007.025017966981977 ], [ 457841.25616327644093, 3684048.223038969561458 ], [ 460955.828386771725491, 3684035.209821397438645 ], [ 460695.422194086713716, 3683076.37142485845834 ], [ 458618.964280897343997, 3683084.989116982091218 ], [ 458358.542670509021264, 3682126.247100149281323 ], [ 459396.810448951204307, 3682121.856274811085314 ], [ 458876.229132644075435, 3680204.448869662825018 ], [ 459914.573283056612127, 3680200.115858846344054 ], [ 459654.41354478726862, 3679241.45045849122107 ], [ 460692.795558727753814, 3679237.201737217605114 ], [ 460432.735903193824925, 3678278.553023522719741 ], [ 461471.155776567466091, 3678274.388557569589466 ], [ 461211.196179806313012, 3677315.756521724630147 ], [ 460172.737860182009172, 3677319.947491004131734 ], [ 459912.801432608044706, 3676361.385113848838955 ], [ 458874.304067003366072, 3676365.713260674849153 ], [ 458614.39082978409715, 3675407.220443146303296 ], [ 460691.461801653378643, 3675398.621958025731146 ], [ 460431.687026087427512, 3674440.119378575589508 ], [ 462508.832411915587727, 3674431.910610262304544 ], [ 461989.621258492639754, 3672514.928951081819832 ], [ 459912.322316526144277, 3672523.243495606351644 ], [ 460171.973863409308251, 3673481.659899689722806 ], [ 457056.136000272876117, 3673494.882008315529674 ], [ 457575.854405024438165, 3675411.685689210891724 ], [ 454460.241185401566327, 3675425.745448013301939 ], [ 454720.308177880069707, 3676384.132826655171812 ], [ 453681.807519784837496, 3676389.014465630985796 ], [ 453941.974647917028051, 3677347.418549116700888 ], [ 452903.511749151046388, 3677352.384604427497834 ], [ 452643.3061557089095, 3676394.006804771255702 ], [ 449527.797669323452283, 3676409.64802934974432 ], [ 449788.118684973567724, 3677367.947146220132709 ], [ 448749.652821562136523, 3677373.356120883021504 ], [ 448489.293323051882908, 3676415.083175382576883 ], [ 446412.282259332423564, 3676426.285578175447881 ], [ 446672.718736806767993, 3677384.506265248171985 ], [ 445634.250483827723656, 3677390.247436313424259 ], [ 445113.362312573124655, 3675473.901050200220197 ], [ 446151.907546563539654, 3675468.107727546710521 ], [ 445631.343426600622479, 3673551.880432968493551 ], [ 446669.964766595920082, 3673546.145669267047197 ], [ 446149.724622098961845, 3671630.037385056726635 ], [ 444072.327338539122138, 3671641.721531938295811 ], [ 443552.180581447784789, 3669725.887989909388125 ], [ 442513.403810093004722, 3669731.947735724505037 ], [ 443293.831932172412053, 3672605.684292980469763 ], [ 442255.169594243285246, 3672611.776860912330449 ], [ 441214.568646893138066, 3668780.316914572846144 ], [ 442253.384713197476231, 3668774.120808375068009 ], [ 441473.698293688357808, 3665900.895443985704333 ], [ 444590.486706756637432, 3665882.737252286635339 ], [ 444330.829951367515605, 3664925.00306674093008 ], [ 445369.796054152597208, 3664919.14525377471 ], [ 445110.239427892840467, 3663961.427769208326936 ], [ 443032.229680807038676, 3663973.305435837712139 ], [ 442772.658169056696352, 3663015.682129059918225 ], [ 441733.613652335712686, 3663021.812243702821434 ], [ 441474.065617230720818, 3662064.257165397983044 ], [ 442513.148461907170713, 3662058.101300819311291 ], [ 441734.990196385537274, 3659185.613432923331857 ], [ 442774.187060744385235, 3659179.490652117412537 ], [ 441737.661190671438817, 3655349.997366108000278 ], [ 437580.255986799602397, 3655375.559492259286344 ], [ 438358.016833091096487, 3658247.308702045120299 ], [ 437318.777987597452011, 3658253.897860423661768 ], [ 437837.671089091454633, 3660168.557538400404155 ], [ 438876.833329867746215, 3660162.019554754719138 ], [ 439655.521917604608461, 3663034.403410460334271 ], [ 438616.474667674105149, 3663040.864464117214084 ], [ 438876.199562959081959, 3663998.384849932976067 ], [ 434720.15442952606827, 3664025.229746426921338 ], [ 434980.094671795144677, 3664982.689984988886863 ], [ 438097.01483731076587, 3664962.4676757408306 ], [ 438356.901802303094883, 3665920.047210736665875 ], [ 437317.96776898013195, 3665926.65193105628714 ], [ 437577.954981224029325, 3666884.24820956774056 ], [ 438616.850619340024423, 3666877.6691885269247 ], [ 439397.068154463544488, 3669750.790033398661762 ], [ 438358.287769088288769, 3669757.291821924038231 ], [ 438878.818892005947419, 3671672.866799098439515 ], [ 439917.52238625404425, 3671666.416611237451434 ], [ 440177.842256159055978, 3672624.293781120330095 ], [ 438100.511262677027844, 3672637.253085574600846 ], [ 438360.969916441768873, 3673595.121191813610494 ], [ 439399.59739997057477, 3673588.612069640308619 ], [ 439660.079416255583055, 3674546.548628807533532 ], [ 435505.717756495170761, 3674573.14563953736797 ], [ 435766.415639517537784, 3675531.021523222792894 ], [ 434727.86132250825176, 3675537.921653235331178 ], [ 434467.124920930946246, 3674580.071530762594193 ], [ 433428.531085426046047, 3674587.108079074881971 ], [ 434472.002185566234402, 3678418.6609818614088 ], [ 432395.119825094821863, 3678432.860254494938999 ], [ 431873.106244789552875, 3676517.101660320069641 ], [ 430834.586399144958705, 3676524.418864628300071 ], [ 431095.6007890177425, 3677482.25119439419359 ], [ 429018.635051462275442, 3677497.166450163349509 ], [ 428757.543529553397093, 3676539.385424270760268 ], [ 425641.971042031014804, 3676562.665655113290995 ], [ 425903.178296464669984, 3677520.369935518596321 ], [ 426941.664989038952626, 3677512.524692261125892 ], [ 427202.895636143162847, 3678470.29696047399193 ], [ 426164.447536860243417, 3678478.116627424955368 ], [ 426425.778760413406417, 3679435.905756351538002 ], [ 425387.368146169232205, 3679443.810629957355559 ], [ 425648.799970338004641, 3680401.616628108080477 ], [ 424610.426845751237124, 3680409.60674287378788 ], [ 425133.553740768751595, 3682325.294963218737394 ], [ 427210.14430196856847, 3682309.52802067855373 ], [ 426948.627145775128156, 3681351.611427419353276 ], [ 427986.959398105042055, 3681343.868624576367438 ], [ 428248.437916277151089, 3682301.810884296428412 ], [ 429286.730440748098772, 3682294.204636580310762 ], [ 429548.232275034184568, 3683252.215175182092935 ], [ 424356.951865749317221, 3683291.227004996966571 ], [ 424618.708971830899827, 3684249.151735844556242 ], [ 423580.488187033042777, 3684257.261260143946856 ], [ 423318.692402095126454, 3683299.362128728535026 ], [ 422280.431774408381898, 3683307.608174001332372 ], [ 422542.266242839628831, 3684265.481734017841518 ], [ 421504.043123503215611, 3684273.813158466946334 ], [ 420718.609765212982893, 3681400.396371382754296 ], [ 419680.269410110311583, 3681408.915225792210549 ], [ 419942.05716192611726, 3682366.652938814368099 ], [ 416827.144749095430598, 3682392.798475032672286 ], [ 417089.1106239996152, 3683350.502259179018438 ], [ 413974.302956941537559, 3683377.569835277274251 ], [ 414236.447061374667101, 3684335.239832864608616 ], [ 413198.213974001642782, 3684344.458899664692581 ], [ 412936.031143917469308, 3683386.814221334178001 ], [ 409821.207712250412442, 3683415.212977374438196 ], [ 410083.506747717445251, 3684372.781865916680545 ], [ 408007.028469267883338, 3684392.218659849837422 ], [ 408531.968060787650757, 3686307.382174543105066 ], [ 407493.804377819527872, 3686317.216649705544114 ], [ 407756.406221906247083, 3687274.836494386196136 ], [ 406718.279929539188743, 3687284.75680176820606 ], [ 407243.747776969277766, 3689200.072713761590421 ], [ 409319.843737955437973, 3689180.44410560419783 ], [ 409057.156343928247225, 3688222.714540054555982 ], [ 410095.241064072644804, 3688213.041603415738791 ], [ 410357.889652988698799, 3689170.796461092308164 ], [ 411395.934211977291852, 3689161.259921386372298 ], [ 410870.776779946638271, 3687245.741874655243009 ], [ 411908.897578660922591, 3687236.2657649400644 ], [ 412171.406437673897017, 3688194.028959402814507 ], [ 413209.487122546357568, 3688184.689249711111188 ], [ 413472.019324612047058, 3689142.520151749718934 ], [ 414510.059909654897638, 3689133.316919534467161 ], [ 414247.566493742808234, 3688175.460613372735679 ], [ 415285.644566969713196, 3688166.343049259856343 ], [ 415023.252032945863903, 3687208.50371019449085 ], [ 416061.367589478730224, 3687199.471779651474208 ], [ 415799.075913086591754, 3686241.649399296380579 ], [ 418913.531253064167686, 3686215.143442390486598 ], [ 419175.706694432068616, 3687173.04223570972681 ], [ 421251.926617709163111, 3687155.977735441643745 ], [ 421514.086628644960001, 3688113.970120036508888 ], [ 425666.357366767362691, 3688081.276142701506615 ], [ 425928.424444098724052, 3689039.413743407465518 ], [ 426966.450546218140516, 3689031.543643806595355 ], [ 426442.455829381477088, 3687115.259609389584512 ], [ 429556.759861803962849, 3687092.161122467368841 ], [ 430342.49641125195194, 3689966.883340248372406 ], [ 429304.512304269359447, 3689974.394332009367645 ], [ 429566.587106332881376, 3690932.694701361935586 ], [ 428528.640673896763474, 3690940.2909653512761 ], [ 428266.527128399233334, 3689982.01643776986748 ], [ 427228.540867951698601, 3689989.749658457934856 ], [ 427752.907423940836452, 3691906.289811095688492 ], [ 426714.997579662012868, 3691914.082553680520505 ], [ 426977.312583301798441, 3692872.390912141185254 ], [ 428015.183652543753851, 3692864.624000505078584 ], [ 428802.384106827899814, 3695739.883329974021763 ], [ 429840.137710883864202, 3695732.305331336334348 ], [ 429577.714404999103863, 3694773.816808552481234 ], [ 432691.08532196469605, 3694751.672559258528054 ], [ 433478.19181132176891, 3697627.500834749545902 ], [ 431402.84506463247817, 3697641.996294570621103 ], [ 431928.04757801204687, 3699559.325775931589305 ], [ 430890.450341679621488, 3699566.688444156199694 ], [ 430627.779278580565006, 3698608.0282610533759 ], [ 428552.503970960213337, 3698623.13979247584939 ], [ 428289.817162678460591, 3697664.574525266420096 ], [ 429327.494188403710723, 3697656.937108364421874 ], [ 429064.908171635121107, 3696698.388779435306787 ], [ 428027.192314751213416, 3696706.05214064521715 ], [ 427502.128511307993904, 3694789.135915950872004 ], [ 425426.538245717412792, 3694804.900051657110453 ], [ 425951.757333943329286, 3696721.712803559843451 ], [ 426989.475374061381444, 3696713.826815037522465 ], [ 427777.652336978644598, 3699589.444825631100684 ], [ 428815.25273675750941, 3699581.747968089301139 ], [ 429340.936129530833568, 3701499.093147904612124 ], [ 428303.4134798750747, 3701506.738013987895101 ], [ 428566.386993086023722, 3702465.449040083680302 ], [ 426491.416246233915444, 3702481.021160970441997 ], [ 428071.025588712887838, 3708233.878187101334333 ], [ 427033.772238601464778, 3708241.675321949645877 ], [ 426770.310118107066955, 3707282.7843033275567 ], [ 424695.722169019805733, 3707298.765615254174918 ], [ 424959.262249563413206, 3708257.604553650598973 ], [ 423922.005579623219091, 3708265.736652440857142 ], [ 424185.646654887998011, 3709224.592600762844086 ], [ 425222.86432666098699, 3709216.486522789113224 ] ], [ [ 436384.990452307392843, 3712019.259164420422167 ], [ 435347.900183985475451, 3712026.169406298082322 ], [ 435084.46321645739954, 3711066.92212307266891 ], [ 436121.592471282579936, 3711059.985511212609708 ], [ 436384.990452307392843, 3712019.259164420422167 ] ], [ [ 435874.959767128748354, 3713944.794019029475749 ], [ 434837.94655015860917, 3713951.763268291950226 ], [ 435101.608184892160352, 3714911.114239558577538 ], [ 433027.656885805365164, 3714925.335452508646995 ], [ 432763.91718778637005, 3713966.037217819131911 ], [ 433800.932362194405869, 3713958.844334268476814 ], [ 433537.293598553515039, 3712999.563091880641878 ], [ 434574.346804610511754, 3712992.455666422378272 ], [ 434310.80895113007864, 3712033.191407858859748 ], [ 435347.900183985475451, 3712026.169406298082322 ], [ 435874.959767128748354, 3713944.794019029475749 ] ], [ [ 432220.028388269885909, 3708203.806165757589042 ], [ 431956.761087905673776, 3707244.784455446526408 ], [ 432994.048165500396863, 3707237.519352494738996 ], [ 431678.835112702858169, 3702442.926975031383336 ], [ 432716.315747993648984, 3702435.642580687068403 ], [ 433242.137427930079866, 3704353.402474444825202 ], [ 434279.539272282330785, 3704346.281911404337734 ], [ 435331.769791213795543, 3708182.424468292389065 ], [ 432220.028388269885909, 3708203.806165757589042 ] ], [ [ 434791.274005094659515, 3702421.408227668143809 ], [ 434265.855438007449266, 3700503.71607517125085 ], [ 435303.410809075576253, 3700496.71374098258093 ], [ 435040.833209627715405, 3699537.906135508790612 ], [ 438153.610052661038935, 3699517.489023347850889 ], [ 438416.071152636199258, 3700476.375255683902651 ], [ 437378.518650803947821, 3700483.043332071974874 ], [ 437641.080441218335181, 3701441.946469306014478 ], [ 435566.050292834581342, 3701455.564442926086485 ], [ 435828.751658037712332, 3702414.458267260342836 ], [ 434791.274005094659515, 3702421.408227668143809 ] ], [ [ 434003.238996391417459, 3699544.934622483793646 ], [ 433740.684453209978528, 3698586.19621763844043 ], [ 434778.317497356678359, 3698579.141600600909442 ], [ 435040.833209627715405, 3699537.906135508790612 ], [ 434003.238996391417459, 3699544.934622483793646 ] ], [ [ 440491.173396162514109, 3700463.37335498817265 ], [ 440753.618680204206612, 3701422.355355841573328 ], [ 438678.594103116716724, 3701435.30465269787237 ], [ 438416.071152636199258, 3700476.375255683902651 ], [ 440491.173396162514109, 3700463.37335498817265 ] ], [ [ 440228.789940071990713, 3699504.434564293827862 ], [ 441266.378528180997819, 3699498.07441707700491 ], [ 441528.723169028700795, 3700457.039529096335173 ], [ 440491.173396162514109, 3700463.37335498817265 ], [ 440228.789940071990713, 3699504.434564293827862 ] ], [ [ 456799.538939863326959, 3680213.447323078289628 ], [ 457059.875775228254497, 3681172.076473746448755 ], [ 456021.568202967231628, 3681176.715487072709948 ], [ 455500.879191980988253, 3679259.553166379220784 ], [ 456539.263756337400991, 3679254.861314895097166 ], [ 456279.050227553758305, 3678296.31842338712886 ], [ 457317.472605402581394, 3678291.71094194194302 ], [ 457057.359197783574928, 3677333.18475054949522 ], [ 458095.819384988280945, 3677328.661604883614928 ], [ 458876.229132644075435, 3680204.448869662825018 ], [ 456799.538939863326959, 3680213.447323078289628 ] ], [ [ 440694.568240505759604, 3663028.052670581266284 ], [ 440954.216435030684806, 3663985.624460735358298 ], [ 439915.208460257155821, 3663991.949484411161393 ], [ 439655.521917604608461, 3663034.403410460334271 ], [ 440694.568240505759604, 3663028.052670581266284 ] ], [ [ 414760.921602152928244, 3686250.706744802184403 ], [ 414498.653277370438445, 3685292.952127535361797 ], [ 415536.846331544336863, 3685283.869389643426985 ], [ 415799.075913086591754, 3686241.649399296380579 ], [ 414760.921602152928244, 3686250.706744802184403 ] ], [ [ 427297.296333144011442, 3709200.609416889492422 ], [ 426260.080880913417786, 3709208.492128486745059 ], [ 425996.517797387088649, 3708249.584110478870571 ], [ 427033.772238601464778, 3708241.675321949645877 ], [ 427297.296333144011442, 3709200.609416889492422 ] ], [ [ 440629.631252481311094, 3731220.251273852307349 ], [ 440894.367168002296239, 3732180.414197680540383 ], [ 441930.636105059878901, 3732174.063014683779329 ], [ 442460.214917945326306, 3734094.574334441218525 ], [ 440387.833147828292567, 3734107.281562639400363 ], [ 440122.934338443214074, 3733147.057699328754097 ], [ 439086.702889078645967, 3733153.606764782220125 ], [ 439351.640954500355292, 3734113.803786825854331 ], [ 438315.44786866515642, 3734120.4384187865071 ], [ 438050.470542768889572, 3733160.268209889065474 ], [ 437014.237284257134888, 3733167.042035455815494 ], [ 436749.282558556064032, 3732206.942437106277794 ], [ 434676.73472338746069, 3732220.880672580096871 ], [ 433617.220674962736666, 3728381.133305384311825 ], [ 435690.082365280890372, 3728366.981771431863308 ], [ 435425.437008912616875, 3727407.100905213970691 ], [ 436461.905618547520135, 3727400.166852776892483 ], [ 436197.361330264713615, 3726440.303029987029731 ], [ 435160.853535144298803, 3726447.263706437312067 ], [ 434896.33194688113872, 3725487.470148815773427 ], [ 435932.878916152636521, 3725480.482871317770332 ], [ 434611.395059804955963, 3720682.036120443604887 ], [ 436684.877504440781195, 3720668.132287714630365 ], [ 437213.12892669509165, 3722587.486444400157779 ], [ 436176.46641029312741, 3722594.329245628323406 ], [ 436440.72404877882218, 3723554.045129871927202 ], [ 437477.347433973685838, 3723547.228917049244046 ], [ 437741.627801478258334, 3724507.015020901802927 ], [ 439814.793537028192077, 3724493.772194585297257 ], [ 440079.0574674771633, 3725453.655308838933706 ], [ 438005.970026300055906, 3725466.844782223924994 ], [ 438534.840036247216631, 3727386.635382441338152 ], [ 440607.770820614357945, 3727373.552752712741494 ], [ 440872.220237459230702, 3728333.567134982906282 ], [ 437762.940256412141025, 3728353.279200430028141 ], [ 438557.012288350320887, 3731233.344309031963348 ], [ 439593.32221569417743, 3731226.741630134172738 ], [ 439328.608908188936766, 3730266.649371441453695 ], [ 441401.304537075047847, 3730253.727351952344179 ], [ 441136.731477255059872, 3729293.625325940549374 ], [ 443209.502038621925749, 3729281.09878294961527 ], [ 442945.069166278408375, 3728320.986942759715021 ], [ 443981.492359037103597, 3728314.865199762862176 ], [ 444510.341535429179203, 3730235.18651782348752 ], [ 445546.68554402992595, 3730229.230822131503373 ], [ 445811.163612710079178, 3731189.484304626006633 ], [ 443738.553172257321421, 3731201.454132903367281 ], [ 443473.996708261081949, 3730241.25450419774279 ], [ 442437.651047237566672, 3730247.434781991411 ], [ 442702.246715487213805, 3731207.607526002451777 ], [ 440629.631252481311094, 3731220.251273852307349 ] ], [ [ 434941.76796960743377, 3733180.926831265445799 ], [ 433905.531882957962807, 3733188.03780319262296 ], [ 433640.459369763033465, 3732228.018322177231312 ], [ 434676.73472338746069, 3732220.880672580096871 ], [ 434941.76796960743377, 3733180.926831265445799 ] ], [ [ 433859.784014366101474, 3725494.569582737982273 ], [ 433595.285147200571373, 3724534.84618998831138 ], [ 434631.872247025021352, 3724527.72020607534796 ], [ 434896.33194688113872, 3725487.470148815773427 ], [ 433859.784014366101474, 3725494.569582737982273 ] ], [ [ 445282.269246957206633, 3729269.021293122321367 ], [ 446318.651631977118086, 3729263.150941304396838 ], [ 446583.028749347897246, 3730223.387416399084032 ], [ 445546.68554402992595, 3730229.230822131503373 ], [ 445282.269246957206633, 3729269.021293122321367 ] ], [ [ 447070.846350008156151, 3724450.954174919519573 ], [ 447334.836389523348771, 3725411.024910273961723 ], [ 446298.299003897467628, 3725416.778520033694804 ], [ 446034.269850302312989, 3724456.734672085382044 ], [ 447070.846350008156151, 3724450.954174919519573 ] ], [ [ 420626.406541968812235, 3722710.420213038567454 ], [ 420891.251691198209301, 3723669.740641693584621 ], [ 419854.611399428686127, 3723678.350539538543671 ], [ 419589.727046201645862, 3722719.056250040885061 ], [ 420626.406541968812235, 3722710.420213038567454 ] ], [ [ 440587.212093973648734, 3723527.452861578203738 ], [ 439550.591441217926331, 3723533.932783708442003 ], [ 439286.45118296192959, 3722574.137049924116582 ], [ 440323.11095355253201, 3722567.63045505899936 ], [ 440587.212093973648734, 3723527.452861578203738 ] ], [ [ 438249.790512464358471, 3722580.755712770856917 ], [ 437721.617309701337945, 3720661.348391855601221 ], [ 438758.356190765451174, 3720654.676508564502001 ], [ 439286.45118296192959, 3722574.137049924116582 ], [ 438249.790512464358471, 3722580.755712770856917 ] ], [ [ 435384.064753195329104, 3719715.442980106454343 ], [ 435120.054629943333566, 3718755.901266629807651 ], [ 436156.873557937331498, 3718748.952341017778963 ], [ 436420.844595270114951, 3719708.520551221910864 ], [ 435384.064753195329104, 3719715.442980106454343 ] ], [ [ 435629.11711037211353, 3716829.946394738741219 ], [ 436666.013218760082964, 3716823.056445348076522 ], [ 437193.691537394595798, 3718742.115372595377266 ], [ 436156.873557937331498, 3718748.952341017778963 ], [ 435629.11711037211353, 3716829.946394738741219 ] ], [ [ 420848.131492743035778, 3715979.085345488972962 ], [ 421112.464038192178123, 3716938.155696150381118 ], [ 420075.551948044390883, 3716946.724255938548595 ], [ 419811.180286707356572, 3715987.679940357338637 ], [ 420848.131492743035778, 3715979.085345488972962 ] ], [ [ 431726.901011483743787, 3713973.341919817961752 ], [ 431990.679747917165514, 3714932.613828349858522 ], [ 430953.701597212988418, 3714940.004051607567817 ], [ 430689.883817836991511, 3713980.758441153913736 ], [ 431726.901011483743787, 3713973.341919817961752 ] ], [ [ 437366.597884511691518, 3696641.089055162388831 ], [ 437628.873415728681721, 3697599.845948996488005 ], [ 435553.534553382196464, 3697613.450721840374172 ], [ 435291.181427928910125, 3696654.74613768607378 ], [ 437366.597884511691518, 3696641.089055162388831 ] ], [ [ 413460.458926798950415, 3685302.145852521061897 ], [ 413722.76599953812547, 3686259.875105407554656 ], [ 412684.609089512843639, 3686269.154482230078429 ], [ 412422.263264092267491, 3685311.450565721374005 ], [ 413460.458926798950415, 3685302.145852521061897 ] ], [ [ 431356.677108947536908, 3678440.1260482580401 ], [ 431879.015527694369666, 3680356.003430551849306 ], [ 430840.64894993591588, 3680363.328552553895861 ], [ 431101.949651607137639, 3681321.30537605471909 ], [ 429025.290556002699304, 3681336.236682354006916 ], [ 428763.912623618263751, 3680378.311286902986467 ], [ 429802.28132050629938, 3680370.764504368416965 ], [ 429541.003949753008783, 3679412.855964659247547 ], [ 430579.410181055427529, 3679405.394307342823595 ], [ 430318.23334778402932, 3678447.502614830154926 ], [ 431356.677108947536908, 3678440.1260482580401 ] ], [ [ 449010.074059425794985, 3678331.671973602380604 ], [ 449270.557033766293898, 3679290.030759257264435 ], [ 448232.167397930985317, 3679295.498111188411713 ], [ 447971.645913826185279, 3678337.165513906162232 ], [ 449010.074059425794985, 3678331.671973602380604 ] ], [ [ 444592.721256522578187, 3673557.725817097350955 ], [ 444853.01089371717535, 3674515.79205234348774 ], [ 443814.42634458251996, 3674521.722066229674965 ], [ 443554.098240508232266, 3673563.681822368409485 ], [ 444592.721256522578187, 3673557.725817097350955 ] ] ], [ [ [ 427002.939315462601371, 3700555.852250651456416 ], [ 428040.501926891389303, 3700548.069951123092324 ], [ 427777.652336978644598, 3699589.444825631100684 ], [ 426740.050851529289503, 3699597.253081468865275 ], [ 427002.939315462601371, 3700555.852250651456416 ] ] ], [ [ [ 425717.081433548824862, 3703447.650473368819803 ], [ 424679.632216164493002, 3703455.689304898492992 ], [ 424942.885344748036005, 3704414.382314454298466 ], [ 425980.295629387255758, 3704406.369446002878249 ], [ 425717.081433548824862, 3703447.650473368819803 ] ] ], [ [ [ 438195.848135753360111, 3711046.447478905785829 ], [ 439232.974576355481986, 3711039.846056812442839 ], [ 439496.255624770361464, 3711999.198988541495055 ], [ 440533.342189655522816, 3711992.735777124762535 ], [ 440270.100109843246173, 3711033.356363019440323 ], [ 441307.224751694826409, 3711026.978396738413721 ], [ 441044.083454765786882, 3710067.615923137404025 ], [ 437932.58996692619985, 3710087.164383934345096 ], [ 438195.848135753360111, 3711046.447478905785829 ] ] ], [ [ [ 448567.073579140298534, 3710985.460939656477422 ], [ 446492.835128197737504, 3710996.764451331458986 ], [ 446229.888528997078538, 3710037.269117792136967 ], [ 444155.56901719328016, 3710049.072750062216073 ], [ 443629.705453109461814, 3708130.318993638269603 ], [ 445704.180628655769397, 3708118.409041701350361 ], [ 445441.419333343859762, 3707159.044246891513467 ], [ 441292.309996798401698, 3707183.416781633161008 ], [ 442607.512673339282628, 3711980.144620375242084 ], [ 440533.342189655522816, 3711992.735777124762535 ], [ 440796.646096610755194, 3712952.158645495772362 ], [ 442870.738633803848643, 3712939.620583515614271 ], [ 443134.026395871071145, 3713899.140072766225785 ], [ 446245.041931154206395, 3713881.251266107428819 ], [ 446508.274537392018829, 3714840.894297839608043 ], [ 452730.050606363802217, 3714808.296226256992668 ], [ 452467.051790843717754, 3713848.492454536259174 ], [ 448319.048257061920594, 3713869.884436944033951 ], [ 448055.955340551678091, 3712910.231604385189712 ], [ 449092.996296517201699, 3712904.689147244207561 ], [ 448567.073579140298534, 3710985.460939656477422 ] ] ], [ [ [ 454278.189999786263797, 3712878.653517917264253 ], [ 453241.152684469823726, 3712883.637091730255634 ], [ 453504.050864832941443, 3713843.423970940988511 ], [ 454541.049245943431742, 3713838.46729089692235 ], [ 454278.189999786263797, 3712878.653517917264253 ] ] ], [ [ [ 437741.627801478258334, 3724507.015020901802927 ], [ 436705.043558820441831, 3724513.804622375871986 ], [ 436969.424937514471821, 3725473.607749399729073 ], [ 438005.970026300055906, 3725466.844782223924994 ], [ 437741.627801478258334, 3724507.015020901802927 ] ] ], [ [ [ 436197.361330264713615, 3726440.303029987029731 ], [ 437233.868181950703729, 3726433.454537220299244 ], [ 436969.424937514471821, 3725473.607749399729073 ], [ 435932.878916152636521, 3725480.482871317770332 ], [ 436197.361330264713615, 3726440.303029987029731 ] ] ], [ [ [ 455687.857734701421577, 3736909.84617863362655 ], [ 453615.729776936757844, 3736919.692156596574932 ], [ 454145.14111084502656, 3738841.18666710332036 ], [ 456217.112074657226913, 3738831.449989499524236 ], [ 455687.857734701421577, 3736909.84617863362655 ] ] ], [ [ [ 465276.64644771150779, 3737832.134014544542879 ], [ 464240.627315072866622, 3737835.960863628424704 ], [ 464504.971449885866605, 3738797.00476474640891 ], [ 465540.951368574809749, 3738793.205520132090896 ], [ 465276.64644771150779, 3737832.134014544542879 ] ] ], [ [ [ 444846.378600329218898, 3742739.054706514347345 ], [ 446918.049627672065981, 3742727.284091463778168 ], [ 446652.75186136708362, 3741766.555508030578494 ], [ 445616.877402778365649, 3741772.411648112349212 ], [ 445351.602065843995661, 3740811.754428643733263 ], [ 444315.687476873048581, 3740817.750308832153678 ], [ 444846.378600329218898, 3742739.054706514347345 ] ] ], [ [ [ 442019.17893565929262, 3640970.08022900717333 ], [ 443059.096515961980913, 3640964.021503401454538 ], [ 442801.237425853556488, 3640007.258678724057972 ], [ 443841.192160038219299, 3640001.284181356895715 ], [ 443583.432903894223273, 3639044.53795093530789 ], [ 444623.424788023869041, 3639038.647647164296359 ], [ 443850.631818174617365, 3636168.58468536939472 ], [ 441770.419145859195851, 3636180.627181285526603 ], [ 442028.030998198897578, 3637137.22213569143787 ], [ 438907.819148573675193, 3637156.031425304245204 ], [ 438650.093283102673013, 3636199.512335813604295 ], [ 436569.871282446780242, 3636212.650054959580302 ], [ 437601.450074174790643, 3640038.775681556202471 ], [ 436561.489754374022596, 3640045.407990739680827 ], [ 436819.577178391511552, 3641002.018805309198797 ], [ 437859.499431206670124, 3640995.411761019844562 ], [ 438117.610646310262382, 3641952.089759801048785 ], [ 439157.49385870678816, 3641945.617695973720402 ], [ 439415.62884441530332, 3642902.362976566422731 ], [ 440455.473030515364371, 3642896.025970723945647 ], [ 439939.341052437899634, 3640982.526667559985071 ], [ 440979.260453210677952, 3640976.248616807162762 ], [ 441237.257461230212357, 3641933.002645204775035 ], [ 442277.137883692281321, 3641926.859656717162579 ], [ 442019.17893565929262, 3640970.08022900717333 ] ] ], [ [ [ 477119.370360287663061, 3639867.982929922640324 ], [ 476079.435573340277188, 3639870.449472714215517 ], [ 476336.079568410350475, 3640828.040095895528793 ], [ 477375.976454501913395, 3640825.59988596662879 ], [ 477119.370360287663061, 3639867.982929922640324 ] ] ], [ [ [ 442277.137883692281321, 3641926.859656717162579 ], [ 442535.158642502734438, 3642883.681117763742805 ], [ 443575.00010070897406, 3642877.673269131220877 ], [ 443317.017408515093848, 3641920.826358482707292 ], [ 442277.137883692281321, 3641926.859656717162579 ] ] ], [ [ [ 442793.241209287603851, 3643840.544637318700552 ], [ 442535.158642502734438, 3642883.681117763742805 ], [ 441495.316291158203967, 3642889.798684712033719 ], [ 441753.436940196377691, 3643846.636760489549488 ], [ 442793.241209287603851, 3643840.544637318700552 ] ] ], [ [ [ 483345.074135991453659, 3643688.5479840436019 ], [ 483088.473361228243448, 3642730.670236810576171 ], [ 482048.653867304325104, 3642732.509212869219482 ], [ 482305.292555860767607, 3643690.360419502481818 ], [ 483345.074135991453659, 3643688.5479840436019 ] ] ], [ [ [ 476592.78500797128072, 3641785.673461352474988 ], [ 477106.380208928661887, 3643701.068520882166922 ], [ 476066.596737218613271, 3643703.539327814709395 ], [ 476323.524442812078632, 3644661.274678993970156 ], [ 478403.015134726301767, 3644656.495610219892114 ], [ 478916.903016027994454, 3646572.200569117907435 ], [ 479956.571933832077775, 3646570.028637875337154 ], [ 479699.635248032049276, 3645612.128217641729861 ], [ 480739.341815006686375, 3645610.039576645940542 ], [ 480225.728554801724385, 3643694.314474488608539 ], [ 481265.510700848535635, 3643692.282582905609161 ], [ 481008.834094358375296, 3642734.45788868656382 ], [ 482048.653867304325104, 3642732.509212869219482 ], [ 481792.076561147812754, 3641774.700910877436399 ], [ 482831.933957602246664, 3641772.835416516289115 ], [ 482575.455928044393659, 3640815.043497644830495 ], [ 477375.976454501913395, 3640825.59988596662879 ], [ 477632.643981965433341, 3641783.259606559760869 ], [ 476592.78500797128072, 3641785.673461352474988 ] ] ], [ [ [ 486708.181459947838448, 3648475.55232881847769 ], [ 484628.998474067077041, 3648478.581518325489014 ], [ 484885.967413944017608, 3649436.717363825533539 ], [ 483846.413553314225283, 3649438.370086950715631 ], [ 484360.611478523700498, 3651354.717705247923732 ], [ 485400.089342384948395, 3651353.118398344144225 ], [ 485142.997704366804101, 3650394.896315286401659 ], [ 486182.513342347112484, 3650393.380214176606387 ], [ 485925.521040555671789, 3649435.174537589307874 ], [ 486965.074449244944844, 3649433.741608052514493 ], [ 486708.181459947838448, 3648475.55232881847769 ] ] ], [ [ [ 480717.445042564999312, 3653278.521168744657189 ], [ 479678.041891732660588, 3653280.617021531797945 ], [ 480193.111199987237342, 3655197.042793629225343 ], [ 482271.764955319289584, 3655193.067781878635287 ], [ 482014.275734924944118, 3654234.779981962870806 ], [ 483053.640255754347891, 3654232.930852346587926 ], [ 482538.922050046385266, 3652316.431279617827386 ], [ 480460.04054394713603, 3652320.346283822320402 ], [ 480717.445042564999312, 3653278.521168744657189 ] ] ], [ [ [ 480193.111199987237342, 3655197.042793629225343 ], [ 479153.783871849766001, 3655199.195400502067059 ], [ 479411.448713613615837, 3656157.446299986448139 ], [ 480450.73795649438398, 3656155.320355190429837 ], [ 480193.111199987237342, 3655197.042793629225343 ] ] ], [ [ [ 478629.923504601581953, 3657117.949712659232318 ], [ 479669.174964329169597, 3657115.74032829888165 ], [ 479411.448713613615837, 3656157.446299986448139 ], [ 478372.159153187298216, 3656159.68234064662829 ], [ 478629.923504601581953, 3657117.949712659232318 ] ] ], [ [ [ 461216.504040198167786, 3661966.153536645695567 ], [ 460177.434657440462615, 3661970.324402064550668 ], [ 460695.213890717015602, 3663886.413012864533812 ], [ 461734.206764712347649, 3663882.294681507628411 ], [ 461475.324601129745133, 3662924.20266795437783 ], [ 462514.355143277207389, 3662920.168358634691685 ], [ 461996.852104605757631, 3661004.060407195240259 ], [ 460957.745084811234847, 3661008.147261972539127 ], [ 461216.504040198167786, 3661966.153536645695567 ] ] ], [ [ [ 469265.81730916997185, 3664814.875345801003277 ], [ 469524.554811638547108, 3665773.238250952214003 ], [ 470563.466946438595187, 3665770.055608298629522 ], [ 470822.227704294433352, 3666728.488200783263892 ], [ 471861.101132168900222, 3666725.442538363393396 ], [ 471602.378629760059994, 3665766.983346857596189 ], [ 472641.289877537172288, 3665764.021466250531375 ], [ 472124.1058216970996, 3663847.179354887921363 ], [ 471085.118105318455491, 3663850.194422436412424 ], [ 471343.717619832488708, 3664808.567316794302315 ], [ 469265.81730916997185, 3664814.875345801003277 ] ] ], [ [ [ 465886.867193409008905, 3667703.7157335979864 ], [ 466664.277475255948957, 3670579.003520695026964 ], [ 467703.000079304852989, 3670575.511865159496665 ], [ 467962.221601917408407, 3671534.05397431878373 ], [ 469000.905383198114578, 3671530.699441305827349 ], [ 468223.540373711613938, 3668655.122892144136131 ], [ 469262.338621011411306, 3668651.799096936360002 ], [ 468744.479490848607384, 3666734.910754148382694 ], [ 467705.604673427995294, 3666738.287645878270268 ], [ 467964.541757682221942, 3667696.683707529213279 ], [ 465886.867193409008905, 3667703.7157335979864 ] ] ], [ [ [ 461989.621258492639754, 3672514.928951081819832 ], [ 465105.565356037346646, 3672503.286503290757537 ], [ 464586.830721749225631, 3670586.318404402583838 ], [ 462509.381801790674217, 3670594.075387964956462 ], [ 462768.795032265246846, 3671552.484925091732293 ], [ 461730.10807455459144, 3671556.502775540575385 ], [ 461989.621258492639754, 3672514.928951081819832 ] ] ], [ [ [ 463547.404238760238513, 3674427.972184829879552 ], [ 462508.832411915587727, 3674431.910610262304544 ], [ 462768.530375574948266, 3675390.466145440470427 ], [ 463807.063802897522692, 3675386.5542400944978 ], [ 463547.404238760238513, 3674427.972184829879552 ] ] ], [ [ [ 461994.017922113009263, 3684031.093927852809429 ], [ 460955.828386771725491, 3684035.209821397438645 ], [ 461216.296185756160412, 3684994.091531684622169 ], [ 462254.447191472048871, 3684990.00227153673768 ], [ 461994.017922113009263, 3684031.093927852809429 ] ] ], [ [ [ 465108.583131180261262, 3684019.411777124274522 ], [ 464070.395278564945329, 3684023.194906197488308 ], [ 463810.104627998778597, 3683064.276592892128974 ], [ 464848.330986114218831, 3683060.466768579091877 ], [ 464588.140405040467158, 3682101.565138378180563 ], [ 465626.404719426413067, 3682097.839505675714463 ], [ 465366.314183895301539, 3681138.954549738205969 ], [ 463289.708055711816996, 3681146.570007524453104 ], [ 463549.87555273756152, 3682105.401635304559022 ], [ 462511.610146747610997, 3682109.348996922839433 ], [ 464074.139329595898744, 3687863.089390662964433 ], [ 465112.173575146647636, 3687859.302235301584005 ], [ 465372.772058168891817, 3688818.437716365326196 ], [ 466410.767213461687788, 3688814.788403167389333 ], [ 465889.708920932083856, 3686896.507332210894674 ], [ 464851.636652732733637, 3686900.210239730775356 ], [ 464330.747501501522493, 3684982.156601143535227 ], [ 465368.896837299398612, 3684978.400189942214638 ], [ 465108.583131180261262, 3684019.411777124274522 ] ] ], [ [ [ 473420.082790914690122, 3691673.458121379371732 ], [ 468230.695147736580111, 3691689.078975340351462 ], [ 468491.462632969371043, 3692648.442485273815691 ], [ 469529.302459518075921, 3692645.122980704996735 ], [ 469790.09285750502022, 3693604.557130075059831 ], [ 471865.693938217475079, 3693598.305681608151644 ], [ 472126.468614100071136, 3694557.837627602741122 ], [ 474201.990782839129679, 3694552.085181419737637 ], [ 473941.293321179109626, 3693592.499035943765193 ], [ 474979.092415142804384, 3693589.762513268738985 ], [ 474718.495006335200742, 3692630.193049329333007 ], [ 473680.65732287731953, 3692632.95669131167233 ], [ 473420.082790914690122, 3691673.458121379371732 ] ] ], [ [ [ 482839.468288854812272, 3726243.172313306946307 ], [ 481802.987776273977943, 3726245.085353252943605 ], [ 482065.812193089397624, 3727206.148505517281592 ], [ 483102.253711828147061, 3727204.263357701245695 ], [ 482839.468288854812272, 3726243.172313306946307 ] ] ], [ [ [ 482065.812193089397624, 3727206.148505517281592 ], [ 478956.48598528484581, 3727212.477079522795975 ], [ 479482.553037560021039, 3729134.570298418868333 ], [ 480518.917350929579698, 3729132.404268968850374 ], [ 480782.003933953295927, 3730093.545772403012961 ], [ 481818.328923323017079, 3730091.519893003627658 ], [ 481555.281376728555188, 3729130.350484779570252 ], [ 482591.645130256132688, 3729128.408945603761822 ], [ 482065.812193089397624, 3727206.148505517281592 ] ] ], [ [ [ 478446.188421321799979, 3729136.84857339411974 ], [ 478709.353089373442344, 3730097.934352005831897 ], [ 479745.678661065816414, 3730095.683925317600369 ], [ 479482.553037560021039, 3729134.570298418868333 ], [ 478446.188421321799979, 3729136.84857339411974 ] ] ], [ [ [ 467348.68319882726064, 3737824.817832112312317 ], [ 467612.909704339399468, 3738785.944631274789572 ], [ 468648.888151813414879, 3738782.482986151706427 ], [ 469177.447305145906284, 3740704.925952320918441 ], [ 470213.346863627899438, 3740701.632343575824052 ], [ 469949.075750688905828, 3739740.360756361391395 ], [ 470985.014088747033384, 3739737.151944137644023 ], [ 470456.73476823582314, 3737814.687341259326786 ], [ 469420.718032454897184, 3737817.951667729299515 ], [ 468628.64276985405013, 3734934.672847913112491 ], [ 469664.777016089414246, 3734931.325423485133797 ], [ 468609.694434337201528, 3731087.467052193824202 ], [ 469645.984737750433851, 3731084.121459544636309 ], [ 468855.435980546812061, 3728201.612188769970089 ], [ 467819.02841999247903, 3728205.040479353629053 ], [ 468082.522235675423872, 3729165.804894473403692 ], [ 467046.153278234298341, 3729169.31789143756032 ], [ 467309.747707240108866, 3730130.099202415440232 ], [ 466273.417357420898043, 3730133.696939561050385 ], [ 466800.869030509318691, 3732055.337811440695077 ], [ 465764.616413996554911, 3732058.992795118130744 ], [ 464973.413888734474313, 3729176.680635013151914 ], [ 463937.043426080606878, 3729180.530382517725229 ], [ 464200.755149852135219, 3730141.22924944665283 ], [ 462128.090829791733995, 3730149.210676524788141 ], [ 462655.85547669918742, 3732070.631759430281818 ], [ 461619.600750787474681, 3732074.736086861696094 ], [ 462147.690040320565458, 3733996.279771828558296 ], [ 461111.5130676276749, 3734000.441594303585589 ], [ 461375.689273201103788, 3734961.252575764898211 ], [ 460339.550908957084175, 3734965.499364812858403 ], [ 461132.566706318233628, 3737848.116447949782014 ], [ 463204.607657433487475, 3737839.900218570139259 ], [ 462940.285880930488929, 3736878.928405658807606 ], [ 465012.40308037266368, 3736871.107067131437361 ], [ 465276.64644771150779, 3737832.134014544542879 ], [ 466312.665070560004096, 3737828.419670855626464 ], [ 465784.318277552316431, 3735906.355111486744136 ], [ 467856.510799881187268, 3735899.15337720233947 ], [ 468384.700847721542232, 3737821.32849787781015 ], [ 467348.68319882726064, 3737824.817832112312317 ] ], [ [ 461904.226472190348431, 3736883.007791882846504 ], [ 461639.927075725106988, 3735922.107966075651348 ], [ 462676.025683900457807, 3735918.001078009605408 ], [ 462940.285880930488929, 3736878.928405658807606 ], [ 461904.226472190348431, 3736883.007791882846504 ] ] ] ] } }
]
}
