{
"type": "FeatureCollection",
"name": "urban-1975",
"crs": { "type": "name", "properties": { "name": "urn:ogc:def:crs:EPSG::32638" } },
"features": [
{ "type": "Feature", "properties": { "year": 1975 }, "geometry": { "type": "MultiPolygon", "coordinates": [ [ [ [ 413460.458926798950415, 3685302.145852521061897 ], [ 413198.213974001642782, 3684344.458899664692581 ], [ 412159.979569764691405, 3684353.788926678709686 ], [ 411897.758009297482204, 3683396.169539605267346 ], [ 410859.48353732668329, 3683405.635791233275086 ], [ 411121.7438329179422, 3684363.229915044736117 ], [ 409045.268298415932804, 3684382.444780457764864 ], [ 409307.668245803331956, 3685340.030646034982055 ], [ 408269.467177196580451, 3685349.779323584400117 ], [ 408794.531117285019718, 3687265.027238202746958 ], [ 409832.654631393495947, 3687255.329032020177692 ], [ 409570.130357715592254, 3686297.65872139390558 ], [ 412684.609089512843639, 3686269.154482230078429 ], [ 412422.263264092267491, 3685311.450565721374005 ], [ 413460.458926798950415, 3685302.145852521061897 ] ] ], [ [ [ 429809.796056042716373, 3684210.268323777243495 ], [ 429548.232275034184568, 3683252.215175182092935 ], [ 428509.978395183570683, 3683259.79570582928136 ], [ 428771.580832010600716, 3684217.82311478536576 ], [ 426695.147126226685941, 3684233.265532018151134 ], [ 426956.88886595715303, 3685191.284113722387701 ], [ 427995.067590852791909, 3685183.533138381317258 ], [ 428518.659605534397997, 3687099.749587954487652 ], [ 430594.859051163075492, 3687084.683685893658549 ], [ 430071.421780950622633, 3685168.364107995294034 ], [ 431109.597277630586177, 3685160.946051098406315 ], [ 430848.010215166548733, 3684202.824476608540863 ], [ 429809.796056042716373, 3684210.268323777243495 ] ] ], [ [ [ 424880.528077782364562, 3685207.11898942803964 ], [ 424618.708971830899827, 3684249.151735844556242 ], [ 419427.593296409177128, 3684290.808863176498562 ], [ 419165.642749584745616, 3683333.011849197559059 ], [ 418127.377308200346306, 3683341.701590834185481 ], [ 418389.366557159286458, 3684299.473145510070026 ], [ 416312.909348516783211, 3684317.134575421921909 ], [ 416050.842681227368303, 3683359.413855307735503 ], [ 415012.573464126442559, 3683368.436380306724459 ], [ 415274.678847631555982, 3684326.131725154351443 ], [ 414236.447061374667101, 3684335.239832864608616 ], [ 414498.653277370438445, 3685292.952127535361797 ], [ 416575.038105056621134, 3685274.897637736983597 ], [ 416837.228948064963333, 3686232.70306778466329 ], [ 417875.380722814588808, 3686223.867749175988138 ], [ 417613.228613643557765, 3685266.036870720796287 ], [ 418651.417873042752035, 3685257.287087514065206 ], [ 418913.531253064167686, 3686215.143442390486598 ], [ 419951.680554539314471, 3686206.530146366450936 ], [ 420213.817260260751937, 3687164.454466708470136 ], [ 422290.034782495524269, 3687147.612040874082595 ], [ 422552.156055919942446, 3688105.63003113726154 ], [ 426704.422199087101035, 3688073.380302675068378 ], [ 426442.455829381477088, 3687115.259609389584512 ], [ 427480.558266633364838, 3687107.449083282146603 ], [ 426956.88886595715303, 3685191.284113722387701 ], [ 424880.528077782364562, 3685207.11898942803964 ] ] ], [ [ [ 409057.156343928247225, 3688222.714540054555982 ], [ 408794.531117285019718, 3687265.027238202746958 ], [ 407756.406221906247083, 3687274.836494386196136 ], [ 408019.07024727971293, 3688232.498554685618728 ], [ 409057.156343928247225, 3688222.714540054555982 ] ] ], [ [ [ 390387.343893136363477, 3692256.875162068288773 ], [ 389860.180810478050262, 3690342.157100081909448 ], [ 388822.143391636782326, 3690354.002350301947445 ], [ 388558.616495403228328, 3689396.73091588774696 ], [ 389596.692827526770998, 3689384.860910178162158 ], [ 389069.903991903818678, 3687470.39408569317311 ], [ 385955.436513192602433, 3687506.485663711093366 ], [ 386218.916429952834733, 3688463.624111172743142 ], [ 385180.796076706727035, 3688475.852167515084147 ], [ 385444.377322355343495, 3689433.00773302745074 ], [ 383368.209236161550507, 3689457.747959244064987 ], [ 384159.561163711361587, 3692329.317462560720742 ], [ 383121.591344902524725, 3692341.780452993232757 ], [ 383385.539169205061626, 3693299.029199677985162 ], [ 384423.47001166222617, 3693286.590864938218147 ], [ 384687.441291177237872, 3694243.906093541998416 ], [ 385725.33140705327969, 3694231.603716455865651 ], [ 385461.39910998090636, 3693274.263781652785838 ], [ 389613.098374975146726, 3693226.067933214828372 ], [ 389349.384334128350019, 3692268.670833581127226 ], [ 390387.343893136363477, 3692256.875162068288773 ] ] ], [ [ [ 401046.153925652382895, 3696944.373467317782342 ], [ 400782.580086047761142, 3695986.558063691016287 ], [ 396631.412761564482935, 3696030.003380221314728 ], [ 396895.142418426985387, 3696987.718290551099926 ], [ 401046.153925652382895, 3696944.373467317782342 ] ] ], [ [ [ 436853.580658181104809, 3698565.366457499563694 ], [ 436591.204461712390184, 3697606.592668330296874 ], [ 435553.534553382196464, 3697613.450721840374172 ], [ 435815.949560478504281, 3698572.198347502853721 ], [ 436853.580658181104809, 3698565.366457499563694 ] ] ], [ [ [ 439191.200453430472407, 3699510.906099454499781 ], [ 438928.840019744762685, 3698552.036763463169336 ], [ 437891.21080606803298, 3698558.6459297593683 ], [ 438153.610052661038935, 3699517.489023347850889 ], [ 439191.200453430472407, 3699510.906099454499781 ] ] ], [ [ [ 431153.183336968126241, 3700525.391606939025223 ], [ 431415.978261593729258, 3701484.137775269336998 ], [ 433491.016274493769743, 3701469.628209297545254 ], [ 432965.643791050533764, 3699552.074502334930003 ], [ 429852.852066459367052, 3699574.162507905624807 ], [ 430115.62392205937067, 3700532.839630193542689 ], [ 431153.183336968126241, 3700525.391606939025223 ] ] ], [ [ [ 420003.19221981044393, 3701571.909382567740977 ], [ 420266.477033845440019, 3702530.413180013652891 ], [ 419228.983068294706754, 3702539.035393560770899 ], [ 419755.816735776723363, 3704456.119813007768244 ], [ 421830.647678701265249, 3704439.090178306214511 ], [ 421567.27772421942791, 3703480.474889682605863 ], [ 423642.181869184598327, 3703463.839650795795023 ], [ 423115.783772371418308, 3701546.634179698303342 ], [ 420003.19221981044393, 3701571.909382567740977 ] ] ], [ [ [ 428303.4134798750747, 3701506.738013987895101 ], [ 429092.519888810056727, 3704383.000085491221398 ], [ 431167.330721803067718, 3704367.978206411004066 ], [ 430904.311120969476178, 3703409.128997511230409 ], [ 431941.75388744159136, 3703401.759232133161277 ], [ 431415.978261593729258, 3701484.137775269336998 ], [ 428303.4134798750747, 3701506.738013987895101 ] ] ], [ [ [ 435084.46321645739954, 3711066.92212307266891 ], [ 434821.088135468191467, 3710107.718153841793537 ], [ 435858.256365503999405, 3710100.755194828845561 ], [ 435594.982137853628956, 3709141.568189202807844 ], [ 434557.774943896161858, 3709148.557472550775856 ], [ 434294.523644619679544, 3708189.44005316356197 ], [ 430145.52907765400596, 3708218.618874668609351 ], [ 429882.183862903155386, 3707259.649525242857635 ], [ 427807.602441367343999, 3707274.961086276452988 ], [ 428071.025588712887838, 3708233.878187101334333 ], [ 429108.277863227296621, 3708226.192704986315221 ], [ 429371.723993523744866, 3709185.179037976078689 ], [ 428334.510698848345783, 3709192.838387032970786 ], [ 428598.057768920320086, 3710151.841712039429694 ], [ 429635.232072491722647, 3710144.208518841769546 ], [ 429898.802097270614468, 3711103.281173574738204 ], [ 431973.069575872214045, 3711088.402351638767868 ], [ 431709.577542195213027, 3710129.277255346998572 ], [ 432746.748739301110618, 3710121.979183234274387 ], [ 433010.201784230710473, 3711081.130542423110455 ], [ 435084.46321645739954, 3711066.92212307266891 ] ] ], [ [ [ 420319.652528689708561, 3714061.073922953568399 ], [ 419282.623124636360444, 3714069.720519448630512 ], [ 419546.870677958941087, 3715028.678703523240983 ], [ 420583.860988628934138, 3715020.058096422813833 ], [ 420319.652528689708561, 3714061.073922953568399 ] ] ], [ [ [ 418266.236165199719835, 3717923.232510700356215 ], [ 419303.111511957249604, 3717914.466121348552406 ], [ 419832.243369351723231, 3719832.718251996673644 ], [ 420869.03921919176355, 3719824.115935302805156 ], [ 421927.890811168937944, 3723661.242856419179589 ], [ 418817.969920511415694, 3723687.072551 ], [ 418553.046358654391952, 3722727.80437260819599 ], [ 415442.996991729654837, 3722754.721264391206205 ], [ 415708.038207364385016, 3723713.911277726758271 ], [ 417781.32723909575725, 3723695.906677135266364 ], [ 418311.43901123496471, 3725614.520480622537434 ], [ 417274.87358161091106, 3725623.414543724153191 ], [ 417540.061824658478145, 3726582.760180313140154 ], [ 419613.112976538366638, 3726565.136501553468406 ], [ 420143.518627443467267, 3728484.062242669053376 ], [ 421179.963894074549899, 3728475.471130647696555 ], [ 422506.867341027304064, 3733273.676026101689786 ], [ 424579.361477485101204, 3733257.093930527567863 ], [ 424313.935358298069332, 3732297.313284342642874 ], [ 425350.220060864055995, 3732289.164400473237038 ], [ 425615.606872316042427, 3733248.971471528057009 ], [ 426651.851171886781231, 3733240.961403735447675 ], [ 426386.503663602052256, 3732281.12787973601371 ], [ 427422.786181775329169, 3732273.203721156809479 ], [ 427953.464568311581388, 3734192.967349531594664 ], [ 436243.058958485955372, 3734134.044909258373082 ], [ 436508.176692236564122, 3735094.20540510257706 ], [ 437544.332328088523354, 3735087.372735120821744 ], [ 437279.253875075490214, 3734127.185459324624389 ], [ 438315.44786866515642, 3734120.4384187865071 ], [ 438050.470542768889572, 3733160.268209889065474 ], [ 437014.237284257134888, 3733167.042035455815494 ], [ 436749.282558556064032, 3732206.942437106277794 ], [ 434676.73472338746069, 3732220.880672580096871 ], [ 434146.853906067553908, 3730300.919588153716177 ], [ 433110.50005252280971, 3730308.110524056479335 ], [ 432845.613254288211465, 3729348.222154278308153 ], [ 433882.006340784661006, 3729341.004609723109752 ], [ 433617.220674962736666, 3728381.133305384311825 ], [ 435690.082365280890372, 3728366.981771431863308 ], [ 435425.437008912616875, 3727407.100905213970691 ], [ 436461.905618547520135, 3727400.166852776892483 ], [ 436197.361330264713615, 3726440.303029987029731 ], [ 435160.853535144298803, 3726447.263706437312067 ], [ 434896.33194688113872, 3725487.470148815773427 ], [ 433859.784014366101474, 3725494.569582737982273 ], [ 433330.848182667861693, 3723575.166362914722413 ], [ 434367.474438478704542, 3723568.013851957395673 ], [ 434631.872247025021352, 3724527.72020607534796 ], [ 435668.458379117888398, 3724520.706350488122553 ], [ 434611.395059804955963, 3720682.036120443604887 ], [ 435648.136759602813981, 3720675.02819696534425 ], [ 435120.054629943333566, 3718755.901266629807651 ], [ 436156.873557937331498, 3718748.952341017778963 ], [ 436420.844595270114951, 3719708.520551221910864 ], [ 437457.623493288760073, 3719701.71010762732476 ], [ 437721.617309701337945, 3720661.348391855601221 ], [ 438758.356190765451174, 3720654.676508564502001 ], [ 439286.45118296192959, 3722574.137049924116582 ], [ 438249.790512464358471, 3722580.755712770856917 ], [ 437985.672983727534302, 3721621.030251493677497 ], [ 436948.972282549599186, 3721627.78757670102641 ], [ 437213.12892669509165, 3722587.486444400157779 ], [ 436176.46641029312741, 3722594.329245628323406 ], [ 436440.72404877882218, 3723554.045129871927202 ], [ 437477.347433973685838, 3723547.228917049244046 ], [ 437741.627801478258334, 3724507.015020901802927 ], [ 439814.793537028192077, 3724493.772194585297257 ], [ 440079.0574674771633, 3725453.655308838933706 ], [ 439042.514197843673173, 3725460.193968973588198 ], [ 439306.879116317839362, 3726420.094099424779415 ], [ 438270.374105527298525, 3726426.718227304983884 ], [ 438534.840036247216631, 3727386.635382441338152 ], [ 440607.770820614357945, 3727373.552752712741494 ], [ 440872.220237459230702, 3728333.567134982906282 ], [ 441908.645130853343289, 3728327.220920914318413 ], [ 442173.117184715229087, 3729287.305922425352037 ], [ 443209.502038621925749, 3729281.09878294961527 ], [ 442945.069166278408375, 3728320.986942759715021 ], [ 443981.492359037103597, 3728314.865199762862176 ], [ 444510.341535429179203, 3730235.18651782348752 ], [ 445546.68554402992595, 3730229.230822131503373 ], [ 445811.163612710079178, 3731189.484304626006633 ], [ 444774.858799572568387, 3731195.413059354759753 ], [ 445039.437843758030795, 3732155.683557787910104 ], [ 447111.968261821835767, 3732143.992322546895593 ], [ 446847.467626945232041, 3731183.667867997195572 ], [ 447883.770857554220129, 3731177.963748763781041 ], [ 447355.033224625221919, 3729257.392850599251688 ], [ 448391.414040198898874, 3729251.747020306997001 ], [ 448127.177009532577358, 3728291.500564709771425 ], [ 449163.5962185470853, 3728285.939986640121788 ], [ 448899.460075083421543, 3727325.71051620785147 ], [ 447863.001722231449094, 3727331.298078780528158 ], [ 447598.88818124512909, 3726371.139536100439727 ], [ 446562.389921069669072, 3726376.866235478315502 ], [ 446034.269850302312989, 3724456.734672085382044 ], [ 447070.846350008156151, 3724450.954174919519573 ], [ 446543.051539374806453, 3722530.944270171690732 ], [ 447579.705440784455277, 3722525.222129818052053 ], [ 447052.235814131214283, 3720605.333800365682691 ], [ 446015.503772861033212, 3720611.109611123800278 ], [ 445224.645382155431435, 3717731.685747885145247 ], [ 444187.795401932788081, 3717737.653814366552979 ], [ 444451.392128311796114, 3718697.391326940618455 ], [ 442377.767745688033756, 3718709.609859754797071 ], [ 442641.504361267900094, 3719669.337640543002635 ], [ 441604.729952646361198, 3719675.58816981734708 ], [ 441868.567442606727127, 3720635.332926071248949 ], [ 440831.831241836305708, 3720641.668776461388916 ], [ 440567.954676930850837, 3719681.950680383481085 ], [ 439531.178518726781476, 3719688.425173015333712 ], [ 439267.32471230532974, 3718728.777304013259709 ], [ 438230.508583716116846, 3718735.390360532794148 ], [ 436911.972028553020209, 3713937.936585633549839 ], [ 434837.94655015860917, 3713951.763268291950226 ], [ 435101.608184892160352, 3714911.114239558577538 ], [ 428879.742195599188562, 3714955.12004398368299 ], [ 428615.846316717390437, 3713995.926945449318737 ], [ 427578.825978344422765, 3714003.678930253256112 ], [ 427842.760913809412159, 3714962.845814937260002 ], [ 426805.778557446203195, 3714970.683436980471015 ], [ 427333.912477604928426, 3716889.094498827587813 ], [ 423186.284713743138127, 3716921.354317958466709 ], [ 422922.030386199126951, 3715962.231812986545265 ], [ 421885.081520764681045, 3715970.602636708877981 ], [ 421620.850116653833538, 3715011.54934736341238 ], [ 420583.860988628934138, 3715020.058096422813833 ], [ 421112.464038192178123, 3716938.155696150381118 ], [ 420075.551948044390883, 3716946.724255938548595 ], [ 419811.180286707356572, 3715987.679940357338637 ], [ 417737.274278878467157, 3716005.204792548902333 ], [ 418266.236165199719835, 3717923.232510700356215 ] ], [ [ 434941.76796960743377, 3733180.926831265445799 ], [ 433905.531882957962807, 3733188.03780319262296 ], [ 433640.459369763033465, 3732228.018322177231312 ], [ 434676.73472338746069, 3732220.880672580096871 ], [ 434941.76796960743377, 3733180.926831265445799 ] ], [ [ 433375.448758648824878, 3731268.042571247089654 ], [ 432339.133167187217623, 3731275.319203121587634 ], [ 432074.145212274161167, 3730315.413759481161833 ], [ 433110.50005252280971, 3730308.110524056479335 ], [ 433375.448758648824878, 3731268.042571247089654 ] ], [ [ 434083.234738011844456, 3718762.962150276172906 ], [ 433819.247421706560999, 3717803.490359739400446 ], [ 434856.106392738933209, 3717796.403030357323587 ], [ 435120.054629943333566, 3718755.901266629807651 ], [ 434083.234738011844456, 3718762.962150276172906 ] ], [ [ 435629.11711037211353, 3716829.946394738741219 ], [ 436666.013218760082964, 3716823.056445348076522 ], [ 437193.691537394595798, 3718742.115372595377266 ], [ 436156.873557937331498, 3718748.952341017778963 ], [ 435629.11711037211353, 3716829.946394738741219 ] ], [ [ 441359.769839598622639, 3722561.235927382484078 ], [ 441887.955708515946753, 3724480.977865113411099 ], [ 440851.375060607795604, 3724487.318968137260526 ], [ 440587.212093973648734, 3723527.452861578203738 ], [ 439550.591441217926331, 3723533.932783708442003 ], [ 439286.45118296192959, 3722574.137049924116582 ], [ 441359.769839598622639, 3722561.235927382484078 ] ], [ [ 445282.269246957206633, 3729269.021293122321367 ], [ 446318.651631977118086, 3729263.150941304396838 ], [ 446583.028749347897246, 3730223.387416399084032 ], [ 445546.68554402992595, 3730229.230822131503373 ], [ 445282.269246957206633, 3729269.021293122321367 ] ], [ [ 446279.246774134691805, 3721571.005048096645623 ], [ 445242.553000367712229, 3721576.866069726645947 ], [ 444978.770930456055794, 3720616.997428351081908 ], [ 446015.503772861033212, 3720611.109611123800278 ], [ 446279.246774134691805, 3721571.005048096645623 ] ], [ [ 436138.582376971957274, 3714904.171400720719248 ], [ 436402.266861812968273, 3715863.592200783547014 ], [ 435365.331705926335417, 3715870.50860633328557 ], [ 435101.608184892160352, 3714911.114239558577538 ], [ 436138.582376971957274, 3714904.171400720719248 ] ], [ [ 422746.904726507957093, 3730386.196507359389216 ], [ 423783.269134866364766, 3730377.88253476517275 ], [ 424048.571243132872041, 3731337.576161175500602 ], [ 423012.246124472469091, 3731345.863782962784171 ], [ 422746.904726507957093, 3730386.196507359389216 ] ], [ [ 422722.68082819879055, 3726539.542471998836845 ], [ 423759.201139729237184, 3726531.235521617811173 ], [ 424289.29277092841221, 3728450.37131381360814 ], [ 423252.850950514141005, 3728458.625667240470648 ], [ 422722.68082819879055, 3726539.542471998836845 ] ], [ [ 444489.391014822060242, 3726388.656162908766419 ], [ 445525.890870703966357, 3726382.705110844224691 ], [ 445790.082689711358398, 3727342.809814933221787 ], [ 444753.621979412389919, 3727348.733989907428622 ], [ 444489.391014822060242, 3726388.656162908766419 ] ], [ [ 444469.741344101785216, 3722542.724739803001285 ], [ 445506.396845601848327, 3722536.778473264537752 ], [ 445770.302463224856183, 3723496.734665275085717 ], [ 444733.686057466722559, 3723502.654118463397026 ], [ 444469.741344101785216, 3722542.724739803001285 ] ], [ [ 423207.168935531168245, 3720766.516470816452056 ], [ 422170.414576460956596, 3720774.868635279126465 ], [ 421905.83389411563985, 3719815.625617930665612 ], [ 422942.627409511478618, 3719807.24729885160923 ], [ 423207.168935531168245, 3720766.516470816452056 ] ], [ [ 422678.147902174154297, 3718848.02135552233085 ], [ 423714.979413879860658, 3718839.728873930405825 ], [ 423979.419780769676436, 3719798.980977048631757 ], [ 422942.627409511478618, 3719807.24729885160923 ], [ 422678.147902174154297, 3718848.02135552233085 ] ], [ [ 420604.481417128467001, 3718864.942227381281555 ], [ 420339.985659131314605, 3717905.811676271725446 ], [ 422413.73041637102142, 3717888.838614756241441 ], [ 422678.147902174154297, 3718848.02135552233085 ], [ 420604.481417128467001, 3718864.942227381281555 ] ], [ [ 432254.520404538197909, 3715891.929063810966909 ], [ 433291.458492719568312, 3715884.677036987151951 ], [ 433555.322005647816695, 3716844.061997357290238 ], [ 432518.422978469519876, 3716851.287652297411114 ], [ 432254.520404538197909, 3715891.929063810966909 ] ] ], [ [ [ 442725.09703387983609, 3735054.895931796170771 ], [ 443761.24738700047601, 3735048.737874941900373 ], [ 444026.152039796172176, 3736009.130437643732876 ], [ 445062.262304635951295, 3736003.111813510768116 ], [ 444267.851471563393716, 3733121.985218381043524 ], [ 445304.078665039443877, 3733115.998039564583451 ], [ 445039.437843758030795, 3732155.683557787910104 ], [ 444003.171427672263235, 3732161.697695486713201 ], [ 443473.996708261081949, 3730241.25450419774279 ], [ 442437.651047237566672, 3730247.434781991411 ], [ 442702.246715487213805, 3731207.607526002451777 ], [ 440629.631252481311094, 3731220.251273852307349 ], [ 440894.367168002296239, 3732180.414197680540383 ], [ 441930.636105059878901, 3732174.063014683779329 ], [ 442460.214917945326306, 3734094.574334441218525 ], [ 440387.833147828292567, 3734107.281562639400363 ], [ 440652.793785311165266, 3735067.549346995539963 ], [ 439616.640859389328398, 3735074.044706874527037 ], [ 439881.702600813296158, 3736034.329551359638572 ], [ 441953.929026683792472, 3736021.505069559440017 ], [ 442484.080832851293962, 3737942.314381754025817 ], [ 443520.114184341044165, 3737936.124791374895722 ], [ 442725.09703387983609, 3735054.895931796170771 ] ] ], [ [ [ 439351.640954500355292, 3734113.803786825854331 ], [ 438315.44786866515642, 3734120.4384187865071 ], [ 438580.487045393849257, 3735080.652502648998052 ], [ 439616.640859389328398, 3735074.044706874527037 ], [ 439351.640954500355292, 3734113.803786825854331 ] ] ], [ [ [ 444365.765341886435635, 3638081.918002211488783 ], [ 444108.167684336658567, 3637125.230356654152274 ], [ 443068.099785152066033, 3637131.1714719356969 ], [ 442810.525928152259439, 3636174.551173119340092 ], [ 441770.419145859195851, 3636180.627181285526603 ], [ 442028.030998198897578, 3637137.22213569143787 ], [ 440987.961307261954062, 3637143.382348665501922 ], [ 441761.281801202218048, 3640013.342809481080621 ], [ 442801.237425853556488, 3640007.258678724057972 ], [ 442543.440140992344823, 3639050.537859300151467 ], [ 443583.432903894223273, 3639044.53795093530789 ], [ 443325.735444664547686, 3638087.833722836803645 ], [ 444365.765341886435635, 3638081.918002211488783 ] ] ], [ [ [ 439165.606861028994899, 3638112.592378139030188 ], [ 438650.093283102673013, 3636199.512335813604295 ], [ 436569.871282446780242, 3636212.650054959580302 ], [ 436827.673179358069319, 3637169.118708069901913 ], [ 437867.746648389729671, 3637162.520290524233133 ], [ 438383.45997772103874, 3639075.633553641382605 ], [ 437343.462578002770897, 3639082.18149630073458 ], [ 437859.499431206670124, 3640995.411761019844562 ], [ 438899.420717161963694, 3640988.914382037241012 ], [ 438641.409422569966409, 3640032.253009632229805 ], [ 440721.325269896944519, 3640019.536574374884367 ], [ 440205.640388563275337, 3638106.238346885424107 ], [ 439165.606861028994899, 3638112.592378139030188 ] ] ], [ [ [ 440197.376124957576394, 3641939.255324701778591 ], [ 439939.341052437899634, 3640982.526667559985071 ], [ 438899.420717161963694, 3640988.914382037241012 ], [ 439157.49385870678816, 3641945.617695973720402 ], [ 440197.376124957576394, 3641939.255324701778591 ] ] ], [ [ [ 481265.510700848535635, 3643692.282582905609161 ], [ 480752.218881529290229, 3641776.676076812669635 ], [ 481792.076561147812754, 3641774.700910877436399 ], [ 481535.56064032157883, 3640816.935488020535558 ], [ 478415.872988557093777, 3640823.269320495426655 ], [ 478672.502608108858112, 3641780.955424390267581 ], [ 477632.643981965433341, 3641783.259606559760869 ], [ 477889.372939768305514, 3642740.96211714996025 ], [ 476849.551889114431106, 3642743.349594528321177 ], [ 477363.269964499399066, 3644658.830265892203897 ], [ 478403.015134726301767, 3644656.495610219892114 ], [ 478659.928366045642179, 3645614.326643685810268 ], [ 479699.635248032049276, 3645612.128217641729861 ], [ 479442.75996963516809, 3644654.270711691584438 ], [ 480482.504485370067414, 3644652.155570031143725 ], [ 480225.728554801724385, 3643694.314474488608539 ], [ 481265.510700848535635, 3643692.282582905609161 ] ] ], [ [ [ 438098.701361666491721, 3657290.016714891884476 ], [ 438617.394156763097271, 3659204.642973544541746 ], [ 437578.193608045519795, 3659211.206555743701756 ], [ 437837.671089091454633, 3660168.557538400404155 ], [ 441994.314472743018996, 3660143.0669781784527 ], [ 440957.388274120516144, 3656313.506956653669477 ], [ 438878.762192201626021, 3656326.236860429402441 ], [ 439137.977538640843704, 3657283.512148098554462 ], [ 438098.701361666491721, 3657290.016714891884476 ] ] ], [ [ [ 462249.196038583701011, 3673473.398220735602081 ], [ 461989.621258492639754, 3672514.928951081819832 ], [ 459912.322316526144277, 3672523.243495606351644 ], [ 460171.973863409308251, 3673481.659899689722806 ], [ 462249.196038583701011, 3673473.398220735602081 ] ] ], [ [ [ 458094.749255844391882, 3673490.364026042167097 ], [ 458614.39082978409715, 3675407.220443146303296 ], [ 459652.92662338167429, 3675402.865866261068732 ], [ 459393.113435411360115, 3674444.389722459949553 ], [ 460431.687026087427512, 3674440.119378575589508 ], [ 460171.973863409308251, 3673481.659899689722806 ], [ 458094.749255844391882, 3673490.364026042167097 ] ] ], [ [ [ 458874.304067003366072, 3676365.713260674849153 ], [ 458614.39082978409715, 3675407.220443146303296 ], [ 454460.241185401566327, 3675425.745448013301939 ], [ 454980.436845065327361, 3677342.563222092110664 ], [ 458095.819384988280945, 3677328.661604883614928 ], [ 457835.806074555381201, 3676370.152104820590466 ], [ 458874.304067003366072, 3676365.713260674849153 ] ] ], [ [ [ 452941.716119638818782, 3700394.720692277420312 ], [ 455016.795947731181514, 3700384.838320067152381 ], [ 455278.69806193781551, 3701344.191696436144412 ], [ 454241.197263031033799, 3701349.050469338428229 ], [ 454503.199824738781899, 3702308.420668059028685 ], [ 453465.73712380125653, 3702313.364171889610589 ], [ 453727.840157073573209, 3703272.751201657112688 ], [ 454765.264061600784771, 3703267.834424898028374 ], [ 455289.577549049514346, 3705186.792717399541289 ], [ 454252.231271348311566, 3705191.655971641186625 ], [ 456615.043991332408041, 3713828.889339064247906 ], [ 455578.046949625422712, 3713833.622413801494986 ], [ 456103.872566811798606, 3715753.4353102222085 ], [ 457140.791723248665221, 3715748.756204311270267 ], [ 457403.758058554725721, 3716708.755477188620716 ], [ 458440.637621645350009, 3716704.215276319067925 ], [ 459492.963420491782017, 3720544.760334359481931 ], [ 460529.686446924228221, 3720540.440548864193261 ], [ 460792.882943480100948, 3721500.71407974511385 ], [ 461829.566380299977027, 3721496.533510092645884 ], [ 461040.278693761036266, 3718615.763546001166105 ], [ 460003.478279596834909, 3718620.025700653903186 ], [ 458426.332598209439311, 3712859.836964759044349 ], [ 457389.297917107061949, 3712864.373442891985178 ], [ 457126.617090448969975, 3711904.522665930911899 ], [ 458163.690677169302944, 3711899.959204275161028 ], [ 457901.1103904703632, 3710940.125286644790322 ], [ 456863.997909502242692, 3710944.715708953794092 ], [ 455814.137701880477834, 3707105.925555956549942 ], [ 456851.40564621827798, 3707101.227519568055868 ], [ 456326.923156946781091, 3705182.041010965127498 ], [ 457364.268110580393113, 3705177.40085175819695 ], [ 457102.158157424128149, 3704217.846270559821278 ], [ 460214.305653706833255, 3704204.514414908364415 ], [ 459952.373718669114169, 3703244.922902258578688 ], [ 460989.793785878806375, 3703240.675066058989614 ], [ 460727.962236922816373, 3702281.100355608388782 ], [ 459690.503399127686862, 3702285.375087805092335 ], [ 458382.076137070485856, 3697488.290573481936008 ], [ 457344.422990164137445, 3697492.810763776767999 ], [ 456821.406094590434805, 3695574.335370815359056 ], [ 457859.136643827310763, 3695569.761740767396986 ], [ 456291.797594742791262, 3689815.218154902104288 ], [ 457329.759418417059351, 3689810.595845294184983 ], [ 456807.883502954151481, 3687892.708461409900337 ], [ 455769.844466623733751, 3687897.383903882466257 ], [ 455508.96039474720601, 3686938.531713645439595 ], [ 456547.03802045492921, 3686933.829738728236407 ], [ 456286.254191999556497, 3685974.994294328149408 ], [ 457324.369733289233409, 3685970.376791075803339 ], [ 456282.005200234008953, 3682135.361353080719709 ], [ 455243.735476862522773, 3682140.084781788289547 ], [ 454722.846119210647885, 3680222.88902255659923 ], [ 455761.192865915014409, 3680218.112766776233912 ], [ 455500.879191980988253, 3679259.553166379220784 ], [ 454462.493950524018146, 3679264.355801813770086 ], [ 454202.203459128213581, 3678305.865652591455728 ], [ 455240.627184064942412, 3678301.036660077050328 ], [ 454980.436845065327361, 3677342.563222092110664 ], [ 449788.118684973567724, 3677367.947146220132709 ], [ 450048.501428728806786, 3678326.289192860946059 ], [ 449010.074059425794985, 3678331.671973602380604 ], [ 449270.557033766293898, 3679290.030759257264435 ], [ 450308.945897709636483, 3679284.674194998573512 ], [ 450569.45208903378807, 3680243.102178365923464 ], [ 449531.101741705322638, 3680248.432503574062139 ], [ 449791.708180362707935, 3681206.877232303842902 ], [ 448753.395597814931534, 3681212.292139781173319 ], [ 449014.102307838853449, 3682170.753622581250966 ], [ 447975.827494350960478, 3682176.253146628383547 ], [ 446933.216976121068001, 3678342.769814445171505 ], [ 445894.7872305031633, 3678348.484875900205225 ], [ 444853.01089371717535, 3674515.79205234348774 ], [ 443814.42634458251996, 3674521.722066229674965 ], [ 443554.098240508232266, 3673563.681822368409485 ], [ 442515.47436270059552, 3673569.748449510894716 ], [ 440954.572955884737894, 3667822.558402233757079 ], [ 439915.717580963566434, 3667828.890790950506926 ], [ 440435.847612493205816, 3669744.398756708018482 ], [ 439397.068154463544488, 3669750.790033398661762 ], [ 439917.52238625404425, 3671666.416611237451434 ], [ 440956.224962156498805, 3671660.07699135877192 ], [ 441216.50637419312261, 3672617.980023372918367 ], [ 440177.842256159055978, 3672624.293781120330095 ], [ 440959.172847844834905, 3675498.181121370755136 ], [ 439920.623270290787332, 3675504.527838011272252 ], [ 439660.079416255583055, 3674546.548628807533532 ], [ 437582.90049118589377, 3674559.625824985094368 ], [ 437843.52135068748612, 3675517.553315287921578 ], [ 435766.415639517537784, 3675531.021523222792894 ], [ 436027.17540227167774, 3676488.939992470666766 ], [ 433950.142836898390669, 3676502.799398258328438 ], [ 434733.02470178011572, 3679376.655686766374856 ], [ 432656.219490722171031, 3679390.803397091571242 ], [ 432917.381069567869417, 3680348.789137467276305 ], [ 431879.015527694369666, 3680356.003430551849306 ], [ 432140.277620868058875, 3681314.00601015612483 ], [ 429025.290556002699304, 3681336.236682354006916 ], [ 429548.232275034184568, 3683252.215175182092935 ], [ 430586.485085396911018, 3683244.745560321491212 ], [ 430848.010215166548733, 3684202.824476608540863 ], [ 431886.223325128550641, 3684195.491572370287031 ], [ 432147.771729715284891, 3685153.63896518945694 ], [ 431109.597277630586177, 3685160.946051098406315 ], [ 431371.246269961295184, 3686119.110309446696192 ], [ 432409.382052957662381, 3686111.829064458608627 ], [ 432671.054292022716254, 3687070.061895858030766 ], [ 430594.859051163075492, 3687084.683685893658549 ], [ 431380.479465038864873, 3689959.483461570926011 ], [ 430342.49641125195194, 3689966.883340248372406 ], [ 430604.532474455481861, 3690925.209579427726567 ], [ 428528.640673896763474, 3690940.2909653512761 ], [ 429315.353045521478634, 3693815.371136330533773 ], [ 432428.840313788445201, 3693793.149005705490708 ], [ 432691.08532196469605, 3694751.672559258528054 ], [ 434766.660833392583299, 3694737.46599043905735 ], [ 435028.890186980133876, 3695696.084569167811424 ], [ 432953.392242846370209, 3695710.239031402394176 ], [ 433215.761073582456447, 3696668.848447954747826 ], [ 434253.471745788818225, 3696661.741638927720487 ], [ 434515.863675123779103, 3697620.420110364910215 ], [ 435553.534553382196464, 3697613.450721840374172 ], [ 435291.181427928910125, 3696654.74613768607378 ], [ 436328.890135628927965, 3696647.861943376716226 ], [ 435804.447106071049348, 3694730.529582624323666 ], [ 436842.232410916301887, 3694723.704424743540585 ], [ 437104.384215286234394, 3695682.375222366303205 ], [ 438142.129800086724572, 3695675.687465156894177 ], [ 438404.304690200602636, 3696634.42747221654281 ], [ 437366.597884511691518, 3696641.089055162388831 ], [ 437628.873415728681721, 3697599.845948996488005 ], [ 438666.541431043879129, 3697593.21056301984936 ], [ 438928.840019744762685, 3698552.036763463169336 ], [ 441004.095706888707355, 3698539.15251199901104 ], [ 443104.089063049876131, 3706211.739001835230738 ], [ 444141.404855585540645, 3706205.675165710039437 ], [ 443616.113408575067297, 3704287.215780632570386 ], [ 444653.506101761478931, 3704281.210522195324302 ], [ 444128.539521720726043, 3702362.871661488432437 ], [ 443091.069136792502832, 3702368.929834287147969 ], [ 442566.272063411481213, 3700450.817118476610631 ], [ 443603.820094897469971, 3700444.706122370902449 ], [ 443341.55307118059136, 3699485.68828339362517 ], [ 446454.308536575117614, 3699467.944473535288125 ], [ 446716.459167831810191, 3700427.041613765526563 ], [ 447754.003903591190465, 3700421.376268413383514 ], [ 448016.177495090174489, 3701380.543268016073853 ], [ 449053.682650310918689, 3701375.015874449629337 ], [ 449578.137443309708033, 3703293.533235963433981 ], [ 450615.564217214821838, 3703288.170487044379115 ], [ 450353.344768648210447, 3702328.863469649106264 ], [ 451390.809611324337311, 3702323.58557206299156 ], [ 451128.690681345353369, 3701364.295401798561215 ], [ 450091.187040537304711, 3701369.599919263739139 ], [ 449829.091035799006931, 3700410.379809821024537 ], [ 448791.547854383883532, 3700415.822333989664912 ], [ 448267.463478233141359, 3698497.565403476823121 ], [ 449305.084208099346142, 3698492.069809596985579 ], [ 449567.056757348706014, 3699451.203115274664015 ], [ 451642.218421024561394, 3699440.599118217360228 ], [ 450856.718476713052951, 3696563.170006112195551 ], [ 455007.498056618729606, 3696542.979041115846485 ], [ 455530.793119969370309, 3698461.434643926098943 ], [ 453455.55965812865179, 3698471.200960961170495 ], [ 453717.377176797075663, 3699430.440641863271594 ], [ 452679.798154600488488, 3699435.464190267492086 ], [ 452941.716119638818782, 3700394.720692277420312 ] ], [ [ 455504.272660025104415, 3683098.747371900826693 ], [ 454466.040789734921418, 3683103.55525022931397 ], [ 454726.678182797448244, 3684062.234573205001652 ], [ 450573.897851807938423, 3684082.469582639168948 ], [ 450052.376346857112367, 3682165.364971202332526 ], [ 453167.193974799534772, 3682149.864246567711234 ], [ 452906.641412564786151, 3681191.297570672351867 ], [ 453944.951037415128667, 3681186.326034949626774 ], [ 454205.465073640632909, 3682144.919079420622438 ], [ 455243.735476862522773, 3682140.084781788289547 ], [ 455504.272660025104415, 3683098.747371900826693 ] ], [ [ 454745.943028592504561, 3695583.816423552576452 ], [ 455783.674894724797923, 3695579.02026488725096 ], [ 456045.191218611609656, 3696538.209534667432308 ], [ 455007.498056618729606, 3696542.979041115846485 ], [ 454745.943028592504561, 3695583.816423552576452 ] ] ], [ [ [ 443866.148912708740681, 3701403.7672397387214 ], [ 444903.657283682376146, 3701397.794085789006203 ], [ 444641.367279071710072, 3700438.706540036015213 ], [ 443603.820094897469971, 3700444.706122370902449 ], [ 443866.148912708740681, 3701403.7672397387214 ] ] ], [ [ [ 445455.714712331420742, 3711002.583791416604072 ], [ 445192.729182416573167, 3710043.115086103789508 ], [ 442081.246168856858276, 3710061.323167834896594 ], [ 442607.512673339282628, 3711980.144620375242084 ], [ 440533.342189655522816, 3711992.735777124762535 ], [ 440796.646096610755194, 3712952.158645495772362 ], [ 442870.738633803848643, 3712939.620583515614271 ], [ 443134.026395871071145, 3713899.140072766225785 ], [ 447282.045486902468838, 3713875.511947800870985 ], [ 447545.239117096178234, 3714835.181699190288782 ], [ 450656.128230740083382, 3714818.7149140201509 ], [ 450393.051502421381883, 3713858.964834854472429 ], [ 448319.048257061920594, 3713869.884436944033951 ], [ 447529.954745307681151, 3710991.056834309827536 ], [ 445455.714712331420742, 3711002.583791416604072 ] ] ], [ [ [ 444187.795401932788081, 3717737.653814366552979 ], [ 443924.260462580132298, 3716777.959958884399384 ], [ 442887.370624966919422, 3716784.066623981576413 ], [ 443150.944591982464772, 3717743.733803653158247 ], [ 444187.795401932788081, 3717737.653814366552979 ] ] ], [ [ [ 448635.385666555259377, 3726365.525012018624693 ], [ 448107.422066106810234, 3724445.285796766169369 ], [ 447070.846350008156151, 3724450.954174919519573 ], [ 447598.88818124512909, 3726371.139536100439727 ], [ 448635.385666555259377, 3726365.525012018624693 ] ] ], [ [ [ 448391.414040198898874, 3729251.747020306997001 ], [ 448920.073319813236594, 3731172.371946236118674 ], [ 450992.676000386243686, 3731161.525288596749306 ], [ 450728.393843508034479, 3730201.136679124087095 ], [ 449692.053698462317698, 3730206.53093195753172 ], [ 449427.794093992095441, 3729246.213449744042009 ], [ 448391.414040198898874, 3729251.747020306997001 ] ] ], [ [ [ 450992.676000386243686, 3731161.525288596749306 ], [ 452050.42171529418556, 3735003.520942245144397 ], [ 454122.70794032770209, 3734993.340995797887444 ], [ 453329.54130232782336, 3732111.614888294134289 ], [ 452293.280937113100663, 3732116.730269598308951 ], [ 452028.97624925384298, 3731156.270432170014828 ], [ 450992.676000386243686, 3731161.525288596749306 ] ] ], [ [ [ 464484.101018370303791, 3734949.186740039847791 ], [ 464748.221269584842958, 3735910.124651191756129 ], [ 468892.606344701373018, 3735895.721181748900563 ], [ 468628.64276985405013, 3734934.672847913112491 ], [ 469664.777016089414246, 3734931.325423485133797 ], [ 468346.077574798953719, 3730126.613743214402348 ], [ 469382.406975383870304, 3730123.24056153697893 ], [ 469118.890721973613836, 3729162.404146821238101 ], [ 467046.153278234298341, 3729169.31789143756032 ], [ 467573.403668116603512, 3731090.924950580578297 ], [ 466537.11242381244665, 3731094.495155122131109 ], [ 467064.687174489896279, 3733016.224935150239617 ], [ 464992.259706422046293, 3733023.592164909467101 ], [ 464728.363293035537936, 3732062.760114034637809 ], [ 465764.616413996554911, 3732058.992795118130744 ], [ 465500.820686146907974, 3731098.177666252478957 ], [ 464464.528439841000363, 3731101.972484417725354 ], [ 464200.755149852135219, 3730141.22924944665283 ], [ 462128.090829791733995, 3730149.210676524788141 ], [ 462919.830176284303889, 3733031.408850285690278 ], [ 461883.614599793567322, 3733035.48574000550434 ], [ 462147.690040320565458, 3733996.279771828558296 ], [ 461111.5130676276749, 3734000.441594303585589 ], [ 461375.689273201103788, 3734961.252575764898211 ], [ 460339.550908957084175, 3734965.499364812858403 ], [ 460868.166503813758027, 3736887.199656733311713 ], [ 461904.226472190348431, 3736883.007791882846504 ], [ 461639.927075725106988, 3735922.107966075651348 ], [ 463712.123743444273714, 3735914.006639877334237 ], [ 463447.964312670053914, 3734953.09626387199387 ], [ 464484.101018370303791, 3734949.186740039847791 ] ] ] ] } }
]
}
