{
"type": "FeatureCollection",
"name": "urban-2005",
"crs": { "type": "name", "properties": { "name": "urn:ogc:def:crs:EPSG::32638" } },
"features": [
{ "type": "Feature", "properties": { "year": 2005 }, "geometry": { "type": "MultiPolygon", "coordinates": [ [ [ [ 394990.31702879210934, 3671086.879871708340943 ], [ 394466.672734780469909, 3669173.504693507682532 ], [ 392388.923251992324367, 3669196.173807701095939 ], [ 392912.72210391954286, 3671109.450746381189674 ], [ 390835.120629204204306, 3671132.463976759463549 ], [ 391097.190896154905204, 3672089.115698794834316 ], [ 390058.426336243981495, 3672100.76370513252914 ], [ 390320.597645526984707, 3673057.432449676562101 ], [ 392398.047737270826474, 3673034.296120910905302 ], [ 392135.953791797626764, 3672077.578312116675079 ], [ 394213.474653749668505, 3672054.835392107721418 ], [ 393951.520377148292027, 3671098.11001527775079 ], [ 394990.31702879210934, 3671086.879871708340943 ] ] ], [ [ [ 382562.264186043292284, 3682746.28094666544348 ], [ 382825.509709895006381, 3683703.161937377415597 ], [ 383863.826245251926593, 3683690.700004022102803 ], [ 383600.619577107427176, 3682733.794527228921652 ], [ 382562.264186043292284, 3682746.28094666544348 ] ] ], [ [ [ 386203.645429581054486, 3684623.105239708442241 ], [ 385940.454043675970752, 3683666.109043718315661 ], [ 383863.826245251926593, 3683690.700004022102803 ], [ 384127.095349688024726, 3684647.647099111694843 ], [ 386203.645429581054486, 3684623.105239708442241 ] ] ], [ [ [ 384127.095349688024726, 3684647.647099111694843 ], [ 383088.81768109172117, 3684660.084523884113878 ], [ 383615.620954805868678, 3686574.054585217498243 ], [ 384653.820856709498912, 3686561.666245165280998 ], [ 384127.095349688024726, 3684647.647099111694843 ] ] ], [ [ [ 382840.953491587715689, 3687543.576956919860095 ], [ 383879.116251964471303, 3687531.102110560517758 ], [ 383615.620954805868678, 3686574.054585217498243 ], [ 382577.419289490790106, 3686586.553979819640517 ], [ 382840.953491587715689, 3687543.576956919860095 ] ] ], [ [ [ 415799.075913086591754, 3686241.649399296380579 ], [ 413722.76599953812547, 3686259.875105407554656 ], [ 413985.135189444408752, 3687217.64668384520337 ], [ 416061.367589478730224, 3687199.471779651474208 ], [ 415799.075913086591754, 3686241.649399296380579 ] ] ], [ [ [ 414247.566493742808234, 3688175.460613372735679 ], [ 413209.487122546357568, 3688184.689249711111188 ], [ 413472.019324612047058, 3689142.520151749718934 ], [ 414510.059909654897638, 3689133.316919534467161 ], [ 414247.566493742808234, 3688175.460613372735679 ] ] ], [ [ [ 388838.991476224502549, 3694195.364246504381299 ], [ 388575.176096659852192, 3693237.950025569181889 ], [ 390651.01898742665071, 3693214.29708493873477 ], [ 390387.343893136363477, 3692256.875162068288773 ], [ 391425.301797003601678, 3692245.190705265384167 ], [ 390371.380779852159321, 3688415.822944845538586 ], [ 389333.267220433976036, 3688427.606580500956625 ], [ 388280.188604681519791, 3684599.007357199210674 ], [ 386203.645429581054486, 3684623.105239708442241 ], [ 386466.899226973531768, 3685580.143124270252883 ], [ 387505.132806896232069, 3685568.063301483634859 ], [ 387768.410139163141139, 3686525.167537255212665 ], [ 386730.215433165780269, 3686537.222722675185651 ], [ 386993.594045467965771, 3687494.344060219824314 ], [ 383879.116251964471303, 3687531.102110560517758 ], [ 384142.673985746863764, 3688488.191332722548395 ], [ 383104.55014137213584, 3688500.641608300153166 ], [ 383895.714750018029008, 3691372.085861050058156 ], [ 382857.705965932807885, 3691384.573484590742737 ], [ 383385.539169205061626, 3693299.029199677985162 ], [ 384423.47001166222617, 3693286.590864938218147 ], [ 384951.474999564292375, 3695201.26317375479266 ], [ 385989.326121911639348, 3695188.985525466501713 ], [ 385461.39910998090636, 3693274.263781652785838 ], [ 386499.326479817798827, 3693262.047948319930583 ], [ 386763.21979942364851, 3694219.412617242429405 ], [ 388838.991476224502549, 3694195.364246504381299 ] ] ], [ [ [ 413472.019324612047058, 3689142.520151749718934 ], [ 412433.977430618775543, 3689151.834485320840031 ], [ 412696.610554720566142, 3690109.68236824683845 ], [ 413734.61364667431917, 3690100.393433392513543 ], [ 413472.019324612047058, 3689142.520151749718934 ] ] ], [ [ [ 411921.340213264862541, 3691076.947305770590901 ], [ 412959.305807204334997, 3691067.572633742820472 ], [ 412696.610554720566142, 3690109.68236824683845 ], [ 411658.606142849836033, 3690119.082433594856411 ], [ 411921.340213264862541, 3691076.947305770590901 ] ] ], [ [ [ 404655.542913404351566, 3691145.682545623276383 ], [ 403617.566233535064384, 3691155.946527920663357 ], [ 403880.673244718811475, 3692113.651465936563909 ], [ 404918.611057350237388, 3692103.412675651255995 ], [ 404655.542913404351566, 3691145.682545623276383 ] ] ], [ [ [ 395577.117174369515851, 3692199.564996846485883 ], [ 394539.165734412730671, 3692210.804608926642686 ], [ 394802.685091701103374, 3693168.326104119420052 ], [ 395840.597609666408971, 3693157.111454982776195 ], [ 395577.117174369515851, 3692199.564996846485883 ] ] ], [ [ [ 403880.673244718811475, 3692113.651465936563909 ], [ 401804.793249350332189, 3692134.462639512959868 ], [ 402068.040254930616356, 3693092.159462405368686 ], [ 404143.842479110171553, 3693071.398634146433324 ], [ 403880.673244718811475, 3692113.651465936563909 ] ] ], [ [ [ 392990.514836142712738, 3694148.602775044273585 ], [ 394028.391602038231213, 3694137.190580100752413 ], [ 393501.212701976648532, 3692222.155430098064244 ], [ 391425.301797003601678, 3692245.190705265384167 ], [ 391688.937949668848887, 3693202.637479304801673 ], [ 392726.855277358612511, 3693191.089114893227816 ], [ 392990.514836142712738, 3694148.602775044273585 ] ] ], [ [ [ 403369.212447358469944, 3694039.487649702001363 ], [ 403895.939829481067136, 3695955.142880523111671 ], [ 404933.723493990604766, 3695944.893775320611894 ], [ 404670.367606502666604, 3694987.019763282965869 ], [ 405708.188750563887879, 3694976.856684736441821 ], [ 405444.933978687215131, 3694018.999719661194831 ], [ 403369.212447358469944, 3694039.487649702001363 ] ] ], [ [ [ 400272.078374621109106, 3697912.875139644369483 ], [ 403385.20886881777551, 3697881.277245011180639 ], [ 403121.650677082827315, 3696923.369114228058606 ], [ 404159.396856919222046, 3696913.033947801683098 ], [ 403895.939829481067136, 3695955.142880523111671 ], [ 400782.580086047761142, 3695986.558063691016287 ], [ 400519.068503206828609, 3695028.78490190487355 ], [ 401556.895489364746027, 3695018.176691052503884 ], [ 401293.485085965774488, 3694060.420597596094012 ], [ 402331.349503244040534, 3694049.898495784960687 ], [ 402068.040254930616356, 3693092.159462405368686 ], [ 398954.325794613570906, 3693124.134916212409735 ], [ 398690.96209602477029, 3692166.513401523698121 ], [ 397653.015339509118348, 3692177.41939449403435 ], [ 398179.8828386713285, 3694092.654450292699039 ], [ 397142.012372262426652, 3694103.621587977744639 ], [ 396878.508555702748708, 3693146.00804152013734 ], [ 395840.597609666408971, 3693157.111454982776195 ], [ 396104.14035445114132, 3694114.699987938161939 ], [ 395066.266769591835327, 3694125.889651524368674 ], [ 395329.910765358130448, 3695083.495276608038694 ], [ 393254.236735027981922, 3695106.158467646222562 ], [ 393518.020971292804461, 3696063.756218167953193 ], [ 394555.819818058807869, 3696052.393950378056616 ], [ 394819.627412739151623, 3697010.058781817555428 ], [ 397932.897584825172089, 3696976.715066835749894 ], [ 398196.650567517266609, 3697934.497258006129414 ], [ 399234.365229238464963, 3697923.630512428935617 ], [ 399498.141517609532457, 3698881.480083246715367 ], [ 400535.815688830509316, 3698870.74989306833595 ], [ 400272.078374621109106, 3697912.875139644369483 ] ], [ [ 398443.410016390902456, 3695050.33518373966217 ], [ 398706.999475886346772, 3696008.058088223449886 ], [ 395593.617076272785198, 3696041.14300485374406 ], [ 395329.910765358130448, 3695083.495276608038694 ], [ 398443.410016390902456, 3695050.33518373966217 ] ] ], [ [ [ 390668.57827249658294, 3697056.075978076085448 ], [ 392744.106072408263572, 3697032.844673956744373 ], [ 393008.053967512911186, 3697990.501624566502869 ], [ 394045.776445061143022, 3697979.07799490634352 ], [ 394309.747677109669894, 3698936.802072131074965 ], [ 395347.429561792348977, 3698925.51486481865868 ], [ 394819.627412739151623, 3697010.058781817555428 ], [ 393781.867542212712578, 3697021.396052089054137 ], [ 393518.020971292804461, 3696063.756218167953193 ], [ 389366.809386182460003, 3696110.318539859261364 ], [ 389630.811911154771224, 3697067.858663155697286 ], [ 388593.043888067360967, 3697079.752705492544919 ], [ 388857.147801357321441, 3698037.309966701082885 ], [ 390932.604166843055282, 3698013.683028106112033 ], [ 390668.57827249658294, 3697056.075978076085448 ] ] ], [ [ [ 419832.243369351723231, 3719832.718251996673644 ], [ 418795.446329203667119, 3719841.432569059543312 ], [ 419060.14450824575033, 3720800.597290877252817 ], [ 420096.902378198574297, 3720791.909044274594635 ], [ 419832.243369351723231, 3719832.718251996673644 ] ] ], [ [ [ 419324.904748191824183, 3721759.805175849236548 ], [ 418288.184863282425795, 3721768.579386617057025 ], [ 418553.046358654391952, 3722727.80437260819599 ], [ 419589.727046201645862, 3722719.056250040885061 ], [ 419324.904748191824183, 3721759.805175849236548 ] ] ], [ [ [ 432150.431442000321113, 3741858.791060218121856 ], [ 430078.656454532407224, 3741873.769758166745305 ], [ 430344.584205711493269, 3742834.067132882308215 ], [ 432416.280382709228434, 3742819.141942359507084 ], [ 432150.431442000321113, 3741858.791060218121856 ] ] ], [ [ [ 439921.451265584910288, 3652484.623746993951499 ], [ 442000.379515059874393, 3652472.129488121718168 ], [ 441224.305146109662019, 3649600.757121249567717 ], [ 440184.726922860601917, 3649607.025863062124699 ], [ 440443.394734940200578, 3650564.082267936319113 ], [ 439403.853763894934673, 3650570.435440102592111 ], [ 439921.451265584910288, 3652484.623746993951499 ] ] ], [ [ [ 443293.831932172412053, 3672605.684292980469763 ], [ 444332.493403845233843, 3672599.70231883181259 ], [ 444853.01089371717535, 3674515.79205234348774 ], [ 445891.594601365679409, 3674509.972687692847103 ], [ 445631.343426600622479, 3673551.880432968493551 ], [ 446669.964766595920082, 3673546.145669267047197 ], [ 446149.724622098961845, 3671630.037385056726635 ], [ 443033.627422425779514, 3671647.729452463798225 ], [ 443293.831932172412053, 3672605.684292980469763 ] ] ], [ [ [ 428757.543529553397093, 3676539.385424270760268 ], [ 427719.020473955199122, 3676547.034781433641911 ], [ 427980.150568766635843, 3677504.790197457652539 ], [ 429018.635051462275442, 3677497.166450163349509 ], [ 428757.543529553397093, 3676539.385424270760268 ] ] ], [ [ [ 433478.19181132176891, 3697627.500834749545902 ], [ 431402.84506463247817, 3697641.996294570621103 ], [ 431665.415359426755458, 3698600.639546985737979 ], [ 434778.317497356678359, 3698579.141600600909442 ], [ 435040.833209627715405, 3699537.906135508790612 ], [ 438153.610052661038935, 3699517.489023347850889 ], [ 438416.071152636199258, 3700476.375255683902651 ], [ 439453.622729226364754, 3700469.818596921861172 ], [ 439191.200453430472407, 3699510.906099454499781 ], [ 441266.378528180997819, 3699498.07441707700491 ], [ 441791.12962654675357, 3701416.047874017618597 ], [ 440753.618680204206612, 3701422.355355841573328 ], [ 441278.694720606203191, 3703340.449091905262321 ], [ 442316.127980040211696, 3703334.194366478826851 ], [ 442578.719870235072449, 3704293.332566017750651 ], [ 441541.325471192889381, 3704299.560879095923156 ], [ 442066.772418682114221, 3706217.914421872235835 ], [ 445178.719811819144525, 3706199.722912761382759 ], [ 444916.082066989678424, 3705240.445013219490647 ], [ 443878.728236626135185, 3705246.423780308105052 ], [ 443616.113408575067297, 3704287.215780632570386 ], [ 444653.506101761478931, 3704281.210522195324302 ], [ 444390.991919037885964, 3703322.019413633272052 ], [ 445428.422629717795644, 3703316.099184733815491 ], [ 445166.00906819710508, 3702356.924958681222051 ], [ 444128.539521720726043, 3702362.871661488432437 ], [ 443866.148912708740681, 3701403.7672397387214 ], [ 444903.657283682376146, 3701397.794085789006203 ], [ 444641.367279071710072, 3700438.706540036015213 ], [ 446716.459167831810191, 3700427.041613765526563 ], [ 446978.671559295675252, 3701386.182100634090602 ], [ 448016.177495090174489, 3701380.543268016073853 ], [ 448278.412832584406715, 3702339.753663033246994 ], [ 449315.879180923919193, 3702334.252833087462932 ], [ 449578.137443309708033, 3703293.533235963433981 ], [ 451652.990250438975636, 3703282.919232112821192 ], [ 451128.690681345353369, 3701364.295401798561215 ], [ 450091.187040537304711, 3701369.599919263739139 ], [ 449829.091035799006931, 3700410.379809821024537 ], [ 450866.633463422127534, 3700405.048695241566747 ], [ 450604.637960473250132, 3699445.845426340587437 ], [ 451642.218421024561394, 3699440.599118217360228 ], [ 451380.32339578832034, 3698481.412681193090975 ], [ 453455.55965812865179, 3698471.200960961170495 ], [ 453717.377176797075663, 3699430.440641863271594 ], [ 452679.798154600488488, 3699435.464190267492086 ], [ 452941.716119638818782, 3700394.720692277420312 ], [ 455016.795947731181514, 3700384.838320067152381 ], [ 455278.69806193781551, 3701344.191696436144412 ], [ 453203.695777014247142, 3701354.020677461288869 ], [ 453727.840157073573209, 3703272.751201657112688 ], [ 454765.264061600784771, 3703267.834424898028374 ], [ 455289.577549049514346, 3705186.792717399541289 ], [ 454252.231271348311566, 3705191.655971641186625 ], [ 456615.043991332408041, 3713828.889339064247906 ], [ 454541.049245943431742, 3713838.46729089692235 ], [ 455066.952757007442415, 3715758.22627481026575 ], [ 457140.791723248665221, 3715748.756204311270267 ], [ 457403.758058554725721, 3716708.755477188620716 ], [ 458440.637621645350009, 3716704.215276319067925 ], [ 458966.677271159307566, 3718624.399796842131764 ], [ 457929.875653042981867, 3718628.885835097637028 ], [ 458193.026906290731858, 3719589.016972839366645 ], [ 459229.78953483508667, 3719584.558050285093486 ], [ 459492.963420491782017, 3720544.760334359481931 ], [ 460529.686446924228221, 3720540.440548864193261 ], [ 460792.882943480100948, 3721500.71407974511385 ], [ 459756.19892515137326, 3721505.00667546922341 ], [ 460019.496045834734105, 3722465.297100030817091 ], [ 462092.785466214059852, 3722456.878388302400708 ], [ 461040.278693761036266, 3718615.763546001166105 ], [ 460003.478279596834909, 3718620.025700653903186 ], [ 459740.466614785604179, 3717659.88433051481843 ], [ 461814.144799286790658, 3717651.417635817546397 ], [ 461288.462123962235637, 3715731.158356299158186 ], [ 459214.628137746010907, 3715739.733566269278526 ], [ 458951.801331462222151, 3714779.724119448568672 ], [ 459988.75755586347077, 3714775.353505857754499 ], [ 459726.031299120804761, 3713815.360923332627863 ], [ 458689.03615062800236, 3713819.758594384416938 ], [ 458426.332598209439311, 3712859.836964759044349 ], [ 457389.297917107061949, 3712864.373442891985178 ], [ 457126.617090448969975, 3711904.522665930911899 ], [ 458163.690677169302944, 3711899.959204275161028 ], [ 457901.1103904703632, 3710940.125286644790322 ], [ 456863.997909502242692, 3710944.715708953794092 ], [ 455814.137701880477834, 3707105.925555956549942 ], [ 456851.40564621827798, 3707101.227519568055868 ], [ 456326.923156946781091, 3705182.041010965127498 ], [ 457364.268110580393113, 3705177.40085175819695 ], [ 457102.158157424128149, 3704217.846270559821278 ], [ 461251.686938975821249, 3704200.29349750559777 ], [ 460727.962236922816373, 3702281.100355608388782 ], [ 459690.503399127686862, 3702285.375087805092335 ], [ 459166.947618335892912, 3700366.410448872949928 ], [ 460204.48396325064823, 3700362.081993039697409 ], [ 459681.25214156677248, 3698443.238200638908893 ], [ 458643.638334911607672, 3698447.620289023034275 ], [ 458382.076137070485856, 3697488.290573481936008 ], [ 457344.422990164137445, 3697492.810763776767999 ], [ 457082.883718662080355, 3696533.551320957485586 ], [ 458120.575572396686766, 3696529.004399417433888 ], [ 457597.759354295034427, 3694610.562571479473263 ], [ 458635.527948407339863, 3694606.073490960989147 ], [ 458374.250969391781837, 3693646.891093789599836 ], [ 457336.443706733640283, 3693651.406865524593741 ], [ 456552.866645152564161, 3690774.200267548672855 ], [ 457590.789845541410614, 3690769.604558377061039 ], [ 456547.03802045492921, 3686933.829738728236407 ], [ 457585.11498799326364, 3686929.238773411605507 ], [ 456803.064163782983087, 3684052.782625570893288 ], [ 460955.828386771725491, 3684035.209821397438645 ], [ 460695.422194086713716, 3683076.37142485845834 ], [ 458618.964280897343997, 3683084.989116982091218 ], [ 458358.542670509021264, 3682126.247100149281323 ], [ 459396.810448951204307, 3682121.856274811085314 ], [ 458876.229132644075435, 3680204.448869662825018 ], [ 457837.884356843598653, 3680208.892690891865641 ], [ 458098.182694852817804, 3681167.548300068825483 ], [ 456021.568202967231628, 3681176.715487072709948 ], [ 455240.627184064942412, 3678301.036660077050328 ], [ 457317.472605402581394, 3678291.71094194194302 ], [ 457057.359197783574928, 3677333.18475054949522 ], [ 458095.819384988280945, 3677328.661604883614928 ], [ 457835.806074555381201, 3676370.152104820590466 ], [ 458874.304067003366072, 3676365.713260674849153 ], [ 458614.39082978409715, 3675407.220443146303296 ], [ 460691.461801653378643, 3675398.621958025731146 ], [ 460431.687026087427512, 3674440.119378575589508 ], [ 462508.832411915587727, 3674431.910610262304544 ], [ 461989.621258492639754, 3672514.928951081819832 ], [ 459912.322316526144277, 3672523.243495606351644 ], [ 460171.973863409308251, 3673481.659899689722806 ], [ 458094.749255844391882, 3673490.364026042167097 ], [ 458354.539225096290465, 3674448.770706853363663 ], [ 457315.964379297045525, 3674453.262332291342318 ], [ 457575.854405024438165, 3675411.685689210891724 ], [ 454460.241185401566327, 3675425.745448013301939 ], [ 454980.436845065327361, 3677342.563222092110664 ], [ 452903.511749151046388, 3677352.384604427497834 ], [ 452643.3061557089095, 3676394.006804771255702 ], [ 449527.797669323452283, 3676409.64802934974432 ], [ 450048.501428728806786, 3678326.289192860946059 ], [ 449010.074059425794985, 3678331.671973602380604 ], [ 448749.652821562136523, 3677373.356120883021504 ], [ 446672.718736806767993, 3677384.506265248171985 ], [ 446933.216976121068001, 3678342.769814445171505 ], [ 445894.7872305031633, 3678348.484875900205225 ], [ 444853.01089371717535, 3674515.79205234348774 ], [ 443814.42634458251996, 3674521.722066229674965 ], [ 443554.098240508232266, 3673563.681822368409485 ], [ 442515.47436270059552, 3673569.748449510894716 ], [ 440954.572955884737894, 3667822.558402233757079 ], [ 441993.427426271839067, 3667816.336467649322003 ], [ 441473.698293688357808, 3665900.895443985704333 ], [ 442512.628641059156507, 3665894.732317200861871 ], [ 440955.155005704553332, 3660149.274275424424559 ], [ 441994.314472743018996, 3660143.0669781784527 ], [ 441475.727735947351903, 3658228.202264507766813 ], [ 442514.962879049649928, 3658222.053795259911567 ], [ 441737.661190671438817, 3655349.997366108000278 ], [ 439658.960450983722694, 3655362.558253786992282 ], [ 439918.075696466199588, 3656319.816850663162768 ], [ 437839.447745299199596, 3656332.766986738890409 ], [ 438617.394156763097271, 3659204.642973544541746 ], [ 437578.193608045519795, 3659211.206555743701756 ], [ 437837.671089091454633, 3660168.557538400404155 ], [ 438876.833329867746215, 3660162.019554754719138 ], [ 439136.3343495883164, 3661119.438471046276391 ], [ 440175.457335202780087, 3661113.036365982145071 ], [ 440434.981872953998391, 3662070.523314140737057 ], [ 439395.897213107498828, 3662076.899747813120484 ], [ 439655.521917604608461, 3663034.403410460334271 ], [ 438616.474667674105149, 3663040.864464117214084 ], [ 438876.199562959081959, 3663998.384849932976067 ], [ 436798.178936991665978, 3664011.586609675548971 ], [ 437058.042419962352142, 3664969.098072906956077 ], [ 438097.01483731076587, 3664962.4676757408306 ], [ 438876.861285597726237, 3667835.333634578157216 ], [ 439915.717580963566434, 3667828.890790950506926 ], [ 440175.751680543879047, 3668786.623502980917692 ], [ 439136.933798248879611, 3668793.040574368089437 ], [ 439397.068154463544488, 3669750.790033398661762 ], [ 438358.287769088288769, 3669757.291821924038231 ], [ 438618.522405999770854, 3670715.058036611415446 ], [ 439657.264351410092786, 3670708.582037179265171 ], [ 440177.842256159055978, 3672624.293781120330095 ], [ 439139.177224274957553, 3672630.718134925700724 ], [ 439660.079416255583055, 3674546.548628807533532 ], [ 435505.717756495170761, 3674573.14563953736797 ], [ 435766.415639517537784, 3675531.021523222792894 ], [ 434727.86132250825176, 3675537.921653235331178 ], [ 434467.124920930946246, 3674580.071530762594193 ], [ 433428.531085426046047, 3674587.108079074881971 ], [ 434472.002185566234402, 3678418.6609818614088 ], [ 433433.561512031941675, 3678425.705232655163854 ], [ 433694.622600678878371, 3679383.674142375122756 ], [ 432656.219490722171031, 3679390.803397091571242 ], [ 432134.082075508951675, 3677474.95968409627676 ], [ 429018.635051462275442, 3677497.166450163349509 ], [ 429279.788525800046045, 3678454.98995511000976 ], [ 428241.34262718813261, 3678462.588070016354322 ], [ 427980.150568766635843, 3677504.790197457652539 ], [ 426941.664989038952626, 3677512.524692261125892 ], [ 427202.895636143162847, 3678470.29696047399193 ], [ 426164.447536860243417, 3678478.116627424955368 ], [ 426425.778760413406417, 3679435.905756351538002 ], [ 425387.368146169232205, 3679443.810629957355559 ], [ 425910.293783234374132, 3681359.465091827791184 ], [ 429025.290556002699304, 3681336.236682354006916 ], [ 429548.232275034184568, 3683252.215175182092935 ], [ 425395.210181127535179, 3683283.202801813837141 ], [ 425656.928612979012541, 3684241.153160126879811 ], [ 421504.043123503215611, 3684273.813158466946334 ], [ 421242.169966932735406, 3683315.965141819790006 ], [ 419165.642749584745616, 3683333.011849197559059 ], [ 418903.754261308407877, 3682375.257219568826258 ], [ 416827.144749095430598, 3682392.798475032672286 ], [ 417089.1106239996152, 3683350.502259179018438 ], [ 413974.302956941537559, 3683377.569835277274251 ], [ 414236.447061374667101, 3684335.239832864608616 ], [ 413198.213974001642782, 3684344.458899664692581 ], [ 412936.031143917469308, 3683386.814221334178001 ], [ 409821.207712250412442, 3683415.212977374438196 ], [ 410083.506747717445251, 3684372.781865916680545 ], [ 408007.028469267883338, 3684392.218659849837422 ], [ 408531.968060787650757, 3686307.382174543105066 ], [ 407493.804377819527872, 3686317.216649705544114 ], [ 407756.406221906247083, 3687274.836494386196136 ], [ 406718.279929539188743, 3687284.75680176820606 ], [ 407243.747776969277766, 3689200.072713761590421 ], [ 409319.843737955437973, 3689180.44410560419783 ], [ 409057.156343928247225, 3688222.714540054555982 ], [ 410095.241064072644804, 3688213.041603415738791 ], [ 410357.889652988698799, 3689170.796461092308164 ], [ 411395.934211977291852, 3689161.259921386372298 ], [ 410608.291284328384791, 3686288.046289070975035 ], [ 411646.450856351584662, 3686278.544876402243972 ], [ 412171.406437673897017, 3688194.028959402814507 ], [ 413209.487122546357568, 3688184.689249711111188 ], [ 412422.263264092267491, 3685311.450565721374005 ], [ 415536.846331544336863, 3685283.869389643426985 ], [ 415799.075913086591754, 3686241.649399296380579 ], [ 417875.380722814588808, 3686223.867749175988138 ], [ 417613.228613643557765, 3685266.036870720796287 ], [ 418651.417873042752035, 3685257.287087514065206 ], [ 419175.706694432068616, 3687173.04223570972681 ], [ 422290.034782495524269, 3687147.612040874082595 ], [ 422552.156055919942446, 3688105.63003113726154 ], [ 426704.422199087101035, 3688073.380302675068378 ], [ 426442.455829381477088, 3687115.259609389584512 ], [ 427480.558266633364838, 3687107.449083282146603 ], [ 427218.692580364935566, 3686149.345288930926472 ], [ 428256.832617863896303, 3686141.620042298920453 ], [ 428518.659605534397997, 3687099.749587954487652 ], [ 429556.759861803962849, 3687092.161122467368841 ], [ 429818.610102095233742, 3688050.359137477353215 ], [ 430856.670590811641887, 3688042.907530918251723 ], [ 431118.544063048553653, 3689001.174114238470793 ], [ 430080.522286188032012, 3689008.599868169985712 ], [ 430604.532474455481861, 3690925.209579427726567 ], [ 428528.640673896763474, 3690940.2909653512761 ], [ 428266.527128399233334, 3689982.01643776986748 ], [ 427228.540867951698601, 3689989.749658457934856 ], [ 427752.907423940836452, 3691906.289811095688492 ], [ 426714.997579662012868, 3691914.082553680520505 ], [ 426977.312583301798441, 3692872.390912141185254 ], [ 429053.053635289659724, 3692856.968288893811405 ], [ 429315.353045521478634, 3693815.371136330533773 ], [ 428277.521844446659088, 3693823.000966285355389 ], [ 428539.921996819553897, 3694781.420734185259789 ], [ 432691.08532196469605, 3694751.672559258528054 ], [ 433478.19181132176891, 3697627.500834749545902 ] ], [ [ 449531.101741705322638, 3680248.432503574062139 ], [ 448492.750626886147074, 3680253.873644566163421 ], [ 447971.645913826185279, 3678337.165513906162232 ], [ 449010.074059425794985, 3678331.671973602380604 ], [ 449531.101741705322638, 3680248.432503574062139 ] ], [ [ 448753.395597814931534, 3681212.292139781173319 ], [ 447715.082236393995117, 3681217.817891817074269 ], [ 447454.398728786967695, 3680259.425602006725967 ], [ 448492.750626886147074, 3680253.873644566163421 ], [ 448753.395597814931534, 3681212.292139781173319 ] ], [ [ 440694.568240505759604, 3663028.052670581266284 ], [ 440954.216435030684806, 3663985.624460735358298 ], [ 439915.208460257155821, 3663991.949484411161393 ], [ 439655.521917604608461, 3663034.403410460334271 ], [ 440694.568240505759604, 3663028.052670581266284 ] ], [ [ 428763.912623618263751, 3680378.311286902986467 ], [ 429802.28132050629938, 3680370.764504368416965 ], [ 429541.003949753008783, 3679412.855964659247547 ], [ 430579.410181055427529, 3679405.394307342823595 ], [ 430318.23334778402932, 3678447.502614830154926 ], [ 431356.677108947536908, 3678440.1260482580401 ], [ 431879.015527694369666, 3680356.003430551849306 ], [ 430840.64894993591588, 3680363.328552553895861 ], [ 431101.949651607137639, 3681321.30537605471909 ], [ 429025.290556002699304, 3681336.236682354006916 ], [ 428763.912623618263751, 3680378.311286902986467 ] ], [ [ 435553.534553382196464, 3697613.450721840374172 ], [ 435291.181427928910125, 3696654.74613768607378 ], [ 436328.890135628927965, 3696647.861943376716226 ], [ 436066.637682794593275, 3695689.174256761092693 ], [ 437104.384215286234394, 3695682.375222366303205 ], [ 437628.873415728681721, 3697599.845948996488005 ], [ 435553.534553382196464, 3697613.450721840374172 ] ], [ [ 434766.660833392583299, 3694737.46599043905735 ], [ 435028.890186980133876, 3695696.084569167811424 ], [ 433991.141712208511308, 3695703.106160430237651 ], [ 433728.873577238933649, 3694744.513649031054229 ], [ 434766.660833392583299, 3694737.46599043905735 ] ], [ [ 431371.246269961295184, 3686119.110309446696192 ], [ 431632.957189329434186, 3687077.31727732392028 ], [ 430594.859051163075492, 3687084.683685893658549 ], [ 430333.10944693244528, 3686126.502553479280323 ], [ 431371.246269961295184, 3686119.110309446696192 ] ], [ [ 450573.897851807938423, 3684082.469582639168948 ], [ 450313.10623830097029, 3683123.8957460494712 ], [ 452389.574959593592212, 3683113.503700416069478 ], [ 452650.289454141631722, 3684072.130223950836807 ], [ 450573.897851807938423, 3684082.469582639168948 ] ], [ [ 452128.922164568619337, 3682154.920283833518624 ], [ 453167.193974799534772, 3682149.864246567711234 ], [ 452906.641412564786151, 3681191.297570672351867 ], [ 453944.951037415128667, 3681186.326034949626774 ], [ 454466.040789734921418, 3683103.55525022931397 ], [ 452389.574959593592212, 3683113.503700416069478 ], [ 452128.922164568619337, 3682154.920283833518624 ] ], [ [ 440174.956838239275385, 3664949.537995104212314 ], [ 440434.767048725450877, 3665907.168967989739031 ], [ 439395.834890240395907, 3665913.552889979444444 ], [ 439135.986304755788296, 3664955.947650074027479 ], [ 440174.956838239275385, 3664949.537995104212314 ] ] ], [ [ [ 426201.856180907634553, 3693838.594311370048672 ], [ 427239.689561460108962, 3693830.742024316918105 ], [ 426977.312583301798441, 3692872.390912141185254 ], [ 425939.440411901334301, 3692880.269024746958166 ], [ 426201.856180907634553, 3693838.594311370048672 ] ] ], [ [ [ 435040.833209627715405, 3699537.906135508790612 ], [ 434003.238996391417459, 3699544.934622483793646 ], [ 434265.855438007449266, 3700503.71607517125085 ], [ 435303.410809075576253, 3700496.71374098258093 ], [ 435040.833209627715405, 3699537.906135508790612 ] ] ], [ [ [ 437641.080441218335181, 3701441.946469306014478 ], [ 435566.050292834581342, 3701455.564442926086485 ], [ 435828.751658037712332, 3702414.458267260342836 ], [ 437903.7040905370377, 3702400.892774420790374 ], [ 437641.080441218335181, 3701441.946469306014478 ] ] ], [ [ [ 420003.19221981044393, 3701571.909382567740977 ], [ 418965.659320835955441, 3701580.557373503688723 ], [ 419755.816735776723363, 3704456.119813007768244 ], [ 422868.061384950240608, 3704430.742679611779749 ], [ 422604.73037705430761, 3703472.101512054912746 ], [ 423642.181869184598327, 3703463.839650795795023 ], [ 422852.677747148554772, 3700588.095731454435736 ], [ 419739.969455835933331, 3700613.448366548866034 ], [ 420003.19221981044393, 3701571.909382567740977 ] ] ], [ [ [ 435828.751658037712332, 3702414.458267260342836 ], [ 434791.274005094659515, 3702421.408227668143809 ], [ 435054.0761248380295, 3703380.318979321047664 ], [ 436091.51490181783447, 3703373.395239926408976 ], [ 435828.751658037712332, 3702414.458267260342836 ] ] ], [ [ [ 436369.014970765449107, 3708175.520529896952212 ], [ 435054.0761248380295, 3703380.318979321047664 ], [ 434016.63637381978333, 3703387.354223915375769 ], [ 435331.769791213795543, 3708182.424468292389065 ], [ 436369.014970765449107, 3708175.520529896952212 ] ] ], [ [ [ 441555.226905660820194, 3708142.675506147556007 ], [ 442592.466608627233654, 3708136.441429451107979 ], [ 442855.406412274693139, 3709095.770047707017511 ], [ 443892.606339850695804, 3709089.674138223752379 ], [ 443629.705453109461814, 3708130.318993638269603 ], [ 445704.180628655769397, 3708118.409041701350361 ], [ 445441.419333343859762, 3707159.044246891513467 ], [ 441292.309996798401698, 3707183.416781633161008 ], [ 441555.226905660820194, 3708142.675506147556007 ] ] ], [ [ [ 425486.528397468850017, 3710175.411548607517034 ], [ 426523.705946895934176, 3710167.443225973751396 ], [ 425996.517797387088649, 3708249.584110478870571 ], [ 427033.772238601464778, 3708241.675321949645877 ], [ 426770.310118107066955, 3707282.7843033275567 ], [ 424695.722169019805733, 3707298.765615254174918 ], [ 425486.528397468850017, 3710175.411548607517034 ] ] ], [ [ [ 440006.919860072783194, 3710074.020377066917717 ], [ 438969.755369289079681, 3710080.536530402023345 ], [ 439496.255624770361464, 3711999.198988541495055 ], [ 440533.342189655522816, 3711992.735777124762535 ], [ 440006.919860072783194, 3710074.020377066917717 ] ] ], [ [ [ 438195.848135753360111, 3711046.447478905785829 ], [ 437158.720772555097938, 3711053.160630099009722 ], [ 437422.079771566262934, 3712012.460681383032352 ], [ 438459.168157230946235, 3712005.773956360295415 ], [ 438195.848135753360111, 3711046.447478905785829 ] ] ], [ [ [ 448567.073579140298534, 3710985.460939656477422 ], [ 446492.835128197737504, 3710996.764451331458986 ], [ 446229.888528997078538, 3710037.269117792136967 ], [ 443118.408017836336512, 3710055.142110392916948 ], [ 442855.406412274693139, 3709095.770047707017511 ], [ 441818.205630646436475, 3709101.977626187726855 ], [ 442607.512673339282628, 3711980.144620375242084 ], [ 440533.342189655522816, 3711992.735777124762535 ], [ 440796.646096610755194, 3712952.158645495772362 ], [ 442870.738633803848643, 3712939.620583515614271 ], [ 443134.026395871071145, 3713899.140072766225785 ], [ 446245.041931154206395, 3713881.251266107428819 ], [ 446508.274537392018829, 3714840.894297839608043 ], [ 452730.050606363802217, 3714808.296226256992668 ], [ 452467.051790843717754, 3713848.492454536259174 ], [ 448319.048257061920594, 3713869.884436944033951 ], [ 448055.955340551678091, 3712910.231604385189712 ], [ 449092.996296517201699, 3712904.689147244207561 ], [ 448567.073579140298534, 3710985.460939656477422 ] ] ], [ [ [ 454278.189999786263797, 3712878.653517917264253 ], [ 453241.152684469823726, 3712883.637091730255634 ], [ 453504.050864832941443, 3713843.423970940988511 ], [ 454541.049245943431742, 3713838.46729089692235 ], [ 454278.189999786263797, 3712878.653517917264253 ] ] ], [ [ [ 431956.761087905673776, 3707244.784455446526408 ], [ 432994.048165500396863, 3707237.519352494738996 ], [ 432730.881724844453856, 3706278.51460671145469 ], [ 431693.55570813146187, 3706285.805909431073815 ], [ 431430.412251810368616, 3705326.870501737110317 ], [ 432467.77719637361588, 3705319.553022029809654 ], [ 431415.978261593729258, 3701484.137775269336998 ], [ 432453.4977751520928, 3701476.827266897074878 ], [ 432979.195633206923958, 3703394.500974561553448 ], [ 434016.63637381978333, 3703387.354223915375769 ], [ 433753.795373602129985, 3702428.469665190670639 ], [ 434791.274005094659515, 3702421.408227668143809 ], [ 434265.855438007449266, 3700503.71607517125085 ], [ 433228.299079356656875, 3700510.829830313101411 ], [ 432965.643791050533764, 3699552.074502334930003 ], [ 430890.450341679621488, 3699566.688444156199694 ], [ 430627.779278580565006, 3698608.0282610533759 ], [ 428552.503970960213337, 3698623.13979247584939 ], [ 428289.817162678460591, 3697664.574525266420096 ], [ 429327.494188403710723, 3697656.937108364421874 ], [ 429064.908171635121107, 3696698.388779435306787 ], [ 428027.192314751213416, 3696706.05214064521715 ], [ 427502.128511307993904, 3694789.135915950872004 ], [ 426464.333932821464259, 3694796.96235479041934 ], [ 426726.873664816026576, 3695755.373180757276714 ], [ 425689.116795594454743, 3695763.285034790169448 ], [ 425951.757333943329286, 3696721.712803559843451 ], [ 426989.475374061381444, 3696713.826815037522465 ], [ 427777.652336978644598, 3699589.444825631100684 ], [ 429852.852066459367052, 3699574.162507905624807 ], [ 430115.62392205937067, 3700532.839630193542689 ], [ 429078.063457229407504, 3700540.399077949114144 ], [ 429340.936129530833568, 3701499.093147904612124 ], [ 428303.4134798750747, 3701506.738013987895101 ], [ 428566.386993086023722, 3702465.449040083680302 ], [ 426491.416246233915444, 3702481.021160970441997 ], [ 426754.529536892776377, 3703439.723155233077705 ], [ 428829.422463680093642, 3703424.203055289108306 ], [ 429092.519888810056727, 3704383.000085491221398 ], [ 428055.112885872367769, 3704390.678332475014031 ], [ 428318.31119292951189, 3705349.492333576083183 ], [ 427280.942046452313662, 3705357.256078152917325 ], [ 427544.241259663423989, 3706316.087058606557548 ], [ 428581.571460075792857, 3706308.349378739949316 ], [ 428844.893684460024815, 3707267.249493894632906 ], [ 427807.602441367343999, 3707274.961086276452988 ], [ 428071.025588712887838, 3708233.878187101334333 ], [ 427033.772238601464778, 3708241.675321949645877 ], [ 427297.296333144011442, 3709200.609416889492422 ], [ 428334.510698848345783, 3709192.838387032970786 ], [ 429389.0707101727603, 3713029.110697422642261 ], [ 427314.953011063393205, 3713044.5552550368011 ], [ 427578.825978344422765, 3714003.678930253256112 ], [ 426541.804560832388233, 3714011.542738080024719 ], [ 427069.81453065702226, 3715929.867348546627909 ], [ 426032.870161277009174, 3715937.790642069187015 ], [ 426297.007196496066172, 3716896.991588927805424 ], [ 423186.284713743138127, 3716921.354317958466709 ], [ 422922.030386199126951, 3715962.231812986545265 ], [ 421885.081520764681045, 3715970.602636708877981 ], [ 421620.850116653833538, 3715011.54934736341238 ], [ 420583.860988628934138, 3715020.058096422813833 ], [ 420319.652528689708561, 3714061.073922953568399 ], [ 419282.623124636360444, 3714069.720519448630512 ], [ 419546.870677958941087, 3715028.678703523240983 ], [ 418509.87916920700809, 3715037.411169711966068 ], [ 418774.227887229179032, 3715996.386422358453274 ], [ 417737.274278878467157, 3716005.204792548902333 ], [ 418530.810213908785954, 3718882.310984346549958 ], [ 419567.646412990638055, 3718873.570619702804834 ], [ 419832.243369351723231, 3719832.718251996673644 ], [ 420869.03921919176355, 3719824.115935302805156 ], [ 421398.340944133873563, 3721742.592925812117755 ], [ 420361.623436685826164, 3721751.14302259683609 ], [ 420626.406541968812235, 3722710.420213038567454 ], [ 421663.084861315554008, 3722701.896260554436594 ], [ 421927.890811168937944, 3723661.242856419179589 ], [ 418817.969920511415694, 3723687.072551 ], [ 418553.046358654391952, 3722727.80437260819599 ], [ 415442.996991729654837, 3722754.721264391206205 ], [ 415708.038207364385016, 3723713.911277726758271 ], [ 416744.683339829556644, 3723704.852919015102088 ], [ 417009.747419053397607, 3724664.112131994217634 ], [ 418046.352089132647961, 3724655.191968041937798 ], [ 418311.43901123496471, 3725614.520480622537434 ], [ 417274.87358161091106, 3725623.414543724153191 ], [ 417540.061824658478145, 3726582.760180313140154 ], [ 419613.112976538366638, 3726565.136501553468406 ], [ 420408.814528401824646, 3729443.590123914647847 ], [ 421445.220518724236172, 3729435.025260624941438 ], [ 422506.867341027304064, 3733273.676026101689786 ], [ 424579.361477485101204, 3733257.093930527567863 ], [ 424313.935358298069332, 3732297.313284342642874 ], [ 425350.220060864055995, 3732289.164400473237038 ], [ 425615.606872316042427, 3733248.971471528057009 ], [ 426651.851171886781231, 3733240.961403735447675 ], [ 426386.503663602052256, 3732281.12787973601371 ], [ 427422.786181775329169, 3732273.203721156809479 ], [ 427953.464568311581388, 3734192.967349531594664 ], [ 436243.058958485955372, 3734134.044909258373082 ], [ 436508.176692236564122, 3735094.20540510257706 ], [ 439616.640859389328398, 3735074.044706874527037 ], [ 439881.702600813296158, 3736034.329551359638572 ], [ 441953.929026683792472, 3736021.505069559440017 ], [ 442484.080832851293962, 3737942.314381754025817 ], [ 443520.114184341044165, 3737936.124791374895722 ], [ 442990.040952220908366, 3736015.26152274524793 ], [ 445062.262304635951295, 3736003.111813510768116 ], [ 444267.851471563393716, 3733121.985218381043524 ], [ 445304.078665039443877, 3733115.998039564583451 ], [ 445039.437843758030795, 3732155.683557787910104 ], [ 447111.968261821835767, 3732143.992322546895593 ], [ 446847.467626945232041, 3731183.667867997195572 ], [ 450992.676000386243686, 3731161.525288596749306 ], [ 452050.42171529418556, 3735003.520942245144397 ], [ 451014.277552552928682, 3735008.779556187801063 ], [ 451278.907468957360834, 3735969.361709198914468 ], [ 452315.012401014741044, 3735964.130292202811688 ], [ 452579.664783583139069, 3736924.783869881182909 ], [ 453615.729776936757844, 3736919.692156596574932 ], [ 453351.116632157471031, 3735959.011330726090819 ], [ 454387.220177612965927, 3735954.004824149422348 ], [ 453858.257380031165667, 3734032.721414742060006 ], [ 454894.438679145881906, 3734027.772822627332062 ], [ 454101.574640533654019, 3731146.09766092011705 ], [ 453065.275790877989493, 3731151.127889818046242 ], [ 452801.071968328906223, 3730190.685032484587282 ], [ 449692.053698462317698, 3730206.53093195753172 ], [ 446788.593632652016822, 3719645.455321392975748 ], [ 445751.822538485284895, 3719651.257932951208204 ], [ 444961.149466054921504, 3716771.965188469737768 ], [ 442887.370624966919422, 3716784.066623981576413 ], [ 443414.580357362225186, 3718703.444617515895516 ], [ 442377.767745688033756, 3718709.609859754797071 ], [ 442641.504361267900094, 3719669.337640543002635 ], [ 439531.178518726781476, 3719688.425173015333712 ], [ 439003.532746657845564, 3717769.173003813251853 ], [ 437966.677556887385435, 3717775.812618468422443 ], [ 437175.555617995385546, 3714897.340405845548958 ], [ 438212.527923403889872, 3714890.621254104189575 ], [ 437422.079771566262934, 3712012.460681383032352 ], [ 435347.900183985475451, 3712026.169406298082322 ], [ 434821.088135468191467, 3710107.718153841793537 ], [ 435858.256365503999405, 3710100.755194828845561 ], [ 435331.769791213795543, 3708182.424468292389065 ], [ 432220.028388269885909, 3708203.806165757589042 ], [ 431956.761087905673776, 3707244.784455446526408 ] ], [ [ 435611.399035170907155, 3712985.460029588080943 ], [ 436648.450305693550035, 3712978.576180527452379 ], [ 436911.972028553020209, 3713937.936585633549839 ], [ 434837.94655015860917, 3713951.763268291950226 ], [ 435101.608184892160352, 3714911.114239558577538 ], [ 430953.701597212988418, 3714940.004051607567817 ], [ 430689.883817836991511, 3713980.758441153913736 ], [ 432763.91718778637005, 3713966.037217819131911 ], [ 432500.239401540951803, 3713006.782306824345142 ], [ 434574.346804610511754, 3712992.455666422378272 ], [ 434310.80895113007864, 3712033.191407858859748 ], [ 435347.900183985475451, 3712026.169406298082322 ], [ 435611.399035170907155, 3712985.460029588080943 ] ], [ [ 442702.246715487213805, 3731207.607526002451777 ], [ 440629.631252481311094, 3731220.251273852307349 ], [ 440894.367168002296239, 3732180.414197680540383 ], [ 441930.636105059878901, 3732174.063014683779329 ], [ 442460.214917945326306, 3734094.574334441218525 ], [ 440387.833147828292567, 3734107.281562639400363 ], [ 440122.934338443214074, 3733147.057699328754097 ], [ 439086.702889078645967, 3733153.606764782220125 ], [ 439351.640954500355292, 3734113.803786825854331 ], [ 438315.44786866515642, 3734120.4384187865071 ], [ 438050.470542768889572, 3733160.268209889065474 ], [ 437014.237284257134888, 3733167.042035455815494 ], [ 436749.282558556064032, 3732206.942437106277794 ], [ 434676.73472338746069, 3732220.880672580096871 ], [ 433617.220674962736666, 3728381.133305384311825 ], [ 435690.082365280890372, 3728366.981771431863308 ], [ 435425.437008912616875, 3727407.100905213970691 ], [ 436461.905618547520135, 3727400.166852776892483 ], [ 436197.361330264713615, 3726440.303029987029731 ], [ 435160.853535144298803, 3726447.263706437312067 ], [ 434896.33194688113872, 3725487.470148815773427 ], [ 433859.784014366101474, 3725494.569582737982273 ], [ 433595.285147200571373, 3724534.84618998831138 ], [ 435668.458379117888398, 3724520.706350488122553 ], [ 434611.395059804955963, 3720682.036120443604887 ], [ 436684.877504440781195, 3720668.132287714630365 ], [ 437213.12892669509165, 3722587.486444400157779 ], [ 436176.46641029312741, 3722594.329245628323406 ], [ 436440.72404877882218, 3723554.045129871927202 ], [ 437477.347433973685838, 3723547.228917049244046 ], [ 437741.627801478258334, 3724507.015020901802927 ], [ 439814.793537028192077, 3724493.772194585297257 ], [ 440079.0574674771633, 3725453.655308838933706 ], [ 438005.970026300055906, 3725466.844782223924994 ], [ 438534.840036247216631, 3727386.635382441338152 ], [ 440607.770820614357945, 3727373.552752712741494 ], [ 440872.220237459230702, 3728333.567134982906282 ], [ 437762.940256412141025, 3728353.279200430028141 ], [ 438557.012288350320887, 3731233.344309031963348 ], [ 439593.32221569417743, 3731226.741630134172738 ], [ 439328.608908188936766, 3730266.649371441453695 ], [ 441401.304537075047847, 3730253.727351952344179 ], [ 441136.731477255059872, 3729293.625325940549374 ], [ 443209.502038621925749, 3729281.09878294961527 ], [ 442945.069166278408375, 3728320.986942759715021 ], [ 443981.492359037103597, 3728314.865199762862176 ], [ 444510.341535429179203, 3730235.18651782348752 ], [ 445546.68554402992595, 3730229.230822131503373 ], [ 445811.163612710079178, 3731189.484304626006633 ], [ 443738.553172257321421, 3731201.454132903367281 ], [ 443473.996708261081949, 3730241.25450419774279 ], [ 442437.651047237566672, 3730247.434781991411 ], [ 442702.246715487213805, 3731207.607526002451777 ] ], [ [ 434941.76796960743377, 3733180.926831265445799 ], [ 433905.531882957962807, 3733188.03780319262296 ], [ 433640.459369763033465, 3732228.018322177231312 ], [ 434676.73472338746069, 3732220.880672580096871 ], [ 434941.76796960743377, 3733180.926831265445799 ] ], [ [ 445282.269246957206633, 3729269.021293122321367 ], [ 446318.651631977118086, 3729263.150941304396838 ], [ 446583.028749347897246, 3730223.387416399084032 ], [ 445546.68554402992595, 3730229.230822131503373 ], [ 445282.269246957206633, 3729269.021293122321367 ] ], [ [ 422987.734880168573, 3727499.062373686116189 ], [ 424024.215951788180973, 3727490.781710303854197 ], [ 424289.29277092841221, 3728450.37131381360814 ], [ 423252.850950514141005, 3728458.625667240470648 ], [ 422987.734880168573, 3727499.062373686116189 ] ], [ [ 444489.391014822060242, 3726388.656162908766419 ], [ 445525.890870703966357, 3726382.705110844224691 ], [ 445790.082689711358398, 3727342.809814933221787 ], [ 444753.621979412389919, 3727348.733989907428622 ], [ 444489.391014822060242, 3726388.656162908766419 ] ], [ [ 446034.269850302312989, 3724456.734672085382044 ], [ 447070.846350008156151, 3724450.954174919519573 ], [ 447334.836389523348771, 3725411.024910273961723 ], [ 446298.299003897467628, 3725416.778520033694804 ], [ 446034.269850302312989, 3724456.734672085382044 ] ], [ [ 440323.11095355253201, 3722567.63045505899936 ], [ 440587.212093973648734, 3723527.452861578203738 ], [ 439550.591441217926331, 3723533.932783708442003 ], [ 439286.45118296192959, 3722574.137049924116582 ], [ 440323.11095355253201, 3722567.63045505899936 ] ], [ [ 438249.790512464358471, 3722580.755712770856917 ], [ 437721.617309701337945, 3720661.348391855601221 ], [ 438758.356190765451174, 3720654.676508564502001 ], [ 439286.45118296192959, 3722574.137049924116582 ], [ 438249.790512464358471, 3722580.755712770856917 ] ], [ [ 436420.844595270114951, 3719708.520551221910864 ], [ 435384.064753195329104, 3719715.442980106454343 ], [ 435120.054629943333566, 3718755.901266629807651 ], [ 436156.873557937331498, 3718748.952341017778963 ], [ 436420.844595270114951, 3719708.520551221910864 ] ], [ [ 435629.11711037211353, 3716829.946394738741219 ], [ 436666.013218760082964, 3716823.056445348076522 ], [ 437193.691537394595798, 3718742.115372595377266 ], [ 436156.873557937331498, 3718748.952341017778963 ], [ 435629.11711037211353, 3716829.946394738741219 ] ], [ [ 419811.180286707356572, 3715987.679940357338637 ], [ 420848.131492743035778, 3715979.085345488972962 ], [ 421112.464038192178123, 3716938.155696150381118 ], [ 420075.551948044390883, 3716946.724255938548595 ], [ 419811.180286707356572, 3715987.679940357338637 ] ], [ [ 430935.936352044576779, 3711095.785895057488233 ], [ 431973.069575872214045, 3711088.402351638767868 ], [ 432236.623529944743495, 3712047.570693450514227 ], [ 431199.529310675628949, 3712054.927979229949415 ], [ 430935.936352044576779, 3711095.785895057488233 ] ], [ [ 429882.183862903155386, 3707259.649525242857635 ], [ 430919.472992213093676, 3707252.161179396789521 ], [ 431182.779247499303892, 3708211.156695228535682 ], [ 430145.52907765400596, 3708218.618874668609351 ], [ 429882.183862903155386, 3707259.649525242857635 ] ] ], [ [ [ 437741.627801478258334, 3724507.015020901802927 ], [ 436705.043558820441831, 3724513.804622375871986 ], [ 436969.424937514471821, 3725473.607749399729073 ], [ 438005.970026300055906, 3725466.844782223924994 ], [ 437741.627801478258334, 3724507.015020901802927 ] ] ], [ [ [ 436197.361330264713615, 3726440.303029987029731 ], [ 437233.868181950703729, 3726433.454537220299244 ], [ 436969.424937514471821, 3725473.607749399729073 ], [ 435932.878916152636521, 3725480.482871317770332 ], [ 436197.361330264713615, 3726440.303029987029731 ] ] ], [ [ [ 444846.378600329218898, 3742739.054706514347345 ], [ 446918.049627672065981, 3742727.284091463778168 ], [ 446652.75186136708362, 3741766.555508030578494 ], [ 445616.877402778365649, 3741772.411648112349212 ], [ 445351.602065843995661, 3740811.754428643733263 ], [ 444315.687476873048581, 3740817.750308832153678 ], [ 444846.378600329218898, 3742739.054706514347345 ] ] ], [ [ [ 442543.440140992344823, 3639050.537859300151467 ], [ 444623.424788023869041, 3639038.647647164296359 ], [ 443850.631818174617365, 3636168.58468536939472 ], [ 441770.419145859195851, 3636180.627181285526603 ], [ 442028.030998198897578, 3637137.22213569143787 ], [ 440987.961307261954062, 3637143.382348665501922 ], [ 441503.446483121311758, 3639056.647372995503247 ], [ 440463.451914084493183, 3639062.866492773871869 ], [ 440205.640388563275337, 3638106.238346885424107 ], [ 439165.606861028994899, 3638112.592378139030188 ], [ 438650.093283102673013, 3636199.512335813604295 ], [ 436569.871282446780242, 3636212.650054959580302 ], [ 438117.610646310262382, 3641952.089759801048785 ], [ 440197.376124957576394, 3641939.255324701778591 ], [ 439939.341052437899634, 3640982.526667559985071 ], [ 440979.260453210677952, 3640976.248616807162762 ], [ 441237.257461230212357, 3641933.002645204775035 ], [ 442277.137883692281321, 3641926.859656717162579 ], [ 441761.281801202218048, 3640013.342809481080621 ], [ 442801.237425853556488, 3640007.258678724057972 ], [ 442543.440140992344823, 3639050.537859300151467 ] ], [ [ 438899.420717161963694, 3640988.914382037241012 ], [ 438641.409422569966409, 3640032.253009632229805 ], [ 439681.367815748148132, 3640025.839974167756736 ], [ 439939.341052437899634, 3640982.526667559985071 ], [ 438899.420717161963694, 3640988.914382037241012 ] ] ], [ [ [ 476079.435573340277188, 3639870.449472714215517 ], [ 476336.079568410350475, 3640828.040095895528793 ], [ 477375.976454501913395, 3640825.59988596662879 ], [ 477119.370360287663061, 3639867.982929922640324 ], [ 476079.435573340277188, 3639870.449472714215517 ] ] ], [ [ [ 478403.015134726301767, 3644656.495610219892114 ], [ 478659.928366045642179, 3645614.326643685810268 ], [ 480739.341815006686375, 3645610.039576645940542 ], [ 480225.728554801724385, 3643694.314474488608539 ], [ 481265.510700848535635, 3643692.282582905609161 ], [ 481008.834094358375296, 3642734.45788868656382 ], [ 482048.653867304325104, 3642732.509212869219482 ], [ 481792.076561147812754, 3641774.700910877436399 ], [ 482831.933957602246664, 3641772.835416516289115 ], [ 482575.455928044393659, 3640815.043497644830495 ], [ 477375.976454501913395, 3640825.59988596662879 ], [ 477889.372939768305514, 3642740.96211714996025 ], [ 476849.551889114431106, 3642743.349594528321177 ], [ 477106.380208928661887, 3643701.068520882166922 ], [ 476066.596737218613271, 3643703.539327814709395 ], [ 476323.524442812078632, 3644661.274678993970156 ], [ 478403.015134726301767, 3644656.495610219892114 ] ] ], [ [ [ 483345.074135991453659, 3643688.5479840436019 ], [ 483088.473361228243448, 3642730.670236810576171 ], [ 482048.653867304325104, 3642732.509212869219482 ], [ 482305.292555860767607, 3643690.360419502481818 ], [ 483345.074135991453659, 3643688.5479840436019 ] ] ], [ [ [ 486708.181459947838448, 3648475.55232881847769 ], [ 484628.998474067077041, 3648478.581518325489014 ], [ 484885.967413944017608, 3649436.717363825533539 ], [ 483846.413553314225283, 3649438.370086950715631 ], [ 484360.611478523700498, 3651354.717705247923732 ], [ 485400.089342384948395, 3651353.118398344144225 ], [ 485142.997704366804101, 3650394.896315286401659 ], [ 486182.513342347112484, 3650393.380214176606387 ], [ 485925.521040555671789, 3649435.174537589307874 ], [ 486965.074449244944844, 3649433.741608052514493 ], [ 486708.181459947838448, 3648475.55232881847769 ] ] ], [ [ [ 480717.445042564999312, 3653278.521168744657189 ], [ 479678.041891732660588, 3653280.617021531797945 ], [ 480193.111199987237342, 3655197.042793629225343 ], [ 481232.438222464406863, 3655195.000254172366112 ], [ 480974.910936385509558, 3654236.739150310400873 ], [ 483053.640255754347891, 3654232.930852346587926 ], [ 482538.922050046385266, 3652316.431279617827386 ], [ 480460.04054394713603, 3652320.346283822320402 ], [ 480717.445042564999312, 3653278.521168744657189 ] ] ], [ [ [ 480193.111199987237342, 3655197.042793629225343 ], [ 479153.783871849766001, 3655199.195400502067059 ], [ 479411.448713613615837, 3656157.446299986448139 ], [ 480450.73795649438398, 3656155.320355190429837 ], [ 480193.111199987237342, 3655197.042793629225343 ] ] ], [ [ [ 478629.923504601581953, 3657117.949712659232318 ], [ 479669.174964329169597, 3657115.74032829888165 ], [ 479411.448713613615837, 3656157.446299986448139 ], [ 478372.159153187298216, 3656159.68234064662829 ], [ 478629.923504601581953, 3657117.949712659232318 ] ] ], [ [ [ 471343.717619832488708, 3664808.567316794302315 ], [ 469265.81730916997185, 3664814.875345801003277 ], [ 469524.554811638547108, 3665773.238250952214003 ], [ 470563.466946438595187, 3665770.055608298629522 ], [ 470822.227704294433352, 3666728.488200783263892 ], [ 471861.101132168900222, 3666725.442538363393396 ], [ 471602.378629760059994, 3665766.983346857596189 ], [ 472641.289877537172288, 3665764.021466250531375 ], [ 472124.1058216970996, 3663847.179354887921363 ], [ 471085.118105318455491, 3663850.194422436412424 ], [ 471343.717619832488708, 3664808.567316794302315 ] ] ], [ [ [ 462768.795032265246846, 3671552.484925091732293 ], [ 461730.10807455459144, 3671556.502775540575385 ], [ 461989.621258492639754, 3672514.928951081819832 ], [ 463028.269850527867675, 3672510.937553106341511 ], [ 462768.795032265246846, 3671552.484925091732293 ] ] ], [ [ [ 463547.404238760238513, 3674427.972184829879552 ], [ 462508.832411915587727, 3674431.910610262304544 ], [ 462768.530375574948266, 3675390.466145440470427 ], [ 463807.063802897522692, 3675386.5542400944978 ], [ 463547.404238760238513, 3674427.972184829879552 ] ] ], [ [ [ 461211.196179806313012, 3677315.756521724630147 ], [ 460172.737860182009172, 3677319.947491004131734 ], [ 459912.801432608044706, 3676361.385113848838955 ], [ 458874.304067003366072, 3676365.713260674849153 ], [ 459134.278933848603629, 3677324.249185214284807 ], [ 458095.819384988280945, 3677328.661604883614928 ], [ 458876.229132644075435, 3680204.448869662825018 ], [ 459914.573283056612127, 3680200.115858846344054 ], [ 459654.41354478726862, 3679241.45045849122107 ], [ 460692.795558727753814, 3679237.201737217605114 ], [ 460432.735903193824925, 3678278.553023522719741 ], [ 461471.155776567466091, 3678274.388557569589466 ], [ 461211.196179806313012, 3677315.756521724630147 ] ] ], [ [ [ 473420.082790914690122, 3691673.458121379371732 ], [ 468230.695147736580111, 3691689.078975340351462 ], [ 468491.462632969371043, 3692648.442485273815691 ], [ 469529.302459518075921, 3692645.122980704996735 ], [ 469790.09285750502022, 3693604.557130075059831 ], [ 471865.693938217475079, 3693598.305681608151644 ], [ 472126.468614100071136, 3694557.837627602741122 ], [ 474201.990782839129679, 3694552.085181419737637 ], [ 473941.293321179109626, 3693592.499035943765193 ], [ 474979.092415142804384, 3693589.762513268738985 ], [ 474718.495006335200742, 3692630.193049329333007 ], [ 473680.65732287731953, 3692632.95669131167233 ], [ 473420.082790914690122, 3691673.458121379371732 ] ] ], [ [ [ 482839.468288854812272, 3726243.172313306946307 ], [ 481802.987776273977943, 3726245.085353252943605 ], [ 482065.812193089397624, 3727206.148505517281592 ], [ 483102.253711828147061, 3727204.263357701245695 ], [ 482839.468288854812272, 3726243.172313306946307 ] ] ], [ [ [ 482065.812193089397624, 3727206.148505517281592 ], [ 478956.48598528484581, 3727212.477079522795975 ], [ 479482.553037560021039, 3729134.570298418868333 ], [ 482591.645130256132688, 3729128.408945603761822 ], [ 482065.812193089397624, 3727206.148505517281592 ] ] ], [ [ [ 478709.353089373442344, 3730097.934352005831897 ], [ 479745.678661065816414, 3730095.683925317600369 ], [ 479482.553037560021039, 3729134.570298418868333 ], [ 478446.188421321799979, 3729136.84857339411974 ], [ 478709.353089373442344, 3730097.934352005831897 ] ] ], [ [ [ 470456.73476823582314, 3737814.687341259326786 ], [ 469420.718032454897184, 3737817.951667729299515 ], [ 468628.64276985405013, 3734934.672847913112491 ], [ 469664.777016089414246, 3734931.325423485133797 ], [ 468609.694434337201528, 3731087.467052193824202 ], [ 469645.984737750433851, 3731084.121459544636309 ], [ 468855.435980546812061, 3728201.612188769970089 ], [ 467819.02841999247903, 3728205.040479353629053 ], [ 468082.522235675423872, 3729165.804894473403692 ], [ 467046.153278234298341, 3729169.31789143756032 ], [ 467309.747707240108866, 3730130.099202415440232 ], [ 466273.417357420898043, 3730133.696939561050385 ], [ 466800.869030509318691, 3732055.337811440695077 ], [ 465764.616413996554911, 3732058.992795118130744 ], [ 464973.413888734474313, 3729176.680635013151914 ], [ 463937.043426080606878, 3729180.530382517725229 ], [ 464200.755149852135219, 3730141.22924944665283 ], [ 462128.090829791733995, 3730149.210676524788141 ], [ 462655.85547669918742, 3732070.631759430281818 ], [ 461619.600750787474681, 3732074.736086861696094 ], [ 462147.690040320565458, 3733996.279771828558296 ], [ 461111.5130676276749, 3734000.441594303585589 ], [ 461375.689273201103788, 3734961.252575764898211 ], [ 460339.550908957084175, 3734965.499364812858403 ], [ 461132.566706318233628, 3737848.116447949782014 ], [ 463204.607657433487475, 3737839.900218570139259 ], [ 462940.285880930488929, 3736878.928405658807606 ], [ 463976.344745251932181, 3736874.961497569922358 ], [ 463712.123743444273714, 3735914.006639877334237 ], [ 464748.221269584842958, 3735910.124651191756129 ], [ 465276.64644771150779, 3737832.134014544542879 ], [ 466312.665070560004096, 3737828.419670855626464 ], [ 465784.318277552316431, 3735906.355111486744136 ], [ 467856.510799881187268, 3735899.15337720233947 ], [ 468913.136971968691796, 3739743.682128712069243 ], [ 470985.014088747033384, 3739737.151944137644023 ], [ 470456.73476823582314, 3737814.687341259326786 ] ], [ [ 461904.226472190348431, 3736883.007791882846504 ], [ 461639.927075725106988, 3735922.107966075651348 ], [ 462676.025683900457807, 3735918.001078009605408 ], [ 462940.285880930488929, 3736878.928405658807606 ], [ 461904.226472190348431, 3736883.007791882846504 ] ] ], [ [ [ 464504.971449885866605, 3738797.00476474640891 ], [ 465540.951368574809749, 3738793.205520132090896 ], [ 465276.64644771150779, 3737832.134014544542879 ], [ 464240.627315072866622, 3737835.960863628424704 ], [ 464504.971449885866605, 3738797.00476474640891 ] ] ] ] } }
]
}
