{
"type": "FeatureCollection",
"name": "urban-2030",
"crs": { "type": "name", "properties": { "name": "urn:ogc:def:crs:EPSG::32638" } },
"features": [
{ "type": "Feature", "properties": { "year": 2030 }, "geometry": { "type": "MultiPolygon", "coordinates": [ [ [ [ 395505.545044928672723, 3669162.335932547226548 ], [ 395767.297405795194209, 3670119.027322210371494 ], [ 394728.463722223532386, 3670130.171492595691234 ], [ 394466.672734780469909, 3669173.504693507682532 ], [ 392388.923251992324367, 3669196.173807701095939 ], [ 392650.791507340210956, 3670152.791509429458529 ], [ 391611.952944255026523, 3670164.267358645331115 ], [ 391873.922193230129778, 3671120.902066408656538 ], [ 390835.120629204204306, 3671132.463976759463549 ], [ 391097.190896154905204, 3672089.115698794834316 ], [ 390058.426336243981495, 3672100.76370513252914 ], [ 390320.597645526984707, 3673057.432449676562101 ], [ 393436.770310013089329, 3673022.893926495686173 ], [ 393174.715039040776901, 3672066.151543686632067 ], [ 397329.74386134854285, 3672021.550624715164304 ], [ 397591.644483461277559, 3672978.391582915559411 ], [ 396552.928326011111494, 3672989.351206432562321 ], [ 397076.993777160882019, 3674903.108810384757817 ], [ 399154.26985176600283, 3674881.399136209394783 ], [ 398368.497104596637655, 3672010.676926843822002 ], [ 399407.24879465054255, 3671999.913839040324092 ], [ 399145.487737075891346, 3671043.065145538654178 ], [ 398106.697412994457409, 3671053.852952558547258 ], [ 397844.960004631720949, 3670097.070650691632181 ], [ 396806.129494635621086, 3670107.993708692491055 ], [ 396544.415755440888461, 3669151.277700517792255 ], [ 395505.545044928672723, 3669162.335932547226548 ] ] ], [ [ [ 400707.783634176244959, 3672946.176543123554438 ], [ 400445.998947376501746, 3671989.261359991505742 ], [ 399407.24879465054255, 3671999.913839040324092 ], [ 399669.072121684672311, 3672956.804252581205219 ], [ 400707.783634176244959, 3672946.176543123554438 ] ] ], [ [ [ 392146.095516643254086, 3675916.138245168607682 ], [ 393184.703628215414938, 3675904.699177423026413 ], [ 393447.046934392186813, 3676861.583490253891796 ], [ 394485.6146985294763, 3676850.279816243797541 ], [ 393698.887914144666865, 3673979.677919969893992 ], [ 392660.204026959487237, 3673991.055517944972962 ], [ 392922.422658172028605, 3674947.856528386939317 ], [ 391883.775833995314315, 3674959.320209519471973 ], [ 392146.095516643254086, 3675916.138245168607682 ] ] ], [ [ [ 397076.993777160882019, 3674903.108810384757817 ], [ 396038.353392394026741, 3674914.129691654350609 ], [ 396300.518254125840031, 3675871.046348454896361 ], [ 397339.119945924729109, 3675860.050192317925394 ], [ 397076.993777160882019, 3674903.108810384757817 ] ] ], [ [ [ 393447.046934392186813, 3676861.583490253891796 ], [ 391369.906518998323008, 3676884.523113358300179 ], [ 392157.542916949605569, 3679755.278286022134125 ], [ 394234.450842737744097, 3679732.486663738731295 ], [ 393971.920544354594313, 3678775.477208171971142 ], [ 392933.428636990895029, 3678786.842301012948155 ], [ 392670.921920836262871, 3677829.899265700019896 ], [ 393709.452574004768394, 3677818.509492092765868 ], [ 393447.046934392186813, 3676861.583490253891796 ] ] ], [ [ [ 388266.532557161757722, 3680759.0949607337825 ], [ 389304.955196994007565, 3680747.224927654024214 ], [ 389567.804087728145532, 3681704.194476207252592 ], [ 390606.186245793767739, 3681692.459956310689449 ], [ 390343.376153804827482, 3680735.465771261136979 ], [ 392420.213081486173905, 3680712.280082808807492 ], [ 392157.542916949605569, 3679755.278286022134125 ], [ 391119.086501041252632, 3679766.840363196097314 ], [ 390856.439917255134787, 3678809.904933562967926 ], [ 389817.943073284463026, 3678821.602476089261472 ], [ 390080.6284287374001, 3679778.513286270201206 ], [ 388003.707251780841034, 3679802.1916758348234 ], [ 388266.532557161757722, 3680759.0949607337825 ] ] ], [ [ [ 393458.629083917825483, 3680700.853547917678952 ], [ 392420.213081486173905, 3680712.280082808807492 ], [ 392682.945590801886283, 3681669.323624636046588 ], [ 393721.322809286415577, 3681657.921810030937195 ], [ 393458.629083917825483, 3680700.853547917678952 ] ] ], [ [ [ 391644.56674156076042, 3681680.836339593864977 ], [ 390606.186245793767739, 3681692.459956310689449 ], [ 390869.058702008798718, 3682649.495866670738906 ], [ 391907.400392899871804, 3682637.896936876699328 ], [ 391644.56674156076042, 3681680.836339593864977 ] ] ], [ [ [ 386715.675207242253236, 3682697.000911280978471 ], [ 387754.023622135922778, 3682684.95824842620641 ], [ 388280.188604681519791, 3684599.007357199210674 ], [ 389318.457642286666669, 3684587.124903594143689 ], [ 388266.532557161757722, 3680759.0949607337825 ], [ 387228.108218529319856, 3680771.075871949084103 ], [ 387491.034721620148048, 3681727.99623127700761 ], [ 386452.647482036845759, 3681740.063469358254224 ], [ 386715.675207242253236, 3682697.000911280978471 ] ] ], [ [ [ 392945.740442194626667, 3682626.408936773426831 ], [ 391907.400392899871804, 3682637.896936876699328 ], [ 392170.296394689125009, 3683594.999307251535356 ], [ 393208.597632959252223, 3683583.536044512875378 ], [ 392945.740442194626667, 3682626.408936773426831 ] ] ], [ [ [ 406706.371960833901539, 3683444.610154622700065 ], [ 404629.807738853152841, 3683464.762967139016837 ], [ 404892.300545299309306, 3684422.206099120434374 ], [ 406968.78724452998722, 3684402.103505284525454 ], [ 406706.371960833901539, 3683444.610154622700065 ] ] ], [ [ [ 390882.984116895473562, 3686489.668266688473523 ], [ 389844.794465305283666, 3686501.390310713555664 ], [ 390108.056437488354277, 3687458.585711738094687 ], [ 391146.207218935713172, 3687446.888411395717412 ], [ 390882.984116895473562, 3686489.668266688473523 ] ] ], [ [ [ 395298.794017614447512, 3687401.209917823318392 ], [ 394260.649735583807342, 3687412.462937846779823 ], [ 394787.049752668244764, 3689327.177816814742982 ], [ 395825.116300461115316, 3689315.974575330503285 ], [ 395561.924003036285285, 3688358.571261460892856 ], [ 397638.130117628723383, 3688336.448259717319161 ], [ 397112.087856243713759, 3686421.667882757727057 ], [ 395035.726346913550515, 3686443.890519027598202 ], [ 395298.794017614447512, 3687401.209917823318392 ] ] ], [ [ [ 384951.474999564292375, 3695201.26317375479266 ], [ 385989.326121911639348, 3695188.985525466501713 ], [ 385725.33140705327969, 3694231.603716455865651 ], [ 386763.21979942364851, 3694219.412617242429405 ], [ 388083.622443838394247, 3699006.864922486711293 ], [ 389121.314099417650141, 3698994.909249103162438 ], [ 388857.147801357321441, 3698037.309966701082885 ], [ 393008.053967512911186, 3697990.501624566502869 ], [ 393272.064202939567622, 3698948.200686938595027 ], [ 391196.692423741973471, 3698971.332144611515105 ], [ 391725.056014312896878, 3700886.756679059937596 ], [ 392762.664654514170252, 3700875.185230969451368 ], [ 392498.490716103755403, 3699917.426900723483413 ], [ 393536.136775959341321, 3699905.941886590328068 ], [ 393800.271683845086955, 3700863.725249058566988 ], [ 394837.877117887022905, 3700852.376731931231916 ], [ 394309.747677109669894, 3698936.802072131074965 ], [ 396385.109872584638651, 3698914.33906362997368 ], [ 396913.083262414729688, 3700830.01408651471138 ], [ 395875.480972217570525, 3700841.139678205829114 ], [ 396139.600143603165634, 3701799.015422685071826 ], [ 398214.725126307748724, 3701776.926005461718887 ], [ 397158.934373846859671, 3697945.475377697497606 ], [ 399234.365229238464963, 3697923.630512428935617 ], [ 399498.141517609532457, 3698881.480083246715367 ], [ 398460.465834895323496, 3698892.321674183476716 ], [ 398988.283212731475942, 3700808.097283829934895 ], [ 401063.477093473426066, 3700786.626313203945756 ], [ 400799.615262698323932, 3699828.66694238781929 ], [ 402874.88117693096865, 3699807.591253553982824 ], [ 403402.511113469605334, 3701723.653467280324548 ], [ 406515.165178004768677, 3701693.027724543586373 ], [ 406251.436058894440066, 3700734.8993338085711 ], [ 405213.847144795407075, 3700745.021826518233865 ], [ 404686.497570757812355, 3698828.943114012945443 ], [ 401573.488364156335592, 3698860.131102342624217 ], [ 401309.790019272186328, 3697902.231138342991471 ], [ 403385.20886881777551, 3697881.277245011180639 ], [ 403121.650677082827315, 3696923.369114228058606 ], [ 404159.396856919222046, 3696913.033947801683098 ], [ 403895.939829481067136, 3695955.142880523111671 ], [ 404933.723493990604766, 3695944.893775320611894 ], [ 404670.367606502666604, 3694987.019763282965869 ], [ 405708.188750563887879, 3694976.856684736441821 ], [ 405444.933978687215131, 3694018.999719661194831 ], [ 403369.212447358469944, 3694039.487649702001363 ], [ 403632.545025374914985, 3694997.294123013969511 ], [ 402594.720991541922558, 3695007.679765182547271 ], [ 402858.154717072378844, 3695965.503296142909676 ], [ 400782.580086047761142, 3695986.558063691016287 ], [ 400519.068503206828609, 3695028.78490190487355 ], [ 401556.895489364746027, 3695018.176691052503884 ], [ 401293.485085965774488, 3694060.420597596094012 ], [ 402331.349503244040534, 3694049.898495784960687 ], [ 402068.040254930616356, 3693092.159462405368686 ], [ 404143.842479110171553, 3693071.398634146433324 ], [ 403880.673244718811475, 3692113.651465936563909 ], [ 404918.611057350237388, 3692103.412675651255995 ], [ 405181.741413363604806, 3693061.18505848525092 ], [ 406219.638916603231337, 3693051.082706804852933 ], [ 405693.518152660457417, 3691135.529731347691268 ], [ 402579.588097375526559, 3691166.321679489221424 ], [ 402842.733980607939884, 3692124.001453469041735 ], [ 400766.85103527805768, 3692145.035025341436267 ], [ 401030.136933688540012, 3693102.706717532593757 ], [ 398954.325794613570906, 3693124.134916212409735 ], [ 398690.96209602477029, 3692166.513401523698121 ], [ 397653.015339509118348, 3692177.41939449403435 ], [ 398179.8828386713285, 3694092.654450292699039 ], [ 397142.012372262426652, 3694103.621587977744639 ], [ 396878.508555702748708, 3693146.00804152013734 ], [ 395840.597609666408971, 3693157.111454982776195 ], [ 395577.117174369515851, 3692199.564996846485883 ], [ 394539.165734412730671, 3692210.804608926642686 ], [ 395066.266769591835327, 3694125.889651524368674 ], [ 394028.391602038231213, 3694137.190580100752413 ], [ 392974.283139648498036, 3690307.288296765647829 ], [ 390898.216564303787891, 3690330.423008705023676 ], [ 390108.056437488354277, 3687458.585711738094687 ], [ 389069.903991903818678, 3687470.39408569317311 ], [ 388280.188604681519791, 3684599.007357199210674 ], [ 387241.917872359510511, 3684611.000802082009614 ], [ 386715.675207242253236, 3682697.000911280978471 ], [ 385677.325071946252137, 3682709.154511041473597 ], [ 385940.454043675970752, 3683666.109043718315661 ], [ 384902.141017928952351, 3683678.349039970897138 ], [ 384638.973200488253497, 3682721.419049191754311 ], [ 382562.264186043292284, 3682746.28094666544348 ], [ 382825.509709895006381, 3683703.161937377415597 ], [ 383863.826245251926593, 3683690.700004022102803 ], [ 384127.095349688024726, 3684647.647099111694843 ], [ 383088.81768109172117, 3684660.084523884113878 ], [ 383615.620954805868678, 3686574.054585217498243 ], [ 382577.419289490790106, 3686586.553979819640517 ], [ 383631.930773271596991, 3690414.896035054698586 ], [ 382593.883034982543904, 3690427.408269132021815 ], [ 383649.549436149885878, 3694256.319750003051013 ], [ 384687.441291177237872, 3694243.906093541998416 ], [ 384951.474999564292375, 3695201.26317375479266 ] ], [ [ 396121.216632619558368, 3697956.564872842747718 ], [ 395857.385699603881221, 3696998.832861760631204 ], [ 396895.142418426985387, 3696987.718290551099926 ], [ 397158.934373846859671, 3697945.475377697497606 ], [ 396121.216632619558368, 3697956.564872842747718 ] ], [ [ 384653.820856709498912, 3686561.666245165280998 ], [ 384917.277253928827122, 3687518.738346660044044 ], [ 383879.116251964471303, 3687531.102110560517758 ], [ 383615.620954805868678, 3686574.054585217498243 ], [ 384653.820856709498912, 3686561.666245165280998 ] ], [ [ 384390.426887734909542, 3685604.635837741196156 ], [ 385428.663925831089728, 3685592.33396919304505 ], [ 385692.019010922638699, 3686549.388958149589598 ], [ 384653.820856709498912, 3686561.666245165280998 ], [ 384390.426887734909542, 3685604.635837741196156 ] ], [ [ 394819.627412739151623, 3697010.058781817555428 ], [ 393781.867542212712578, 3697021.396052089054137 ], [ 393518.020971292804461, 3696063.756218167953193 ], [ 394555.819818058807869, 3696052.393950378056616 ], [ 394819.627412739151623, 3697010.058781817555428 ] ], [ [ 392480.220520349452272, 3696075.229809605982155 ], [ 392216.397314059489872, 3695117.657006026245654 ], [ 391178.556268373329658, 3695129.266841508448124 ], [ 391442.418449601100292, 3696086.814726090058684 ], [ 388329.002362260478549, 3696122.237440006807446 ], [ 387801.106483932759147, 3694207.332794416230172 ], [ 389876.87479194655316, 3694183.506972049362957 ], [ 389613.098374975146726, 3693226.067933214828372 ], [ 390651.01898742665071, 3693214.29708493873477 ], [ 390914.756446743209381, 3694171.760969607159495 ], [ 391952.636456259526312, 3694160.126237744931132 ], [ 391688.937949668848887, 3693202.637479304801673 ], [ 392726.855277358612511, 3693191.089114893227816 ], [ 393518.020971292804461, 3696063.756218167953193 ], [ 392480.220520349452272, 3696075.229809605982155 ] ], [ [ 398443.410016390902456, 3695050.33518373966217 ], [ 398706.999475886346772, 3696008.058088223449886 ], [ 395593.617076272785198, 3696041.14300485374406 ], [ 395329.910765358130448, 3695083.495276608038694 ], [ 398443.410016390902456, 3695050.33518373966217 ] ] ], [ [ [ 423101.415533401188441, 3697704.431747451424599 ], [ 422063.731798125430942, 3697712.737226218916476 ], [ 422326.651757202809677, 3698671.147280506789684 ], [ 423364.296622483874671, 3698662.86760044330731 ], [ 423101.415533401188441, 3697704.431747451424599 ] ] ], [ [ [ 384970.537316271045711, 3699043.400444705970585 ], [ 386008.234067862213124, 3699031.110518812667578 ], [ 385479.729692163178697, 3697116.102990598417819 ], [ 383404.178299865045119, 3697140.893327211495489 ], [ 384197.26275998109486, 3700013.318910469301045 ], [ 383159.601596996304579, 3700025.806920666713268 ], [ 383424.127032045391388, 3700983.341218153014779 ], [ 385499.369472477119416, 3700958.526237214915454 ], [ 384970.537316271045711, 3699043.400444705970585 ] ] ], [ [ [ 388083.622443838394247, 3699006.864922486711293 ], [ 386008.234067862213124, 3699031.110518812667578 ], [ 386272.579880116449203, 3699988.677238294389099 ], [ 388347.890163049974944, 3699964.48135376535356 ], [ 388083.622443838394247, 3699006.864922486711293 ] ] ], [ [ [ 404686.497570757812355, 3698828.943114012945443 ], [ 405724.164418498403393, 3698818.769908300135285 ], [ 405987.769138135481626, 3699776.813403612468392 ], [ 407025.395611526444554, 3699766.776964169926941 ], [ 407289.023564664181322, 3700724.888290196657181 ], [ 411439.359816062555183, 3700685.958582574967295 ], [ 411175.887685793393757, 3699727.745393260382116 ], [ 408063.020687396696303, 3699756.851944615598768 ], [ 407536.029245951969642, 3697840.705859997775406 ], [ 404422.916104932141025, 3697870.96735043078661 ], [ 404686.497570757812355, 3698828.943114012945443 ] ] ], [ [ [ 423412.169944346009288, 3710191.683330051600933 ], [ 422374.989009675802663, 3710199.986790840979666 ], [ 422638.832147173001431, 3711158.876784224063158 ], [ 423675.974051961617079, 3711150.599333739839494 ], [ 423412.169944346009288, 3710191.683330051600933 ] ] ], [ [ [ 415178.01787636289373, 3721795.574374745134264 ], [ 414141.293052094522864, 3721804.796826369594783 ], [ 414406.31138346134685, 3722763.917739972937852 ], [ 415442.996991729654837, 3722754.721264391206205 ], [ 415178.01787636289373, 3721795.574374745134264 ] ] ], [ [ [ 433665.001628528174479, 3736075.502159282099456 ], [ 432628.881476131617092, 3736082.757897161412984 ], [ 432894.280206748866476, 3737042.89910694072023 ], [ 433930.361037796013989, 3737035.670082671567798 ], [ 433665.001628528174479, 3736075.502159282099456 ] ] ], [ [ [ 431884.644419658288825, 3740898.484080071561038 ], [ 432920.569802469166461, 3740891.13691920042038 ], [ 432654.884077172493562, 3739930.847064904868603 ], [ 433690.847848293604329, 3739923.585737538989633 ], [ 433425.263395744899753, 3738963.313000699039549 ], [ 431353.256141736288555, 3738978.00171991577372 ], [ 431884.644419658288825, 3740898.484080071561038 ] ] ], [ [ [ 431884.644419658288825, 3740898.484080071561038 ], [ 430848.71803870704025, 3740905.943853121716529 ], [ 431114.54445267067058, 3741866.224088601768017 ], [ 430078.656454532407224, 3741873.769758166745305 ], [ 430344.584205711493269, 3742834.067132882308215 ], [ 432416.280382709228434, 3742819.141942359507084 ], [ 431884.644419658288825, 3740898.484080071561038 ] ] ], [ [ [ 433716.382859631325118, 3633357.221285425592214 ], [ 432676.154326506657526, 3633364.248712153639644 ], [ 432418.485985856270418, 3632408.022263106424361 ], [ 431378.218408704851754, 3632415.184136802330613 ], [ 431893.692998531740159, 3634327.628658371977508 ], [ 436054.45310732309008, 3634299.838105524890125 ], [ 435796.836834657413419, 3633343.494759154506028 ], [ 434756.610356931108981, 3633350.303301376756281 ], [ 434499.0179863817757, 3632394.026761405169964 ], [ 433458.75250632717507, 3632400.969804930035025 ], [ 433716.382859631325118, 3633357.221285425592214 ] ] ], [ [ [ 420690.728314502921421, 3654538.661976433824748 ], [ 421730.136676843219902, 3654530.319712444208562 ], [ 421470.494545589666814, 3653573.575632302556187 ], [ 419391.599971340037882, 3653590.420296329073608 ], [ 419651.318727724486962, 3654547.114316395483911 ], [ 418611.907900462509133, 3654555.676733364816755 ], [ 419131.608240664820187, 3656469.140166627708822 ], [ 418092.272838790551759, 3656477.762674649711698 ], [ 418612.298137916717678, 3658391.343358266633004 ], [ 419651.556813492206857, 3658382.770926530472934 ], [ 419391.551499375724234, 3657425.934618165716529 ], [ 420430.847301233559847, 3657417.447299174033105 ], [ 419911.099536668276414, 3655503.850140120368451 ], [ 420950.47079743957147, 3655495.422838502563536 ], [ 420690.728314502921421, 3654538.661976433824748 ] ] ], [ [ [ 437059.424230557458941, 3657296.631427085027099 ], [ 436020.146129297791049, 3657303.356285490095615 ], [ 436279.5381764882477, 3658260.597193067893386 ], [ 437318.777987597452011, 3658253.897860423661768 ], [ 437059.424230557458941, 3657296.631427085027099 ] ] ], [ [ [ 429004.831116885296069, 3658310.577471677679569 ], [ 427965.583004599786364, 3658318.158229130785912 ], [ 427705.884471802972257, 3657361.120518011040986 ], [ 426666.596918448398355, 3657368.836731004528701 ], [ 426406.922031875816174, 3656411.866306457202882 ], [ 427446.247905498428736, 3656404.124842401128262 ], [ 427186.673308462719433, 3655447.17117706220597 ], [ 428226.03636768477736, 3655439.514582335948944 ], [ 427966.562036090297624, 3654482.577667609788477 ], [ 425887.758202677126974, 3654498.051395960152149 ], [ 426147.309125694562681, 3655454.937869849149138 ], [ 424068.577325377496891, 3655470.801553431898355 ], [ 423808.949792377476115, 3654513.965408304706216 ], [ 421730.136676843219902, 3654530.319712444208562 ], [ 421989.840838459262159, 3655487.105640858411789 ], [ 423029.209675761172548, 3655478.898546169511974 ], [ 423288.937537236430217, 3656435.751464694738388 ], [ 424328.266863769327756, 3656427.679616635665298 ], [ 424588.01840478728991, 3657384.599623118527234 ], [ 425627.308234781259671, 3657376.663099054712802 ], [ 425887.083434995554853, 3658333.650291389320046 ], [ 426926.333782639005221, 3658325.849168720655143 ], [ 427186.132621671771631, 3659282.903644856065512 ], [ 428225.343501110211946, 3659275.238001018762589 ], [ 428485.165958553669043, 3660232.359858950600028 ], [ 429524.33738389366772, 3660224.829771421849728 ], [ 430044.091438940318767, 3662139.250605970155448 ], [ 431083.185057523136493, 3662131.881571180187166 ], [ 430823.315424611093476, 3661174.624655477702618 ], [ 431862.446346037322655, 3661167.340466167312115 ], [ 431342.969573061680421, 3659252.902326816227287 ], [ 429264.553275491052773, 3659267.682567347772419 ], [ 429004.831116885296069, 3658310.577471677679569 ] ] ], [ [ [ 418612.298137916717678, 3658391.343358266633004 ], [ 417573.038208616140764, 3658400.025981104932725 ], [ 417833.182339691731613, 3659356.85405619489029 ], [ 416793.95952987705823, 3659365.621855549048632 ], [ 417054.20413337519858, 3660322.46675517456606 ], [ 414975.83146950812079, 3660340.283026668708771 ], [ 415236.214990455307998, 3661297.119754961691797 ], [ 414197.065129708382301, 3661306.168290908448398 ], [ 414457.54918725497555, 3662263.021866344381124 ], [ 416535.770736569887958, 3662245.085099287331104 ], [ 416796.240011530695483, 3663202.030593595467508 ], [ 417835.310415610903874, 3663193.25274713896215 ], [ 417574.879578992840834, 3662236.282175753265619 ], [ 418613.987154547241516, 3662227.58955744234845 ], [ 418353.656815409427509, 3661270.635819155722857 ], [ 419392.801557884900831, 3661262.028394296299666 ], [ 418612.298137916717678, 3658391.343358266633004 ] ] ], [ [ [ 438356.811621721251868, 3662083.386467195581645 ], [ 437317.725082827848382, 3662089.983473083470017 ], [ 437577.426474754523952, 3663047.435832341201603 ], [ 438616.474667674105149, 3663040.864464117214084 ], [ 438356.811621721251868, 3662083.386467195581645 ] ] ], [ [ [ 423042.534247960196808, 3674663.559897962491959 ], [ 419926.713020254392177, 3674688.653411936014891 ], [ 420187.98916287033353, 3675646.145822319667786 ], [ 423303.694655524275731, 3675621.128498384729028 ], [ 423042.534247960196808, 3674663.559897962491959 ] ] ], [ [ [ 449007.340833844151348, 3674493.178482103161514 ], [ 446930.177483372099232, 3674504.263971565291286 ], [ 447190.451959350262769, 3675462.425081513356417 ], [ 449267.53838465543231, 3675451.391816541086882 ], [ 449007.340833844151348, 3674493.178482103161514 ] ] ], [ [ [ 423056.958631015033461, 3682341.505471901968122 ], [ 423318.692402095126454, 3683299.362128728535026 ], [ 424356.951865749317221, 3683291.227004996966571 ], [ 424095.256762345321476, 3682333.344771303702146 ], [ 423056.958631015033461, 3682341.505471901968122 ] ] ], [ [ [ 418311.43901123496471, 3725614.520480622537434 ], [ 417274.87358161091106, 3725623.414543724153191 ], [ 417540.061824658478145, 3726582.760180313140154 ], [ 419613.112976538366638, 3726565.136501553468406 ], [ 420408.814528401824646, 3729443.590123914647847 ], [ 421445.220518724236172, 3729435.025260624941438 ], [ 421710.539178609382361, 3730394.622788940090686 ], [ 420674.172475887113251, 3730403.161380528938025 ], [ 421470.618568892357871, 3733282.135664684697986 ], [ 424579.361477485101204, 3733257.093930527567863 ], [ 424313.935358298069332, 3732297.313284342642874 ], [ 425350.220060864055995, 3732289.164400473237038 ], [ 425615.606872316042427, 3733248.971471528057009 ], [ 426651.851171886781231, 3733240.961403735447675 ], [ 426386.503663602052256, 3732281.12787973601371 ], [ 427422.786181775329169, 3732273.203721156809479 ], [ 428218.896709467459004, 3735152.914617535658181 ], [ 430291.222734450828284, 3735137.562660031486303 ], [ 430556.638185433752369, 3736097.606783469207585 ], [ 432628.881476131617092, 3736082.757897161412984 ], [ 432098.269757216854487, 3734162.606819767970592 ], [ 436243.058958485955372, 3734134.044909258373082 ], [ 436508.176692236564122, 3735094.20540510257706 ], [ 439616.640859389328398, 3735074.044706874527037 ], [ 439881.702600813296158, 3736034.329551359638572 ], [ 441953.929026683792472, 3736021.505069559440017 ], [ 442218.974025816831272, 3736981.887713904958218 ], [ 441182.900532827363349, 3736988.216784638352692 ], [ 441713.254557482490782, 3738909.060224022716284 ], [ 442749.249444841698278, 3738902.785099606961012 ], [ 442484.080832851293962, 3737942.314381754025817 ], [ 443520.114184341044165, 3737936.124791374895722 ], [ 443255.046670023351908, 3736975.671133772004396 ], [ 445327.189472962287255, 3736963.575442311353981 ], [ 444267.851471563393716, 3733121.985218381043524 ], [ 446340.305053107440472, 3733110.123235843144357 ], [ 446075.703450052649714, 3732149.781767047010362 ], [ 448148.232294331421144, 3732138.315223587211221 ], [ 447883.770857554220129, 3731177.963748763781041 ], [ 450992.676000386243686, 3731161.525288596749306 ], [ 452050.42171529418556, 3735003.520942245144397 ], [ 451014.277552552928682, 3735008.779556187801063 ], [ 451278.907468957360834, 3735969.361709198914468 ], [ 452315.012401014741044, 3735964.130292202811688 ], [ 452579.664783583139069, 3736924.783869881182909 ], [ 453615.729776936757844, 3736919.692156596574932 ], [ 453351.116632157471031, 3735959.011330726090819 ], [ 454387.220177612965927, 3735954.004824149422348 ], [ 453858.257380031165667, 3734032.721414742060006 ], [ 454894.438679145881906, 3734027.772822627332062 ], [ 454101.574640533654019, 3731146.09766092011705 ], [ 453065.275790877989493, 3731151.127889818046242 ], [ 452801.071968328906223, 3730190.685032484587282 ], [ 449692.053698462317698, 3730206.53093195753172 ], [ 446788.593632652016822, 3719645.455321392975748 ], [ 445751.822538485284895, 3719651.257932951208204 ], [ 444697.715328563470393, 3715812.288282805588096 ], [ 442623.858459232433233, 3715824.443052277900279 ], [ 442887.370624966919422, 3716784.066623981576413 ], [ 441850.479937792522833, 3716790.285184501670301 ], [ 442114.092936891247518, 3717749.925716482102871 ], [ 443150.944591982464772, 3717743.733803653158247 ], [ 443414.580357362225186, 3718703.444617515895516 ], [ 441340.954277888755314, 3718715.887054407503456 ], [ 441604.729952646361198, 3719675.58816981734708 ], [ 439531.178518726781476, 3719688.425173015333712 ], [ 439003.532746657845564, 3717769.173003813251853 ], [ 440040.387029641016852, 3717762.645315790083259 ], [ 439776.695953076472506, 3716803.057994842529297 ], [ 438739.802624690928496, 3716809.612246215809137 ], [ 437685.500631639966741, 3712971.804118405561894 ], [ 438722.55002846813295, 3712965.143842395860702 ], [ 438195.848135753360111, 3711046.447478905785829 ], [ 439232.974576355481986, 3711039.846056812442839 ], [ 439496.255624770361464, 3711999.198988541495055 ], [ 440533.342189655522816, 3711992.735777124762535 ], [ 440796.646096610755194, 3712952.158645495772362 ], [ 441833.69279884651769, 3712945.833723026327789 ], [ 442097.019543260801584, 3713905.32662797998637 ], [ 445208.037574367772322, 3713887.102392561268061 ], [ 445471.309161041339394, 3714846.718732765875757 ], [ 449619.165948327980004, 3714824.092007953673601 ], [ 449882.343367316061631, 3715783.85899878712371 ], [ 450919.26667545089731, 3715778.508731801528484 ], [ 450656.128230740083382, 3714818.7149140201509 ], [ 452730.050606363802217, 3714808.296226256992668 ], [ 452467.051790843717754, 3713848.492454536259174 ], [ 449356.050257083843462, 3713864.368732852395624 ], [ 448567.073579140298534, 3710985.460939656477422 ], [ 447529.954745307681151, 3710991.056834309827536 ], [ 447267.047072424087673, 3710031.534844419918954 ], [ 444155.56901719328016, 3710049.072750062216073 ], [ 443629.705453109461814, 3708130.318993638269603 ], [ 445704.180628655769397, 3708118.409041701350361 ], [ 445441.419333343859762, 3707159.044246891513467 ], [ 444404.143262550409418, 3707164.969962902832776 ], [ 444141.404855585540645, 3706205.675165710039437 ], [ 445178.719811819144525, 3706199.722912761382759 ], [ 444653.506101761478931, 3704281.210522195324302 ], [ 445690.897965341515373, 3704275.316789977252483 ], [ 445166.00906819710508, 3702356.924958681222051 ], [ 446203.477791787998285, 3702351.089725140947849 ], [ 445941.164827351632994, 3701391.932372991461307 ], [ 446978.671559295675252, 3701386.182100634090602 ], [ 447240.945708061160985, 3702345.365960157476366 ], [ 449315.879180923919193, 3702334.252833087462932 ], [ 449578.137443309708033, 3703293.533235963433981 ], [ 451652.990250438975636, 3703282.919232112821192 ], [ 451128.690681345353369, 3701364.295401798561215 ], [ 450091.187040537304711, 3701369.599919263739139 ], [ 449829.091035799006931, 3700410.379809821024537 ], [ 450866.633463422127534, 3700405.048695241566747 ], [ 450604.637960473250132, 3699445.845426340587437 ], [ 452679.798154600488488, 3699435.464190267492086 ], [ 452941.716119638818782, 3700394.720692277420312 ], [ 453979.256379407597706, 3700389.723802633583546 ], [ 454241.197263031033799, 3701349.050469338428229 ], [ 453203.695777014247142, 3701354.020677461288869 ], [ 453727.840157073573209, 3703272.751201657112688 ], [ 454765.264061600784771, 3703267.834424898028374 ], [ 455289.577549049514346, 3705186.792717399541289 ], [ 454252.231271348311566, 3705191.655971641186625 ], [ 454514.519346484623384, 3706151.17376411985606 ], [ 453477.211218191194348, 3706156.12179944338277 ], [ 453739.599814169399906, 3707115.656441648490727 ], [ 454776.869096370588522, 3707110.735196454916149 ], [ 455564.288365118263755, 3709989.681594378780574 ], [ 454527.135689275397453, 3709994.522332208231091 ], [ 454789.771000231616199, 3710954.23170435288921 ], [ 455826.884784582594875, 3710949.417847998905927 ], [ 456615.043991332408041, 3713828.889339064247906 ], [ 454541.049245943431742, 3713838.46729089692235 ], [ 454278.189999786263797, 3712878.653517917264253 ], [ 453241.152684469823726, 3712883.637091730255634 ], [ 454030.032278401369695, 3715763.129098661243916 ], [ 457140.791723248665221, 3715748.756204311270267 ], [ 457403.758058554725721, 3716708.755477188620716 ], [ 458440.637621645350009, 3716704.215276319067925 ], [ 458966.677271159307566, 3718624.399796842131764 ], [ 457929.875653042981867, 3718628.885835097637028 ], [ 458193.026906290731858, 3719589.016972839366645 ], [ 459229.78953483508667, 3719584.558050285093486 ], [ 460019.496045834734105, 3722465.297100030817091 ], [ 462092.785466214059852, 3722456.878388302400708 ], [ 461040.278693761036266, 3718615.763546001166105 ], [ 460003.478279596834909, 3718620.025700653903186 ], [ 459740.466614785604179, 3717659.88433051481843 ], [ 461814.144799286790658, 3717651.417635817546397 ], [ 461288.462123962235637, 3715731.158356299158186 ], [ 459214.628137746010907, 3715739.733566269278526 ], [ 458951.801331462222151, 3714779.724119448568672 ], [ 459988.75755586347077, 3714775.353505857754499 ], [ 459726.031299120804761, 3713815.360923332627863 ], [ 458689.03615062800236, 3713819.758594384416938 ], [ 458426.332598209439311, 3712859.836964759044349 ], [ 457389.297917107061949, 3712864.373442891985178 ], [ 457126.617090448969975, 3711904.522665930911899 ], [ 458163.690677169302944, 3711899.959204275161028 ], [ 457638.591741070908029, 3709980.335185602772981 ], [ 456601.440377220045775, 3709984.952545702457428 ], [ 455814.137701880477834, 3707105.925555956549942 ], [ 456851.40564621827798, 3707101.227519568055868 ], [ 456326.923156946781091, 3705182.041010965127498 ], [ 457364.268110580393113, 3705177.40085175819695 ], [ 457102.158157424128149, 3704217.846270559821278 ], [ 461251.686938975821249, 3704200.29349750559777 ], [ 460727.962236922816373, 3702281.100355608388782 ], [ 459690.503399127686862, 3702285.375087805092335 ], [ 459166.947618335892912, 3700366.410448872949928 ], [ 460204.48396325064823, 3700362.081993039697409 ], [ 459681.25214156677248, 3698443.238200638908893 ], [ 458643.638334911607672, 3698447.620289023034275 ], [ 458120.575572396686766, 3696529.004399417433888 ], [ 460195.957403423264623, 3696520.244430650025606 ], [ 459934.595852952857967, 3695560.94827052205801 ], [ 457859.136643827310763, 3695569.761740767396986 ], [ 457597.759354295034427, 3694610.562571479473263 ], [ 459673.295918861636892, 3694601.695645211730152 ], [ 459412.057604090194218, 3693642.486528670415282 ], [ 458374.250969391781837, 3693646.891093789599836 ], [ 458113.035623955423944, 3692687.752156638074666 ], [ 457075.189704071555752, 3692692.294596882071346 ], [ 456552.866645152564161, 3690774.200267548672855 ], [ 457590.789845541410614, 3690769.604558377061039 ], [ 457068.790636581426952, 3688851.630488287657499 ], [ 458106.790422714897431, 3688847.092666800133884 ], [ 457845.921885441755876, 3687888.144056680612266 ], [ 456807.883502954151481, 3687892.708461409900337 ], [ 456547.03802045492921, 3686933.829738728236407 ], [ 457585.11498799326364, 3686929.238773411605507 ], [ 457063.686124248080887, 3685011.558083760086447 ], [ 460178.144591917342041, 3684998.291742462664843 ], [ 459917.638259019644465, 3684039.436637419741601 ], [ 460955.828386771725491, 3684035.209821397438645 ], [ 460695.422194086713716, 3683076.37142485845834 ], [ 459657.193543723784387, 3683080.624823497608304 ], [ 458876.229132644075435, 3680204.448869662825018 ], [ 459914.573283056612127, 3680200.115858846344054 ], [ 459654.41354478726862, 3679241.45045849122107 ], [ 460692.795558727753814, 3679237.201737217605114 ], [ 460432.735903193824925, 3678278.553023522719741 ], [ 461471.155776567466091, 3678274.388557569589466 ], [ 461211.196179806313012, 3677315.756521724630147 ], [ 460172.737860182009172, 3677319.947491004131734 ], [ 459912.801432608044706, 3676361.385113848838955 ], [ 458874.304067003366072, 3676365.713260674849153 ], [ 458614.39082978409715, 3675407.220443146303296 ], [ 460691.461801653378643, 3675398.621958025731146 ], [ 460431.687026087427512, 3674440.119378575589508 ], [ 462508.832411915587727, 3674431.910610262304544 ], [ 461989.621258492639754, 3672514.928951081819832 ], [ 458873.671934864309151, 3672527.566643172409385 ], [ 458354.476954189594835, 3670610.915670050308108 ], [ 457315.749189690221101, 3670615.402059170417488 ], [ 457575.354235243692528, 3671573.679727918002754 ], [ 456536.664193921547849, 3671578.250356280710548 ], [ 457575.854405024438165, 3675411.685689210891724 ], [ 454460.241185401566327, 3675425.745448013301939 ], [ 454720.308177880069707, 3676384.132826655171812 ], [ 449527.797669323452283, 3676409.64802934974432 ], [ 449788.118684973567724, 3677367.947146220132709 ], [ 448749.652821562136523, 3677373.356120883021504 ], [ 448489.293323051882908, 3676415.083175382576883 ], [ 447450.788191664207261, 3676420.629024766385555 ], [ 447190.451959350262769, 3675462.425081513356417 ], [ 446151.907546563539654, 3675468.107727546710521 ], [ 445631.343426600622479, 3673551.880432968493551 ], [ 446669.964766595920082, 3673546.145669267047197 ], [ 446149.724622098961845, 3671630.037385056726635 ], [ 444072.327338539122138, 3671641.721531938295811 ], [ 443812.223063457175158, 3670683.783430824521929 ], [ 444850.960553489625454, 3670677.860123289283365 ], [ 444590.956489031435922, 3669719.938752884510905 ], [ 443552.180581447784789, 3669725.887989909388125 ], [ 443292.199895359808579, 3668768.035183628555387 ], [ 442253.384713197476231, 3668774.120808375068009 ], [ 441993.427426271839067, 3667816.336467649322003 ], [ 443032.281008036923595, 3667810.224986437242478 ], [ 442512.628641059156507, 3665894.732317200861871 ], [ 444590.486706756637432, 3665882.737252286635339 ], [ 444850.205247033271007, 3666840.514015251304954 ], [ 445889.094633419357706, 3666834.707971462979913 ], [ 445110.239427892840467, 3663961.427769208326936 ], [ 443032.229680807038676, 3663973.305435837712139 ], [ 442772.658169056696352, 3663015.682129059918225 ], [ 441733.613652335712686, 3663021.812243702821434 ], [ 441474.065617230720818, 3662064.257165397983044 ], [ 443552.230422953434754, 3662052.05571964988485 ], [ 443292.820835525984876, 3661094.49158889381215 ], [ 442253.700562192883808, 3661100.56292566889897 ], [ 441734.990196385537274, 3659185.613432923331857 ], [ 442774.187060744385235, 3659179.490652117412537 ], [ 442255.800504923798144, 3657264.659312224015594 ], [ 443295.073025527701247, 3657258.595319201704115 ], [ 443036.010713701485656, 3656301.217512826435268 ], [ 441996.69994118984323, 3656307.30717762792483 ], [ 441737.661190671438817, 3655349.997366108000278 ], [ 437580.255986799602397, 3655375.559492259286344 ], [ 438358.016833091096487, 3658247.308702045120299 ], [ 437318.777987597452011, 3658253.897860423661768 ], [ 437578.193608045519795, 3659211.206555743701756 ], [ 436538.992098244896624, 3659217.880340266507119 ], [ 436798.507891760731582, 3660175.205752427689731 ], [ 438876.833329867746215, 3660162.019554754719138 ], [ 439655.521917604608461, 3663034.403410460334271 ], [ 438616.474667674105149, 3663040.864464117214084 ], [ 438876.199562959081959, 3663998.384849932976067 ], [ 434720.15442952606827, 3664025.229746426921338 ], [ 435240.096802457876038, 3665940.1925736265257 ], [ 434201.159837395767681, 3665947.128497534431517 ], [ 434721.426581434032414, 3667862.20957412570715 ], [ 438876.861285597726237, 3667835.333634578157216 ], [ 439397.068154463544488, 3669750.790033398661762 ], [ 438358.287769088288769, 3669757.291821924038231 ], [ 438878.818892005947419, 3671672.866799098439515 ], [ 439917.52238625404425, 3671666.416611237451434 ], [ 440177.842256159055978, 3672624.293781120330095 ], [ 438100.511262677027844, 3672637.253085574600846 ], [ 438360.969916441768873, 3673595.121191813610494 ], [ 439399.59739997057477, 3673588.612069640308619 ], [ 439660.079416255583055, 3674546.548628807533532 ], [ 436544.309607965231407, 3674566.330404555890709 ], [ 436283.712110328197014, 3673608.471314107067883 ], [ 435245.081756033119746, 3673615.312315858900547 ], [ 435766.415639517537784, 3675531.021523222792894 ], [ 434727.86132250825176, 3675537.921653235331178 ], [ 434467.124920930946246, 3674580.071530762594193 ], [ 433428.531085426046047, 3674587.108079074881971 ], [ 433689.306010100466665, 3675544.932468397077173 ], [ 432650.749686460359953, 3675552.053969565313309 ], [ 433433.561512031941675, 3678425.705232655163854 ], [ 432395.119825094821863, 3678432.860254494938999 ], [ 431873.106244789552875, 3676517.101660320069641 ], [ 430834.586399144958705, 3676524.418864628300071 ], [ 431095.6007890177425, 3677482.25119439419359 ], [ 429018.635051462275442, 3677497.166450163349509 ], [ 428757.543529553397093, 3676539.385424270760268 ], [ 427719.020473955199122, 3676547.034781433641911 ], [ 427457.952345558675006, 3675589.321796423755586 ], [ 423303.694655524275731, 3675621.128498384729028 ], [ 423564.917076972720679, 3676578.739414321258664 ], [ 425641.971042031014804, 3676562.665655113290995 ], [ 425903.178296464669984, 3677520.369935518596321 ], [ 426941.664989038952626, 3677512.524692261125892 ], [ 427202.895636143162847, 3678470.29696047399193 ], [ 426164.447536860243417, 3678478.116627424955368 ], [ 426425.778760413406417, 3679435.905756351538002 ], [ 425387.368146169232205, 3679443.810629957355559 ], [ 425648.799970338004641, 3680401.616628108080477 ], [ 424610.426845751237124, 3680409.60674287378788 ], [ 425395.210181127535179, 3683283.202801813837141 ], [ 424356.951865749317221, 3683291.227004996966571 ], [ 424618.708971830899827, 3684249.151735844556242 ], [ 423580.488187033042777, 3684257.261260143946856 ], [ 423318.692402095126454, 3683299.362128728535026 ], [ 422280.431774408381898, 3683307.608174001332372 ], [ 422018.659331012517214, 3682349.777066011447459 ], [ 420980.358846572460607, 3682358.159554641228169 ], [ 420718.609765212982893, 3681400.396371382754296 ], [ 419680.269410110311583, 3681408.915225792210549 ], [ 419942.05716192611726, 3682366.652938814368099 ], [ 418903.754261308407877, 3682375.257219568826258 ], [ 418641.927834365167655, 3681417.54494876274839 ], [ 417603.585022201412357, 3681426.285541348159313 ], [ 417865.450128953903913, 3682383.972397953737527 ], [ 416827.144749095430598, 3682392.798475032672286 ], [ 416565.240957843430806, 3681435.137004614342004 ], [ 415526.89562551653944, 3681444.099339643493295 ], [ 416050.842681227368303, 3683359.413855307735503 ], [ 409821.207712250412442, 3683415.212977374438196 ], [ 410083.506747717445251, 3684372.781865916680545 ], [ 406968.78724452998722, 3684402.103505284525454 ], [ 407231.264717775979079, 3685359.638995161280036 ], [ 408269.467177196580451, 3685349.779323584400117 ], [ 408531.968060787650757, 3686307.382174543105066 ], [ 407493.804377819527872, 3686317.216649705544114 ], [ 407756.406221906247083, 3687274.836494386196136 ], [ 406718.279929539188743, 3687284.75680176820606 ], [ 407243.747776969277766, 3689200.072713761590421 ], [ 411395.934211977291852, 3689161.259921386372298 ], [ 411921.340213264862541, 3691076.947305770590901 ], [ 413997.270085954165552, 3691058.309120214078575 ], [ 413472.019324612047058, 3689142.520151749718934 ], [ 414510.059909654897638, 3689133.316919534467161 ], [ 414247.566493742808234, 3688175.460613372735679 ], [ 415285.644566969713196, 3688166.343049259856343 ], [ 415023.252032945863903, 3687208.50371019449085 ], [ 416061.367589478730224, 3687199.471779651474208 ], [ 415799.075913086591754, 3686241.649399296380579 ], [ 416837.228948064963333, 3686232.70306778466329 ], [ 417361.796882351743989, 3688148.441133284475654 ], [ 418399.871155921253376, 3688139.656779236160219 ], [ 417875.380722814588808, 3686223.867749175988138 ], [ 418913.531253064167686, 3686215.143442390486598 ], [ 419175.706694432068616, 3687173.04223570972681 ], [ 421251.926617709163111, 3687155.977735441643745 ], [ 421514.086628644960001, 3688113.970120036508888 ], [ 425666.357366767362691, 3688081.276142701506615 ], [ 426714.997579662012868, 3691914.082553680520505 ], [ 425677.08662862732308, 3691921.986469187773764 ], [ 425939.440411901334301, 3692880.269024746958166 ], [ 422825.817128140013665, 3692904.570578057318926 ], [ 422563.34697828895878, 3691946.365262937732041 ], [ 423601.261343611753546, 3691938.127822832204401 ], [ 423338.891998208011501, 3690979.939449004363269 ], [ 424376.843987415370066, 3690971.787460580468178 ], [ 424114.575422242400236, 3690013.616019588895142 ], [ 425152.565030563739128, 3690005.549448405392468 ], [ 424890.397221413382795, 3689047.394931792747229 ], [ 420738.276811036397703, 3689080.430592829827219 ], [ 421262.984528924454935, 3690996.576870305929333 ], [ 420225.029017490043771, 3691005.06230521062389 ], [ 420487.514723660890013, 3691963.173674734774977 ], [ 421525.431443528155796, 3691954.713879899121821 ], [ 421787.94039149582386, 3692912.893504282459617 ], [ 420750.062474389036652, 3692921.327636413741857 ], [ 421012.672266870038584, 3693879.524215918965638 ], [ 422050.511370018590242, 3693871.115769135765731 ], [ 422313.144376285257749, 3694829.380700157023966 ], [ 423350.943483091657981, 3694821.109223351813853 ], [ 423088.349297345848754, 3693862.818556293379515 ], [ 424126.186064502282534, 3693854.632576380856335 ], [ 424388.741434355557431, 3694812.949007516726851 ], [ 425426.538245717412792, 3694804.900051657110453 ], [ 425951.757333943329286, 3696721.712803559843451 ], [ 426989.475374061381444, 3696713.826815037522465 ], [ 427514.864712977665477, 3698630.862611670047045 ], [ 426477.224364742171019, 3698638.696801104582846 ], [ 426740.050851529289503, 3699597.253081468865275 ], [ 425702.448264816135634, 3699605.172736552078277 ], [ 425965.375607358058915, 3700563.74597748182714 ], [ 428040.501926891389303, 3700548.069951123092324 ], [ 428566.386993086023722, 3702465.449040083680302 ], [ 426491.416246233915444, 3702481.021160970441997 ], [ 426754.529536892776377, 3703439.723155233077705 ], [ 425717.081433548824862, 3703447.650473368819803 ], [ 425190.839009516173974, 3701530.341342512052506 ], [ 423115.783772371418308, 3701546.634179698303342 ], [ 422852.677747148554772, 3700588.095731454435736 ], [ 423890.244838784681633, 3700579.867716901469976 ], [ 423627.239725219551474, 3699621.346248328220099 ], [ 422589.63374115084298, 3699629.600106990430504 ], [ 422326.651757202809677, 3698671.147280506789684 ], [ 420251.358506229589693, 3698688.040767089929432 ], [ 420514.418266503082123, 3699646.442034886684269 ], [ 419476.808744737820234, 3699655.030106171965599 ], [ 419739.969455835933331, 3700613.448366548866034 ], [ 418702.397634651628323, 3700622.122112154960632 ], [ 419228.983068294706754, 3702539.035393560770899 ], [ 418191.487890721182339, 3702547.769098539371043 ], [ 418718.399468012736179, 3704464.801951088011265 ], [ 419755.816735776723363, 3704456.119813007768244 ], [ 420019.326650162867736, 3705414.726264033932239 ], [ 421056.703748125524726, 3705406.181519051082432 ], [ 421583.831756224913988, 3707323.574792384169996 ], [ 422621.129713066795375, 3707315.193437447305769 ], [ 422884.747772059869021, 3708273.98040783777833 ], [ 421847.488811366434675, 3708282.335820842999965 ], [ 422111.207896794308908, 3709241.139811691362411 ], [ 423148.427850098581985, 3709232.81036339700222 ], [ 423412.169944346009288, 3710191.683330051600933 ], [ 424449.349735114257783, 3710183.491582972928882 ], [ 424185.646654887998011, 3709224.592600762844086 ], [ 425222.86432666098699, 3709216.486522789113224 ], [ 425750.25445913959993, 3711134.379657065030187 ], [ 426787.392992482869886, 3711126.437428903300315 ], [ 426523.705946895934176, 3710167.443225973751396 ], [ 427560.882398884103168, 3710159.586614102590829 ], [ 427824.53043296787655, 3711118.606939566787332 ], [ 428861.66679607128026, 3711110.888188103679568 ], [ 429389.0707101727603, 3713029.110697422642261 ], [ 426277.892543673806358, 3713052.445225804112852 ], [ 426014.042508824262768, 3712093.390874133910984 ], [ 422902.737306447816081, 3712117.809817785862833 ], [ 423166.704484660120215, 3713076.785917489323765 ], [ 422129.639527847233694, 3713085.123077798169106 ], [ 422657.838077471475117, 3715003.152455311268568 ], [ 421620.850116653833538, 3715011.54934736341238 ], [ 421356.680745463527273, 3714052.539156456012279 ], [ 420319.652528689708561, 3714061.073922953568399 ], [ 420055.506115761294495, 3713102.132799099199474 ], [ 419018.437629572930746, 3713110.805362156126648 ], [ 419546.870677958941087, 3715028.678703523240983 ], [ 418509.87916920700809, 3715037.411169711966068 ], [ 418774.227887229179032, 3715996.386422358453274 ], [ 417737.274278878467157, 3716005.204792548902333 ], [ 419060.14450824575033, 3720800.597290877252817 ], [ 420096.902378198574297, 3720791.909044274594635 ], [ 420361.623436685826164, 3721751.14302259683609 ], [ 418288.184863282425795, 3721768.579386617057025 ], [ 418553.046358654391952, 3722727.80437260819599 ], [ 415442.996991729654837, 3722754.721264391206205 ], [ 415973.141520432021935, 3724673.144440818112344 ], [ 418046.352089132647961, 3724655.191968041937798 ], [ 418311.43901123496471, 3725614.520480622537434 ] ], [ [ 440270.100109843246173, 3711033.356363019440323 ], [ 441307.224751694826409, 3711026.978396738413721 ], [ 441570.427867355581839, 3711986.384321327321231 ], [ 440533.342189655522816, 3711992.735777124762535 ], [ 440270.100109843246173, 3711033.356363019440323 ] ], [ [ 441044.083454765786882, 3710067.615923137404025 ], [ 435858.256365503999405, 3710100.755194828845561 ], [ 435331.769791213795543, 3708182.424468292389065 ], [ 436369.014970765449107, 3708175.520529896952212 ], [ 436105.903444863972254, 3707216.393760859966278 ], [ 437143.186605237307958, 3707209.575133199803531 ], [ 436617.227013617870398, 3705291.398734077811241 ], [ 435579.866022384201642, 3705298.269963159691542 ], [ 435054.0761248380295, 3703380.318979321047664 ], [ 436091.51490181783447, 3703373.395239926408976 ], [ 435828.751658037712332, 3702414.458267260342836 ], [ 438941.178901226259768, 3702394.277240337338299 ], [ 439203.82554408616852, 3703353.293044571299106 ], [ 441278.694720606203191, 3703340.449091905262321 ], [ 441541.325471192889381, 3704299.560879095923156 ], [ 440503.93019590160111, 3704305.900720624253154 ], [ 440766.661639024852775, 3705265.029414916876704 ], [ 438691.946163152053487, 3705277.990956686902791 ], [ 438954.817219308461063, 3706237.110193042550236 ], [ 443104.089063049876131, 3706211.739001835230738 ], [ 443366.866359875013586, 3707171.00729020498693 ], [ 441292.309996798401698, 3707183.416781633161008 ], [ 442344.348517388687469, 3711020.712157191708684 ], [ 441307.224751694826409, 3711026.978396738413721 ], [ 441044.083454765786882, 3710067.615923137404025 ] ], [ [ 433257.276515473902691, 3708196.567285362165421 ], [ 432730.881724844453856, 3706278.51460671145469 ], [ 433768.206734449602664, 3706271.334896027110517 ], [ 433505.141129299299791, 3705312.347106280270964 ], [ 432467.77719637361588, 3705319.553022029809654 ], [ 432204.734582951641642, 3704360.634572486858815 ], [ 434279.539272282330785, 3704346.281911404337734 ], [ 435331.769791213795543, 3708182.424468292389065 ], [ 433257.276515473902691, 3708196.567285362165421 ] ], [ [ 434791.274005094659515, 3702421.408227668143809 ], [ 434265.855438007449266, 3700503.71607517125085 ], [ 436340.965208145207725, 3700489.822826895397156 ], [ 436078.426446354249492, 3699530.989040553569794 ], [ 437116.018722167180385, 3699524.183336776681244 ], [ 437641.080441218335181, 3701441.946469306014478 ], [ 435566.050292834581342, 3701455.564442926086485 ], [ 435828.751658037712332, 3702414.458267260342836 ], [ 434791.274005094659515, 3702421.408227668143809 ] ], [ [ 456799.538939863326959, 3680213.447323078289628 ], [ 456539.263756337400991, 3679254.861314895097166 ], [ 457577.647659390873741, 3679250.280246790032834 ], [ 457057.359197783574928, 3677333.18475054949522 ], [ 458095.819384988280945, 3677328.661604883614928 ], [ 458876.229132644075435, 3680204.448869662825018 ], [ 456799.538939863326959, 3680213.447323078289628 ] ], [ [ 457059.875775228254497, 3681172.076473746448755 ], [ 456021.568202967231628, 3681176.715487072709948 ], [ 455761.192865915014409, 3680218.112766776233912 ], [ 456799.538939863326959, 3680213.447323078289628 ], [ 457059.875775228254497, 3681172.076473746448755 ] ], [ [ 459133.361871604342014, 3673485.956656681373715 ], [ 458094.749255844391882, 3673490.364026042167097 ], [ 457835.020924927375745, 3672532.000374971888959 ], [ 458873.671934864309151, 3672527.566643172409385 ], [ 459133.361871604342014, 3673485.956656681373715 ] ], [ [ 443293.831932172412053, 3672605.684292980469763 ], [ 442255.169594243285246, 3672611.776860912330449 ], [ 441214.568646893138066, 3668780.316914572846144 ], [ 442253.384713197476231, 3668774.120808375068009 ], [ 443293.831932172412053, 3672605.684292980469763 ] ], [ [ 411133.324423419195227, 3688203.479743586387485 ], [ 412171.406437673897017, 3688194.028959402814507 ], [ 412433.977430618775543, 3689151.834485320840031 ], [ 411395.934211977291852, 3689161.259921386372298 ], [ 411133.324423419195227, 3688203.479743586387485 ] ], [ [ 425164.02168713870924, 3693846.557828401215374 ], [ 428277.521844446659088, 3693823.000966285355389 ], [ 428802.384106827899814, 3695739.883329974021763 ], [ 429840.137710883864202, 3695732.305331336334348 ], [ 429577.714404999103863, 3694773.816808552481234 ], [ 431653.296051928773522, 3694758.942721995525062 ], [ 431915.64176325983135, 3695717.483182954136282 ], [ 432953.392242846370209, 3695710.239031402394176 ], [ 433478.19181132176891, 3697627.500834749545902 ], [ 430365.170150517369621, 3697649.411031771451235 ], [ 430627.779278580565006, 3698608.0282610533759 ], [ 428552.503970960213337, 3698623.13979247584939 ], [ 428289.817162678460591, 3697664.574525266420096 ], [ 429327.494188403710723, 3697656.937108364421874 ], [ 429064.908171635121107, 3696698.388779435306787 ], [ 428027.192314751213416, 3696706.05214064521715 ], [ 427502.128511307993904, 3694789.135915950872004 ], [ 425426.538245717412792, 3694804.900051657110453 ], [ 425164.02168713870924, 3693846.557828401215374 ] ], [ [ 431665.415359426755458, 3698600.639546985737979 ], [ 431928.04757801204687, 3699559.325775931589305 ], [ 430890.450341679621488, 3699566.688444156199694 ], [ 430627.779278580565006, 3698608.0282610533759 ], [ 431665.415359426755458, 3698600.639546985737979 ] ], [ [ 427777.652336978644598, 3699589.444825631100684 ], [ 428815.25273675750941, 3699581.747968089301139 ], [ 429078.063457229407504, 3700540.399077949114144 ], [ 428040.501926891389303, 3700548.069951123092324 ], [ 427777.652336978644598, 3699589.444825631100684 ] ], [ [ 420793.232800824858714, 3704447.549222429282963 ], [ 421830.647678701265249, 3704439.090178306214511 ], [ 422094.079663555487059, 3705397.748348565306515 ], [ 421056.703748125524726, 3705406.181519051082432 ], [ 420793.232800824858714, 3704447.549222429282963 ] ], [ [ 422357.573675954306964, 3706356.449426320847124 ], [ 423394.909455335175153, 3706348.153753743041307 ], [ 423131.454411987506319, 3705389.426751550287008 ], [ 424168.828008957963903, 3705381.216726994141936 ], [ 424959.262249563413206, 3708257.604553650598973 ], [ 423922.005579623219091, 3708265.736652440857142 ], [ 423658.426512159407139, 3707306.923712072428316 ], [ 422621.129713066795375, 3707315.193437447305769 ], [ 422357.573675954306964, 3706356.449426320847124 ] ], [ [ 423905.47393511782866, 3704422.506725327577442 ], [ 424942.885344748036005, 3704414.382314454298466 ], [ 425206.200470001203939, 3705373.118273897096515 ], [ 424168.828008957963903, 3705381.216726994141936 ], [ 423905.47393511782866, 3704422.506725327577442 ] ], [ [ 426243.571810654073488, 3705365.131391272880137 ], [ 425980.295629387255758, 3704406.369446002878249 ], [ 427017.704804580425844, 3704398.468118995893747 ], [ 427544.241259663423989, 3706316.087058606557548 ], [ 425469.577589086897206, 3706331.89720911020413 ], [ 425206.200470001203939, 3705373.118273897096515 ], [ 426243.571810654073488, 3705365.131391272880137 ] ], [ [ 424203.768295930116437, 3713068.560556050855666 ], [ 424467.758426592103206, 3714027.605826633051038 ], [ 423430.733678966003936, 3714035.805109311360866 ], [ 423166.704484660120215, 3713076.785917489323765 ], [ 424203.768295930116437, 3713068.560556050855666 ] ], [ [ 419832.243369351723231, 3719832.718251996673644 ], [ 420869.03921919176355, 3719824.115935302805156 ], [ 421133.659062477003317, 3720783.332826090045273 ], [ 420096.902378198574297, 3720791.909044274594635 ], [ 419832.243369351723231, 3719832.718251996673644 ] ], [ [ 438005.970026300055906, 3725466.844782223924994 ], [ 438270.374105527298525, 3726426.718227304983884 ], [ 437233.868181950703729, 3726433.454537220299244 ], [ 437498.37328922044253, 3727393.345012127887458 ], [ 440607.770820614357945, 3727373.552752712741494 ], [ 440872.220237459230702, 3728333.567134982906282 ], [ 437762.940256412141025, 3728353.279200430028141 ], [ 438557.012288350320887, 3731233.344309031963348 ], [ 439593.32221569417743, 3731226.741630134172738 ], [ 439328.608908188936766, 3730266.649371441453695 ], [ 440364.957162487495225, 3730260.132214842829853 ], [ 441159.164906118006911, 3733140.621012735180557 ], [ 442195.39460735837929, 3733134.296704221051186 ], [ 442460.214917945326306, 3734094.574334441218525 ], [ 440387.833147828292567, 3734107.281562639400363 ], [ 440122.934338443214074, 3733147.057699328754097 ], [ 439086.702889078645967, 3733153.606764782220125 ], [ 439351.640954500355292, 3734113.803786825854331 ], [ 438315.44786866515642, 3734120.4384187865071 ], [ 437785.55507063108962, 3732200.141849539242685 ], [ 435713.009114563057665, 3732213.855377839878201 ], [ 435183.206788191630039, 3730293.84095090162009 ], [ 434146.853906067553908, 3730300.919588153716177 ], [ 433617.220674962736666, 3728381.133305384311825 ], [ 436726.511778093059547, 3728360.07436598232016 ], [ 436197.361330264713615, 3726440.303029987029731 ], [ 435160.853535144298803, 3726447.263706437312067 ], [ 434896.33194688113872, 3725487.470148815773427 ], [ 435932.878916152636521, 3725480.482871317770332 ], [ 435404.099722064798698, 3723560.973441226873547 ], [ 437477.347433973685838, 3723547.228917049244046 ], [ 437741.627801478258334, 3724507.015020901802927 ], [ 436705.043558820441831, 3724513.804622375871986 ], [ 436969.424937514471821, 3725473.607749399729073 ], [ 438005.970026300055906, 3725466.844782223924994 ] ], [ [ 433859.784014366101474, 3725494.569582737982273 ], [ 433595.285147200571373, 3724534.84618998831138 ], [ 434631.872247025021352, 3724527.72020607534796 ], [ 434896.33194688113872, 3725487.470148815773427 ], [ 433859.784014366101474, 3725494.569582737982273 ] ], [ [ 443473.996708261081949, 3730241.25450419774279 ], [ 442437.651047237566672, 3730247.434781991411 ], [ 442702.246715487213805, 3731207.607526002451777 ], [ 441665.939413986518048, 3731213.873239399399608 ], [ 441136.731477255059872, 3729293.625325940549374 ], [ 444245.886054270376917, 3729275.003906761296093 ], [ 444510.341535429179203, 3730235.18651782348752 ], [ 445546.68554402992595, 3730229.230822131503373 ], [ 445811.163612710079178, 3731189.484304626006633 ], [ 443738.553172257321421, 3731201.454132903367281 ], [ 443473.996708261081949, 3730241.25450419774279 ] ], [ [ 420891.251691198209301, 3723669.740641693584621 ], [ 419854.611399428686127, 3723678.350539538543671 ], [ 419589.727046201645862, 3722719.056250040885061 ], [ 420626.406541968812235, 3722710.420213038567454 ], [ 420891.251691198209301, 3723669.740641693584621 ] ], [ [ 439550.591441217926331, 3723533.932783708442003 ], [ 439286.45118296192959, 3722574.137049924116582 ], [ 440323.11095355253201, 3722567.63045505899936 ], [ 440587.212093973648734, 3723527.452861578203738 ], [ 439550.591441217926331, 3723533.932783708442003 ] ], [ [ 438249.790512464358471, 3722580.755712770856917 ], [ 437721.617309701337945, 3720661.348391855601221 ], [ 438758.356190765451174, 3720654.676508564502001 ], [ 439286.45118296192959, 3722574.137049924116582 ], [ 438249.790512464358471, 3722580.755712770856917 ] ], [ [ 437213.12892669509165, 3722587.486444400157779 ], [ 435139.802947895834222, 3722601.284117286559194 ], [ 434611.395059804955963, 3720682.036120443604887 ], [ 436684.877504440781195, 3720668.132287714630365 ], [ 437213.12892669509165, 3722587.486444400157779 ] ], [ [ 436420.844595270114951, 3719708.520551221910864 ], [ 435384.064753195329104, 3719715.442980106454343 ], [ 435120.054629943333566, 3718755.901266629807651 ], [ 436156.873557937331498, 3718748.952341017778963 ], [ 436420.844595270114951, 3719708.520551221910864 ] ], [ [ 436929.821444918808993, 3717782.564160562120378 ], [ 435892.964395339484327, 3717789.427630914375186 ], [ 435629.11711037211353, 3716829.946394738741219 ], [ 436666.013218760082964, 3716823.056445348076522 ], [ 436929.821444918808993, 3717782.564160562120378 ] ], [ [ 421112.464038192178123, 3716938.155696150381118 ], [ 420075.551948044390883, 3716946.724255938548595 ], [ 419811.180286707356572, 3715987.679940357338637 ], [ 420848.131492743035778, 3715979.085345488972962 ], [ 421112.464038192178123, 3716938.155696150381118 ] ], [ [ 424223.193329984904267, 3716913.121497513726354 ], [ 423186.284713743138127, 3716921.354317958466709 ], [ 422922.030386199126951, 3715962.231812986545265 ], [ 423958.978104477457236, 3715953.972873305436224 ], [ 424223.193329984904267, 3716913.121497513726354 ] ], [ [ 433537.293598553515039, 3712999.563091880641878 ], [ 434574.346804610511754, 3712992.455666422378272 ], [ 434837.94655015860917, 3713951.763268291950226 ], [ 433800.932362194405869, 3713958.844334268476814 ], [ 433537.293598553515039, 3712999.563091880641878 ] ], [ [ 434310.80895113007864, 3712033.191407858859748 ], [ 435347.900183985475451, 3712026.169406298082322 ], [ 435611.399035170907155, 3712985.460029588080943 ], [ 434574.346804610511754, 3712992.455666422378272 ], [ 434310.80895113007864, 3712033.191407858859748 ] ], [ [ 435084.46321645739954, 3711066.92212307266891 ], [ 436121.592471282579936, 3711059.985511212609708 ], [ 436384.990452307392843, 3712019.259164420422167 ], [ 435347.900183985475451, 3712026.169406298082322 ], [ 435084.46321645739954, 3711066.92212307266891 ] ], [ [ 428071.025588712887838, 3708233.878187101334333 ], [ 427033.772238601464778, 3708241.675321949645877 ], [ 426770.310118107066955, 3707282.7843033275567 ], [ 427807.602441367343999, 3707274.961086276452988 ], [ 428071.025588712887838, 3708233.878187101334333 ] ], [ [ 430342.49641125195194, 3689966.883340248372406 ], [ 427228.540867951698601, 3689989.749658457934856 ], [ 426966.450546218140516, 3689031.543643806595355 ], [ 428004.475543473265134, 3689023.784632028546184 ], [ 427480.558266633364838, 3687107.449083282146603 ], [ 428518.659605534397997, 3687099.749587954487652 ], [ 428780.54855104238959, 3688057.921801005955786 ], [ 429818.610102095233742, 3688050.359137477353215 ], [ 430342.49641125195194, 3689966.883340248372406 ] ], [ [ 413722.76599953812547, 3686259.875105407554656 ], [ 412684.609089512843639, 3686269.154482230078429 ], [ 412422.263264092267491, 3685311.450565721374005 ], [ 413460.458926798950415, 3685302.145852521061897 ], [ 413722.76599953812547, 3686259.875105407554656 ] ], [ [ 429548.232275034184568, 3683252.215175182092935 ], [ 426433.467363988049328, 3683275.289518200792372 ], [ 426171.849582054594066, 3682317.356046667788178 ], [ 427210.14430196856847, 3682309.52802067855373 ], [ 426948.627145775128156, 3681351.611427419353276 ], [ 427986.959398105042055, 3681343.868624576367438 ], [ 428248.437916277151089, 3682301.810884296428412 ], [ 429286.730440748098772, 3682294.204636580310762 ], [ 429548.232275034184568, 3683252.215175182092935 ] ], [ [ 429541.003949753008783, 3679412.855964659247547 ], [ 430579.410181055427529, 3679405.394307342823595 ], [ 430840.64894993591588, 3680363.328552553895861 ], [ 429802.28132050629938, 3680370.764504368416965 ], [ 429541.003949753008783, 3679412.855964659247547 ] ], [ [ 430318.23334778402932, 3678447.502614830154926 ], [ 431356.677108947536908, 3678440.1260482580401 ], [ 431617.815356112783775, 3679398.043451785575598 ], [ 430579.410181055427529, 3679405.394307342823595 ], [ 430318.23334778402932, 3678447.502614830154926 ] ], [ [ 444853.01089371717535, 3674515.79205234348774 ], [ 443814.42634458251996, 3674521.722066229674965 ], [ 443554.098240508232266, 3673563.681822368409485 ], [ 444592.721256522578187, 3673557.725817097350955 ], [ 444853.01089371717535, 3674515.79205234348774 ] ], [ [ 437317.96776898013195, 3665926.65193105628714 ], [ 436279.032774341641925, 3665933.36705174529925 ], [ 436019.069036770029925, 3664975.838842381723225 ], [ 437058.042419962352142, 3664969.098072906956077 ], [ 437317.96776898013195, 3665926.65193105628714 ] ] ], [ [ [ 425439.582910651282873, 3698646.642361730337143 ], [ 426477.224364742171019, 3698638.696801104582846 ], [ 426214.459857936133631, 3697680.183383734896779 ], [ 425176.779547694255598, 3697688.154827200807631 ], [ 425439.582910651282873, 3698646.642361730337143 ] ] ], [ [ [ 425439.582910651282873, 3698646.642361730337143 ], [ 423364.296622483874671, 3698662.86760044330731 ], [ 423627.239725219551474, 3699621.346248328220099 ], [ 425702.448264816135634, 3699605.172736552078277 ], [ 425439.582910651282873, 3698646.642361730337143 ] ] ], [ [ [ 449853.121360336896032, 3708095.928796582855284 ], [ 448815.887341070338152, 3708101.381402251776308 ], [ 449078.593709431879688, 3709060.869600284378976 ], [ 450115.788838186010253, 3709055.443689689505845 ], [ 450378.518038683047052, 3710015.002187021076679 ], [ 451415.673524395097047, 3710009.714686561841518 ], [ 451152.983221384056378, 3709050.129443187266588 ], [ 452190.176874527765904, 3709044.92686013225466 ], [ 451665.059157615643926, 3707125.833748528268188 ], [ 449590.515608062793035, 3707136.457481547258794 ], [ 449853.121360336896032, 3708095.928796582855284 ] ] ], [ [ [ 440796.646096610755194, 3712952.158645495772362 ], [ 439759.598511638003401, 3712958.595351691823453 ], [ 440023.003234059840906, 3713918.035172387957573 ], [ 441060.01182780705858, 3713911.624994265846908 ], [ 440796.646096610755194, 3712952.158645495772362 ] ] ], [ [ [ 441077.240421247843187, 3717756.229553606361151 ], [ 440040.387029641016852, 3717762.645315790083259 ], [ 440304.139938562235329, 3718722.276202234439552 ], [ 441340.954277888755314, 3718715.887054407503456 ], [ 441077.240421247843187, 3717756.229553606361151 ] ] ], [ [ [ 436969.424937514471821, 3725473.607749399729073 ], [ 435932.878916152636521, 3725480.482871317770332 ], [ 436197.361330264713615, 3726440.303029987029731 ], [ 437233.868181950703729, 3726433.454537220299244 ], [ 436969.424937514471821, 3725473.607749399729073 ] ] ], [ [ [ 435954.789601340133231, 3729326.906331400386989 ], [ 434918.398451370187104, 3729333.899335718248039 ], [ 435183.206788191630039, 3730293.84095090162009 ], [ 436219.558714181999676, 3730286.874611441977322 ], [ 435954.789601340133231, 3729326.906331400386989 ] ] ], [ [ [ 468892.606344701373018, 3735895.721181748900563 ], [ 470964.796077797887847, 3735889.194132145959884 ], [ 470700.910816147108562, 3734928.090417666826397 ], [ 471737.044185268518049, 3734924.967830067500472 ], [ 471209.536412682966329, 3733002.838828419800848 ], [ 470173.324777231377084, 3733006.016812042798847 ], [ 470437.087048278597649, 3733967.03131986875087 ], [ 469400.914105174306314, 3733970.294007019605488 ], [ 468873.372811265813652, 3732048.364848051220179 ], [ 469909.624006043595728, 3732045.04686749400571 ], [ 468855.435980546812061, 3728201.612188769970089 ], [ 467819.02841999247903, 3728205.040479353629053 ], [ 468082.522235675423872, 3729165.804894473403692 ], [ 467046.153278234298341, 3729169.31789143756032 ], [ 467309.747707240108866, 3730130.099202415440232 ], [ 466273.417357420898043, 3730133.696939561050385 ], [ 466537.11242381244665, 3731094.495155122131109 ], [ 465500.820686146907974, 3731098.177666252478957 ], [ 464973.413888734474313, 3729176.680635013151914 ], [ 462900.672431094106287, 3729184.492381118703634 ], [ 463164.423261527088471, 3730145.163823100738227 ], [ 462128.090829791733995, 3730149.210676524788141 ], [ 462655.85547669918742, 3732070.631759430281818 ], [ 461619.600750787474681, 3732074.736086861696094 ], [ 462147.690040320565458, 3733996.279771828558296 ], [ 460075.335522619076073, 3734004.71581082046032 ], [ 461397.02850819285959, 3738809.077704887837172 ], [ 462433.01003489352297, 3738804.940856643486768 ], [ 462168.587459584639873, 3737843.952079847455025 ], [ 463204.607657433487475, 3737839.900218570139259 ], [ 462940.285880930488929, 3736878.928405658807606 ], [ 465012.40308037266368, 3736871.107067131437361 ], [ 465276.64644771150779, 3737832.134014544542879 ], [ 466312.665070560004096, 3737828.419670855626464 ], [ 466048.46090151410317, 3736867.365113880485296 ], [ 468120.57506273209583, 3736860.218637137208134 ], [ 468384.700847721542232, 3737821.32849787781015 ], [ 467348.68319882726064, 3737824.817832112312317 ], [ 467612.909704339399468, 3738785.944631274789572 ], [ 468648.888151813414879, 3738782.482986151706427 ], [ 469441.819148300040979, 3741666.214483761694282 ], [ 470477.679475051991176, 3741662.948661771602929 ], [ 469949.075750688905828, 3739740.360756361391395 ], [ 470985.014088747033384, 3739737.151944137644023 ], [ 470456.73476823582314, 3737814.687341259326786 ], [ 469420.718032454897184, 3737817.951667729299515 ], [ 468892.606344701373018, 3735895.721181748900563 ] ] ], [ [ [ 448965.201661398517899, 3738867.497811757493764 ], [ 451037.179581156291533, 3738856.635730668436736 ], [ 450242.801820756227244, 3735974.705582347232848 ], [ 449206.695441184216179, 3735980.161912296433002 ], [ 449471.465563021192793, 3736940.733914381358773 ], [ 448435.397691939782817, 3736946.275566244032234 ], [ 448965.201661398517899, 3738867.497811757493764 ] ] ], [ [ [ 453880.404604161332827, 3737880.417259854730219 ], [ 452844.378860020253342, 3737885.481701858341694 ], [ 453109.154627343465108, 3738846.223814727272838 ], [ 454145.14111084502656, 3738841.18666710332036 ], [ 454409.9392940007383, 3739802.000404962804168 ], [ 455445.885836925765034, 3739797.103142413776368 ], [ 455181.126921550603583, 3738836.262058892287314 ], [ 456217.112074657226913, 3738831.449989499524236 ], [ 455687.857734701421577, 3736909.84617863362655 ], [ 453615.729776936757844, 3736919.692156596574932 ], [ 453880.404604161332827, 3737880.417259854730219 ] ] ], [ [ [ 465276.64644771150779, 3737832.134014544542879 ], [ 464240.627315072866622, 3737835.960863628424704 ], [ 464504.971449885866605, 3738797.00476474640891 ], [ 465540.951368574809749, 3738793.205520132090896 ], [ 465276.64644771150779, 3737832.134014544542879 ] ] ], [ [ [ 463468.991010391386226, 3738800.916543425992131 ], [ 462433.01003489352297, 3738804.940856643486768 ], [ 462697.494195099803619, 3739765.974148969165981 ], [ 463733.435936783789657, 3739761.977406931109726 ], [ 463468.991010391386226, 3738800.916543425992131 ] ] ], [ [ [ 444846.378600329218898, 3742739.054706514347345 ], [ 446918.049627672065981, 3742727.284091463778168 ], [ 446652.75186136708362, 3741766.555508030578494 ], [ 445616.877402778365649, 3741772.411648112349212 ], [ 445351.602065843995661, 3740811.754428643733263 ], [ 444315.687476873048581, 3740817.750308832153678 ], [ 444846.378600329218898, 3742739.054706514347345 ] ] ], [ [ [ 446961.051181672431994, 3639984.018482330720872 ], [ 445921.099021758942399, 3639989.66408387478441 ], [ 446178.844005780352745, 3640946.503292380832136 ], [ 447218.758139284793288, 3640940.883208251092583 ], [ 446961.051181672431994, 3639984.018482330720872 ] ] ], [ [ [ 442535.158642502734438, 3642883.681117763742805 ], [ 441495.316291158203967, 3642889.798684712033719 ], [ 441753.436940196377691, 3643846.636760489549488 ], [ 443833.04458974004956, 3643834.562260525301099 ], [ 443575.00010070897406, 3642877.673269131220877 ], [ 444614.840681937057525, 3642871.775138074997813 ], [ 444356.89605186576955, 3641914.902749761473387 ], [ 442277.137883692281321, 3641926.859656717162579 ], [ 442535.158642502734438, 3642883.681117763742805 ] ] ], [ [ [ 437842.519301633816212, 3652497.558016801718622 ], [ 442000.379515059874393, 3652472.129488121718168 ], [ 441224.305146109662019, 3649600.757121249567717 ], [ 440184.726922860601917, 3649607.025863062124699 ], [ 439926.120943692105357, 3648650.011604137253016 ], [ 440965.737329568946734, 3648643.717369138728827 ], [ 440448.787173002958298, 3646729.764268654864281 ], [ 441488.47892717923969, 3646723.52894695289433 ], [ 440455.473030515364371, 3642896.025970723945647 ], [ 441495.316291158203967, 3642889.798684712033719 ], [ 441237.257461230212357, 3641933.002645204775035 ], [ 442277.137883692281321, 3641926.859656717162579 ], [ 442019.17893565929262, 3640970.08022900717333 ], [ 444099.01321029785322, 3640958.072439246345311 ], [ 444356.89605186576955, 3641914.902749761473387 ], [ 446436.650758829317056, 3641903.384597964584827 ], [ 446178.844005780352745, 3640946.503292380832136 ], [ 445138.929034843633417, 3640952.233035811688751 ], [ 443850.631818174617365, 3636168.58468536939472 ], [ 441770.419145859195851, 3636180.627181285526603 ], [ 442028.030998198897578, 3637137.22213569143787 ], [ 438907.819148573675193, 3637156.031425304245204 ], [ 438392.42926739709219, 3635243.035084603819996 ], [ 437352.280751428683288, 3635249.57439207425341 ], [ 437609.982769473164808, 3636206.026433245744556 ], [ 436569.871282446780242, 3636212.650054959580302 ], [ 437601.450074174790643, 3640038.775681556202471 ], [ 436561.489754374022596, 3640045.407990739680827 ], [ 436819.577178391511552, 3641002.018805309198797 ], [ 437859.499431206670124, 3640995.411761019844562 ], [ 438375.783716700098012, 3642908.809703016187996 ], [ 439415.62884441530332, 3642902.362976566422731 ], [ 439932.084337151085492, 3644815.979538324754685 ], [ 437852.545538498961832, 3644828.881285799667239 ], [ 438110.942280600662343, 3645785.701837150845677 ], [ 437071.209569213271607, 3645792.292029933072627 ], [ 437588.264904029201716, 3647706.008463488891721 ], [ 436548.607512959628366, 3647712.657756748143584 ], [ 437324.768992753466591, 3650583.47162506589666 ], [ 439403.853763894934673, 3650570.435440102592111 ], [ 439662.621595517441165, 3651527.508506462909281 ], [ 437583.613216824189294, 3651540.493756156414747 ], [ 437842.519301633816212, 3652497.558016801718622 ] ], [ [ 438627.921327751304489, 3647699.469033480621874 ], [ 438886.503627210040577, 3648656.415728853084147 ], [ 437846.88536402216414, 3648662.929744069464505 ], [ 437588.264904029201716, 3647706.008463488891721 ], [ 438627.921327751304489, 3647699.469033480621874 ] ] ], [ [ [ 479688.195448708662298, 3649446.079952604603022 ], [ 478916.903016027994454, 3646572.200569117907435 ], [ 479956.571933832077775, 3646570.028637875337154 ], [ 479699.635248032049276, 3645612.128217641729861 ], [ 480739.341815006686375, 3645610.039576645940542 ], [ 480996.240540781931486, 3646567.966519862413406 ], [ 482035.908853001194075, 3646566.014214825816453 ], [ 481008.834094358375296, 3642734.45788868656382 ], [ 482048.653867304325104, 3642732.509212869219482 ], [ 482561.992623886966612, 3644648.254556297324598 ], [ 483601.736278956173919, 3644646.468683744780719 ], [ 482575.455928044393659, 3640815.043497644830495 ], [ 478415.872988557093777, 3640823.269320495426655 ], [ 478159.304791012080386, 3639865.626003420446068 ], [ 476079.435573340277188, 3639870.449472714215517 ], [ 476336.079568410350475, 3640828.040095895528793 ], [ 477375.976454501913395, 3640825.59988596662879 ], [ 477632.643981965433341, 3641783.259606559760869 ], [ 476592.78500797128072, 3641785.673461352474988 ], [ 477106.380208928661887, 3643701.068520882166922 ], [ 476066.596737218613271, 3643703.539327814709395 ], [ 476323.524442812078632, 3644661.274678993970156 ], [ 478403.015134726301767, 3644656.495610219892114 ], [ 478659.928366045642179, 3645614.326643685810268 ], [ 477620.221152911602985, 3645616.634855049196631 ], [ 478134.307816579472274, 3647532.372667837888002 ], [ 477094.676212478603702, 3647534.737765580415726 ], [ 477609.084573811618611, 3649450.594272678717971 ], [ 479688.195448708662298, 3649446.079952604603022 ] ] ], [ [ [ 476580.513592497678474, 3645619.052852013614029 ], [ 476323.524442812078632, 3644661.274678993970156 ], [ 475283.778553522715811, 3644663.828849824611098 ], [ 475540.805668671673629, 3645621.580634878017008 ], [ 476580.513592497678474, 3645619.052852013614029 ] ] ], [ [ [ 476837.564183358452283, 3646576.873872370924801 ], [ 472678.882078309950884, 3646587.538250259589404 ], [ 473708.306973516475409, 3650418.828533939085901 ], [ 475787.344686218770221, 3650413.487881059758365 ], [ 475529.972312166937627, 3649455.548187129199505 ], [ 474490.415621075371746, 3649458.189992997329682 ], [ 473975.779205458180513, 3647542.492113480344415 ], [ 477094.676212478603702, 3647534.737765580415726 ], [ 476837.564183358452283, 3646576.873872370924801 ] ] ], [ [ [ 484885.967413944017608, 3649436.717363825533539 ], [ 482806.859442572284024, 3649440.132707169279456 ], [ 483063.965722588822246, 3650398.258292972575873 ], [ 484103.481836476305034, 3650396.522341485135257 ], [ 484360.611478523700498, 3651354.717705247923732 ], [ 486439.566980438830797, 3651351.629044731147587 ], [ 485925.521040555671789, 3649435.174537589307874 ], [ 486965.074449244944844, 3649433.741608052514493 ], [ 486708.181459947838448, 3648475.55232881847769 ], [ 484628.998474067077041, 3648478.581518325489014 ], [ 484885.967413944017608, 3649436.717363825533539 ] ] ], [ [ [ 484360.611478523700498, 3651354.717705247923732 ], [ 483321.133372779586352, 3651356.426965639460832 ], [ 483578.362390198686626, 3652314.638750802725554 ], [ 484617.802476508484688, 3652312.956203882116824 ], [ 484360.611478523700498, 3651354.717705247923732 ] ] ], [ [ [ 482014.275734924944118, 3654234.779981962870806 ], [ 483053.640255754347891, 3654232.930852346587926 ], [ 482538.922050046385266, 3652316.431279617827386 ], [ 480460.04054394713603, 3652320.346283822320402 ], [ 480717.445042564999312, 3653278.521168744657189 ], [ 479678.041891732660588, 3653280.617021531797945 ], [ 480193.111199987237342, 3655197.042793629225343 ], [ 479153.783871849766001, 3655199.195400502067059 ], [ 479411.448713613615837, 3656157.446299986448139 ], [ 478372.159153187298216, 3656159.68234064662829 ], [ 478629.923504601581953, 3657117.949712659232318 ], [ 480708.426110661122948, 3657113.641067991033196 ], [ 480450.73795649438398, 3656155.320355190429837 ], [ 481490.026897858129814, 3656153.304505999665707 ], [ 481232.438222464406863, 3655195.000254172366112 ], [ 482271.764955319289584, 3655193.067781878635287 ], [ 482014.275734924944118, 3654234.779981962870806 ] ] ], [ [ [ 481747.676959616073873, 3657111.651931479107589 ], [ 480708.426110661122948, 3657113.641067991033196 ], [ 480966.175659540924244, 3658072.004957718774676 ], [ 482005.388404788216576, 3658070.042556307744235 ], [ 481747.676959616073873, 3657111.651931479107589 ] ] ], [ [ [ 480184.811680839397013, 3659032.457874148152769 ], [ 481223.986600185045972, 3659030.412050083745271 ], [ 480966.175659540924244, 3658072.004957718774676 ], [ 479926.962621053040493, 3658074.077511119190603 ], [ 480184.811680839397013, 3659032.457874148152769 ] ] ], [ [ [ 460177.434657440462615, 3661970.324402064550668 ], [ 459138.364662548643537, 3661974.605540149379522 ], [ 459656.220413223607466, 3663890.641673152334988 ], [ 460695.213890717015602, 3663886.413012864533812 ], [ 460954.195925311825704, 3664844.521633583121002 ], [ 461993.150528049911372, 3664840.429602926131338 ], [ 461734.206764712347649, 3663882.294681507628411 ], [ 462773.199051160074305, 3663878.286678574979305 ], [ 461996.852104605757631, 3661004.060407195240259 ], [ 459918.637464540079236, 3661012.344360769726336 ], [ 460177.434657440462615, 3661970.324402064550668 ] ] ], [ [ [ 469265.81730916997185, 3664814.875345801003277 ], [ 469524.554811638547108, 3665773.238250952214003 ], [ 470563.466946438595187, 3665770.055608298629522 ], [ 470822.227704294433352, 3666728.488200783263892 ], [ 471861.101132168900222, 3666725.442538363393396 ], [ 471602.378629760059994, 3665766.983346857596189 ], [ 472641.289877537172288, 3665764.021466250531375 ], [ 472124.1058216970996, 3663847.179354887921363 ], [ 471085.118105318455491, 3663850.194422436412424 ], [ 471343.717619832488708, 3664808.567316794302315 ], [ 469265.81730916997185, 3664814.875345801003277 ] ] ], [ [ [ 465886.867193409008905, 3667703.7157335979864 ], [ 466145.942403579363599, 3668662.101883674971759 ], [ 465107.142648936249316, 3668665.757080853451043 ], [ 465366.317725260159932, 3669624.159837102517486 ], [ 466405.079165168281179, 3669620.531137459911406 ], [ 466923.537330920691602, 3671537.519059134181589 ], [ 469000.905383198114578, 3671530.699441305827349 ], [ 468223.540373711613938, 3668655.122892144136131 ], [ 470301.136397671187297, 3668648.585768221411854 ], [ 469783.353829161962494, 3666731.644272582605481 ], [ 466666.72936097800266, 3666741.77494818624109 ], [ 466925.704728895507287, 3667700.144500982947648 ], [ 465886.867193409008905, 3667703.7157335979864 ] ] ], [ [ [ 462768.795032265246846, 3671552.484925091732293 ], [ 461730.10807455459144, 3671556.502775540575385 ], [ 461989.621258492639754, 3672514.928951081819832 ], [ 466144.212301242572721, 3672499.626850513275713 ], [ 465884.852554333570879, 3671541.094696175307035 ], [ 464846.167256280023139, 3671544.780885879416019 ], [ 464586.830721749225631, 3670586.318404402583838 ], [ 462509.381801790674217, 3670594.075387964956462 ], [ 462768.795032265246846, 3671552.484925091732293 ] ] ], [ [ [ 463547.404238760238513, 3674427.972184829879552 ], [ 462508.832411915587727, 3674431.910610262304544 ], [ 462768.530375574948266, 3675390.466145440470427 ], [ 463807.063802897522692, 3675386.5542400944978 ], [ 463547.404238760238513, 3674427.972184829879552 ] ] ], [ [ [ 465626.404719426413067, 3682097.839505675714463 ], [ 465366.314183895301539, 3681138.954549738205969 ], [ 463289.708055711816996, 3681146.570007524453104 ], [ 463549.87555273756152, 3682105.401635304559022 ], [ 462511.610146747610997, 3682109.348996922839433 ], [ 463032.206880793033633, 3684027.088956282474101 ], [ 460955.828386771725491, 3684035.209821397438645 ], [ 461216.296185756160412, 3684994.091531684622169 ], [ 463292.597624806221575, 3684986.023961517959833 ], [ 464074.139329595898744, 3687863.089390662964433 ], [ 465112.173575146647636, 3687859.302235301584005 ], [ 465633.432098851364572, 3689777.616708925459534 ], [ 467709.344758574268781, 3689770.482834443915635 ], [ 467448.761860564234667, 3688811.250151361804456 ], [ 466410.767213461687788, 3688814.788403167389333 ], [ 465889.708920932083856, 3686896.507332210894674 ], [ 464851.636652732733637, 3686900.210239730775356 ], [ 464330.747501501522493, 3684982.156601143535227 ], [ 466407.045647940540221, 3684974.754727454856038 ], [ 466146.770454388752114, 3684015.739568599499762 ], [ 464070.395278564945329, 3684023.194906197488308 ], [ 463810.104627998778597, 3683064.276592892128974 ], [ 464848.330986114218831, 3683060.466768579091877 ], [ 464588.140405040467158, 3682101.565138378180563 ], [ 465626.404719426413067, 3682097.839505675714463 ] ] ], [ [ [ 467705.492169857025146, 3685930.305621810257435 ], [ 467445.19394916924648, 3684971.220213236752898 ], [ 466407.045647940540221, 3684974.754727454856038 ], [ 466667.382388281752355, 3685933.813339177053422 ], [ 467705.492169857025146, 3685930.305621810257435 ] ] ], [ [ [ 458628.71240504423622, 3690765.119971379172057 ], [ 457590.789845541410614, 3690769.604558377061039 ], [ 457851.88191502954578, 3691728.65665349829942 ], [ 458889.765844248759095, 3691724.19871776457876 ], [ 458628.71240504423622, 3690765.119971379172057 ] ] ], [ [ [ 473420.082790914690122, 3691673.458121379371732 ], [ 469268.573573326517362, 3691685.732515149284154 ], [ 469007.90620189695619, 3690726.385707314591855 ], [ 466932.071691296587233, 3690733.243610841222107 ], [ 467192.816242320870515, 3691692.536581027321517 ], [ 468230.695147736580111, 3691689.078975340351462 ], [ 468491.462632969371043, 3692648.442485273815691 ], [ 469529.302459518075921, 3692645.122980704996735 ], [ 469790.09285750502022, 3693604.557130075059831 ], [ 471865.693938217475079, 3693598.305681608151644 ], [ 472126.468614100071136, 3694557.837627602741122 ], [ 474201.990782839129679, 3694552.085181419737637 ], [ 473941.293321179109626, 3693592.499035943765193 ], [ 474979.092415142804384, 3693589.762513268738985 ], [ 474718.495006335200742, 3692630.193049329333007 ], [ 473680.65732287731953, 3692632.95669131167233 ], [ 473420.082790914690122, 3691673.458121379371732 ] ] ], [ [ [ 461233.647411967511289, 3696516.031382353976369 ], [ 460195.957403423264623, 3696520.244430650025606 ], [ 460457.380567333137151, 3697479.584151663351804 ], [ 461495.031881922623143, 3697475.397919080220163 ], [ 461233.647411967511289, 3696516.031382353976369 ] ] ], [ [ [ 483365.100492171652149, 3728165.399128091521561 ], [ 482839.468288854812272, 3726243.172313306946307 ], [ 481802.987776273977943, 3726245.085353252943605 ], [ 482065.812193089397624, 3727206.148505517281592 ], [ 478956.48598528484581, 3727212.477079522795975 ], [ 479482.553037560021039, 3729134.570298418868333 ], [ 480518.917350929579698, 3729132.404268968850374 ], [ 480782.003933953295927, 3730093.545772403012961 ], [ 481818.328923323017079, 3730091.519893003627658 ], [ 481555.281376728555188, 3729130.350484779570252 ], [ 482591.645130256132688, 3729128.408945603761822 ], [ 482328.697978773678187, 3728167.256360728293657 ], [ 483365.100492171652149, 3728165.399128091521561 ] ] ], [ [ [ 479745.678661065816414, 3730095.683925317600369 ], [ 479482.553037560021039, 3729134.570298418868333 ], [ 478446.188421321799979, 3729136.84857339411974 ], [ 478709.353089373442344, 3730097.934352005831897 ], [ 479745.678661065816414, 3730095.683925317600369 ] ] ] ] } }
]
}
