{
"type": "FeatureCollection",
"name": "urban-1985",
"crs": { "type": "name", "properties": { "name": "urn:ogc:def:crs:EPSG::32633" } },
"features": [
{ "type": "Feature", "properties": { "year": 1985 }, "geometry": { "type": "MultiPolygon", "coordinates": [ [ [ [ 517330.931163842207752, 5183626.155151885934174 ], [ 515402.572380265977699, 5183620.891897898167372 ], [ 515650.419268058147281, 5185695.180466181598604 ], [ 518542.588256102812011, 5185703.431685916148126 ], [ 518666.356974258203991, 5186740.744816118851304 ], [ 520594.346258253732231, 5186747.062561374157667 ], [ 520347.074866423325147, 5184672.424723794683814 ], [ 517454.721617457689717, 5184663.305036063306034 ], [ 517330.931163842207752, 5183626.155151885934174 ] ] ], [ [ [ 487441.360972032765858, 5183614.261358885094523 ], [ 487315.684490715560969, 5182577.807345540262759 ], [ 486351.443470071360935, 5182579.923832542262971 ], [ 486602.939919766969979, 5184652.863332895562053 ], [ 487567.057967610424384, 5184650.786175813525915 ], [ 487692.775474930298515, 5185687.38182976283133 ], [ 486728.718942600768059, 5185689.439301270991564 ], [ 487106.179172885313164, 5188799.592480639927089 ], [ 489033.922948035702575, 5188795.75100165233016 ], [ 488656.832044497306924, 5185685.479451628401875 ], [ 489620.888648384832777, 5185683.732166700996459 ], [ 489369.720169788983185, 5183610.532796751707792 ], [ 487441.360972032765858, 5183614.261358885094523 ] ] ], [ [ [ 513693.206788597686682, 5209557.028698118403554 ], [ 513568.505473919445649, 5208518.305191891267896 ], [ 512605.807336053112522, 5208516.187622122466564 ], [ 512730.570625922060572, 5209554.89038553647697 ], [ 513693.206788597686682, 5209557.028698118403554 ] ] ], [ [ [ 505029.480038225010503, 5209543.392713812179863 ], [ 505154.759263794403523, 5210582.00249912776053 ], [ 504192.1848184755072, 5210581.245912483893335 ], [ 504442.927764448279049, 5212658.640183292329311 ], [ 505405.378171262214892, 5212659.437770602293313 ], [ 505530.717847717227414, 5213698.263324975036085 ], [ 507455.494502737943549, 5213700.367312528192997 ], [ 507079.908098177984357, 5210583.983165391720831 ], [ 506117.333691460604314, 5210582.914916737005115 ], [ 505992.116456122312229, 5209544.284621209837496 ], [ 505029.480038225010503, 5209543.392713812179863 ] ] ], [ [ [ 512017.644999522715807, 5211630.487868799827993 ], [ 511892.779702148225624, 5210591.661878111772239 ], [ 512855.353913942119107, 5210593.665115492418408 ], [ 512730.570625922060572, 5209554.89038553647697 ], [ 510805.298173694056459, 5209551.081163687631488 ], [ 510930.205449625093024, 5210589.814472546800971 ], [ 508042.482480649778154, 5210585.207245185039937 ], [ 508167.59582785301609, 5211623.950584384612739 ], [ 509130.108171212719753, 5211625.351112057454884 ], [ 509380.271054134063888, 5213703.094994545914233 ], [ 510342.659282612032257, 5213704.692721268162131 ], [ 510217.629858388798311, 5212665.764098084531724 ], [ 511180.080103126936592, 5212667.497042547911406 ], [ 511055.13276035990566, 5211628.619754121638834 ], [ 512017.644999522715807, 5211630.487868799827993 ] ] ], [ [ [ 509505.382595903764013, 5214742.07498951908201 ], [ 509380.271054134063888, 5213703.094994545914233 ], [ 508417.882793061318807, 5213701.653191673569381 ], [ 508543.056405565468594, 5214740.612528069876134 ], [ 509505.382595903764013, 5214742.07498951908201 ] ] ], [ [ [ 526237.207067800220102, 5217909.239845030941069 ], [ 526113.09166025207378, 5216869.686872722581029 ], [ 524188.689684349519666, 5216861.530637182295322 ], [ 524312.929375963518396, 5217901.041190023534 ], [ 523350.790399144694675, 5217897.17593898717314 ], [ 523599.453394125390332, 5219976.371894156560302 ], [ 524561.468029932118952, 5219980.279514242894948 ], [ 524685.766986470902339, 5221020.007354405708611 ], [ 526609.671587992459536, 5221028.333436680026352 ], [ 526485.497034596046433, 5219988.563092602416873 ], [ 527447.51139656919986, 5219992.939051602967083 ], [ 527199.345775998197496, 5217913.573249721899629 ], [ 526237.207067800220102, 5217909.239845030941069 ] ] ], [ [ [ 480110.385116859572008, 5226199.041268083266914 ], [ 479148.743595662119333, 5226202.352044052444398 ], [ 479276.151636436989065, 5227241.528279295191169 ], [ 484084.048457232594956, 5227226.636866074055433 ], [ 483956.951897584833205, 5226187.361122775822878 ], [ 482033.668375108274631, 5226192.888604247942567 ], [ 481906.467848261760082, 5225153.724794941954315 ], [ 479983.060037152317818, 5225159.917203237302601 ], [ 480110.385116859572008, 5226199.041268083266914 ] ] ], [ [ [ 487930.366993315343279, 5227217.537603931501508 ], [ 484084.048457232594956, 5227226.636866074055433 ], [ 484465.46162847528467, 5230344.896836400032043 ], [ 489272.424868350382894, 5230334.214827839285135 ], [ 489145.578347379283514, 5229294.622191379778087 ], [ 488184.123247707320843, 5229296.465916859917343 ], [ 487930.366993315343279, 5227217.537603931501508 ] ] ], [ [ [ 509678.211959137930535, 5248020.099200311116874 ], [ 509552.208960178075358, 5246978.879773107357323 ], [ 507631.424244716065004, 5246976.072273845784366 ], [ 507505.31593455071561, 5245934.967855022288859 ], [ 508465.7709928136901, 5245936.272208062000573 ], [ 508339.745444752334151, 5244895.219894924201071 ], [ 507379.227723184914794, 5244893.936468608677387 ], [ 507253.159613421885297, 5243852.978079784661531 ], [ 506292.579219769570045, 5243851.872384508140385 ], [ 506544.860846282273997, 5245933.820382308214903 ], [ 505584.405731847975403, 5245932.829789820127189 ], [ 505458.192195745592471, 5244891.840164097957313 ], [ 504497.674397521244828, 5244891.027285721153021 ], [ 504750.246951366192661, 5246973.037859115749598 ], [ 503789.854476965148933, 5246972.340209616348147 ], [ 503916.233689991466235, 5248013.434184577316046 ], [ 506797.222947891394142, 5248016.060453067533672 ], [ 506923.43416986259399, 5249057.290102926082909 ], [ 508843.968098656390794, 5249059.867566481232643 ], [ 508717.882322581892367, 5248018.596008974127471 ], [ 509678.211959137930535, 5248020.099200311116874 ] ] ], [ [ [ 502955.90390061569633, 5248012.87264552526176 ], [ 503082.366006988275331, 5249054.018851215951145 ], [ 504042.633076147350948, 5249054.601204922422767 ], [ 503916.233689991466235, 5248013.434184577316046 ], [ 502955.90390061569633, 5248012.87264552526176 ] ] ], [ [ [ 503208.848303697537631, 5250095.238122969865799 ], [ 503082.366006988275331, 5249054.018851215951145 ], [ 501161.831835117656738, 5249053.325061922892928 ], [ 501288.439610543777235, 5250094.5027687670663 ], [ 503208.848303697537631, 5250095.238122969865799 ] ] ], [ [ [ 502501.794654276454821, 5252177.408186914399266 ], [ 502375.209205589373596, 5251136.063504663296044 ], [ 499494.784415933070704, 5251135.604738728143275 ], [ 499621.558200186293107, 5252176.887127647176385 ], [ 498661.479380010685418, 5252177.027572061866522 ], [ 498788.336223744496237, 5253218.362358189187944 ], [ 499748.352246453170665, 5253218.242630557157099 ], [ 499875.166551988862921, 5254259.671282378025353 ], [ 500835.11975774919847, 5254259.729412999004126 ], [ 500708.36827019759221, 5253218.279999268241227 ], [ 501668.384291025926359, 5253218.474464324302971 ], [ 501541.715841255267151, 5252177.077435065060854 ], [ 502501.794654276454821, 5252177.408186914399266 ] ] ], [ [ [ 521452.723871858441271, 5250133.546340209431946 ], [ 518572.113346442754846, 5250123.729549022391438 ], [ 518697.611588122497778, 5251165.359122828580439 ], [ 519657.752405799343251, 5251168.495718196034431 ], [ 519783.207720110658556, 5252210.220007805153728 ], [ 518823.129694031376857, 5252207.062060060910881 ], [ 518948.667661250045057, 5253248.838395764119923 ], [ 519908.682875649188645, 5253252.017710141837597 ], [ 520285.227360292163212, 5256377.851644294336438 ], [ 521245.053934501367621, 5256381.252336382865906 ], [ 521119.582145734224468, 5255339.212744946591556 ], [ 523039.360772807965986, 5255346.442733099684119 ], [ 523164.706813209515531, 5256388.525298316963017 ], [ 524124.533109703101218, 5256392.397568793967366 ], [ 524375.158683311427012, 5258476.826632066629827 ], [ 525334.859065831406042, 5258480.899267591536045 ], [ 525209.599322809488513, 5257438.626320251263678 ], [ 526169.362516568158753, 5257442.834587608464062 ], [ 525919.027986013446935, 5255358.466432202607393 ], [ 523999.249944850977045, 5255350.293470215983689 ], [ 523873.986531938076951, 5254308.262946784496307 ], [ 521954.082382262509782, 5254300.761641843244433 ], [ 521452.723871858441271, 5250133.546340209431946 ] ] ], [ [ [ 526294.559341859305277, 5258485.129158893600106 ], [ 529173.659490630263463, 5258498.762371189892292 ], [ 529048.651424440206029, 5257456.402742114849389 ], [ 526169.362516568158753, 5257442.834587608464062 ], [ 526294.559341859305277, 5258485.129158893600106 ] ] ], [ [ [ 585082.445196616696194, 5169694.218835946172476 ], [ 587977.529299136251211, 5169735.810707698576152 ], [ 587858.63183929421939, 5168698.106766243465245 ], [ 584963.363827692694031, 5168656.582981130108237 ], [ 585082.445196616696194, 5169694.218835946172476 ] ] ], [ [ [ 543961.83436884812545, 5180652.165794373489916 ], [ 543717.872905923868529, 5178577.330089122056961 ], [ 541788.904392894357443, 5178563.599011767655611 ], [ 541910.998306150780991, 5179600.938318613916636 ], [ 540946.575298498850316, 5179594.283759813755751 ], [ 541068.750077440519817, 5180631.673153971321881 ], [ 540104.388401268981397, 5180625.152176807634532 ], [ 540471.213777396129444, 5183737.685254436917603 ], [ 541435.390981633099727, 5183744.270330945961177 ], [ 541313.157921992358752, 5182706.666405790485442 ], [ 543241.634979025577195, 5182720.258836761116982 ], [ 542997.473064074874856, 5180645.179962155409157 ], [ 543961.83436884812545, 5180652.165794373489916 ] ] ], [ [ [ 538542.859008226078004, 5183724.98022956866771 ], [ 538665.296075453050435, 5184762.591642212122679 ], [ 540593.52778788167052, 5184775.339363192208111 ], [ 540471.213777396129444, 5183737.685254436917603 ], [ 538542.859008226078004, 5183724.98022956866771 ] ] ], [ [ [ 540593.52778788167052, 5184775.339363192208111 ], [ 540715.861235951306298, 5185813.065069696865976 ], [ 542643.969359248527326, 5185826.475932715460658 ], [ 542399.568061782512814, 5183751.010450945235789 ], [ 541435.390981633099727, 5183744.270330945961177 ], [ 541557.643462199601345, 5184781.945833964273334 ], [ 540593.52778788167052, 5184775.339363192208111 ] ] ], [ [ [ 568194.797505546710454, 5198511.862676735036075 ], [ 568315.714174051303416, 5199551.115995657630265 ], [ 566389.218913425225765, 5199529.369826273061335 ], [ 566631.356303536216728, 5201608.004263796843588 ], [ 568557.604087888961658, 5201629.840025602839887 ], [ 568436.649702588212676, 5200590.441767176613212 ], [ 569399.835140294977464, 5200601.570578701794147 ], [ 569158.106646180618554, 5198522.946627552621067 ], [ 568194.797505546710454, 5198511.862676735036075 ] ] ], [ [ [ 535688.232541801757179, 5200304.613270998932421 ], [ 535811.290080876788124, 5201343.266553521156311 ], [ 534848.160536677343771, 5201337.560397285968065 ], [ 535094.457928447285667, 5203415.040342575870454 ], [ 536057.463739480124786, 5203420.78928274102509 ], [ 535934.367147762211971, 5202381.991879396140575 ], [ 536897.434716937714256, 5202387.875014558434486 ], [ 536651.42380662728101, 5200310.453588547185063 ], [ 535688.232541801757179, 5200304.613270998932421 ] ] ], [ [ [ 531242.43355483468622, 5203393.600820136256516 ], [ 530995.641249850625172, 5201316.29139366466552 ], [ 530032.511166425654665, 5201311.363045743666589 ], [ 530279.427195008727722, 5203388.629996716044843 ], [ 531242.43355483468622, 5203393.600820136256516 ] ] ], [ [ [ 535340.833486705785617, 5205492.808678288944066 ], [ 535094.457928447285667, 5203415.040342575870454 ], [ 534131.452001276775263, 5203409.447026718407869 ], [ 534377.951369791291654, 5205487.172584153711796 ], [ 535340.833486705785617, 5205492.808678288944066 ] ] ], [ [ [ 581919.760688700596802, 5209066.828152768313885 ], [ 582040.059150075889193, 5210107.103296493180096 ], [ 581077.43446797481738, 5210093.901802368462086 ], [ 581197.813577442779206, 5211134.226977104321122 ], [ 580235.250697610899806, 5211121.158412502147257 ], [ 580355.710490075871348, 5212161.533655404113233 ], [ 582280.711770514026284, 5212187.872561690397561 ], [ 582160.376178486621939, 5211147.451421261765063 ], [ 583122.938497419585474, 5211160.831746136769652 ], [ 582882.447153277229518, 5209080.16252988576889 ], [ 581919.760688700596802, 5209066.828152768313885 ] ] ], [ [ [ 538721.721037953277119, 5209667.311930717900395 ], [ 538598.631353506818414, 5208628.038285865448415 ], [ 537635.935473662801087, 5208621.870581766590476 ], [ 537389.69057440944016, 5206543.583237707614899 ], [ 538352.510389399598353, 5206549.707894180901349 ], [ 538106.467318420065567, 5204471.666471522301435 ], [ 540032.354276780621149, 5204484.296772268600762 ], [ 539909.485758422291838, 5203445.341296832077205 ], [ 538946.480443846783601, 5203438.969854226335883 ], [ 538700.677996922051534, 5201361.318403021432459 ], [ 537737.548814157955348, 5201355.14555586501956 ], [ 537860.502164616947994, 5202393.913744203746319 ], [ 536897.434716937714256, 5202387.875014558434486 ], [ 537143.523647507769056, 5204465.584806515835226 ], [ 536180.579853049945086, 5204459.658797699958086 ], [ 536426.870633806218393, 5206537.614299145527184 ], [ 534501.230388713185675, 5206526.143573662266135 ], [ 534377.951369791291654, 5205487.172584153711796 ], [ 531489.304342466173694, 5205471.198412940837443 ], [ 531612.769159921561368, 5206510.10535706486553 ], [ 530649.948533632326871, 5206505.07071540132165 ], [ 530279.427195008727722, 5203388.629996716044843 ], [ 529316.420734992017969, 5203383.814795278012753 ], [ 529934.364112420240417, 5208578.136973371729255 ], [ 528971.667200989206322, 5208573.371268151327968 ], [ 529342.855021672090515, 5211690.766670973971486 ], [ 528380.344033914734609, 5211686.092990255914629 ], [ 528504.174671288230456, 5212725.348013356328011 ], [ 529466.623612130060792, 5212730.042972438968718 ], [ 529961.894480030052364, 5216887.871595406904817 ], [ 530924.094929332728498, 5216892.80783080495894 ], [ 531171.723911755019799, 5218972.199446646496654 ], [ 532133.799936201539822, 5218977.334539745002985 ], [ 532257.58166514581535, 5220017.160560585558414 ], [ 533219.595386502100155, 5220022.47320815268904 ], [ 532848.49549740110524, 5216903.14837025757879 ], [ 533810.695609374786727, 5216908.552675220184028 ], [ 533687.0969368070364, 5215868.901291058398783 ], [ 534649.359060615650378, 5215874.440131137147546 ], [ 534772.895602114265785, 5216914.113004303537309 ], [ 536697.295216302620247, 5216925.701736794784665 ], [ 536573.882940009818412, 5215885.985792960040271 ], [ 537536.144688834086992, 5215891.992615717463195 ], [ 537289.502865100861527, 5213812.735099454410374 ], [ 540176.659946486237459, 5213831.561807658523321 ], [ 540053.554500987171195, 5212791.97694459091872 ], [ 538128.659093047957867, 5212779.3131048027426 ], [ 538005.4489681199193, 5211739.843908932060003 ], [ 540892.978047544020228, 5211759.00867080129683 ], [ 540769.973514832439832, 5210719.547062862664461 ], [ 539807.401918939081952, 5210713.024570495821536 ], [ 539684.354788459022529, 5209673.656990765593946 ], [ 538721.721037953277119, 5209667.311930717900395 ] ], [ [ 537042.939008834771812, 5211733.767400241456926 ], [ 536919.686326032271609, 5210694.392146131023765 ], [ 537882.258321236819029, 5210700.447112683206797 ], [ 538005.4489681199193, 5211739.843908932060003 ], [ 537042.939008834771812, 5211733.767400241456926 ] ] ], [ [ [ 551970.053216169471852, 5216000.81471686065197 ], [ 552092.471209031413309, 5217040.879675309173763 ], [ 553054.668290665606037, 5217049.404571063816547 ], [ 553177.043294440023601, 5218089.564389185979962 ], [ 555101.31254249101039, 5218107.126564265228808 ], [ 554979.061888870201074, 5217066.922472801059484 ], [ 555941.258398634265177, 5217075.915480324067175 ], [ 555819.089026252971962, 5216035.762031814083457 ], [ 551970.053216169471852, 5216000.81471686065197 ] ] ], [ [ [ 546586.679256437695585, 5227388.689849937334657 ], [ 546955.933373780571856, 5230511.046739924699068 ], [ 548878.710402674390934, 5230526.639424725435674 ], [ 548632.771281503839418, 5228444.906892569735646 ], [ 549594.284316198667511, 5228452.893688561394811 ], [ 549471.405994478613138, 5227412.114981885999441 ], [ 546586.679256437695585, 5227388.689849937334657 ] ] ], [ [ [ 545994.544593631639145, 5230503.485047272406518 ], [ 546117.730292538180947, 5231544.394845185801387 ], [ 547079.056649852311239, 5231551.978565075434744 ], [ 546955.933373780571856, 5230511.046739924699068 ], [ 545994.544593631639145, 5230503.485047272406518 ] ] ], [ [ [ 584938.766408995259553, 5243420.688703455962241 ], [ 585180.729033142444678, 5245506.119846749119461 ], [ 586141.231657481985167, 5245520.109654942527413 ], [ 586020.303856559563428, 5244477.333600211888552 ], [ 586980.868886510841548, 5244491.456858643330634 ], [ 586860.022266948246397, 5243448.731500067748129 ], [ 584938.766408995259553, 5243420.688703455962241 ] ] ], [ [ [ 584462.388121510623023, 5247577.967883392237127 ], [ 584583.496873188065365, 5248620.919655755162239 ], [ 585543.811478766729124, 5248634.822822561487556 ], [ 585180.729033142444678, 5245506.119846749119461 ], [ 584220.22606885409914, 5245492.286941242404282 ], [ 584341.297852223273367, 5246535.090323689393699 ], [ 583380.857315798057243, 5246521.390944733284414 ], [ 583502.010369393974543, 5247564.245115066878498 ], [ 584462.388121510623023, 5247577.967883392237127 ] ] ] ] } }
]
}
