{
"type": "FeatureCollection",
"name": "urban-1995",
"crs": { "type": "name", "properties": { "name": "urn:ogc:def:crs:EPSG::32636" } },
"features": [
{ "type": "Feature", "properties": { "year": 1995 }, "geometry": { "type": "MultiPolygon", "coordinates": [ [ [ [ 637942.751502269180492, 3492670.054126318078488 ], [ 640034.351043056230992, 3492698.041746535338461 ], [ 640209.166711107711308, 3493653.412591885775328 ], [ 642300.704470422933809, 3493681.865462744608521 ], [ 642125.960019581252709, 3492726.450820589438081 ], [ 645263.391484507359564, 3492769.854688826948404 ], [ 645088.797137422952801, 3491814.413840320892632 ], [ 637767.907982998294756, 3491714.766557158902287 ], [ 637942.751502269180492, 3492670.054126318078488 ] ] ], [ [ [ 651193.56583702750504, 3502386.682695777155459 ], [ 648057.174395946320146, 3502341.349738690536469 ], [ 647882.182953551062383, 3501385.488806888926774 ], [ 648927.679966058814898, 3501400.471935677342117 ], [ 648752.767473291605711, 3500444.628720859531313 ], [ 646661.704541815910488, 3500414.812424915377051 ], [ 646836.688421404338442, 3501370.611308568622917 ], [ 645791.196352094877511, 3501355.839438853785396 ], [ 645441.200483912602067, 3499444.325762907974422 ], [ 643350.080892415135168, 3499415.18719139508903 ], [ 643700.219531883252785, 3501326.612577855587006 ], [ 644745.706728096120059, 3501341.173195894341916 ], [ 644920.805293788202107, 3502296.9677121238783 ], [ 645966.259208264760673, 3502311.656065142247826 ], [ 646842.222609138465486, 3507091.337877006269991 ], [ 647887.500255845254287, 3507106.242812689393759 ], [ 648062.786964162485674, 3508062.321283333469182 ], [ 650153.278143746312708, 3508092.493105289060622 ], [ 649802.891059668385424, 3506180.287095404230058 ], [ 652938.861289982451126, 3506226.204539284110069 ], [ 652763.839839136926457, 3505270.094617562834173 ], [ 654854.570912123308517, 3505301.190373414661735 ], [ 654504.800516627612524, 3503389.00117681035772 ], [ 653459.362242595758289, 3503373.445175926201046 ], [ 653634.261570038623177, 3504329.4973797458224 ], [ 652588.861588273663074, 3504314.024735127110034 ], [ 652413.926539936568588, 3503357.994871987961233 ], [ 651368.493391145020723, 3503342.650263064075261 ], [ 651193.56583702750504, 3502386.682695777155459 ] ] ], [ [ [ 655899.940328230848536, 3505316.896884170826524 ], [ 654854.570912123308517, 3505301.190373414661735 ], [ 655029.520875848014839, 3506257.345067669637501 ], [ 656074.854550914024003, 3506273.074007424991578 ], [ 655899.940328230848536, 3505316.896884170826524 ] ] ], [ [ [ 663396.015750531805679, 3512108.387915174942464 ], [ 662350.880779491504654, 3512091.88829776737839 ], [ 662525.917990733520128, 3513048.459708485286683 ], [ 666706.331054558511823, 3513115.185014340095222 ], [ 666007.013444810756482, 3509288.777456385549158 ], [ 664961.762887850636616, 3509272.02821644814685 ], [ 665136.56349771854002, 3510228.5468455478549 ], [ 663046.142186122015119, 3510195.320616757962853 ], [ 663396.015750531805679, 3512108.387915174942464 ] ] ], [ [ [ 660435.727788825752214, 3513015.733039539307356 ], [ 660610.879741134704091, 3513972.299409831874073 ], [ 661655.937667047255673, 3513988.632416021544486 ], [ 661480.821543456753716, 3513032.043377065099776 ], [ 660435.727788825752214, 3513015.733039539307356 ] ] ], [ [ [ 658696.038646915112622, 3514896.512857616879046 ], [ 659046.701515090186149, 3516809.756588095333427 ], [ 660091.64653802884277, 3516825.945484946947545 ], [ 659741.055392773123458, 3514912.656452482100576 ], [ 660786.07479970168788, 3514928.906094193924218 ], [ 660610.879741134704091, 3513972.299409831874073 ], [ 659565.82449207175523, 3513956.072424008045346 ], [ 659040.390508611453697, 3511086.562048140913248 ], [ 657995.230458474135958, 3511070.508868402801454 ], [ 658520.771902453387156, 3513939.951456521172076 ], [ 657475.721954876091331, 3513923.936505354940891 ], [ 657651.024544731597416, 3514880.47530758054927 ], [ 658696.038646915112622, 3514896.512857616879046 ] ] ], [ [ [ 657651.024544731597416, 3514880.47530758054927 ], [ 656606.013068827218376, 3514864.543800368439406 ], [ 656781.394656585878693, 3515821.100303469225764 ], [ 657826.370273659937084, 3515837.054396785795689 ], [ 657651.024544731597416, 3514880.47530758054927 ] ] ], [ [ [ 661311.918587121879682, 3517798.968233071733266 ], [ 661662.696595966699533, 3519712.544932014774531 ], [ 663752.384711175807752, 3519745.589823276270181 ], [ 663401.750273791607469, 3517831.922046100255102 ], [ 662356.833080123178661, 3517815.392071348614991 ], [ 662181.54459422279615, 3516858.641592295840383 ], [ 660091.64653802884277, 3516825.945484946947545 ], [ 660267.006777418893762, 3517782.650529216043651 ], [ 661311.918587121879682, 3517798.968233071733266 ] ] ], [ [ [ 661838.150237787747756, 3520669.393923909403384 ], [ 661662.696595966699533, 3519712.544932014774531 ], [ 660617.856576797086746, 3519696.181774601340294 ], [ 660793.346131609752774, 3520653.008016058243811 ], [ 661838.150237787747756, 3520669.393923909403384 ] ] ], [ [ [ 656956.819392639794387, 3516777.697097926866263 ], [ 656781.394656585878693, 3515821.100303469225764 ], [ 652601.518119733664207, 3515758.344603829551488 ], [ 653304.050207358202897, 3519584.612863552290946 ], [ 654348.871906796353869, 3519600.232737236656249 ], [ 654700.325211377581581, 3521513.653757242485881 ], [ 653655.575372637948021, 3521497.988766052760184 ], [ 654007.273258166154847, 3523411.526065161451697 ], [ 655051.951188985840417, 3523427.236236962489784 ], [ 655227.82892373460345, 3524384.088074644561857 ], [ 656272.473456222331151, 3524399.927180389873683 ], [ 656448.358369654044509, 3525356.842101824935526 ], [ 660626.818668130086735, 3525421.352682409342378 ], [ 660099.72496777237393, 3522550.456656334456056 ], [ 661144.454538526013494, 3522566.781837431713939 ], [ 660968.878786383895203, 3521609.874696935992688 ], [ 658879.35042343637906, 3521577.376086122822016 ], [ 658001.759139086003415, 3516793.673793092835695 ], [ 656956.819392639794387, 3516777.697097926866263 ] ] ], [ [ [ 661838.150237787747756, 3520669.393923909403384 ], [ 662013.64696774922777, 3521626.283371003810316 ], [ 664103.191416924470104, 3521659.419466701801866 ], [ 663927.766531804692931, 3520702.484401606954634 ], [ 661838.150237787747756, 3520669.393923909403384 ] ] ], [ [ [ 669502.388822760316543, 3522701.209359230939299 ], [ 669327.100519571220502, 3521744.119163923431188 ], [ 670371.890703839249909, 3521761.377884487621486 ], [ 670021.514920917106792, 3519847.273258327972144 ], [ 666886.937336406554095, 3519795.953632312361151 ], [ 667412.888722825213335, 3522666.964770710095763 ], [ 669502.388822760316543, 3522701.209359230939299 ] ] ], [ [ [ 664103.191416924470104, 3521659.419466701801866 ], [ 664278.659363931743428, 3522616.395038778427988 ], [ 666368.142848381074145, 3522650.001908738166094 ], [ 666192.746763566043228, 3521692.980572971515357 ], [ 664103.191416924470104, 3521659.419466701801866 ] ] ], [ [ [ 662716.064717042958364, 3525454.246115589514375 ], [ 662891.776848720386624, 3526411.338141925167292 ], [ 663936.367926247185096, 3526427.967275125905871 ], [ 663760.691776951192878, 3525470.852375050075352 ], [ 662716.064717042958364, 3525454.246115589514375 ] ] ], [ [ [ 664639.503104186616838, 3530256.833002046216279 ], [ 668817.318606901681051, 3530324.781242167111486 ], [ 668993.065882498165593, 3531282.191403969656676 ], [ 667948.643900076043792, 3531265.02150848088786 ], [ 668124.470223126700148, 3532222.449344617314637 ], [ 669168.85615823767148, 3532239.642323025036603 ], [ 669344.689431485254318, 3533197.134019682649523 ], [ 668300.339555558399297, 3533179.917942492756993 ], [ 668476.251894737360999, 3534137.427322457078844 ], [ 667431.940868946257979, 3534120.294758483301848 ], [ 667607.932296699844301, 3535077.821838919073343 ], [ 671785.048814391717315, 3535147.084449838381261 ], [ 671257.636425438337028, 3532274.348000740166754 ], [ 672302.030791986500844, 3532291.860704374033958 ], [ 672126.348649084568024, 3531334.340365253388882 ], [ 673170.78190184966661, 3531351.936451181769371 ], [ 672995.178752859821543, 3530394.433735618833452 ], [ 674039.65089421463199, 3530412.113164780661464 ], [ 673337.811870350735262, 3526582.417421551421285 ], [ 675427.052767562447116, 3526617.910157890059054 ], [ 675076.534810407203622, 3524703.214114407077432 ], [ 672987.15007171430625, 3524667.814040188211948 ], [ 673162.459492723573931, 3525625.095373619347811 ], [ 672117.807389969122596, 3525607.531755885109305 ], [ 671942.462012285832316, 3524650.273537240922451 ], [ 670897.776803065207787, 3524632.839387475978583 ], [ 671248.58245513192378, 3526547.350335146300495 ], [ 669159.364383636391722, 3526512.708881168160588 ], [ 669510.485906956251711, 3528427.290309554431587 ], [ 666376.895730254473165, 3528375.988081901799887 ], [ 666025.558243396109901, 3526461.544723230414093 ], [ 663936.367926247185096, 3526427.967275125905871 ], [ 664112.087136231828481, 3527385.12276758858934 ], [ 663067.532052929745987, 3527368.47074482915923 ], [ 663770.983542880858295, 3531197.407327541615814 ], [ 664815.394530784222297, 3531214.151066854130477 ], [ 664639.503104186616838, 3530256.833002046216279 ] ], [ [ 666552.62902262667194, 3529333.270747994072735 ], [ 665508.140506769996136, 3529316.359938927926123 ], [ 665332.371199600980617, 3528359.100251123309135 ], [ 666376.895730254473165, 3528375.988081901799887 ], [ 666552.62902262667194, 3529333.270747994072735 ] ] ], [ [ [ 667783.966737807262689, 3536035.389726297929883 ], [ 667607.932296699844301, 3535077.821838919073343 ], [ 666563.660118768224493, 3535060.772827249951661 ], [ 666739.730657751555555, 3536018.317625322844833 ], [ 667783.966737807262689, 3536035.389726297929883 ] ] ], [ [ [ 670112.142614481737837, 3559952.707314512692392 ], [ 669068.818405162310228, 3559935.267589308787137 ], [ 669600.73058826639317, 3562811.088414863683283 ], [ 670643.945529208052903, 3562828.598529845010489 ], [ 670998.695610043010674, 3564746.066155209671706 ], [ 672041.84042124543339, 3564763.730812535621226 ], [ 671864.480359423207119, 3563804.952764545101672 ], [ 672907.664419012726285, 3563822.701390993781388 ], [ 672553.146009612246417, 3561905.222405249718577 ], [ 673596.405750005622394, 3561923.031396852340549 ], [ 673950.851286678109318, 3563840.557528790552169 ], [ 677080.428907378925942, 3563894.771032504737377 ], [ 677257.606704661506228, 3564853.667209468781948 ], [ 678300.7685252353549, 3564871.977126548066735 ], [ 678123.62717659608461, 3563913.057237997185439 ], [ 680210.032410053070635, 3563949.952218971215189 ], [ 680033.006803906289861, 3562991.02635667193681 ], [ 682119.496607116307132, 3563028.303854998666793 ], [ 682296.449349696515128, 3563987.277308556716889 ], [ 683339.662251646514051, 3564006.101149863097817 ], [ 682985.872442059335299, 3562088.148128393106163 ], [ 684029.161166067700833, 3562107.031785577535629 ], [ 683675.615428577410057, 3560189.197278183884919 ], [ 682632.253907840582542, 3560170.361274956725538 ], [ 682278.806670806719922, 3558252.740423835813999 ], [ 681235.375370464520529, 3558234.05937278456986 ], [ 681412.113945216289721, 3559192.825300179421902 ], [ 679325.332927666255273, 3559155.737845519557595 ], [ 679148.521609277813695, 3558197.019348765723407 ], [ 680191.947022281121463, 3558215.485681865364313 ], [ 679838.525694383075461, 3556298.125546954106539 ], [ 677751.532365601044148, 3556261.394886924885213 ], [ 677928.294299848610535, 3557220.006941875908524 ], [ 676884.838342924369499, 3557201.778945330530405 ], [ 676708.040057306177914, 3556243.190502129029483 ], [ 675664.55063041113317, 3556225.093411123845726 ], [ 675487.758899017586373, 3555266.569872751366347 ], [ 674444.235994263202883, 3555248.603611831087619 ], [ 674267.450842279940844, 3554290.144897037185729 ], [ 675311.010077335988171, 3554308.087635431438684 ], [ 675134.304168060189113, 3553349.646678557619452 ], [ 676177.902581550646573, 3553367.673116215970367 ], [ 676354.57217392208986, 3554326.137608190067112 ], [ 679485.275803028373048, 3554380.930955176241696 ], [ 679308.715152824879624, 3553422.395686358213425 ], [ 680352.325176935642958, 3553440.850969688501209 ], [ 680175.843693257076666, 3552482.33339128876105 ], [ 681219.492960460484028, 3552500.872229686472565 ], [ 681043.090620683855377, 3551542.372324508149177 ], [ 682086.77913326153066, 3551560.994679087307304 ], [ 681734.175535754067823, 3549644.071490810252726 ], [ 679646.656400994863361, 3549607.028489289805293 ], [ 679470.346365502104163, 3548648.676064362749457 ], [ 678426.554964640294202, 3548630.338788341730833 ], [ 678250.251558453543112, 3547672.051153808832169 ], [ 682425.579808952286839, 3547745.948326440993696 ], [ 682249.464187917415984, 3546787.607570622116327 ], [ 680161.721706862095743, 3546750.492106603458524 ], [ 679809.474158088094555, 3544834.028645653743297 ], [ 676677.665279560023919, 3544779.29916985379532 ], [ 676501.497230087872595, 3543821.199674556963146 ], [ 674413.566773947328329, 3543785.294973856769502 ], [ 674589.807214050437324, 3544743.347632768098265 ], [ 672501.960604997584596, 3544707.823898855596781 ], [ 672149.377885665046051, 3542791.853063709102571 ], [ 673193.372152702766471, 3542809.514778804499656 ], [ 672664.928743512835354, 3539935.796213267371058 ], [ 671620.825986815383658, 3539918.204395041335374 ], [ 671444.727945880149491, 3538960.403446062467992 ], [ 675621.300627880729735, 3539031.318322284612805 ], [ 675093.697678866097704, 3536157.881673149764538 ], [ 674049.441883294726722, 3536140.062746946234256 ], [ 673522.117055081296712, 3533267.064364751335233 ], [ 672477.755896757938899, 3533249.421868692152202 ], [ 672829.334981316584162, 3535164.666754421778023 ], [ 671785.048814391717315, 3535147.084449838381261 ], [ 671960.938879198511131, 3536104.744979958049953 ], [ 669872.447209883248433, 3536069.853978873230517 ], [ 670048.452446763636544, 3537027.508989600464702 ], [ 666915.844219332560897, 3536975.903234826400876 ], [ 667092.00080087443348, 3537933.529676138423383 ], [ 666047.839703016914427, 3537916.518086689990014 ], [ 666400.354197443230078, 3539831.847313553560525 ], [ 665356.268118296284229, 3539814.896284123882651 ], [ 665532.626063106115907, 3540772.599091314245015 ], [ 662400.492564717307687, 3540722.317574845161289 ], [ 662577.002068799571134, 3541679.99205211782828 ], [ 663621.00769883824978, 3541696.668783849105239 ], [ 664857.526362529257312, 3548401.696927580982447 ], [ 665901.281120278756134, 3548418.642442459706217 ], [ 666962.614890252007172, 3554167.548104814253747 ], [ 668006.154571093386039, 3554184.740264364518225 ], [ 668537.293042007950135, 3557059.818391259294003 ], [ 669580.726412064861506, 3557077.187871054280549 ], [ 669757.822173697641119, 3558035.653078592382371 ], [ 671844.62447700870689, 3558070.760844987817109 ], [ 672198.799355096532963, 3559987.908944983966649 ], [ 671155.46959213889204, 3559970.254432344809175 ], [ 670978.324283776688389, 3559011.683210958261043 ], [ 669934.960908730397932, 3558994.159552873112261 ], [ 670112.142614481737837, 3559952.707314512692392 ] ], [ [ 671105.386445565731265, 3542774.298237843438983 ], [ 670929.123342653736472, 3541816.397643863223493 ], [ 671973.150959366699681, 3541833.929183412808925 ], [ 672149.377885665046051, 3542791.853063709102571 ], [ 671105.386445565731265, 3542774.298237843438983 ] ], [ [ 668841.076517044566572, 3541781.655138032510877 ], [ 668664.784051269991323, 3540823.841980775352567 ], [ 670752.903210780699737, 3540858.538031513802707 ], [ 670929.123342653736472, 3541816.397643863223493 ], [ 668841.076517044566572, 3541781.655138032510877 ] ], [ [ 669403.673626510077156, 3556118.76390965981409 ], [ 670447.146121981204487, 3556136.217284693848342 ], [ 670624.162546015228145, 3557094.664657746441662 ], [ 669580.726412064861506, 3557077.187871054280549 ], [ 669403.673626510077156, 3556118.76390965981409 ] ] ], [ [ [ 677612.090944514260627, 3566771.584107265342027 ], [ 677257.606704661506228, 3564853.667209468781948 ], [ 676214.447761271614581, 3564835.464841287117451 ], [ 676391.704903268953785, 3565794.378826900850981 ], [ 675348.585283609805629, 3565776.260334889870137 ], [ 675703.301203648443334, 3567694.165474702138454 ], [ 676746.347860396374017, 3567712.331355910748243 ], [ 676569.004937215475366, 3566753.334324864204973 ], [ 677612.090944514260627, 3566771.584107265342027 ] ] ], [ [ [ 676746.347860396374017, 3567712.331355910748243 ], [ 677101.162363590672612, 3569630.45010020583868 ], [ 678144.138876739307307, 3569648.771124657709152 ], [ 677789.397381650400348, 3567730.604869560338557 ], [ 676746.347860396374017, 3567712.331355910748243 ] ] ], [ [ [ 679411.63656343834009, 3582102.284918808378279 ], [ 678522.135401259060018, 3577304.590553543064743 ], [ 679564.819401265587658, 3577323.10226623993367 ], [ 679387.08434178144671, 3576363.664869473315775 ], [ 678344.363735533202998, 3576345.177049316000193 ], [ 678166.634931773180142, 3575385.805286032147706 ], [ 677123.88060699950438, 3575367.449203561991453 ], [ 676946.158084379625507, 3574408.142992006149143 ], [ 675903.370033517712727, 3574389.918571571353823 ], [ 675370.350070592481643, 3571512.321264734957367 ], [ 673284.563095762277953, 3571476.338273037225008 ], [ 673106.902492431225255, 3570517.269798877183348 ], [ 672063.97667634638492, 3570499.463563638739288 ], [ 672419.413901017978787, 3572417.594762881752104 ], [ 673462.266622764291242, 3572435.448319590184838 ], [ 673817.802436921978369, 3574353.793212938122451 ], [ 672775.022857542498969, 3574335.892270258627832 ], [ 674199.175567405996844, 3582010.748707762919366 ], [ 676284.151443870738149, 3582047.039025516714901 ], [ 676106.055501792579889, 3581087.488252223934978 ], [ 677148.584354849881493, 3581105.77160460036248 ], [ 676792.594431671779603, 3579186.747700713574886 ], [ 677835.199437448056415, 3579205.091297726612538 ], [ 678369.138660602504387, 3582083.761562461033463 ], [ 679411.63656343834009, 3582102.284918808378279 ] ], [ [ 676258.931137430714443, 3576308.525076486170292 ], [ 675216.21911196957808, 3576290.360919269733131 ], [ 675038.380517247365788, 3575331.06061345199123 ], [ 676081.129141095676459, 3575349.200980123598129 ], [ 676258.931137430714443, 3576308.525076486170292 ] ] ], [ [ [ 680302.208863007137552, 3586901.025938973296434 ], [ 679945.851428713649511, 3584981.403765026479959 ], [ 678903.463601722265594, 3584962.808477074839175 ], [ 679081.657617700635456, 3585922.574579488486052 ], [ 678039.309380817809142, 3585904.063455753494054 ], [ 678217.582972842501476, 3586863.847494605928659 ], [ 680302.208863007137552, 3586901.025938973296434 ] ] ], [ [ [ 680302.208863007137552, 3586901.025938973296434 ], [ 680480.451829112600535, 3587860.899971710052341 ], [ 681522.732365136267617, 3587879.67557060206309 ], [ 681344.526137890759856, 3586919.77746716234833 ], [ 680302.208863007137552, 3586901.025938973296434 ] ] ], [ [ [ 684827.730300118681043, 3588896.664335110690445 ], [ 684649.591500819311477, 3587936.651791011914611 ], [ 682565.015811301302165, 3587898.559405222535133 ], [ 682743.228105826303363, 3588858.523632258642465 ], [ 679616.496733881765977, 3588802.124572445172817 ], [ 679794.862119492609054, 3589762.058535190764815 ], [ 678752.660873029846698, 3589743.451325208880007 ], [ 678931.105871936306357, 3590703.403243293985724 ], [ 677888.944267420098186, 3590684.880285837221891 ], [ 677710.46248936234042, 3589724.95240128133446 ], [ 676668.266951817204244, 3589706.561761118005961 ], [ 676846.785510395187885, 3590666.465640772599727 ], [ 675804.629584196023643, 3590648.159305820707232 ], [ 675983.227805719245225, 3591608.081182685215026 ], [ 678067.468902375898324, 3591644.850176376756281 ], [ 678246.036391468602233, 3592604.862093889154494 ], [ 679288.124401442008093, 3592623.433167161419988 ], [ 679466.697926510241814, 3593583.511214941740036 ], [ 680508.751989300828427, 3593602.214771097060293 ], [ 680151.721394459018484, 3591682.052534164395183 ], [ 682235.985415201750584, 3591719.688274456653744 ], [ 681879.27326749288477, 3589799.59782253485173 ], [ 683963.696066744276322, 3589837.570281896740198 ], [ 683785.477730552083813, 3588877.539849156048149 ], [ 684827.730300118681043, 3588896.664335110690445 ] ] ], [ [ [ 678960.73483390675392, 3596445.3304537483491 ], [ 680002.675509736873209, 3596463.997953866608441 ], [ 679823.973483430454507, 3595503.79358726600185 ], [ 678781.995955923455767, 3595485.150218275375664 ], [ 678960.73483390675392, 3596445.3304537483491 ] ] ], [ [ [ 679676.118721059290692, 3600286.472926837392151 ], [ 680717.911869146977551, 3600305.237114433664829 ], [ 680539.038546727737412, 3599344.864028033800423 ], [ 681580.871471171500161, 3599363.71259172167629 ], [ 681044.619057816918939, 3596482.773940480779856 ], [ 680002.675509736873209, 3596463.997953866608441 ], [ 680181.420364240999334, 3597424.244468822609633 ], [ 679139.516552188317291, 3597405.552821284625679 ], [ 679318.341107992688194, 3598365.8173419367522 ], [ 678276.477030156762339, 3598347.210072146728635 ], [ 678992.351203011116013, 3602188.593403907958418 ], [ 680034.067650867742486, 3602207.297377076931298 ], [ 679676.118721059290692, 3600286.472926837392151 ] ] ], [ [ [ 681580.871471171500161, 3599363.71259172167629 ], [ 681938.587123428937048, 3601284.549463428091258 ], [ 682980.349133695242926, 3601303.555125416722149 ], [ 682801.506814655964263, 3600343.091295144986361 ], [ 683843.308645215933211, 3600362.18129293853417 ], [ 683485.826168585335836, 3598441.331858919933438 ], [ 682443.95055787358433, 3598422.29040934657678 ], [ 682622.707288451725617, 3599382.669730158057064 ], [ 681580.871471171500161, 3599363.71259172167629 ] ] ], [ [ [ 684916.782722584553994, 3606125.745029686950147 ], [ 684379.853208502521738, 3603243.772608806379139 ], [ 683338.162139100255445, 3603224.609666268806905 ], [ 683517.132819870486856, 3604185.200419110711664 ], [ 681433.833301659440622, 3604147.151997566688806 ], [ 681792.050864544115029, 3606068.363257322460413 ], [ 684916.782722584553994, 3606125.745029686950147 ] ] ], [ [ [ 669839.386276353267021, 3496002.231204303447157 ], [ 668793.619356883922592, 3495985.165816606022418 ], [ 668967.603261494892649, 3496941.257782852742821 ], [ 667921.874781707418151, 3496924.275225210934877 ], [ 667747.855276401387528, 3495968.205930436495692 ], [ 666702.094017329392955, 3495951.35154366819188 ], [ 666876.149124906398356, 3496907.398195485584438 ], [ 665830.426273524295539, 3496890.626691560260952 ], [ 666178.736868952866644, 3498802.795021744444966 ], [ 665133.08805160690099, 3498786.083822731394321 ], [ 665307.34357119910419, 3499742.205522693227977 ], [ 669489.813103476772085, 3499809.774514031130821 ], [ 669315.70013737375848, 3498853.56211154256016 ], [ 671407.023172122659162, 3498887.934769936371595 ], [ 671233.024467734852806, 3497931.717041819822043 ], [ 670187.325898623559624, 3497914.500677804462612 ], [ 669839.386276353267021, 3496002.231204303447157 ] ] ], [ [ [ 669677.720126028871164, 3523658.34016074007377 ], [ 669853.094426752300933, 3524615.511588715948164 ], [ 670897.776803065207787, 3524632.839387475978583 ], [ 670722.438450178131461, 3523675.644917626399547 ], [ 669677.720126028871164, 3523658.34016074007377 ] ] ], [ [ [ 677875.178250497905537, 3534296.418912934139371 ], [ 677524.045643367688172, 3532381.022958075627685 ], [ 676479.636879844008945, 3532362.977335207629949 ], [ 676304.098893182002939, 3531405.36403618985787 ], [ 675259.657006660010666, 3531387.448284435551614 ], [ 675435.231030172784813, 3532345.038300633430481 ], [ 674390.828077125246637, 3532327.205852117855102 ], [ 674917.915880580432713, 3535200.15136110689491 ], [ 675962.210647321306169, 3535218.053667631931603 ], [ 676313.744987662183121, 3537133.601881706621498 ], [ 677357.970474620815367, 3537151.657568576280028 ], [ 677533.765907213208266, 3538109.516505854669958 ], [ 678577.958208452444524, 3538127.702330597210675 ], [ 678753.760420629754663, 3539085.625701740384102 ], [ 679797.919544277363457, 3539103.941739685833454 ], [ 679622.15344940405339, 3538145.994917332660407 ], [ 680666.35164724115748, 3538164.394268341362476 ], [ 680139.418896367889829, 3535290.729633853305131 ], [ 679095.112422393052839, 3535272.400626763235778 ], [ 678919.517841513035819, 3534314.61785389110446 ], [ 677875.178250497905537, 3534296.418912934139371 ] ] ], [ [ [ 683306.800394470104948, 3552538.271481292322278 ], [ 682263.145188520196825, 3552519.518258914351463 ], [ 682616.00579849886708, 3554436.689493052661419 ], [ 684703.174003670574166, 3554474.398099568672478 ], [ 684879.595916200429201, 3555433.09332635672763 ], [ 688010.261931527405977, 3555490.532166303601116 ], [ 687305.266684646252543, 3551655.713967008981854 ], [ 684174.165104987914674, 3551598.560884222388268 ], [ 683997.914427458541468, 3550640.031231959350407 ], [ 682954.183675025240518, 3550621.218261803500354 ], [ 683306.800394470104948, 3552538.271481292322278 ] ] ], [ [ [ 684012.547676648478955, 3556372.874492969363928 ], [ 685056.060630677035078, 3556391.829998412635177 ], [ 684879.595916200429201, 3555433.09332635672763 ], [ 683836.046632485929877, 3555414.161616847850382 ], [ 684012.547676648478955, 3556372.874492969363928 ] ] ], [ [ [ 686099.576602083747275, 3556410.892816123086959 ], [ 685056.060630677035078, 3556391.829998412635177 ], [ 685232.568144375807606, 3557350.608136413618922 ], [ 686276.047775456099771, 3557369.694794708397239 ], [ 686099.576602083747275, 3556410.892816123086959 ] ] ], [ [ [ 685585.711558525101282, 3559268.288893014192581 ], [ 685409.118454567855224, 3558309.427761049941182 ], [ 683322.24094028538093, 3558271.528837337624282 ], [ 683675.615428577410057, 3560189.197278183884919 ], [ 684718.979938149452209, 3560208.140703419223428 ], [ 684542.307665498927236, 3559249.2619035304524 ], [ 685585.711558525101282, 3559268.288893014192581 ] ] ], [ [ [ 685585.711558525101282, 3559268.288893014192581 ], [ 685762.347453514812514, 3560227.191553017124534 ], [ 686805.717991633689962, 3560246.34982934826985 ], [ 686629.118472965084948, 3559287.423280610702932 ], [ 685585.711558525101282, 3559268.288893014192581 ] ] ], [ [ [ 684029.161166067700833, 3562107.031785577535629 ], [ 684382.878130911849439, 3564025.03252529213205 ], [ 687512.543801829800941, 3564082.471879885997623 ], [ 687159.045355110196397, 3562164.327642011921853 ], [ 684029.161166067700833, 3562107.031785577535629 ] ] ], [ [ [ 686823.061281868373044, 3565981.48076279880479 ], [ 686999.996637406991795, 3566940.674699769821018 ], [ 688043.112204940174706, 3566960.000647347420454 ], [ 688220.053857117891312, 3567919.260295818559825 ], [ 689263.13600244326517, 3567938.717918935231864 ], [ 688909.36838542832993, 3566020.192256201524287 ], [ 687866.213309831451625, 3566000.782709068153054 ], [ 687689.357174544595182, 3565041.606460177339613 ], [ 685602.98325121938251, 3565003.158107887022197 ], [ 685779.912284636520781, 3565962.286414991132915 ], [ 686823.061281868373044, 3565981.48076279880479 ] ] ], [ [ [ 681961.624449475202709, 3567804.775294116232544 ], [ 682138.827782812062651, 3568763.932901805266738 ], [ 683181.855388748692349, 3568782.768502346705645 ], [ 683359.065042639849707, 3569741.991671671159565 ], [ 685445.05617060395889, 3569780.033798608928919 ], [ 685267.919519029557705, 3568820.762730381917208 ], [ 686310.956077125971206, 3568839.921362591441721 ], [ 685956.884101923904382, 3566921.456379284150898 ], [ 682827.564518833183683, 3566864.447156594134867 ], [ 683004.688546566525474, 3567823.587004251312464 ], [ 681961.624449475202709, 3567804.775294116232544 ] ] ], [ [ [ 680762.315134238218889, 3572563.440803674049675 ], [ 682848.069326070835814, 3572600.980091696605086 ], [ 682493.362917939433828, 3570682.373103326186538 ], [ 681450.411283392691985, 3570663.597403395455331 ], [ 681273.085788776399568, 3569704.380358700174838 ], [ 682316.073939878959209, 3569723.132164611946791 ], [ 682138.827782812062651, 3568763.932901805266738 ], [ 681095.803127175662667, 3568745.204973795451224 ], [ 680918.56330132484436, 3567786.071227893698961 ], [ 679875.505085228127427, 3567767.47480326378718 ], [ 680584.867439836962149, 3571604.164274657610804 ], [ 679541.958192053600214, 3571585.580174377188087 ], [ 679364.516805903520435, 3570626.369183535221964 ], [ 677278.633938163518906, 3570589.571854967623949 ], [ 677456.148391088587232, 3571548.735225825570524 ], [ 676413.247804207261652, 3571530.474372981581837 ], [ 676768.478441222338006, 3573448.878463593311608 ], [ 680939.805665466235951, 3573522.759038761723787 ], [ 680762.315134238218889, 3572563.440803674049675 ] ], [ [ 679719.442429791786708, 3572544.832834355067462 ], [ 678676.572630540234968, 3572526.332645083311945 ], [ 678499.051848087226972, 3571567.103825531434268 ], [ 679541.958192053600214, 3571585.580174377188087 ], [ 679719.442429791786708, 3572544.832834355067462 ] ] ], [ [ [ 687353.995653027668595, 3568859.187676761765033 ], [ 688239.741506684804335, 3573656.200858548283577 ], [ 690325.464579737395979, 3573695.297504694666713 ], [ 690148.30298649740871, 3572735.763014893513173 ], [ 691191.205669041723013, 3572755.448913832195103 ], [ 690837.083718799636699, 3570836.457172897644341 ], [ 689794.107988144969568, 3570816.819568475242704 ], [ 689440.083925747894682, 3568898.043360562063754 ], [ 687353.995653027668595, 3568859.187676761765033 ] ] ], [ [ [ 687019.613313008798286, 3572677.352130756247789 ], [ 684933.835340756806545, 3572638.950527777895331 ], [ 685288.566773339291103, 3574557.820443240460008 ], [ 686331.381147036445327, 3574577.015420414507389 ], [ 686508.774466746021062, 3575536.5371468141675 ], [ 687551.55527789122425, 3575555.864064579829574 ], [ 687374.198529597604647, 3574596.318248952273279 ], [ 688417.018937841523439, 3574615.728931242134422 ], [ 688239.741506684804335, 3573656.200858548283577 ], [ 687196.884540382656269, 3573636.814277967438102 ], [ 687019.613313008798286, 3572677.352130756247789 ] ] ], [ [ [ 679387.08434178144671, 3576363.664869473315775 ], [ 680429.807841899921186, 3576382.260581844020635 ], [ 680074.539449092699215, 3574463.463244936894625 ], [ 679031.742775345221162, 3574444.915326408110559 ], [ 679387.08434178144671, 3576363.664869473315775 ] ] ], [ [ [ 683202.946985254297033, 3574519.754033465404063 ], [ 684245.755391685641371, 3574538.733315046411008 ], [ 683890.950847137602977, 3572619.911415057722479 ], [ 682848.069326070835814, 3572600.980091696605086 ], [ 683025.486750654876232, 3573560.346182989887893 ], [ 681982.64473794598598, 3573541.498704226687551 ], [ 682515.263590957270935, 3576419.77569245826453 ], [ 680429.807841899921186, 3576382.260581844020635 ], [ 680963.031708432827145, 3579260.769938845187426 ], [ 682005.648272564285435, 3579279.545443578157574 ], [ 681827.900778005830944, 3578319.976534425280988 ], [ 682870.556899915914983, 3578338.836011125240475 ], [ 682692.888839909341186, 3577379.284938562195748 ], [ 683735.584521642769687, 3577398.22834848659113 ], [ 683202.946985254297033, 3574519.754033465404063 ] ] ], [ [ [ 692942.721681178547442, 3576613.825575433205813 ], [ 692411.199952242546715, 3573734.8254803433083 ], [ 690325.464579737395979, 3573695.297504694666713 ], [ 690502.668898657662794, 3574654.873866727109998 ], [ 689459.842388588935137, 3574635.247469693887979 ], [ 689637.125997951021418, 3575594.841549696866423 ], [ 687551.55527789122425, 3575555.864064579829574 ], [ 687728.95478249702137, 3576515.451745733153075 ], [ 689814.452339506940916, 3576554.477527555078268 ], [ 690346.687729579163715, 3579433.637057363055646 ], [ 691389.331281304126605, 3579453.384491881355643 ], [ 691566.791895978501998, 3580413.212526365183294 ], [ 692609.401903562131338, 3580433.092249840963632 ], [ 692431.977915515657514, 3579473.239930655341595 ], [ 693474.627648985013366, 3579493.203376145102084 ], [ 693297.282971155247651, 3578533.368773724883795 ], [ 694339.972432703129016, 3578553.415902589447796 ], [ 693985.484330578590743, 3576633.824101228732616 ], [ 692942.721681178547442, 3576613.825575433205813 ] ] ], [ [ [ 694694.631237020832486, 3580473.175805382430553 ], [ 695049.460721159004606, 3582393.103977357968688 ], [ 694006.917780335992575, 3582372.959448017179966 ], [ 694361.991254814085551, 3584293.007259578444064 ], [ 695404.460862707230262, 3584313.200586428400129 ], [ 695226.939461158937775, 3583353.131216754205525 ], [ 696269.448879279545508, 3583373.408263066317886 ], [ 696092.006798470742069, 3582413.356604360975325 ], [ 697134.556029015337117, 3582433.717331536579877 ], [ 696779.873106613522395, 3580513.691522293258458 ], [ 694694.631237020832486, 3580473.175805382430553 ] ] ], [ [ [ 690701.724932999000885, 3581353.28661672025919 ], [ 690879.307609369046986, 3582313.174421089701355 ], [ 689836.777047068113461, 3582293.462257580831647 ], [ 690014.439101563184522, 3583253.367830351926386 ], [ 691056.932998462114483, 3583273.104269871488214 ], [ 691234.601097488077357, 3584233.076184048317373 ], [ 692277.061388929723762, 3584252.945060869678855 ], [ 692099.429966136929579, 3583292.948825807776302 ], [ 693141.930021321284585, 3583312.901500617619604 ], [ 692964.377959259552881, 3582352.923013845924288 ], [ 691921.841241184971295, 3582332.994672358036041 ], [ 691744.295216868515126, 3581373.082579535897821 ], [ 690701.724932999000885, 3581353.28661672025919 ] ] ], [ [ [ 688640.829443698050454, 3587054.068094821181148 ], [ 688107.238588460721076, 3584174.118414235766977 ], [ 686022.345386263448745, 3584135.353927262127399 ], [ 686378.176684696809389, 3586055.181443132925779 ], [ 685335.807978643570095, 3586035.91305365273729 ], [ 685513.82449243706651, 3586995.865674281958491 ], [ 688640.829443698050454, 3587054.068094821181148 ] ] ], [ [ [ 682030.63576759560965, 3585018.918785789515823 ], [ 680988.242145098396577, 3585000.107200492173433 ], [ 681344.526137890759856, 3586919.77746716234833 ], [ 682386.846321575227194, 3586938.637202447280288 ], [ 682030.63576759560965, 3585018.918785789515823 ] ] ], [ [ [ 690369.891373829217628, 3585173.305144409649074 ], [ 690903.390148543054238, 3588053.526851714588702 ], [ 689861.082820404088125, 3588033.777045993600041 ], [ 690217.035705725545995, 3589954.086881108116359 ], [ 693343.746423602919094, 3590013.807361716404557 ], [ 692988.014002553536557, 3588093.351237355731428 ], [ 694030.330561800161377, 3588113.425822206772864 ], [ 693852.56509902572725, 3587153.236636125482619 ], [ 692810.211816380731761, 3587133.186465761158615 ], [ 692454.73550676740706, 3585212.983398541808128 ], [ 690369.891373829217628, 3585173.305144409649074 ] ] ], [ [ [ 696648.304960847948678, 3591034.867588663008064 ], [ 696292.707695359364152, 3589114.180124916136265 ], [ 695250.421631672885269, 3589093.864520165137947 ], [ 695428.235688681947067, 3590054.162608890794218 ], [ 694385.989499713759869, 3590033.930824304465204 ], [ 694563.882969229016453, 3590994.246682446915656 ], [ 696648.304960847948678, 3591034.867588663008064 ] ] ], [ [ [ 687624.933086473611183, 3592775.903339243028313 ], [ 687803.212136191315949, 3593736.175076488405466 ], [ 688845.289743550587445, 3593755.74592170258984 ], [ 688667.047497412888333, 3592795.449844352900982 ], [ 687624.933086473611183, 3592775.903339243028313 ] ] ], [ [ [ 682414.405699128867127, 3592679.796627922914922 ], [ 682771.374673240818083, 3594600.139694980811328 ], [ 681729.351647587027401, 3594581.195146223064512 ], [ 681907.937167784315534, 3595541.405701128765941 ], [ 682949.923357864376158, 3595560.374450653325766 ], [ 683128.514837153721601, 3596520.651382486801594 ], [ 686254.380463202018291, 3596578.281252667307854 ], [ 686075.899519106373191, 3595617.931497783400118 ], [ 688159.898451920947991, 3595656.845218422356993 ], [ 687803.212136191315949, 3593736.175076488405466 ], [ 686761.137530121486634, 3593716.712650735396892 ], [ 686582.821675547747873, 3592756.465224941261113 ], [ 684498.607787168119103, 3592717.914159155916423 ], [ 684141.957190098939463, 3590797.64279713248834 ], [ 683099.781098178005777, 3590778.578243072610348 ], [ 683456.505276427720673, 3592698.801202904433012 ], [ 682414.405699128867127, 3592679.796627922914922 ] ] ], [ [ [ 695453.990209696698003, 3595796.46038756147027 ], [ 696496.015665547340177, 3595816.839367978740484 ], [ 696317.945726996054873, 3594856.28739464841783 ], [ 695275.883451953995973, 3594835.932987595908344 ], [ 695453.990209696698003, 3595796.46038756147027 ] ] ], [ [ [ 691642.555605037021451, 3597637.01510848896578 ], [ 690600.619270681519993, 3597617.129664446692914 ], [ 690779.03826373280026, 3598577.661561683751643 ], [ 691820.937736386433244, 3598597.571484645362943 ], [ 691999.362557003856637, 3599558.170230699703097 ], [ 696166.843704104656354, 3599638.993916114792228 ], [ 695988.566366649465635, 3598678.296902362257242 ], [ 698072.399357752292417, 3598719.31108171492815 ], [ 697716.12000357254874, 3596797.945824665017426 ], [ 699800.113008653046563, 3596839.295601219404489 ], [ 699622.110919966362417, 3595878.627298753708601 ], [ 696496.015665547340177, 3595816.839367978740484 ], [ 696674.12824112852104, 3596777.433729333337396 ], [ 694590.154113422962837, 3596736.735111881047487 ], [ 694768.38301136449445, 3597697.322699127718806 ], [ 693726.437458783853799, 3597677.111623351462185 ], [ 693548.171714955242351, 3596716.548584728036076 ], [ 691464.21616577450186, 3596676.501081091817468 ], [ 691642.555605037021451, 3597637.01510848896578 ] ] ], [ [ [ 687797.799511856748722, 3491545.416357710957527 ], [ 685705.805236824555323, 3491507.823837262578309 ], [ 686225.428058989346027, 3494376.78500198200345 ], [ 687271.317042396520264, 3494395.597930285613984 ], [ 687444.574764016550034, 3495352.022107867989689 ], [ 688490.431351054692641, 3495370.963703503832221 ], [ 688144.029812421533279, 3493458.109345947857946 ], [ 689189.960654054419138, 3493477.110051147639751 ], [ 689016.859621538897045, 3492520.720216225832701 ], [ 687970.893256064271554, 3492501.742690708953887 ], [ 687797.799511856748722, 3491545.416357710957527 ] ] ], [ [ [ 694592.629181023919955, 3494530.242140015587211 ], [ 694765.638089668937027, 3495486.829194349702448 ], [ 696857.399697355227545, 3495526.295241673011333 ], [ 696684.461865894962102, 3494569.66139395814389 ], [ 694592.629181023919955, 3494530.242140015587211 ] ] ], [ [ [ 691281.831913752248511, 3493515.427847292274237 ], [ 690235.894681964884512, 3493496.216217464301735 ], [ 690409.002977930940688, 3494452.669634241610765 ], [ 689363.104484278708696, 3494433.540244038682431 ], [ 689709.520527297165245, 3496346.521784136071801 ], [ 690755.347916984464973, 3496365.697669063229114 ], [ 690928.58455478225369, 3497322.272327352780849 ], [ 689882.792734808521345, 3497303.073171578347683 ], [ 690229.465508614201099, 3499216.297281910199672 ], [ 691275.186153683578596, 3499235.543026384431869 ], [ 691448.551109485328197, 3500192.239107435103506 ], [ 694585.625580261228606, 3500250.680285198614001 ], [ 694239.152018016669899, 3498337.18841444933787 ], [ 693193.386094623827375, 3498317.649145811330527 ], [ 692500.809598604333587, 3494491.244893295224756 ], [ 691454.904676843434572, 3494471.904516524169594 ], [ 691281.831913752248511, 3493515.427847292274237 ] ], [ [ 691101.863967899116687, 3498278.887439744081348 ], [ 692147.623417101567611, 3498298.215488388203084 ], [ 692320.910010889871046, 3499254.894405788742006 ], [ 691275.186153683578596, 3499235.543026384431869 ], [ 691101.863967899116687, 3498278.887439744081348 ] ] ], [ [ [ 695977.896833858801983, 3502184.073044918477535 ], [ 694932.270069873193279, 3502164.334402516018599 ], [ 695105.65640577476006, 3503121.222354140598327 ], [ 694060.068547228584066, 3503101.565989051479846 ], [ 694233.533255482790992, 3504058.47109654918313 ], [ 695279.085465514217503, 3504078.150928027462214 ], [ 695452.557246420066804, 3505035.120144405867904 ], [ 696498.077068846323527, 3505054.929271742235869 ], [ 696324.640946984989569, 3504097.936544672120363 ], [ 697370.199717391631566, 3504117.827948960941285 ], [ 696850.254520373768173, 3501247.023112492635846 ], [ 695804.588847942184657, 3501227.202231777366251 ], [ 695977.896833858801983, 3502184.073044918477535 ] ] ], [ [ [ 689699.427780748461373, 3513512.495177001692355 ], [ 689177.23647623276338, 3510641.103866934310645 ], [ 690222.519496614579111, 3510660.312543225474656 ], [ 690048.577035515918396, 3509703.240076770074666 ], [ 687957.942672748933546, 3509664.975473807659 ], [ 688480.112887358060107, 3512536.174524285364896 ], [ 686389.705613465281203, 3512498.193574571982026 ], [ 686215.534546082373708, 3511541.133282650262117 ], [ 685170.299812632612884, 3511522.325158518273383 ], [ 685344.506648903014138, 3512479.362128253560513 ], [ 684299.310776039259508, 3512460.636697817593813 ], [ 684473.596222074353136, 3513417.691009786911309 ], [ 685518.756312789861113, 3513436.4397495938465 ], [ 686041.762243574834429, 3516307.916725903749466 ], [ 687086.81801396899391, 3516326.841618597507477 ], [ 686912.4756995216012, 3515369.618535585235804 ], [ 689002.668230248149484, 3515407.739864740055054 ], [ 689176.938916158629581, 3516365.009803993627429 ], [ 688131.876899036811665, 3516345.872643833979964 ], [ 688306.226191759109497, 3517303.159904953092337 ], [ 689351.252383422572166, 3517322.320523308124393 ], [ 689525.60862936405465, 3518279.672043002210557 ], [ 690570.602135847089812, 3518298.96232983097434 ], [ 689873.57710747141391, 3514469.707056498620659 ], [ 690918.717050674604252, 3514489.009510308504105 ], [ 690744.603511052322574, 3513531.774162786081433 ], [ 689699.427780748461373, 3513512.495177001692355 ] ] ], [ [ [ 688480.618275039596483, 3518260.487950660288334 ], [ 688306.226191759109497, 3517303.159904953092337 ], [ 687261.203133522882126, 3517284.10545010259375 ], [ 687435.631055512814783, 3518241.410050407983363 ], [ 688480.618275039596483, 3518260.487950660288334 ] ] ], [ [ [ 700150.096717026666738, 3525161.20452960440889 ], [ 699105.328479826333933, 3525140.898036443628371 ], [ 699279.739446032326669, 3526098.766526023391634 ], [ 700324.471762449014932, 3526119.096877200063318 ], [ 700150.096717026666738, 3525161.20452960440889 ] ] ], [ [ [ 697888.642748646670952, 3529890.119581037200987 ], [ 696844.064101864816621, 3529870.013304176740348 ], [ 696320.123666240368038, 3526996.252270959317684 ], [ 694230.760345025220886, 3526956.502025670837611 ], [ 694580.155106575344689, 3528872.20652132993564 ], [ 690401.754601791035384, 3528793.794056577142328 ], [ 690226.891999299870804, 3527836.016036692541093 ], [ 689182.263820891152136, 3527816.702812597155571 ], [ 689007.408021757379174, 3526858.989405086264014 ], [ 686918.089121492230333, 3526820.729502787813544 ], [ 687267.987355348421261, 3528736.103035950101912 ], [ 688312.573316576890647, 3528755.226873569190502 ], [ 688487.550641759065911, 3529712.998680474236608 ], [ 687443.000664739403874, 3529693.85126467840746 ], [ 687968.297330485074781, 3532567.342044641263783 ], [ 684834.990023001329973, 3532510.326981112360954 ], [ 685010.282585632288828, 3533468.1685870308429 ], [ 690232.29675318300724, 3533563.844823345541954 ], [ 690407.451906288624741, 3534521.84561035130173 ], [ 689363.078905859729275, 3534502.47339212987572 ], [ 689713.589592262753285, 3536418.550974870566279 ], [ 690757.890471921069548, 3536437.970613176934421 ], [ 690933.173879029927775, 3537396.094870015978813 ], [ 691977.441824835841544, 3537415.645003851503134 ], [ 691802.194494700524956, 3536457.496984492987394 ], [ 692846.501677787746303, 3536477.130091251339763 ], [ 693372.263604529784061, 3539351.769231749232858 ], [ 694416.465706189163029, 3539371.580583414062858 ], [ 694241.205108676687814, 3538413.302441789768636 ], [ 695285.446505873929709, 3538433.196739438455552 ], [ 695110.264700706931762, 3537474.935999497771263 ], [ 694065.987218496156856, 3537455.065566134639084 ], [ 693715.679571027634665, 3535538.715530538000166 ], [ 694760.029187396750785, 3535558.538283098023385 ], [ 694409.964488289551809, 3533642.305447729304433 ], [ 691276.708935223752633, 3533583.300002572592348 ], [ 691101.632568081608042, 3532625.316632283851504 ], [ 692146.083934355876409, 3532644.854733628220856 ], [ 691971.086330689606257, 3531686.888762751128525 ], [ 693015.576883842004463, 3531706.509747329633683 ], [ 692840.658021171577275, 3530748.561158549971879 ], [ 693885.187763868481852, 3530768.264987481292337 ], [ 694234.996200865600258, 3532684.250809113029391 ], [ 695279.457135548698716, 3532704.108788168523461 ], [ 695104.5675718577113, 3531746.07151081552729 ], [ 697193.571150374016725, 3531786.059683211613446 ], [ 697018.796285457676277, 3530828.015911010559648 ], [ 698063.338947959593497, 3530848.146039380691946 ], [ 697888.642748646670952, 3529890.119581037200987 ] ], [ [ 693710.34761972387787, 3529810.333763476926833 ], [ 694754.916554654366337, 3529830.120397884398699 ], [ 694929.720710653811693, 3530788.075387552380562 ], [ 693885.187763868481852, 3530768.264987481292337 ], [ 693710.34761972387787, 3529810.333763476926833 ] ] ], [ [ [ 696848.738069073762745, 3535598.503933324944228 ], [ 694760.029187396750785, 3535558.538283098023385 ], [ 694935.125593638396822, 3536516.716520901303738 ], [ 697023.762356970924884, 3536556.729921865742654 ], [ 696848.738069073762745, 3535598.503933324944228 ] ] ], [ [ [ 703289.751106774783693, 3536679.332153237890452 ], [ 703464.601674957782961, 3537637.74344923812896 ], [ 704508.908693959820084, 3537658.574916361365467 ], [ 704334.094187579932623, 3536700.139514330774546 ], [ 703289.751106774783693, 3536679.332153237890452 ] ] ], [ [ [ 689195.486840335419402, 3539273.5920379627496 ], [ 689370.970706643303856, 3540231.792414585594088 ], [ 691459.280564957298338, 3540270.714908570051193 ], [ 691283.868928263778798, 3539312.466997172683477 ], [ 690239.676319338032044, 3539292.976109363138676 ], [ 690064.271320930798538, 3538334.793202453292906 ], [ 687975.823267312371172, 3538296.179319345392287 ], [ 688151.300474096555263, 3539254.314780559390783 ], [ 689195.486840335419402, 3539273.5920379627496 ] ] ], [ [ [ 691459.280564957298338, 3540270.714908570051193 ], [ 691634.734939410584047, 3541229.004079249687493 ], [ 693722.985143052530475, 3541268.401644164230675 ], [ 693547.603016871027648, 3540310.064792374148965 ], [ 691459.280564957298338, 3540270.714908570051193 ] ] ], [ [ [ 692347.870211518835276, 3550794.392254804261029 ], [ 692523.830779060255736, 3551753.112663876265287 ], [ 693567.552970561431721, 3551772.913958830758929 ], [ 693391.628660862101242, 3550814.169576366432011 ], [ 692347.870211518835276, 3550794.392254804261029 ] ] ], [ [ [ 706960.78251239832025, 3551081.027438164688647 ], [ 704873.184091608971357, 3551038.793375003151596 ], [ 705224.277776391711086, 3552956.855017828755081 ], [ 707311.731203162693419, 3552999.186438857577741 ], [ 706960.78251239832025, 3551081.027438164688647 ] ] ], [ [ [ 704180.556100373854861, 3552935.850179948844016 ], [ 704531.892613876610994, 3554854.029980883467942 ], [ 706619.194223501021042, 3554896.244275724049658 ], [ 706794.853762751678005, 3555855.445493678562343 ], [ 707838.473326882813126, 3555876.738010994624346 ], [ 707662.850077693583444, 3554917.512383083812892 ], [ 708706.509320818120614, 3554938.887800591997802 ], [ 708530.964888843591325, 3553979.679527575615793 ], [ 705399.888475198531523, 3553915.948384562972933 ], [ 705224.277776391711086, 3552956.855017828755081 ], [ 704180.556100373854861, 3552935.850179948844016 ] ] ], [ [ [ 694963.182508428115398, 3553710.483802719973028 ], [ 695315.257440632442012, 3555628.311417521443218 ], [ 697402.427434230805375, 3555668.642652194015682 ], [ 697578.456295197713189, 3556627.667107957880944 ], [ 698622.009800758212805, 3556648.01786154974252 ], [ 698270.067350400262512, 3554729.962267603259534 ], [ 700357.32931340765208, 3554770.888997502159327 ], [ 700005.702581431833096, 3552852.903251850511879 ], [ 698961.997412836062722, 3552832.434612783137709 ], [ 699137.825739458552562, 3553791.382486163638532 ], [ 694963.182508428115398, 3553710.483802719973028 ] ] ], [ [ [ 694095.582118406193331, 3554649.396229600999504 ], [ 693743.519985217018984, 3552731.699848060961813 ], [ 692699.83406355464831, 3552711.874563696794212 ], [ 692523.830779060255736, 3551753.112663876265287 ], [ 691480.111734485952184, 3551733.418557368218899 ], [ 691832.233571936842054, 3553650.935930863488466 ], [ 690788.590214093448594, 3553631.301130021456629 ], [ 691140.955550234531984, 3555548.936623508110642 ], [ 690097.38791528204456, 3555529.361176288221031 ], [ 690449.996826771413907, 3557447.114884349517524 ], [ 691493.491806279169396, 3557466.738282907288522 ], [ 691317.202314641559497, 3556507.816672111861408 ], [ 692360.736747224349529, 3556527.523413666058332 ], [ 692536.9899064298952, 3557486.469036780297756 ], [ 693580.491144209285267, 3557506.307148423045874 ], [ 693051.968772426364012, 3554629.522918344475329 ], [ 694095.582118406193331, 3554649.396229600999504 ] ] ], [ [ [ 700357.32931340765208, 3554770.888997502159327 ], [ 700533.206617685733363, 3555729.944357627537102 ], [ 703664.015240851091221, 3555792.211948229465634 ], [ 703488.246824426343665, 3554833.083788152784109 ], [ 700357.32931340765208, 3554770.888997502159327 ] ] ], [ [ [ 706145.445104547310621, 3574962.214538949076086 ], [ 706498.884996495442465, 3576882.225338321644813 ], [ 707541.689634273643605, 3576903.627096557524055 ], [ 707188.322850951459259, 3574983.567013402469456 ], [ 706145.445104547310621, 3574962.214538949076086 ] ] ], [ [ [ 697802.541542915161699, 3574795.278892387636006 ], [ 698333.642759699141607, 3577674.769845295697451 ], [ 699376.384640747215599, 3577695.332461431156844 ], [ 699199.344849858200178, 3576735.435665844939649 ], [ 700242.126525761326775, 3576756.081783533561975 ], [ 700065.165924069704488, 3575796.202603083569556 ], [ 699022.347679680096917, 3575775.5809346283786 ], [ 698845.393133018864319, 3574815.768246819730848 ], [ 697802.541542915161699, 3574795.278892387636006 ] ] ], [ [ [ 705632.904014369472861, 3577820.975554829929024 ], [ 704590.142595859244466, 3577799.765098151285201 ], [ 704767.042052990291268, 3578759.826673907227814 ], [ 707895.22651311813388, 3578823.855955319013447 ], [ 708072.058731266763061, 3579784.033728120848536 ], [ 710157.458568386267871, 3579827.309477294795215 ], [ 709803.983006264315918, 3577906.897233526688069 ], [ 706675.66874787863344, 3577842.293994056992233 ], [ 706498.884996495442465, 3576882.225338321644813 ], [ 705456.083689375431277, 3576860.931536588352174 ], [ 705632.904014369472861, 3577820.975554829929024 ] ] ], [ [ [ 699751.788184747099876, 3585355.264969029929489 ], [ 699219.664016770781018, 3582474.763096508104354 ], [ 697134.556029015337117, 3582433.717331536579877 ], [ 697489.409512016689405, 3584353.911707623396069 ], [ 698531.888586881803349, 3584374.429507012479007 ], [ 698709.342600582516752, 3585334.614469282794744 ], [ 699751.788184747099876, 3585355.264969029929489 ] ] ], [ [ [ 706183.769436086760834, 3586441.83979179058224 ], [ 706538.376657204702497, 3588362.766208149027079 ], [ 708623.09657676180359, 3588405.838954654987901 ], [ 708268.636161827715114, 3586484.813363988418132 ], [ 706183.769436086760834, 3586441.83979179058224 ] ] ], [ [ [ 705341.299653626861982, 3593122.937089974991977 ], [ 704986.120155728189275, 3591201.685645746532828 ], [ 701859.415310810902156, 3591138.316123438999057 ], [ 702037.094074046472088, 3592098.846407452598214 ], [ 703079.28900705371052, 3592119.885918574407697 ], [ 703256.97357123286929, 3593080.483329106587917 ], [ 705341.299653626861982, 3593122.937089974991977 ] ] ], [ [ [ 712813.941320795100182, 3594235.804870652966201 ], [ 712636.545226586051285, 3593274.941055624280125 ], [ 713678.736629884457216, 3593297.089696345850825 ], [ 713501.419750262284651, 3592336.243454380426556 ], [ 711416.966814749408513, 3592292.104621456004679 ], [ 711771.790093683404848, 3594213.739682534709573 ], [ 712813.941320795100182, 3594235.804870652966201 ] ] ], [ [ [ 708822.942353245336562, 3595109.00150748109445 ], [ 709000.570551968296058, 3596069.850599026773125 ], [ 707958.506358967861161, 3596048.16948969848454 ], [ 708136.213866423116997, 3597009.036231017205864 ], [ 709178.241241763113067, 3597030.742274375166744 ], [ 709355.954419755958952, 3597991.676554757170379 ], [ 708313.963874259381555, 3597969.945561039727181 ], [ 708669.591379574034363, 3599891.892072140239179 ], [ 710753.428418418043293, 3599935.562601758632809 ], [ 710397.948303464101627, 3598013.516133754514158 ], [ 711439.94554197229445, 3598035.464300732593983 ], [ 711084.708962749456987, 3596113.538403926417232 ], [ 713168.860850621247664, 3596157.66034184768796 ], [ 712991.37986310152337, 3595196.711292315740138 ], [ 708822.942353245336562, 3595109.00150748109445 ] ] ], [ [ [ 701020.122132135089487, 3597820.868768873158842 ], [ 701198.17256250535138, 3598781.646745818667114 ], [ 700156.244976396788843, 3598760.759601696860045 ], [ 700334.374849758925848, 3599721.55534208053723 ], [ 699292.487317970837466, 3599700.752063542604446 ], [ 699470.69665696285665, 3600661.565584592986852 ], [ 700512.547312315437011, 3600682.393604158889502 ], [ 700869.019993600086309, 3602604.197778270579875 ], [ 701910.800054217339493, 3602625.184033988974988 ], [ 702267.369222201639786, 3604547.208203498274088 ], [ 703309.078660460654646, 3604568.352878191974014 ], [ 702774.3994917771779, 3601685.305994703434408 ], [ 703816.222888701944612, 3601706.484808515757322 ], [ 703282.037371205864474, 3598823.746815235819668 ], [ 702240.103355247410946, 3598802.642482800874859 ], [ 702062.0897746772971, 3597841.839740104041994 ], [ 701020.122132135089487, 3597820.868768873158842 ] ] ], [ [ [ 697730.383165719103999, 3494589.529279807116836 ], [ 698249.218141057994217, 3497459.622732151299715 ], [ 700340.857464602682739, 3497499.816022722050548 ], [ 700167.940893420018256, 3496543.030640820972621 ], [ 701213.801153937354684, 3496563.262128224596381 ], [ 700868.167105790227652, 3494649.766002792399377 ], [ 699822.235768079641275, 3494629.581581713631749 ], [ 699649.447219270048663, 3493672.917864148970693 ], [ 701741.38431619759649, 3493713.345175160560757 ], [ 701396.077269362285733, 3491800.0452612452209 ], [ 697211.932494634762406, 3491719.800357081927359 ], [ 697384.706680083065294, 3492676.336194953415543 ], [ 696338.714342561084777, 3492656.515141268260777 ], [ 696684.461865894962102, 3494569.66139395814389 ], [ 697730.383165719103999, 3494589.529279807116836 ] ] ], [ [ [ 705051.926443848060444, 3494731.558880468830466 ], [ 704879.315486360574141, 3493774.777328606229275 ], [ 701741.38431619759649, 3493713.345175160560757 ], [ 702432.510257898946293, 3497540.431713440921158 ], [ 704524.176661419565789, 3497581.469824667554349 ], [ 704351.4023080378538, 3496624.590044498443604 ], [ 705397.27620881376788, 3496645.243843149859458 ], [ 705224.580018895678222, 3495688.381045246962458 ], [ 707316.409275069832802, 3495729.958001297898591 ], [ 707143.82675140700303, 3494773.08847126038745 ], [ 705051.926443848060444, 3494731.558880468830466 ] ] ], [ [ [ 700160.436927881790325, 3502264.084944098256528 ], [ 699987.271422711783089, 3501307.119990797713399 ], [ 701032.950410250923596, 3501327.363703982904553 ], [ 700686.818610604852438, 3499413.50859219674021 ], [ 698595.321591406362131, 3499373.221152429934591 ], [ 699114.796913634636439, 3502243.923364870250225 ], [ 700160.436927881790325, 3502264.084944098256528 ] ] ], [ [ [ 702251.727042942424305, 3502304.725326546002179 ], [ 703297.377178784925491, 3502325.204134857282043 ], [ 703124.318520607776009, 3501368.168276169802994 ], [ 706261.39628717827145, 3501430.168037425726652 ], [ 705915.620440864353441, 3499516.076237806584686 ], [ 701732.572166459052823, 3499433.810796652920544 ], [ 702251.727042942424305, 3502304.725326546002179 ] ] ], [ [ [ 701552.468038308201358, 3504198.451492567081004 ], [ 702598.043515839497559, 3504218.871872699353844 ], [ 702424.863958995207213, 3503261.778233496937901 ], [ 701379.252842061920092, 3503241.381519922055304 ], [ 701206.080298479413614, 3502284.35226380918175 ], [ 700160.436927881790325, 3502264.084944098256528 ], [ 700853.525593879865482, 3506092.351765565574169 ], [ 701899.02637802134268, 3506112.713668547570705 ], [ 701552.468038308201358, 3504198.451492567081004 ] ] ], [ [ [ 704689.20467013574671, 3504260.030043892562389 ], [ 706780.37954004202038, 3504301.611446853727102 ], [ 706607.342528241686523, 3503344.422855339478701 ], [ 703470.478468575747684, 3503282.280721253249794 ], [ 703643.622387283830903, 3504239.398055617697537 ], [ 702598.043515839497559, 3504218.871872699353844 ], [ 702771.265710780397058, 3505176.006264429539442 ], [ 703816.808932210551575, 3505196.556158234830946 ], [ 703990.038100654492155, 3506153.755049391184002 ], [ 706081.063478934811428, 3506195.219880558550358 ], [ 705907.905630539287813, 3505237.97345032915473 ], [ 704862.355566301150247, 3505217.211886005941778 ], [ 704689.20467013574671, 3504260.030043892562389 ] ] ], [ [ [ 703990.038100654492155, 3506153.755049391184002 ], [ 702944.53054111986421, 3506133.181428968440741 ], [ 703117.83800415857695, 3507090.397386606317014 ], [ 704163.309889912372455, 3507110.994749384466559 ], [ 703990.038100654492155, 3506153.755049391184002 ] ] ], [ [ [ 701373.789995618513785, 3508963.979807897936553 ], [ 701200.325876405229792, 3508006.729664999060333 ], [ 702245.755296056508087, 3508027.138953995425254 ], [ 702072.369516097358428, 3507069.905912440270185 ], [ 699981.442663177265786, 3507029.240619699470699 ], [ 700154.899820782011375, 3507986.426288104150444 ], [ 699109.477111727464944, 3507966.228820771444589 ], [ 699283.012634904356673, 3508923.431616239249706 ], [ 698237.628958868328482, 3508903.316425129305571 ], [ 698584.899462406057864, 3510817.797100584954023 ], [ 697539.590545366634615, 3510797.740590922068805 ], [ 697713.325557285454124, 3511755.018492862582207 ], [ 699803.875226482981816, 3511795.284830060787499 ], [ 699456.590830219327472, 3509880.675202736631036 ], [ 701547.296763200080022, 3509921.270773328375071 ], [ 701720.846176448161714, 3510878.602581608574837 ], [ 703811.494129236089066, 3510919.669554375112057 ], [ 703464.58081752457656, 3509004.951762408018112 ], [ 701373.789995618513785, 3508963.979807897936553 ] ] ], [ [ [ 715310.304900982999243, 3511153.117685708217323 ], [ 715483.432487517595291, 3512110.801520589273423 ], [ 718619.439138575340621, 3512176.76821415591985 ], [ 718446.418709195335396, 3511219.011885039042681 ], [ 715310.304900982999243, 3511153.117685708217323 ] ] ], [ [ [ 718093.523163354024291, 3515028.116461262106895 ], [ 718266.749139998108149, 3515986.013200694229454 ], [ 719311.94532380416058, 3516008.205095610115677 ], [ 719138.755112869199365, 3515050.28409957466647 ], [ 718093.523163354024291, 3515028.116461262106895 ] ] ], [ [ [ 707813.24474300746806, 3532950.722463958431035 ], [ 708162.287444123649038, 3534867.496739560738206 ], [ 707117.858715927693993, 3534846.3106934344396 ], [ 707467.14369798777625, 3536763.202202200889587 ], [ 708511.500348067376763, 3536784.436641756910831 ], [ 708860.883432697854005, 3538701.542335484176874 ], [ 710949.462810695171356, 3538744.428632151335478 ], [ 710774.822131768334657, 3537785.806491938885301 ], [ 709730.494648666237481, 3537764.334219392389059 ], [ 709555.860433425870724, 3536805.777857513166964 ], [ 710600.223971245111898, 3536827.225852129980922 ], [ 710251.155216523096897, 3534910.18899115966633 ], [ 712340.036858274950646, 3534953.308139655273408 ], [ 712165.638303639483638, 3533994.803331012837589 ], [ 711121.159724060329609, 3533973.214680751785636 ], [ 710423.846642646822147, 3530139.706727992277592 ], [ 712513.095189523650333, 3530182.796633674297482 ], [ 712338.945145598379895, 3529224.474631113465875 ], [ 711294.283168795634992, 3529202.900621650740504 ], [ 711120.139688895549625, 3528244.6442023771815 ], [ 712164.837609078153037, 3528266.193991200067103 ], [ 711990.772582730511203, 3527307.954693367704749 ], [ 714080.250832650694065, 3527351.325373331084847 ], [ 713558.526276742573828, 3524476.71003091102466 ], [ 714603.378421714180149, 3524498.482355344109237 ], [ 714255.846281187841669, 3522582.230180892162025 ], [ 715300.773730364628136, 3522604.06043464737013 ], [ 715474.482689592055976, 3523562.190118407364935 ], [ 716519.377846217947081, 3523584.151011451613158 ], [ 716172.074126412975602, 3521667.884404742624611 ], [ 715127.10725003387779, 3521645.972033176571131 ], [ 714953.483251366298646, 3520687.924893465824425 ], [ 713908.484104105038568, 3520666.143072170205414 ], [ 713734.866758761461824, 3519708.161366171669215 ], [ 714779.901737127103843, 3519729.918995002284646 ], [ 714606.362710078712553, 3518771.954317284282297 ], [ 715651.437076367205009, 3518793.794025493320078 ], [ 715477.976345326984301, 3517835.846358580049127 ], [ 716523.090102669550106, 3517857.76810742309317 ], [ 716869.982420938904397, 3519773.753109368495643 ], [ 717915.028161078924313, 3519795.82960038119927 ], [ 717741.596584685845301, 3518837.792220859322697 ], [ 718786.68176142743323, 3518859.950713517144322 ], [ 718266.749139998108149, 3515986.013200694229454 ], [ 715131.182328281691298, 3515920.074591061100364 ], [ 714957.849047793657519, 3514962.25044951075688 ], [ 717048.294847596436739, 3515006.054975317791104 ], [ 716875.075569270527922, 3514048.223629639483988 ], [ 714784.55825633648783, 3514004.467442150227726 ], [ 714611.309956661425531, 3513046.725548533257097 ], [ 713566.020933215273544, 3513025.03073976514861 ], [ 713392.779393668286502, 3512067.354034048039466 ], [ 714438.104151520412415, 3512089.024748222902417 ], [ 714264.940843660850078, 3511131.365020791068673 ], [ 715310.304900982999243, 3511153.117685708217323 ], [ 714964.177194958901964, 3509237.873200268018991 ], [ 711827.881508997059427, 3509173.077622288838029 ], [ 711654.774334870278835, 3508215.589025364723057 ], [ 710609.31385333254002, 3508194.226410922594368 ], [ 710436.213534145965241, 3507236.802732204087079 ], [ 709390.720895424950868, 3507215.569983151275665 ], [ 709563.856892945244908, 3508172.969732047524303 ], [ 707472.95346579910256, 3508130.774170368444175 ], [ 707299.746108002145775, 3507173.422195238526911 ], [ 706254.263924366561696, 3507152.507151103112847 ], [ 706427.506964123575017, 3508109.835282284300774 ], [ 704336.624297280446626, 3508068.275278524495661 ], [ 704683.380955511471257, 3509982.958905534818769 ], [ 705728.749167469097301, 3510003.733566899318248 ], [ 705902.155692795291543, 3510961.160539419390261 ], [ 704856.82320095365867, 3510940.362044070381671 ], [ 705030.308053663000464, 3511897.806093093007803 ], [ 703985.014715199591592, 3511877.089782263617963 ], [ 704158.577917619375512, 3512834.550925220828503 ], [ 706249.096526817651466, 3512876.137283592950553 ], [ 706422.630830071866512, 3513833.687095986679196 ], [ 704332.18373378040269, 3513792.053003610111773 ], [ 704505.832160965772346, 3514749.596037809271365 ], [ 703460.649501357227564, 3514728.914286443497986 ], [ 703286.965303958277218, 3513771.395092100836337 ], [ 702241.75026314612478, 3513750.843266929965466 ], [ 702589.232832986977883, 3515665.874977742787451 ], [ 701544.092721109511331, 3515645.381655301433057 ], [ 701717.933748034294695, 3516602.935133796185255 ], [ 702763.038063383777626, 3516623.452270445879549 ], [ 703110.776401547598653, 3518538.729832405224442 ], [ 702065.743714996613562, 3518518.165019924752414 ], [ 702239.712649601162411, 3519475.841468362603337 ], [ 701194.719157062238082, 3519455.359047156292945 ], [ 700846.752265894552693, 3517540.094810882117599 ], [ 699801.690460086334497, 3517519.766233008820564 ], [ 699975.688405992579646, 3518477.354065275285393 ], [ 696840.630342339165509, 3518416.934270925354213 ], [ 697014.778457243926823, 3519374.491840433329344 ], [ 694924.827826627180912, 3519334.695688613690436 ], [ 695099.090336491935886, 3520292.246826905291528 ], [ 696144.028169871075079, 3520312.115461102686822 ], [ 696318.297525858972222, 3521269.73123284894973 ], [ 698408.111260595498607, 3521309.834774596616626 ], [ 698582.351563130738214, 3522267.539026472251862 ], [ 699627.227491100784391, 3522287.774040688760579 ], [ 700150.096717026666738, 3525161.20452960440889 ], [ 703284.4214014938334, 3525222.762521119788289 ], [ 703458.688692066003568, 3526180.726614496670663 ], [ 704503.43438634800259, 3526201.482763399370015 ], [ 704852.024931364925578, 3528117.582485306542367 ], [ 705896.702148287324235, 3528138.493139986880124 ], [ 706071.025362608022988, 3529096.628885793033987 ], [ 705026.384096139809117, 3529075.694182344246656 ], [ 705200.78585209895391, 3530033.847130801994354 ], [ 704156.183940575458109, 3530012.994933120440692 ], [ 704854.36079543014057, 3533845.923349026590586 ], [ 706943.280067552346736, 3533887.927035434171557 ], [ 706768.74398462951649, 3532929.584747559390962 ], [ 707813.24474300746806, 3532950.722463958431035 ] ], [ [ 711302.140542721375823, 3512024.330769448075444 ], [ 711128.87006394052878, 3511066.743192514404655 ], [ 712174.22344256809447, 3511088.177776894532144 ], [ 712001.031212474568747, 3510130.607199338264763 ], [ 713046.423844952369109, 3510152.123773479834199 ], [ 713392.779393668286502, 3512067.354034048039466 ], [ 711302.140542721375823, 3512024.330769448075444 ] ], [ [ 707467.859531348221935, 3513854.663282061461359 ], [ 707641.400655265082605, 3514812.278007567860186 ], [ 706596.207720525097102, 3514791.277895765844733 ], [ 706422.630830071866512, 3513833.687095986679196 ], [ 707467.859531348221935, 3513854.663282061461359 ] ], [ [ 700149.729008907917887, 3519434.982876299880445 ], [ 700323.812266118591651, 3520392.652686487883329 ], [ 697188.969262181199156, 3520332.090361656621099 ], [ 697014.778457243926823, 3519374.491840433329344 ], [ 700149.729008907917887, 3519434.982876299880445 ] ], [ [ 707115.670037656789646, 3529117.670133633539081 ], [ 707289.99986998771783, 3530075.871240037027746 ], [ 706245.391156153520569, 3530054.805898903403431 ], [ 706071.025362608022988, 3529096.628885793033987 ], [ 707115.670037656789646, 3529117.670133633539081 ] ], [ [ 709204.969682523631491, 3529160.072273014113307 ], [ 708160.318138542934321, 3529138.817928493954241 ], [ 707986.066821532440372, 3528180.633999237325042 ], [ 706941.382772587239742, 3528159.510310423094779 ], [ 706592.935955237946473, 3526243.314431440085173 ], [ 707637.691864416585304, 3526264.389955800957978 ], [ 707811.858062572660856, 3527222.491348517127335 ], [ 708856.58148833818268, 3527243.697439537849277 ], [ 709204.969682523631491, 3529160.072273014113307 ] ], [ [ 703806.764511154498905, 3522369.777434170246124 ], [ 702761.875225269468501, 3522349.117080199532211 ], [ 702936.014665363472886, 3523306.957774446345866 ], [ 700846.317936364328489, 3523265.908316224813461 ], [ 700497.938174910028465, 3521350.363516252022237 ], [ 701542.85661773965694, 3521370.787343366537243 ], [ 701368.766567571321502, 3520413.052677561063319 ], [ 702413.72421466303058, 3520433.55894760042429 ], [ 702587.778407460195012, 3521391.31747806770727 ], [ 705722.564031282789074, 3521453.545753411948681 ], [ 706070.585052394424565, 3523369.329723780974746 ], [ 708160.315708083799109, 3523411.442894965410233 ], [ 708334.318320252466947, 3524369.444692119956017 ], [ 709379.152933440171182, 3524390.6849310467951 ], [ 709553.162204856052995, 3525348.752040355000645 ], [ 704329.203011588775553, 3525243.494697507936507 ], [ 703806.764511154498905, 3522369.777434170246124 ] ], [ [ 705548.617403178010136, 3520495.715457217302173 ], [ 707638.563241622876376, 3520537.684572459664196 ], [ 707812.438166024861857, 3521495.562855619937181 ], [ 705722.564031282789074, 3521453.545753411948681 ], [ 705548.617403178010136, 3520495.715457217302173 ] ], [ [ 710430.175164537969977, 3512960.582807421684265 ], [ 709384.900284161325544, 3512939.31231900351122 ], [ 709211.515795314917341, 3511981.731705262325704 ], [ 710256.826414785929956, 3512002.978213640861213 ], [ 710430.175164537969977, 3512960.582807421684265 ] ] ], [ [ [ 705025.724861162831075, 3523348.432702286634594 ], [ 705199.835138182039373, 3524306.362419339828193 ], [ 706244.659439926035702, 3524327.283438899088651 ], [ 706070.585052394424565, 3523369.329723780974746 ], [ 705025.724861162831075, 3523348.432702286634594 ] ] ], [ [ [ 712513.095189523650333, 3530182.796633674297482 ], [ 712687.287738082348369, 3531141.160019469447434 ], [ 713731.881306597380899, 3531162.889135562349111 ], [ 713557.724724234081805, 3530204.501468675676733 ], [ 712513.095189523650333, 3530182.796633674297482 ] ] ], [ [ [ 713035.800338005647063, 3533058.011023129336536 ], [ 714080.321938164182939, 3533079.78874913463369 ], [ 714254.605981810251251, 3534038.300737050827593 ], [ 715299.095114821568131, 3534060.209498254116625 ], [ 715124.847072219359688, 3533101.673152838367969 ], [ 716169.375757390167564, 3533123.664236970711499 ], [ 715995.206175036728382, 3532165.144998194184154 ], [ 712861.522788501344621, 3532099.564809087663889 ], [ 713035.800338005647063, 3533058.011023129336536 ] ] ], [ [ [ 706597.532852378557436, 3537700.558236220385879 ], [ 706422.790466002188623, 3536742.0745361992158 ], [ 705378.440634927945212, 3536721.05364111578092 ], [ 705553.219080707756802, 3537679.513177818153054 ], [ 704508.908693959820084, 3537658.574916361365467 ], [ 704858.665475035668351, 3539575.56995527073741 ], [ 705902.903704625787213, 3539596.556533900555223 ], [ 705728.04010486160405, 3538638.014135205652565 ], [ 706772.31780513888225, 3538659.083372867666185 ], [ 707122.01539875078015, 3540576.25803857203573 ], [ 708166.22432590124663, 3540597.482568126637489 ], [ 707991.390342872473411, 3539638.850256510544568 ], [ 709035.63878584059421, 3539660.157405760139227 ], [ 708860.883432697854005, 3538701.542335484176874 ], [ 707816.598908695741557, 3538680.259438747074455 ], [ 707641.850026145111769, 3537721.710094189736992 ], [ 706597.532852378557436, 3537700.558236220385879 ] ] ], [ [ [ 712343.094433802645653, 3540683.449594652745873 ], [ 712517.826549655059353, 3541642.220730478875339 ], [ 714606.210283407825045, 3541685.894453109242022 ], [ 713558.887953248573467, 3535933.59841798292473 ], [ 711470.07138093735557, 3535890.217177587095648 ], [ 711819.153085664031096, 3537807.385574677959085 ], [ 712863.487527527147904, 3537829.07147030159831 ], [ 713387.320646333973855, 3540705.208591749891639 ], [ 712343.094433802645653, 3540683.449594652745873 ] ] ], [ [ [ 713736.755160331260413, 3542622.841276620514691 ], [ 713911.536139386007562, 3543581.720062326639891 ], [ 715999.782442202209495, 3543625.705512459389865 ], [ 715825.073708843090571, 3542666.77777864318341 ], [ 716869.238292038207874, 3542688.90647488925606 ], [ 716694.608124233083799, 3541729.995907704345882 ], [ 714606.210283407825045, 3541685.894453109242022 ], [ 714780.912670649122447, 3542644.756046799942851 ], [ 713736.755160331260413, 3542622.841276620514691 ] ] ], [ [ [ 717043.910904196207412, 3543647.858725777361542 ], [ 717218.625957898097113, 3544606.852681112010032 ], [ 718262.721850950038061, 3544629.137452018912882 ], [ 718088.042929401388392, 3543670.118934938684106 ], [ 717043.910904196207412, 3543647.858725777361542 ] ] ], [ [ [ 716174.533629140933044, 3544584.674934729468077 ], [ 716349.327266851905733, 3545543.686066196300089 ], [ 717393.383450335240923, 3545565.888361641671509 ], [ 717218.625957898097113, 3544606.852681112010032 ], [ 716174.533629140933044, 3544584.674934729468077 ] ] ], [ [ [ 716699.041883348254487, 3547461.833539745770395 ], [ 716349.327266851905733, 3545543.686066196300089 ], [ 715305.27463164483197, 3545521.590821196325123 ], [ 715480.146875719656236, 3546480.619146227836609 ], [ 714436.133931188145652, 3546458.606441215146333 ], [ 714261.225527616334148, 3545499.602623887360096 ], [ 713217.179937665467151, 3545477.721471534576267 ], [ 713567.111547281499952, 3547395.721850820817053 ], [ 716699.041883348254487, 3547461.833539745770395 ] ] ], [ [ [ 712539.674879961879924, 3558841.203417005483061 ], [ 711496.150582439266145, 3558819.407858026679605 ], [ 711671.834956977516413, 3559778.874398720916361 ], [ 712715.322920719627291, 3559800.694546652026474 ], [ 712891.013439530972391, 3560760.227622258476913 ], [ 713934.468521015718579, 3560782.179868198931217 ], [ 713583.202638880582526, 3558863.106411577668041 ], [ 716713.806853712536395, 3558929.460036134812981 ], [ 716538.346569721936248, 3557969.912253228481859 ], [ 712364.069320078822784, 3557881.754212439991534 ], [ 712539.674879961879924, 3558841.203417005483061 ] ] ], [ [ [ 720721.835411043372005, 3563795.521753901615739 ], [ 720546.272119736531749, 3562835.689338063821197 ], [ 721589.679210036993027, 3562858.443829464260489 ], [ 721414.194665165850893, 3561898.628668239805847 ], [ 719327.311344768386334, 3561853.276960176415741 ], [ 719678.468279717140831, 3563772.849978006444871 ], [ 720721.835411043372005, 3563795.521753901615739 ] ] ], [ [ [ 716208.440366703434847, 3567522.493356917984784 ], [ 716384.397726128576323, 3568482.412307045888156 ], [ 718470.743015870917588, 3568527.250736227724701 ], [ 718294.85853415413294, 3567567.282117173541337 ], [ 719338.072917546262033, 3567589.838053235318512 ], [ 719162.26726796082221, 3566629.886750728357583 ], [ 720205.521631124312989, 3566652.525504389312118 ], [ 720029.794791264808737, 3565692.591501017101109 ], [ 716899.933109461329877, 3565625.072809865232557 ], [ 716372.679432271048427, 3562745.747041985858232 ], [ 714285.904255738598295, 3562701.421256595291197 ], [ 714813.376281864242628, 3565580.598577196709812 ], [ 710640.304322760552168, 3565492.941760000772774 ], [ 710816.358908881549723, 3566452.652931205462664 ], [ 708729.916351342806593, 3566409.421100509352982 ], [ 708906.086300613358617, 3567369.125080794561654 ], [ 707862.906544743105769, 3567347.646069766953588 ], [ 708039.155457970453426, 3568307.367492138873786 ], [ 706996.015521187218837, 3568285.971596857067198 ], [ 707172.343420855817385, 3569245.710478647612035 ], [ 708215.446896337904036, 3569267.130951939616352 ], [ 708391.78085702075623, 3570226.936470114160329 ], [ 710477.924997823662125, 3570270.149898692034185 ], [ 710301.663980562938377, 3569310.295106143224984 ], [ 712387.89468826376833, 3569353.890221718233079 ], [ 712211.749083921778947, 3568394.028163010254502 ], [ 714298.066460483474657, 3568438.004789990838617 ], [ 714122.036219127709046, 3567478.135393972508609 ], [ 716208.440366703434847, 3567522.493356917984784 ] ] ], [ [ [ 712387.89468826376833, 3569353.890221718233079 ], [ 712740.31331586651504, 3571273.740729045122862 ], [ 714826.411888465518132, 3571317.865867802873254 ], [ 714474.139154388802126, 3569397.916320310439914 ], [ 712387.89468826376833, 3569353.890221718233079 ] ] ], [ [ [ 722141.313687045476399, 3577214.58865510346368 ], [ 722670.14656967355404, 3580096.040988803375512 ], [ 723712.893476073164493, 3580119.137759709265083 ], [ 723184.170299961231649, 3577237.610086823347956 ], [ 722141.313687045476399, 3577214.58865510346368 ] ] ], [ [ [ 713480.861750142648816, 3586594.141602043062449 ], [ 713657.887246968224645, 3587554.757622196339071 ], [ 712615.472034992533736, 3587532.650528167374432 ], [ 713324.145312322652899, 3591375.439792921300977 ], [ 714366.413644543499686, 3591397.646823089569807 ], [ 714012.065569458995014, 3589476.117156228516251 ], [ 716096.759464407106861, 3589520.756247469224036 ], [ 715742.727966716047376, 3587599.296670126728714 ], [ 714700.3058853126131, 3587576.973001933190972 ], [ 714523.317076950916089, 3586616.332009728066623 ], [ 713480.861750142648816, 3586594.141602043062449 ] ] ], [ [ [ 719066.92067368212156, 3594370.474202344659716 ], [ 718889.745218793977983, 3593409.459784450009465 ], [ 716805.331402209820226, 3593364.186361228581518 ], [ 716628.124807181768119, 3592403.264909873716533 ], [ 714543.651332104811445, 3592358.475509313400835 ], [ 714720.931449164403602, 3593319.34679234912619 ], [ 713678.736629884457216, 3593297.089696345850825 ], [ 714033.497702633379959, 3595218.910006673075259 ], [ 715075.618960225023329, 3595241.217233760282397 ], [ 715430.476154591306113, 3597163.258317246101797 ], [ 716472.5272384386044, 3597185.724313666112721 ], [ 716295.114242599578574, 3596224.65729595022276 ], [ 717337.205589064164087, 3596247.20670427614823 ], [ 717159.871796049410477, 3595286.157237174920738 ], [ 718202.003407512558624, 3595308.79001906234771 ], [ 718024.748794812941924, 3594347.758085240144283 ], [ 719066.92067368212156, 3594370.474202344659716 ] ] ] ] } }
]
}
