{
"type": "FeatureCollection",
"name": "urban-2005",
"crs": { "type": "name", "properties": { "name": "urn:ogc:def:crs:EPSG::32636" } },
"features": [
{ "type": "Feature", "properties": { "year": 2005 }, "geometry": { "type": "MultiPolygon", "coordinates": [ [ [ [ 637942.751502269180492, 3492670.054126318078488 ], [ 640034.351043056230992, 3492698.041746535338461 ], [ 640209.166711107711308, 3493653.412591885775328 ], [ 642300.704470422933809, 3493681.865462744608521 ], [ 642125.960019581252709, 3492726.450820589438081 ], [ 645263.391484507359564, 3492769.854688826948404 ], [ 645088.797137422952801, 3491814.413840320892632 ], [ 637767.907982998294756, 3491714.766557158902287 ], [ 637942.751502269180492, 3492670.054126318078488 ] ] ], [ [ [ 668793.619356883922592, 3495985.165816606022418 ], [ 668967.603261494892649, 3496941.257782852742821 ], [ 667921.874781707418151, 3496924.275225210934877 ], [ 667747.855276401387528, 3495968.205930436495692 ], [ 666702.094017329392955, 3495951.35154366819188 ], [ 666876.149124906398356, 3496907.398195485584438 ], [ 665830.426273524295539, 3496890.626691560260952 ], [ 666178.736868952866644, 3498802.795021744444966 ], [ 665133.08805160690099, 3498786.083822731394321 ], [ 665307.34357119910419, 3499742.205522693227977 ], [ 669489.813103476772085, 3499809.774514031130821 ], [ 669315.70013737375848, 3498853.56211154256016 ], [ 671407.023172122659162, 3498887.934769936371595 ], [ 671233.024467734852806, 3497931.717041819822043 ], [ 670187.325898623559624, 3497914.500677804462612 ], [ 669839.386276353267021, 3496002.231204303447157 ], [ 668793.619356883922592, 3495985.165816606022418 ] ] ], [ [ [ 654854.570912123308517, 3505301.190373414661735 ], [ 654504.800516627612524, 3503389.00117681035772 ], [ 653459.362242595758289, 3503373.445175926201046 ], [ 653634.261570038623177, 3504329.4973797458224 ], [ 652588.861588273663074, 3504314.024735127110034 ], [ 652413.926539936568588, 3503357.994871987961233 ], [ 651368.493391145020723, 3503342.650263064075261 ], [ 651193.56583702750504, 3502386.682695777155459 ], [ 648057.174395946320146, 3502341.349738690536469 ], [ 647882.182953551062383, 3501385.488806888926774 ], [ 648927.679966058814898, 3501400.471935677342117 ], [ 648752.767473291605711, 3500444.628720859531313 ], [ 646661.704541815910488, 3500414.812424915377051 ], [ 646836.688421404338442, 3501370.611308568622917 ], [ 645791.196352094877511, 3501355.839438853785396 ], [ 645441.200483912602067, 3499444.325762907974422 ], [ 643350.080892415135168, 3499415.18719139508903 ], [ 643700.219531883252785, 3501326.612577855587006 ], [ 644745.706728096120059, 3501341.173195894341916 ], [ 644920.805293788202107, 3502296.9677121238783 ], [ 645966.259208264760673, 3502311.656065142247826 ], [ 646842.222609138465486, 3507091.337877006269991 ], [ 647887.500255845254287, 3507106.242812689393759 ], [ 648062.786964162485674, 3508062.321283333469182 ], [ 650153.278143746312708, 3508092.493105289060622 ], [ 649978.062986625707708, 3507136.370084220077842 ], [ 651023.348105639801361, 3507151.592423836234957 ], [ 650848.211939946748316, 3506195.487132771406323 ], [ 652938.861289982451126, 3506226.204539284110069 ], [ 652763.839839136926457, 3505270.094617562834173 ], [ 654854.570912123308517, 3505301.190373414661735 ] ] ], [ [ [ 655899.940328230848536, 3505316.896884170826524 ], [ 654854.570912123308517, 3505301.190373414661735 ], [ 655029.520875848014839, 3506257.345067669637501 ], [ 656074.854550914024003, 3506273.074007424991578 ], [ 655899.940328230848536, 3505316.896884170826524 ] ] ], [ [ [ 662350.880779491504654, 3512091.88829776737839 ], [ 662525.917990733520128, 3513048.459708485286683 ], [ 665661.223662568023428, 3513098.344686692580581 ], [ 665836.196487291716039, 3514055.024685460608453 ], [ 666881.268058520974591, 3514071.887824365403503 ], [ 666007.013444810756482, 3509288.777456385549158 ], [ 664961.762887850636616, 3509272.02821644814685 ], [ 665136.56349771854002, 3510228.5468455478549 ], [ 663046.142186122015119, 3510195.320616757962853 ], [ 663396.015750531805679, 3512108.387915174942464 ], [ 662350.880779491504654, 3512091.88829776737839 ] ] ], [ [ [ 660435.727788825752214, 3513015.733039539307356 ], [ 660610.879741134704091, 3513972.299409831874073 ], [ 661655.937667047255673, 3513988.632416021544486 ], [ 661480.821543456753716, 3513032.043377065099776 ], [ 660435.727788825752214, 3513015.733039539307356 ] ] ], [ [ [ 661662.696595966699533, 3519712.544932014774531 ], [ 663752.384711175807752, 3519745.589823276270181 ], [ 663401.750273791607469, 3517831.922046100255102 ], [ 662356.833080123178661, 3517815.392071348614991 ], [ 662181.54459422279615, 3516858.641592295840383 ], [ 660091.64653802884277, 3516825.945484946947545 ], [ 659741.055392773123458, 3514912.656452482100576 ], [ 660786.07479970168788, 3514928.906094193924218 ], [ 660610.879741134704091, 3513972.299409831874073 ], [ 659565.82449207175523, 3513956.072424008045346 ], [ 659040.390508611453697, 3511086.562048140913248 ], [ 657995.230458474135958, 3511070.508868402801454 ], [ 658520.771902453387156, 3513939.951456521172076 ], [ 657475.721954876091331, 3513923.936505354940891 ], [ 657651.024544731597416, 3514880.47530758054927 ], [ 656606.013068827218376, 3514864.543800368439406 ], [ 656781.394656585878693, 3515821.100303469225764 ], [ 658871.348518653074279, 3515853.114561432506889 ], [ 659222.097633645287715, 3517766.438957744278014 ], [ 660267.006777418893762, 3517782.650529216043651 ], [ 660793.346131609752774, 3520653.008016058243811 ], [ 661838.150237787747756, 3520669.393923909403384 ], [ 661662.696595966699533, 3519712.544932014774531 ] ] ], [ [ [ 665316.411964961909689, 3516908.481568175368011 ], [ 666361.373234435799532, 3516925.307119055185467 ], [ 666536.518232472939417, 3517882.148809923790395 ], [ 665491.592832598602399, 3517865.300413303542882 ], [ 666017.39371697162278, 3520735.999775767792016 ], [ 667062.211437087738886, 3520752.91680424567312 ], [ 667412.888722825213335, 3522666.964770710095763 ], [ 669502.388822760316543, 3522701.209359230939299 ], [ 669327.100519571220502, 3521744.119163923431188 ], [ 670371.890703839249909, 3521761.377884487621486 ], [ 670021.514920917106792, 3519847.273258327972144 ], [ 668976.652923912275583, 3519830.060510896611959 ], [ 668801.493636678671464, 3518873.092012695036829 ], [ 667756.598557478282601, 3518856.00840575248003 ], [ 667581.446402483386919, 3517899.103351359721273 ], [ 668626.377359997713938, 3517916.164039729628712 ], [ 668451.304096481762826, 3516959.276571786496788 ], [ 667406.337272483622655, 3516942.238786220084876 ], [ 667231.271170085528865, 3515985.414690130855888 ], [ 665141.274148572585545, 3515951.703160575591028 ], [ 665316.411964961909689, 3516908.481568175368011 ] ], [ [ 667931.793734858278185, 3519812.953969602938741 ], [ 666886.937336406554095, 3519795.953632312361151 ], [ 666711.706267331726849, 3518839.030974275898188 ], [ 667756.598557478282601, 3518856.00840575248003 ], [ 667931.793734858278185, 3519812.953969602938741 ] ] ], [ [ [ 656956.819392639794387, 3516777.697097926866263 ], [ 656781.394656585878693, 3515821.100303469225764 ], [ 654691.451236646273173, 3515789.510322865098715 ], [ 654515.997926266863942, 3514832.998906465247273 ], [ 653470.99422481819056, 3514817.385515831410885 ], [ 653646.483399005723186, 3515773.874431630130857 ], [ 652601.518119733664207, 3515758.344603829551488 ], [ 653304.050207358202897, 3519584.612863552290946 ], [ 654348.871906796353869, 3519600.232737236656249 ], [ 654700.325211377581581, 3521513.653757242485881 ], [ 653655.575372637948021, 3521497.988766052760184 ], [ 654007.273258166154847, 3523411.526065161451697 ], [ 655051.951188985840417, 3523427.236236962489784 ], [ 655227.82892373460345, 3524384.088074644561857 ], [ 656272.473456222331151, 3524399.927180389873683 ], [ 656448.358369654044509, 3525356.842101824935526 ], [ 660626.818668130086735, 3525421.352682409342378 ], [ 660099.72496777237393, 3522550.456656334456056 ], [ 661144.454538526013494, 3522566.781837431713939 ], [ 660968.878786383895203, 3521609.874696935992688 ], [ 658879.35042343637906, 3521577.376086122822016 ], [ 658001.759139086003415, 3516793.673793092835695 ], [ 656956.819392639794387, 3516777.697097926866263 ] ] ], [ [ [ 662013.64696774922777, 3521626.283371003810316 ], [ 664103.191416924470104, 3521659.419466701801866 ], [ 663927.766531804692931, 3520702.484401606954634 ], [ 661838.150237787747756, 3520669.393923909403384 ], [ 662013.64696774922777, 3521626.283371003810316 ] ] ], [ [ [ 664454.170370222302154, 3523573.411138059105724 ], [ 665498.874797098920681, 3523590.184314785525203 ], [ 665674.392904511536472, 3524547.263860686216503 ], [ 666719.064122225507163, 3524564.166276915930212 ], [ 666192.746763566043228, 3521692.980572971515357 ], [ 664103.191416924470104, 3521659.419466701801866 ], [ 664454.170370222302154, 3523573.411138059105724 ] ] ], [ [ [ 665849.954054148169234, 3525504.383990079630166 ], [ 666025.558243396109901, 3526461.544723230414093 ], [ 667070.157517588697374, 3526478.493042324203998 ], [ 666894.589306025998667, 3525521.309349832590669 ], [ 665849.954054148169234, 3525504.383990079630166 ] ] ], [ [ [ 674753.142792977159843, 3539971.300269102677703 ], [ 674929.175348857650533, 3540929.21210953546688 ], [ 677017.328601768007502, 3540965.190172032918781 ], [ 676841.368338236701675, 3540007.231565544847399 ], [ 674753.142792977159843, 3539971.300269102677703 ] ] ], [ [ [ 674929.175348857650533, 3540929.21210953546688 ], [ 673885.103044089628384, 3540911.383337484672666 ], [ 674061.214686297695152, 3541869.312846699729562 ], [ 675105.250830790493637, 3541887.164974842686206 ], [ 674929.175348857650533, 3540929.21210953546688 ] ] ], [ [ [ 662400.492564717307687, 3540722.317574845161289 ], [ 662577.002068799571134, 3541679.99205211782828 ], [ 663621.00769883824978, 3541696.668783849105239 ], [ 664857.526362529257312, 3548401.696927580982447 ], [ 665901.281120278756134, 3548418.642442459706217 ], [ 666962.614890252007172, 3554167.548104814253747 ], [ 668006.154571093386039, 3554184.740264364518225 ], [ 668714.425178598612547, 3558018.260199691168964 ], [ 671844.62447700870689, 3558070.760844987817109 ], [ 672198.799355096532963, 3559987.908944983966649 ], [ 671155.46959213889204, 3559970.254432344809175 ], [ 670978.324283776688389, 3559011.683210958261043 ], [ 668891.60030054289382, 3558976.743258838076144 ], [ 669600.73058826639317, 3562811.088414863683283 ], [ 670643.945529208052903, 3562828.598529845010489 ], [ 670998.695610043010674, 3564746.066155209671706 ], [ 673084.988025053171441, 3564781.503007594961673 ], [ 672553.146009612246417, 3561905.222405249718577 ], [ 673596.405750005622394, 3561923.031396852340549 ], [ 673950.851286678109318, 3563840.557528790552169 ], [ 677080.428907378925942, 3563894.771032504737377 ], [ 677257.606704661506228, 3564853.667209468781948 ], [ 678300.7685252353549, 3564871.977126548066735 ], [ 678123.62717659608461, 3563913.057237997185439 ], [ 681253.239408139837906, 3563968.560999033972621 ], [ 681076.250234463601373, 3563009.61135541042313 ], [ 682119.496607116307132, 3563028.303854998666793 ], [ 682296.449349696515128, 3563987.277308556716889 ], [ 683339.662251646514051, 3564006.101149863097817 ], [ 683162.745938796782866, 3563047.103857759851962 ], [ 684205.998246437404305, 3563066.011366027873009 ], [ 684382.878130911849439, 3564025.03252529213205 ], [ 687512.543801829800941, 3564082.471879885997623 ], [ 686982.360286595416255, 3561205.317942901048809 ], [ 688025.697477428242564, 3561224.607581759337336 ], [ 687672.528425787575543, 3559306.665068699046969 ], [ 686629.118472965084948, 3559287.423280610702932 ], [ 686276.047775456099771, 3557369.694794708397239 ], [ 689406.50495092116762, 3557427.598838672041893 ], [ 689230.142790531506762, 3556468.725166630465537 ], [ 688186.617665015277453, 3556449.340397841762751 ], [ 687305.266684646252543, 3551655.713967008981854 ], [ 684174.165104987914674, 3551598.560884222388268 ], [ 683997.914427458541468, 3550640.031231959350407 ], [ 681910.455914770020172, 3550602.512429922819138 ], [ 681734.175535754067823, 3549644.071490810252726 ], [ 679646.656400994863361, 3549607.028489289805293 ], [ 679470.346365502104163, 3548648.676064362749457 ], [ 678426.554964640294202, 3548630.338788341730833 ], [ 678250.251558453543112, 3547672.051153808832169 ], [ 680337.909775946754962, 3547708.785644416231662 ], [ 680514.140704571618699, 3548667.120414535049349 ], [ 682601.73826561961323, 3548704.330346519593149 ], [ 682249.464187917415984, 3546787.607570622116327 ], [ 681205.591462607611902, 3546768.99632783094421 ], [ 681029.48246852948796, 3545810.720423025079072 ], [ 679985.576500010909513, 3545792.239780534524471 ], [ 679809.474158088094555, 3544834.028645653743297 ], [ 677721.598651258740574, 3544797.435370173305273 ], [ 677545.466794937849045, 3543839.312413814477623 ], [ 672325.647768429713324, 3543749.817962030414492 ], [ 672149.377885665046051, 3542791.853063709102571 ], [ 674237.369263807078823, 3542827.283385329414159 ], [ 674061.214686297695152, 3541869.312846699729562 ], [ 673017.181401535635814, 3541851.567583625670522 ], [ 672488.866841980488971, 3538977.971997171640396 ], [ 675621.300627880729735, 3539031.318322284612805 ], [ 674917.915880580432713, 3535200.15136110689491 ], [ 675962.210647321306169, 3535218.053667631931603 ], [ 676489.576528512989171, 3538091.437440841924399 ], [ 678577.958208452444524, 3538127.702330597210675 ], [ 678753.760420629754663, 3539085.625701740384102 ], [ 679797.919544277363457, 3539103.941739685833454 ], [ 679622.15344940405339, 3538145.994917332660407 ], [ 680666.35164724115748, 3538164.394268341362476 ], [ 680139.418896367889829, 3535290.729633853305131 ], [ 679095.112422393052839, 3535272.400626763235778 ], [ 678743.966145816026255, 3533356.876042272895575 ], [ 679788.34474432002753, 3533375.15823289938271 ], [ 679612.871980881085619, 3532417.433977710548788 ], [ 677524.045643367688172, 3532381.022958075627685 ], [ 677348.543692098231986, 3531423.386347671039402 ], [ 675259.657006660010666, 3531387.448284435551614 ], [ 675435.231030172784813, 3532345.038300633430481 ], [ 674390.828077125246637, 3532327.205852117855102 ], [ 674566.481077052885666, 3533284.81347099551931 ], [ 671433.397584864404052, 3533231.88598061632365 ], [ 671257.636425438337028, 3532274.348000740166754 ], [ 673346.428003472276032, 3532309.479987434111536 ], [ 672995.178752859821543, 3530394.433735618833452 ], [ 674039.65089421463199, 3530412.113164780661464 ], [ 673513.207201955839992, 3527539.780204302165657 ], [ 674557.790227754390799, 3527557.496540125459433 ], [ 674382.430875065620057, 3526600.11058237683028 ], [ 675427.052767562447116, 3526617.910157890059054 ], [ 674901.340233795694076, 3523745.92719158064574 ], [ 673856.610480215633288, 3523728.197131756227463 ], [ 673506.27829606551677, 3521813.791647099424154 ], [ 671416.683716458734125, 3521778.742870424408466 ], [ 671591.900172899360768, 3522735.879114795010537 ], [ 670547.143082893686369, 3522718.491090055555105 ], [ 670722.438450178131461, 3523675.644917626399547 ], [ 669677.720126028871164, 3523658.34016074007377 ], [ 670028.511722305323929, 3525572.723663438111544 ], [ 671073.158138927188702, 3525590.074519884772599 ], [ 671248.58245513192378, 3526547.350335146300495 ], [ 669159.364383636391722, 3526512.708881168160588 ], [ 669510.485906956251711, 3528427.290309554431587 ], [ 667421.423013520310633, 3528392.982367150485516 ], [ 667245.768754294025712, 3527435.717374666128308 ], [ 666201.205469637643546, 3527418.746080410201102 ], [ 666025.558243396109901, 3526461.544723230414093 ], [ 664980.961718710837886, 3526444.702801532112062 ], [ 664805.321550221880898, 3525487.564999185036868 ], [ 662716.064717042958364, 3525454.246115589514375 ], [ 663770.983542880858295, 3531197.407327541615814 ], [ 664815.394530784222297, 3531214.151066854130477 ], [ 664639.503104186616838, 3530256.833002046216279 ], [ 666728.405344131169841, 3530290.594098994974047 ], [ 666904.224692142568529, 3531247.958155215252191 ], [ 667948.643900076043792, 3531265.02150848088786 ], [ 668124.470223126700148, 3532222.449344617314637 ], [ 667080.08706403488759, 3532205.362936978694052 ], [ 667607.932296699844301, 3535077.821838919073343 ], [ 666563.660118768224493, 3535060.772827249951661 ], [ 667092.00080087443348, 3537933.529676138423383 ], [ 666047.839703016914427, 3537916.518086689990014 ], [ 666224.075436943792738, 3538874.162271773908287 ], [ 665179.953209310537204, 3538857.234338124282658 ], [ 665532.626063106115907, 3540772.599091314245015 ], [ 662400.492564717307687, 3540722.317574845161289 ] ], [ [ 674031.840998654253781, 3524685.460898510646075 ], [ 672987.15007171430625, 3524667.814040188211948 ], [ 673162.459492723573931, 3525625.095373619347811 ], [ 672117.807389969122596, 3525607.531755885109305 ], [ 671767.159605718450621, 3523693.055996973998845 ], [ 673856.610480215633288, 3523728.197131756227463 ], [ 674031.840998654253781, 3524685.460898510646075 ] ], [ [ 667772.860589038697071, 3530307.634413741994649 ], [ 668817.318606901681051, 3530324.781242167111486 ], [ 668993.065882498165593, 3531282.191403969656676 ], [ 667948.643900076043792, 3531265.02150848088786 ], [ 667772.860589038697071, 3530307.634413741994649 ] ], [ [ 669696.484959948109463, 3535112.239827233366668 ], [ 670048.452446763636544, 3537027.508989600464702 ], [ 667960.044189631356858, 3536992.998440990690142 ], [ 667607.932296699844301, 3535077.821838919073343 ], [ 669696.484959948109463, 3535112.239827233366668 ] ], [ [ 685072.452881618402898, 3562126.022922000382096 ], [ 684029.161166067700833, 3562107.031785577535629 ], [ 683675.615428577410057, 3560189.197278183884919 ], [ 684718.979938149452209, 3560208.140703419223428 ], [ 684542.307665498927236, 3559249.2619035304524 ], [ 685585.711558525101282, 3559268.288893014192581 ], [ 685939.02613680344075, 3561186.135761776007712 ], [ 684895.69501110073179, 3561167.061035999562591 ], [ 685072.452881618402898, 3562126.022922000382096 ] ], [ [ 680368.721968156751245, 3559174.227879636920989 ], [ 679838.525694383075461, 3556298.125546954106539 ], [ 678795.027572294231504, 3556279.706567774526775 ], [ 678441.705019751563668, 3554362.559265799354762 ], [ 679485.275803028373048, 3554380.930955176241696 ], [ 679308.715152824879624, 3553422.395686358213425 ], [ 681395.938146264990792, 3553459.413470141589642 ], [ 681043.090620683855377, 3551542.372324508149177 ], [ 683130.470622348831967, 3551579.724198215641081 ], [ 683306.800394470104948, 3552538.271481292322278 ], [ 682263.145188520196825, 3552519.518258914351463 ], [ 682616.00579849886708, 3554436.689493052661419 ], [ 683659.588402255787514, 3554455.490169963799417 ], [ 684012.547676648478955, 3556372.874492969363928 ], [ 682969.037723001441918, 3556354.026297438889742 ], [ 683498.9067769178655, 3559230.342309794854373 ], [ 682455.50887581333518, 3559211.530109457205981 ], [ 682278.806670806719922, 3558252.740423835813999 ], [ 681235.375370464520529, 3558234.05937278456986 ], [ 681412.113945216289721, 3559192.825300179421902 ], [ 680368.721968156751245, 3559174.227879636920989 ] ], [ [ 685056.060630677035078, 3556391.829998412635177 ], [ 685409.118454567855224, 3558309.427761049941182 ], [ 684365.678195880143903, 3558290.424615626223385 ], [ 684012.547676648478955, 3556372.874492969363928 ], [ 685056.060630677035078, 3556391.829998412635177 ] ], [ [ 670624.162546015228145, 3557094.664657746441662 ], [ 669580.726412064861506, 3557077.187871054280549 ], [ 669403.673626510077156, 3556118.76390965981409 ], [ 670447.146121981204487, 3556136.217284693848342 ], [ 670624.162546015228145, 3557094.664657746441662 ] ], [ [ 687143.09560786455404, 3556430.062948472797871 ], [ 686099.576602083747275, 3556410.892816123086959 ], [ 685923.148215941502713, 3555452.132319521624595 ], [ 686966.7035487156827, 3555471.278598709963262 ], [ 687143.09560786455404, 3556430.062948472797871 ] ], [ [ 672829.334981316584162, 3535164.666754421778023 ], [ 671785.048814391717315, 3535147.084449838381261 ], [ 671609.201715397764929, 3534189.464790189638734 ], [ 672653.523960751015693, 3534207.023878579027951 ], [ 672829.334981316584162, 3535164.666754421778023 ] ] ], [ [ [ 677612.090944514260627, 3566771.584107265342027 ], [ 677257.606704661506228, 3564853.667209468781948 ], [ 676214.447761271614581, 3564835.464841287117451 ], [ 676391.704903268953785, 3565794.378826900850981 ], [ 675348.585283609805629, 3565776.260334889870137 ], [ 675703.301203648443334, 3567694.165474702138454 ], [ 676746.347860396374017, 3567712.331355910748243 ], [ 676569.004937215475366, 3566753.334324864204973 ], [ 677612.090944514260627, 3566771.584107265342027 ] ] ], [ [ [ 677789.397381650400348, 3567730.604869560338557 ], [ 676746.347860396374017, 3567712.331355910748243 ], [ 677101.162363590672612, 3569630.45010020583868 ], [ 678144.138876739307307, 3569648.771124657709152 ], [ 677789.397381650400348, 3567730.604869560338557 ] ] ], [ [ [ 683380.450027120532468, 3575479.203663967549801 ], [ 684423.221858171629719, 3575498.20694888336584 ], [ 684245.755391685641371, 3574538.733315046411008 ], [ 685288.566773339291103, 3574557.820443240460008 ], [ 685465.99666577600874, 3575517.318109042011201 ], [ 687551.55527789122425, 3575555.864064579829574 ], [ 687374.198529597604647, 3574596.318248952273279 ], [ 688417.018937841523439, 3574615.728931242134422 ], [ 688239.741506684804335, 3573656.200858548283577 ], [ 687196.884540382656269, 3573636.814277967438102 ], [ 687019.613313008798286, 3572677.352130756247789 ], [ 685976.722823767689988, 3572658.097432219423354 ], [ 685622.235607086564414, 3570739.346591108944267 ], [ 684579.275062928907573, 3570720.24769483320415 ], [ 685111.179664080962539, 3573598.364589771255851 ], [ 684068.331720423651859, 3573579.301477388013154 ], [ 683713.612774579785764, 3571660.56310721160844 ], [ 682670.694714250392281, 3571641.65573874861002 ], [ 682493.362917939433828, 3570682.373103326186538 ], [ 681450.411283392691985, 3570663.597403395455331 ], [ 681273.085788776399568, 3569704.380358700174838 ], [ 685445.05617060395889, 3569780.033798608928919 ], [ 685267.919519029557705, 3568820.762730381917208 ], [ 687353.995653027668595, 3568859.187676761765033 ], [ 687176.974762043682858, 3567899.91033082595095 ], [ 689263.13600244326517, 3567938.717918935231864 ], [ 688909.36838542832993, 3566020.192256201524287 ], [ 687866.213309831451625, 3566000.782709068153054 ], [ 687689.357174544595182, 3565041.606460177339613 ], [ 685602.98325121938251, 3565003.158107887022197 ], [ 685779.912284636520781, 3565962.286414991132915 ], [ 686823.061281868373044, 3565981.48076279880479 ], [ 686999.996637406991795, 3566940.674699769821018 ], [ 681784.463942606933415, 3566845.659320756793022 ], [ 682138.827782812062651, 3568763.932901805266738 ], [ 681095.803127175662667, 3568745.204973795451224 ], [ 680918.56330132484436, 3567786.071227893698961 ], [ 679875.505085228127427, 3567767.47480326378718 ], [ 680052.781404963578098, 3568726.584715990815312 ], [ 679009.762599296751432, 3568708.072126082144678 ], [ 679364.516805903520435, 3570626.369183535221964 ], [ 677278.633938163518906, 3570589.571854967623949 ], [ 677101.162363590672612, 3569630.45010020583868 ], [ 675015.217922376818024, 3569594.13111798837781 ], [ 675192.762545298086479, 3570553.20539943035692 ], [ 676235.696815801085904, 3570571.334769202396274 ], [ 676768.478441222338006, 3573448.878463593311608 ], [ 678854.136273870943114, 3573485.603138439357281 ], [ 679387.08434178144671, 3576363.664869473315775 ], [ 680429.807841899921186, 3576382.260581844020635 ], [ 680963.031708432827145, 3579260.769938845187426 ], [ 682005.648272564285435, 3579279.545443578157574 ], [ 681827.900778005830944, 3578319.976534425280988 ], [ 682870.556899915914983, 3578338.836011125240475 ], [ 682692.888839909341186, 3577379.284938562195748 ], [ 683735.584521642769687, 3577398.22834848659113 ], [ 683380.450027120532468, 3575479.203663967549801 ] ], [ [ 680407.46258500078693, 3570644.92943090479821 ], [ 680584.867439836962149, 3571604.164274657610804 ], [ 679541.958192053600214, 3571585.580174377188087 ], [ 679364.516805903520435, 3570626.369183535221964 ], [ 680407.46258500078693, 3570644.92943090479821 ] ], [ [ 679719.442429791786708, 3572544.832834355067462 ], [ 678676.572630540234968, 3572526.332645083311945 ], [ 678499.051848087226972, 3571567.103825531434268 ], [ 679541.958192053600214, 3571585.580174377188087 ], [ 679719.442429791786708, 3572544.832834355067462 ] ], [ [ 680252.152225178433582, 3575422.84103718213737 ], [ 681294.915227436344139, 3575441.520710452459753 ], [ 681472.534252690966241, 3576400.964188733138144 ], [ 680429.807841899921186, 3576382.260581844020635 ], [ 680252.152225178433582, 3575422.84103718213737 ] ], [ [ 680762.315134238218889, 3572563.440803674049675 ], [ 682848.069326070835814, 3572600.980091696605086 ], [ 683025.486750654876232, 3573560.346182989887893 ], [ 681982.64473794598598, 3573541.498704226687551 ], [ 682337.68115581292659, 3575460.308251938782632 ], [ 681294.915227436344139, 3575441.520710452459753 ], [ 680762.315134238218889, 3572563.440803674049675 ] ] ], [ [ [ 685465.99666577600874, 3575517.318109042011201 ], [ 684423.221858171629719, 3575498.20694888336584 ], [ 684600.731117125833407, 3576457.722399762831628 ], [ 685643.469338631723076, 3576476.857608045451343 ], [ 685465.99666577600874, 3575517.318109042011201 ] ] ], [ [ [ 675241.662096478976309, 3582028.839840370230377 ], [ 677326.64362632879056, 3582065.346265458501875 ], [ 676970.567955717677251, 3580146.238756643608212 ], [ 678013.136316370917484, 3580164.606237470172346 ], [ 678369.138660602504387, 3582083.761562461033463 ], [ 679411.63656343834009, 3582102.284918808378279 ], [ 679233.650629010051489, 3581142.66239696694538 ], [ 681318.728438943973742, 3581179.985321405809373 ], [ 681140.858660240424797, 3580220.356701746117324 ], [ 680098.281651865923777, 3580201.665207726415247 ], [ 679920.418059053015895, 3579242.102414499036968 ], [ 678877.807307650218718, 3579223.542868225835264 ], [ 678699.949926211964339, 3578264.045819562859833 ], [ 679742.597307938151062, 3578282.581440961919725 ], [ 679387.08434178144671, 3576363.664869473315775 ], [ 678344.363735533202998, 3576345.177049316000193 ], [ 678166.634931773180142, 3575385.805286032147706 ], [ 677123.88060699950438, 3575367.449203561991453 ], [ 676946.158084379625507, 3574408.142992006149143 ], [ 675903.370033517712727, 3574389.918571571353823 ], [ 675370.350070592481643, 3571512.321264734957367 ], [ 674327.455173394060694, 3571494.275898832827806 ], [ 674149.831109795137309, 3570535.183743399567902 ], [ 672063.97667634638492, 3570499.463563638739288 ], [ 674733.940853296546265, 3584889.508754570968449 ], [ 677861.078647404210642, 3584944.321334335952997 ], [ 677682.890775351785123, 3583984.621109423693269 ], [ 676640.471970237325877, 3583966.266045769676566 ], [ 676462.290267599048093, 3583006.63161640195176 ], [ 675419.837604246102273, 3582988.408556113950908 ], [ 675241.662096478976309, 3582028.839840370230377 ] ] ], [ [ [ 685157.834238949581049, 3585076.002464025747031 ], [ 685513.82449243706651, 3586995.865674281958491 ], [ 688640.829443698050454, 3587054.068094821181148 ], [ 688107.238588460721076, 3584174.118414235766977 ], [ 687064.790484797907993, 3584154.682103068567812 ], [ 686886.975668166414835, 3583194.807185905054212 ], [ 685844.493887015851215, 3583175.503187734168023 ], [ 686200.23965308314655, 3585095.24667207384482 ], [ 685157.834238949581049, 3585076.002464025747031 ] ] ], [ [ [ 682030.63576759560965, 3585018.918785789515823 ], [ 681852.594708874472417, 3584059.122529986780137 ], [ 680810.164385077077895, 3584040.334995354525745 ], [ 681166.36273028969299, 3585959.921350777614862 ], [ 680124.008728620829061, 3585941.193877061828971 ], [ 679767.736966043477878, 3584021.655581922736019 ], [ 678725.312435044441372, 3584003.084287379402667 ], [ 679081.657617700635456, 3585922.574579488486052 ], [ 678039.309380817809142, 3585904.063455753494054 ], [ 678217.582972842501476, 3586863.847494605928659 ], [ 680302.208863007137552, 3586901.025938973296434 ], [ 680480.451829112600535, 3587860.899971710052341 ], [ 681522.732365136267617, 3587879.67557060206309 ], [ 681344.526137890759856, 3586919.77746716234833 ], [ 682386.846321575227194, 3586938.637202447280288 ], [ 682208.719639417366125, 3585978.757002956233919 ], [ 683251.079472712939605, 3585997.700835929717869 ], [ 683073.032312924275175, 3585037.838523246813565 ], [ 682030.63576759560965, 3585018.918785789515823 ] ] ], [ [ [ 682743.228105826303363, 3588858.523632258642465 ], [ 678574.258721705991775, 3588783.541408377233893 ], [ 678752.660873029846698, 3589743.451325208880007 ], [ 676668.266951817204244, 3589706.561761118005961 ], [ 676846.785510395187885, 3590666.465640772599727 ], [ 675804.629584196023643, 3590648.159305820707232 ], [ 675983.227805719245225, 3591608.081182685215026 ], [ 678067.468902375898324, 3591644.850176376756281 ], [ 678246.036391468602233, 3592604.862093889154494 ], [ 679288.124401442008093, 3592623.433167161419988 ], [ 679466.697926510241814, 3593583.511214941740036 ], [ 680508.751989300828427, 3593602.214771097060293 ], [ 680330.215278280549683, 3592642.112612382508814 ], [ 681372.309038627892733, 3592660.900431861169636 ], [ 681193.851955420686863, 3591700.816230338532478 ], [ 682235.985415201750584, 3591719.688274456653744 ], [ 682057.607937064836733, 3590759.622012997977436 ], [ 683099.781098178005777, 3590778.578243072610348 ], [ 682921.483202375937253, 3589818.529904544353485 ], [ 683963.696066744276322, 3589837.570281896740198 ], [ 683785.477730552083813, 3588877.539849156048149 ], [ 684827.730300118681043, 3588896.664335110690445 ], [ 684649.591500819311477, 3587936.651791011914611 ], [ 682565.015811301302165, 3587898.559405222535133 ], [ 682743.228105826303363, 3588858.523632258642465 ] ] ], [ [ [ 687117.897491904674098, 3595637.334120919462293 ], [ 689201.902415768941864, 3595676.464792705141008 ], [ 688667.047497412888333, 3592795.449844352900982 ], [ 687624.933086473611183, 3592775.903339243028313 ], [ 687803.212136191315949, 3593736.175076488405466 ], [ 686761.137530121486634, 3593716.712650735396892 ], [ 686582.821675547747873, 3592756.465224941261113 ], [ 684498.607787168119103, 3592717.914159155916423 ], [ 684141.957190098939463, 3590797.64279713248834 ], [ 683099.781098178005777, 3590778.578243072610348 ], [ 683456.505276427720673, 3592698.801202904433012 ], [ 682414.405699128867127, 3592679.796627922914922 ], [ 682771.374673240818083, 3594600.139694980811328 ], [ 681729.351647587027401, 3594581.195146223064512 ], [ 682086.565494753420353, 3596501.658415907528251 ], [ 687296.341593520133756, 3596597.708207459654659 ], [ 687117.897491904674098, 3595637.334120919462293 ] ] ], [ [ [ 677561.288406858919188, 3594506.501266597304493 ], [ 678603.299921008991078, 3594525.012093823868781 ], [ 678424.646731935092248, 3593564.916059368755668 ], [ 676340.552880888339132, 3593528.050940786022693 ], [ 677055.717482457170263, 3597368.495062383357435 ], [ 679139.516552188317291, 3597405.552821284625679 ], [ 679318.341107992688194, 3598365.8173419367522 ], [ 678276.477030156762339, 3598347.210072146728635 ], [ 679529.706617584452033, 3605070.074372115079314 ], [ 680571.312215728219599, 3605088.851044228766114 ], [ 679676.118721059290692, 3600286.472926837392151 ], [ 680717.911869146977551, 3600305.237114433664829 ], [ 680539.038546727737412, 3599344.864028033800423 ], [ 681580.871471171500161, 3599363.71259172167629 ], [ 681044.619057816918939, 3596482.773940480779856 ], [ 680002.675509736873209, 3596463.997953866608441 ], [ 679823.973483430454507, 3595503.79358726600185 ], [ 678781.995955923455767, 3595485.150218275375664 ], [ 678960.73483390675392, 3596445.3304537483491 ], [ 677918.797013719798997, 3596426.77143781632185 ], [ 677561.288406858919188, 3594506.501266597304493 ] ] ], [ [ [ 682622.707288451725617, 3599382.669730158057064 ], [ 681580.871471171500161, 3599363.71259172167629 ], [ 681759.707894822931848, 3600324.109903092030436 ], [ 680717.911869146977551, 3600305.237114433664829 ], [ 680896.828008637530729, 3601265.652433482930064 ], [ 682980.349133695242926, 3601303.555125416722149 ], [ 682801.506814655964263, 3600343.091295144986361 ], [ 683843.308645215933211, 3600362.18129293853417 ], [ 683485.826168585335836, 3598441.331858919933438 ], [ 682443.95055787358433, 3598422.29040934657678 ], [ 682622.707288451725617, 3599382.669730158057064 ] ] ], [ [ [ 681792.050864544115029, 3606068.363257322460413 ], [ 684916.782722584553994, 3606125.745029686950147 ], [ 684379.853208502521738, 3603243.772608806379139 ], [ 683338.162139100255445, 3603224.609666268806905 ], [ 683517.132819870486856, 3604185.200419110711664 ], [ 681433.833301659440622, 3604147.151997566688806 ], [ 681792.050864544115029, 3606068.363257322460413 ] ] ], [ [ [ 689699.427780748461373, 3513512.495177001692355 ], [ 689525.321231521782465, 3512555.324032431468368 ], [ 690570.532737053115852, 3512574.579565958119929 ], [ 690396.504731350229122, 3511617.425699532032013 ], [ 689351.257462460780516, 3511598.193602500949055 ], [ 689177.23647623276338, 3510641.103866934310645 ], [ 690222.519496614579111, 3510660.312543225474656 ], [ 690048.577035515918396, 3509703.240076770074666 ], [ 687957.942672748933546, 3509664.975473807659 ], [ 688306.013353569782339, 3511579.067502269055694 ], [ 687260.772387252189219, 3511560.047396446112543 ], [ 687434.907687144703232, 3512517.131039126776159 ], [ 686389.705613465281203, 3512498.193574571982026 ], [ 686215.534546082373708, 3511541.133282650262117 ], [ 685170.299812632612884, 3511522.325158518273383 ], [ 685344.506648903014138, 3512479.362128253560513 ], [ 684299.310776039259508, 3512460.636697817593813 ], [ 684473.596222074353136, 3513417.691009786911309 ], [ 685518.756312789861113, 3513436.4397495938465 ], [ 686041.762243574834429, 3516307.916725903749466 ], [ 687086.81801396899391, 3516326.841618597507477 ], [ 686912.4756995216012, 3515369.618535585235804 ], [ 687957.570399545948021, 3515388.626146991737187 ], [ 688306.226191759109497, 3517303.159904953092337 ], [ 689351.252383422572166, 3517322.320523308124393 ], [ 689525.60862936405465, 3518279.672043002210557 ], [ 690570.602135847089812, 3518298.96232983097434 ], [ 689873.57710747141391, 3514469.707056498620659 ], [ 690918.717050674604252, 3514489.009510308504105 ], [ 690744.603511052322574, 3513531.774162786081433 ], [ 689699.427780748461373, 3513512.495177001692355 ] ] ], [ [ [ 688480.618275039596483, 3518260.487950660288334 ], [ 688306.226191759109497, 3517303.159904953092337 ], [ 687261.203133522882126, 3517284.10545010259375 ], [ 687435.631055512814783, 3518241.410050407983363 ], [ 688480.618275039596483, 3518260.487950660288334 ] ] ], [ [ [ 693715.679571027634665, 3535538.715530538000166 ], [ 694760.029187396750785, 3535558.538283098023385 ], [ 694409.964488289551809, 3533642.305447729304433 ], [ 693365.542785562109202, 3533622.530312318354845 ], [ 693190.538472875603475, 3532664.4994584210217 ], [ 692146.083934355876409, 3532644.854733628220856 ], [ 691446.349960300722159, 3528813.237406778614968 ], [ 690401.754601791035384, 3528793.794056577142328 ], [ 690226.891999299870804, 3527836.016036692541093 ], [ 689182.263820891152136, 3527816.702812597155571 ], [ 689007.408021757379174, 3526858.989405086264014 ], [ 686918.089121492230333, 3526820.729502787813544 ], [ 687267.987355348421261, 3528736.103035950101912 ], [ 688312.573316576890647, 3528755.226873569190502 ], [ 688662.570746416691691, 3530670.811505250632763 ], [ 687618.05676552047953, 3530651.640495409723371 ], [ 687968.297330485074781, 3532567.342044641263783 ], [ 684834.990023001329973, 3532510.326981112360954 ], [ 685010.282585632288828, 3533468.1685870308429 ], [ 690232.29675318300724, 3533563.844823345541954 ], [ 690407.451906288624741, 3534521.84561035130173 ], [ 689363.078905859729275, 3534502.47339212987572 ], [ 689713.589592262753285, 3536418.550974870566279 ], [ 690757.890471921069548, 3536437.970613176934421 ], [ 690933.173879029927775, 3537396.094870015978813 ], [ 691977.441824835841544, 3537415.645003851503134 ], [ 691802.194494700524956, 3536457.496984492987394 ], [ 692846.501677787746303, 3536477.130091251339763 ], [ 693372.263604529784061, 3539351.769231749232858 ], [ 694416.465706189163029, 3539371.580583414062858 ], [ 694241.205108676687814, 3538413.302441789768636 ], [ 695285.446505873929709, 3538433.196739438455552 ], [ 695110.264700706931762, 3537474.935999497771263 ], [ 694065.987218496156856, 3537455.065566134639084 ], [ 693715.679571027634665, 3535538.715530538000166 ] ] ], [ [ [ 679963.860383706516586, 3534332.92344480426982 ], [ 680139.418896367889829, 3535290.729633853305131 ], [ 681183.728340149973519, 3535309.165321762207896 ], [ 681008.205894286744297, 3534351.33568795863539 ], [ 679963.860383706516586, 3534332.92344480426982 ] ] ], [ [ [ 689195.486840335419402, 3539273.5920379627496 ], [ 689370.970706643303856, 3540231.792414585594088 ], [ 691459.280564957298338, 3540270.714908570051193 ], [ 691283.868928263778798, 3539312.466997172683477 ], [ 690239.676319338032044, 3539292.976109363138676 ], [ 690064.271320930798538, 3538334.793202453292906 ], [ 687975.823267312371172, 3538296.179319345392287 ], [ 688151.300474096555263, 3539254.314780559390783 ], [ 689195.486840335419402, 3539273.5920379627496 ] ] ], [ [ [ 677709.604238123632967, 3539067.416454369667917 ], [ 677885.48546467802953, 3540025.357434581033885 ], [ 678929.605516532203183, 3540043.590120499953628 ], [ 678753.760420629754663, 3539085.625701740384102 ], [ 677709.604238123632967, 3539067.416454369667917 ] ] ], [ [ [ 693898.409980343072675, 3542226.779807702172548 ], [ 693547.603016871027648, 3540310.064792374148965 ], [ 691459.280564957298338, 3540270.714908570051193 ], [ 691634.734939410584047, 3541229.004079249687493 ], [ 692678.858457804075442, 3541248.64942245092243 ], [ 692854.319430544041097, 3542207.00371517566964 ], [ 693898.409980343072675, 3542226.779807702172548 ] ] ], [ [ [ 678061.409584201639518, 3540983.339466959703714 ], [ 678237.3765940166777, 3541941.362571995705366 ], [ 679281.424348796019331, 3541959.642182786483318 ], [ 679457.398079792154022, 3542917.729867306537926 ], [ 680501.412614972097799, 3542936.139869341161102 ], [ 680149.580346752773039, 3541019.958595477975905 ], [ 681193.670161160058342, 3541038.428433630615473 ], [ 681017.854465098469518, 3540080.3759520878084 ], [ 678929.605516532203183, 3540043.590120499953628 ], [ 679105.49349348153919, 3541001.595607350580394 ], [ 678061.409584201639518, 3540983.339466959703714 ] ] ], [ [ [ 682930.414733701851219, 3539159.530619853176177 ], [ 683281.858741961419582, 3541075.688669223338366 ], [ 682237.762953848112375, 3541057.005124107468873 ], [ 682589.45059432729613, 3542973.280597311910242 ], [ 681545.430114108952694, 3542954.656778574921191 ], [ 681721.374365613679402, 3543912.832683012355119 ], [ 682765.358671688009053, 3543931.480089796707034 ], [ 682941.309583534253761, 3544889.720780252479017 ], [ 683985.260704500833526, 3544908.498760050628334 ], [ 683809.345977358403616, 3543950.234436999075115 ], [ 684853.336299741873518, 3543969.095726955682039 ], [ 684150.250257399166003, 3540136.355883311480284 ], [ 685194.388221966102719, 3540155.229518696665764 ], [ 685018.759880345663987, 3539197.123868360649794 ], [ 682930.414733701851219, 3539159.530619853176177 ] ] ], [ [ [ 679633.414683785289526, 3543875.858681423123926 ], [ 679809.474158088094555, 3544834.028645653743297 ], [ 680853.416327435523272, 3544852.485725372098386 ], [ 680677.393042017938569, 3543894.292214324232191 ], [ 679633.414683785289526, 3543875.858681423123926 ] ] ], [ [ [ 681897.361463548615575, 3544871.049769467674196 ], [ 682073.391405215254053, 3545829.308058486320078 ], [ 683117.303327164845541, 3545848.002689230721444 ], [ 682941.309583534253761, 3544889.720780252479017 ], [ 681897.361463548615575, 3544871.049769467674196 ] ] ], [ [ [ 685733.157070525572635, 3548760.948358427733183 ], [ 685557.107311446452513, 3547802.495248915161937 ], [ 688688.662167430156842, 3547860.005707095842808 ], [ 688512.763857586774975, 3546901.522610841318965 ], [ 683293.339899879414588, 3546806.325837292242795 ], [ 683645.541521740029566, 3548723.095932962372899 ], [ 685733.157070525572635, 3548760.948358427733183 ] ] ], [ [ [ 684865.476583593175747, 3549700.43930406216532 ], [ 683821.706565471482463, 3549681.542921744752675 ], [ 683997.914427458541468, 3550640.031231959350407 ], [ 685041.648189121973701, 3550658.951342733111233 ], [ 684865.476583593175747, 3549700.43930406216532 ] ] ], [ [ [ 692347.870211518835276, 3550794.392254804261029 ], [ 692523.830779060255736, 3551753.112663876265287 ], [ 693567.552970561431721, 3551772.913958830758929 ], [ 693391.628660862101242, 3550814.169576366432011 ], [ 692347.870211518835276, 3550794.392254804261029 ] ] ], [ [ [ 690273.671001408714801, 3556488.217257246375084 ], [ 690449.996826771413907, 3557447.114884349517524 ], [ 691493.491806279169396, 3557466.738282907288522 ], [ 691317.202314641559497, 3556507.816672111861408 ], [ 692360.736747224349529, 3556527.523413666058332 ], [ 692536.9899064298952, 3557486.469036780297756 ], [ 693580.491144209285267, 3557506.307148423045874 ], [ 693404.274316153489053, 3556547.337484356481582 ], [ 694447.815038421191275, 3556567.258886647876352 ], [ 693743.519985217018984, 3552731.699848060961813 ], [ 692699.83406355464831, 3552711.874563696794212 ], [ 692523.830779060255736, 3551753.112663876265287 ], [ 691480.111734485952184, 3551733.418557368218899 ], [ 691832.233571936842054, 3553650.935930863488466 ], [ 690788.590214093448594, 3553631.301130021456629 ], [ 691140.955550234531984, 3555548.936623508110642 ], [ 689053.823381380876526, 3555509.893024693243206 ], [ 689230.142790531506762, 3556468.725166630465537 ], [ 690273.671001408714801, 3556488.217257246375084 ] ] ], [ [ [ 693066.005647849524394, 3560363.555582907050848 ], [ 693595.40572707389947, 3563241.017080121673644 ], [ 694638.688725523767062, 3563260.999774819239974 ], [ 694462.215736138867214, 3562301.780109190382063 ], [ 695505.538298817817122, 3562321.846169950440526 ], [ 695329.144386079860851, 3561362.644073266070336 ], [ 694285.78543340228498, 3561342.60216243006289 ], [ 694109.397820077603683, 3560383.465913750696927 ], [ 693066.005647849524394, 3560363.555582907050848 ] ] ], [ [ [ 692942.721681178547442, 3576613.825575433205813 ], [ 692411.199952242546715, 3573734.8254803433083 ], [ 690325.464579737395979, 3573695.297504694666713 ], [ 690148.30298649740871, 3572735.763014893513173 ], [ 691191.205669041723013, 3572755.448913832195103 ], [ 690837.083718799636699, 3570836.457172897644341 ], [ 689794.107988144969568, 3570816.819568475242704 ], [ 689440.083925747894682, 3568898.043360562063754 ], [ 687353.995653027668595, 3568859.187676761765033 ], [ 688239.741506684804335, 3573656.200858548283577 ], [ 689282.601514193345793, 3573675.69526665052399 ], [ 689637.125997951021418, 3575594.841549696866423 ], [ 687551.55527789122425, 3575555.864064579829574 ], [ 687728.95478249702137, 3576515.451745733153075 ], [ 689814.452339506940916, 3576554.477527555078268 ], [ 690524.184972140239552, 3580393.44083579769358 ], [ 692609.401903562131338, 3580433.092249840963632 ], [ 692431.977915515657514, 3579473.239930655341595 ], [ 693474.627648985013366, 3579493.203376145102084 ], [ 693297.282971155247651, 3578533.368773724883795 ], [ 694339.972432703129016, 3578553.415902589447796 ], [ 693985.484330578590743, 3576633.824101228732616 ], [ 692942.721681178547442, 3576613.825575433205813 ] ] ], [ [ [ 697802.541542915161699, 3574795.278892387636006 ], [ 698333.642759699141607, 3577674.769845295697451 ], [ 699376.384640747215599, 3577695.332461431156844 ], [ 699199.344849858200178, 3576735.435665844939649 ], [ 700242.126525761326775, 3576756.081783533561975 ], [ 700065.165924069704488, 3575796.202603083569556 ], [ 699022.347679680096917, 3575775.5809346283786 ], [ 698845.393133018864319, 3574815.768246819730848 ], [ 697802.541542915161699, 3574795.278892387636006 ] ] ], [ [ [ 694694.631237020832486, 3580473.175805382430553 ], [ 694872.024645511992276, 3581433.118847231846303 ], [ 693829.445056371274404, 3581412.998692318797112 ], [ 694361.991254814085551, 3584293.007259578444064 ], [ 695404.460862707230262, 3584313.200586428400129 ], [ 695226.939461158937775, 3583353.131216754205525 ], [ 696269.448879279545508, 3583373.408263066317886 ], [ 696092.006798470742069, 3582413.356604360975325 ], [ 697134.556029015337117, 3582433.717331536579877 ], [ 696779.873106613522395, 3580513.691522293258458 ], [ 694694.631237020832486, 3580473.175805382430553 ] ] ], [ [ [ 690014.439101563184522, 3583253.367830351926386 ], [ 691056.932998462114483, 3583273.104269871488214 ], [ 691234.601097488077357, 3584233.076184048317373 ], [ 692277.061388929723762, 3584252.945060869678855 ], [ 692099.429966136929579, 3583292.948825807776302 ], [ 693141.930021321284585, 3583312.901500617619604 ], [ 692786.868585740914568, 3581392.986603913363069 ], [ 689659.157717380672693, 3581333.598713013343513 ], [ 690014.439101563184522, 3583253.367830351926386 ] ] ], [ [ [ 686709.203609805554152, 3582234.974269275553524 ], [ 686886.975668166414835, 3583194.807185905054212 ], [ 687929.460453150561079, 3583214.219290792476386 ], [ 687751.725064031197689, 3582254.362184095662087 ], [ 686709.203609805554152, 3582234.974269275553524 ] ] ], [ [ [ 699751.788184747099876, 3585355.264969029929489 ], [ 699219.664016770781018, 3582474.763096508104354 ], [ 697134.556029015337117, 3582433.717331536579877 ], [ 697489.409512016689405, 3584353.911707623396069 ], [ 698531.888586881803349, 3584374.429507012479007 ], [ 698709.342600582516752, 3585334.614469282794744 ], [ 699751.788184747099876, 3585355.264969029929489 ] ] ], [ [ [ 692277.061388929723762, 3584252.945060869678855 ], [ 692454.73550676740706, 3585212.983398541808128 ], [ 694539.591999723110348, 3585253.09435745049268 ], [ 694361.991254814085551, 3584293.007259578444064 ], [ 692277.061388929723762, 3584252.945060869678855 ] ] ], [ [ [ 693699.64955753122922, 3591934.432401364203542 ], [ 693521.67665286292322, 3590974.098756595049053 ], [ 692479.47343391366303, 3590954.059178919531405 ], [ 692301.506443680496886, 3589993.792218636255711 ], [ 693343.746423602919094, 3590013.807361716404557 ], [ 692988.014002553536557, 3588093.351237355731428 ], [ 694030.330561800161377, 3588113.425822206772864 ], [ 693674.84231078485027, 3586193.089631954673678 ], [ 692632.452316851355135, 3586173.063859832473099 ], [ 692454.73550676740706, 3585212.983398541808128 ], [ 690369.891373829217628, 3585173.305144409649074 ], [ 690903.390148543054238, 3588053.526851714588702 ], [ 689861.082820404088125, 3588033.777045993600041 ], [ 690217.035705725545995, 3589954.086881108116359 ], [ 691259.269543278147466, 3589973.885392588563263 ], [ 691615.319747810484841, 3591894.412718645296991 ], [ 693699.64955753122922, 3591934.432401364203542 ] ] ], [ [ [ 696648.304960847948678, 3591034.867588663008064 ], [ 696292.707695359364152, 3589114.180124916136265 ], [ 695250.421631672885269, 3589093.864520165137947 ], [ 695428.235688681947067, 3590054.162608890794218 ], [ 694385.989499713759869, 3590033.930824304465204 ], [ 694563.882969229016453, 3590994.246682446915656 ], [ 696648.304960847948678, 3591034.867588663008064 ] ] ], [ [ [ 698580.076004070811905, 3595857.922821034211665 ], [ 698224.12601215869654, 3593936.762808319646865 ], [ 695097.819346213364042, 3593875.447938219644129 ], [ 695453.990209696698003, 3595796.46038756147027 ], [ 696496.015665547340177, 3595816.839367978740484 ], [ 696674.12824112852104, 3596777.433729333337396 ], [ 694590.154113422962837, 3596736.735111881047487 ], [ 694768.38301136449445, 3597697.322699127718806 ], [ 693726.437458783853799, 3597677.111623351462185 ], [ 693548.171714955242351, 3596716.548584728036076 ], [ 690422.242981853662059, 3596656.640099657233804 ], [ 690779.03826373280026, 3598577.661561683751643 ], [ 691820.937736386433244, 3598597.571484645362943 ], [ 691999.362557003856637, 3599558.170230699703097 ], [ 696166.843704104656354, 3599638.993916114792228 ], [ 695988.566366649465635, 3598678.296902362257242 ], [ 698072.399357752292417, 3598719.31108171492815 ], [ 697716.12000357254874, 3596797.945824665017426 ], [ 699800.113008653046563, 3596839.295601219404489 ], [ 699622.110919966362417, 3595878.627298753708601 ], [ 698580.076004070811905, 3595857.922821034211665 ] ] ], [ [ [ 704323.974626963259652, 3598844.959745734464377 ], [ 703282.037371205864474, 3598823.746815235819668 ], [ 703104.06063929758966, 3597862.919278089422733 ], [ 701020.122132135089487, 3597820.868768873158842 ], [ 701198.17256250535138, 3598781.646745818667114 ], [ 700156.244976396788843, 3598760.759601696860045 ], [ 700334.374849758925848, 3599721.55534208053723 ], [ 699292.487317970837466, 3599700.752063542604446 ], [ 699470.69665696285665, 3600661.565584592986852 ], [ 700512.547312315437011, 3600682.393604158889502 ], [ 700869.019993600086309, 3602604.197778270579875 ], [ 701910.800054217339493, 3602625.184033988974988 ], [ 702089.063355416525155, 3603586.174807254225016 ], [ 701047.320206614909694, 3603565.163732761051506 ], [ 701225.662997400620952, 3604526.172293866518885 ], [ 703309.078660460654646, 3604568.352878191974014 ], [ 702952.58332602889277, 3602646.278997362591326 ], [ 703994.369825580506586, 3602667.482670998200774 ], [ 703638.118498769705184, 3600745.529559219721705 ], [ 704679.982022931217216, 3600766.792185030411929 ], [ 704323.974626963259652, 3598844.959745734464377 ] ] ], [ [ [ 685705.805236824555323, 3491507.823837262578309 ], [ 686225.428058989346027, 3494376.78500198200345 ], [ 687271.317042396520264, 3494395.597930285613984 ], [ 687444.574764016550034, 3495352.022107867989689 ], [ 688490.431351054692641, 3495370.963703503832221 ], [ 688317.209178296732716, 3494414.516343514900655 ], [ 689363.104484278708696, 3494433.540244038682431 ], [ 689016.859621538897045, 3492520.720216225832701 ], [ 687970.893256064271554, 3492501.742690708953887 ], [ 687797.799511856748722, 3491545.416357710957527 ], [ 685705.805236824555323, 3491507.823837262578309 ] ] ], [ [ [ 694592.629181023919955, 3494530.242140015587211 ], [ 694765.638089668937027, 3495486.829194349702448 ], [ 696857.399697355227545, 3495526.295241673011333 ], [ 696684.461865894962102, 3494569.66139395814389 ], [ 694592.629181023919955, 3494530.242140015587211 ] ] ], [ [ [ 691281.831913752248511, 3493515.427847292274237 ], [ 690235.894681964884512, 3493496.216217464301735 ], [ 690409.002977930940688, 3494452.669634241610765 ], [ 689363.104484278708696, 3494433.540244038682431 ], [ 689709.520527297165245, 3496346.521784136071801 ], [ 690755.347916984464973, 3496365.697669063229114 ], [ 690928.58455478225369, 3497322.272327352780849 ], [ 689882.792734808521345, 3497303.073171578347683 ], [ 690229.465508614201099, 3499216.297281910199672 ], [ 691275.186153683578596, 3499235.543026384431869 ], [ 691448.551109485328197, 3500192.239107435103506 ], [ 694585.625580261228606, 3500250.680285198614001 ], [ 694239.152018016669899, 3498337.18841444933787 ], [ 693193.386094623827375, 3498317.649145811330527 ], [ 692500.809598604333587, 3494491.244893295224756 ], [ 691454.904676843434572, 3494471.904516524169594 ], [ 691281.831913752248511, 3493515.427847292274237 ] ] ], [ [ [ 694932.270069873193279, 3502164.334402516018599 ], [ 695105.65640577476006, 3503121.222354140598327 ], [ 694060.068547228584066, 3503101.565989051479846 ], [ 694407.040696758776903, 3505015.416830827016383 ], [ 696498.077068846323527, 3505054.929271742235869 ], [ 696324.640946984989569, 3504097.936544672120363 ], [ 697370.199717391631566, 3504117.827948960941285 ], [ 696850.254520373768173, 3501247.023112492635846 ], [ 695804.588847942184657, 3501227.202231777366251 ], [ 695977.896833858801983, 3502184.073044918477535 ], [ 694932.270069873193279, 3502164.334402516018599 ] ] ], [ [ [ 701373.789995618513785, 3508963.979807897936553 ], [ 701200.325876405229792, 3508006.729664999060333 ], [ 702245.755296056508087, 3508027.138953995425254 ], [ 702072.369516097358428, 3507069.905912440270185 ], [ 699981.442663177265786, 3507029.240619699470699 ], [ 700154.899820782011375, 3507986.426288104150444 ], [ 698064.05773178266827, 3507946.137260471936315 ], [ 698584.899462406057864, 3510817.797100584954023 ], [ 697539.590545366634615, 3510797.740590922068805 ], [ 697713.325557285454124, 3511755.018492862582207 ], [ 699803.875226482981816, 3511795.284830060787499 ], [ 699456.590830219327472, 3509880.675202736631036 ], [ 701547.296763200080022, 3509921.270773328375071 ], [ 701720.846176448161714, 3510878.602581608574837 ], [ 703811.494129236089066, 3510919.669554375112057 ], [ 703464.58081752457656, 3509004.951762408018112 ], [ 701373.789995618513785, 3508963.979807897936553 ] ] ], [ [ [ 702413.946368179866113, 3526160.076918877195567 ], [ 701369.207397403079085, 3526139.53367396723479 ], [ 701543.589158543385565, 3527097.491050478536636 ], [ 702588.292199098854326, 3527118.058226511348039 ], [ 702413.946368179866113, 3526160.076918877195567 ] ] ], [ [ [ 702937.111719912732951, 3529034.144398192409426 ], [ 702762.68065058812499, 3528076.080712780356407 ], [ 701718.01355219935067, 3528055.489589757286012 ], [ 701543.589158543385565, 3527097.491050478536636 ], [ 700498.8894550553523, 3527077.030351214576513 ], [ 700847.852770913392305, 3528993.020760435145348 ], [ 702937.111719912732951, 3529034.144398192409426 ] ] ], [ [ [ 701022.398388703819364, 3529951.077736631035805 ], [ 700847.852770913392305, 3528993.020760435145348 ], [ 699803.228288477752358, 3528972.618740032427013 ], [ 699977.809874816099182, 3529930.651794736273587 ], [ 701022.398388703819364, 3529951.077736631035805 ] ] ], [ [ [ 697888.642748646670952, 3529890.119581037200987 ], [ 696844.064101864816621, 3529870.013304176740348 ], [ 696320.123666240368038, 3526996.252270959317684 ], [ 694230.760345025220886, 3526956.502025670837611 ], [ 694580.155106575344689, 3528872.20652132993564 ], [ 692490.948485760716721, 3528832.787266009487212 ], [ 692840.658021171577275, 3530748.561158549971879 ], [ 693885.187763868481852, 3530768.264987481292337 ], [ 694234.996200865600258, 3532684.250809113029391 ], [ 695279.457135548698716, 3532704.108788168523461 ], [ 695104.5675718577113, 3531746.07151081552729 ], [ 697193.571150374016725, 3531786.059683211613446 ], [ 697018.796285457676277, 3530828.015911010559648 ], [ 698063.338947959593497, 3530848.146039380691946 ], [ 697888.642748646670952, 3529890.119581037200987 ] ], [ [ 693710.34761972387787, 3529810.333763476926833 ], [ 694754.916554654366337, 3529830.120397884398699 ], [ 694929.720710653811693, 3530788.075387552380562 ], [ 693885.187763868481852, 3530768.264987481292337 ], [ 693710.34761972387787, 3529810.333763476926833 ] ] ], [ [ [ 701895.765966893173754, 3534741.981154254637659 ], [ 701546.291048722690903, 3532825.495997737627476 ], [ 699457.333285687724128, 3532784.607037746813148 ], [ 699632.121466094395146, 3533742.781029217410833 ], [ 700676.562674986082129, 3533763.196143941953778 ], [ 700851.357475056080148, 3534721.435366495978087 ], [ 701895.765966893173754, 3534741.981154254637659 ] ] ], [ [ [ 695454.389399009523913, 3533662.187240117229521 ], [ 695629.3643595171161, 3534620.306887174956501 ], [ 699806.952295734430663, 3534700.996279419865459 ], [ 699632.121466094395146, 3533742.781029217410833 ], [ 695454.389399009523913, 3533662.187240117229521 ] ] ], [ [ [ 694760.029187396750785, 3535558.538283098023385 ], [ 694935.125593638396822, 3536516.716520901303738 ], [ 697023.762356970924884, 3536556.729921865742654 ], [ 696848.738069073762745, 3535598.503933324944228 ], [ 694760.029187396750785, 3535558.538283098023385 ] ] ], [ [ [ 702245.411375326686539, 3536658.631555241532624 ], [ 702420.298006526427343, 3537617.018773852847517 ], [ 704508.908693959820084, 3537658.574916361365467 ], [ 704334.094187579932623, 3536700.139514330774546 ], [ 702245.411375326686539, 3536658.631555241532624 ] ] ], [ [ [ 706597.532852378557436, 3537700.558236220385879 ], [ 706422.790466002188623, 3536742.0745361992158 ], [ 705378.440634927945212, 3536721.05364111578092 ], [ 705553.219080707756802, 3537679.513177818153054 ], [ 704508.908693959820084, 3537658.574916361365467 ], [ 704858.665475035668351, 3539575.56995527073741 ], [ 705902.903704625787213, 3539596.556533900555223 ], [ 705728.04010486160405, 3538638.014135205652565 ], [ 706772.31780513888225, 3538659.083372867666185 ], [ 707122.01539875078015, 3540576.25803857203573 ], [ 708166.22432590124663, 3540597.482568126637489 ], [ 707991.390342872473411, 3539638.850256510544568 ], [ 709035.63878584059421, 3539660.157405760139227 ], [ 708860.883432697854005, 3538701.542335484176874 ], [ 707816.598908695741557, 3538680.259438747074455 ], [ 707641.850026145111769, 3537721.710094189736992 ], [ 706597.532852378557436, 3537700.558236220385879 ] ] ], [ [ [ 706794.853762751678005, 3555855.445493678562343 ], [ 707838.473326882813126, 3555876.738010994624346 ], [ 707662.850077693583444, 3554917.512383083812892 ], [ 708706.509320818120614, 3554938.887800591997802 ], [ 708355.462987970910035, 3553020.513027273584157 ], [ 707311.731203162693419, 3552999.186438857577741 ], [ 706960.78251239832025, 3551081.027438164688647 ], [ 704873.184091608971357, 3551038.793375003151596 ], [ 705048.709647600189783, 3551997.803354896605015 ], [ 704004.951715301023796, 3551976.822821509558707 ], [ 704531.892613876610994, 3554854.029980883467942 ], [ 706619.194223501021042, 3554896.244275724049658 ], [ 706794.853762751678005, 3555855.445493678562343 ] ], [ [ 707487.269368855049834, 3553958.328532638493925 ], [ 705399.888475198531523, 3553915.948384562972933 ], [ 705224.277776391711086, 3552956.855017828755081 ], [ 707311.731203162693419, 3552999.186438857577741 ], [ 707487.269368855049834, 3553958.328532638493925 ] ] ], [ [ [ 701400.965191201656125, 3554791.513299047481269 ], [ 700873.697856383048929, 3551914.52450863737613 ], [ 699829.953159278491512, 3551893.972824831493199 ], [ 700005.702581431833096, 3552852.903251850511879 ], [ 698961.997412836062722, 3552832.434612783137709 ], [ 699137.825739458552562, 3553791.382486163638532 ], [ 694963.182508428115398, 3553710.483802719973028 ], [ 695315.257440632442012, 3555628.311417521443218 ], [ 697402.427434230805375, 3555668.642652194015682 ], [ 697754.527811300940812, 3557586.733222205191851 ], [ 698798.044991988688707, 3557607.10815995093435 ], [ 698270.067350400262512, 3554729.962267603259534 ], [ 700357.32931340765208, 3554770.888997502159327 ], [ 700533.206617685733363, 3555729.944357627537102 ], [ 704707.624736735248007, 3555813.182464923709631 ], [ 704531.892613876610994, 3554854.029980883467942 ], [ 701400.965191201656125, 3554791.513299047481269 ] ] ], [ [ [ 697415.871838263818063, 3561403.050329274497926 ], [ 697592.192974745412357, 3562362.300811743829399 ], [ 698635.525121869635768, 3562382.689397803042084 ], [ 698459.240371664054692, 3561423.414679468143731 ], [ 699502.612132532172836, 3561443.886514490004629 ], [ 699326.406396606587805, 3560484.629310133401304 ], [ 695152.793150722398423, 3560403.483690741471946 ], [ 695329.144386079860851, 3561362.644073266070336 ], [ 697415.871838263818063, 3561403.050329274497926 ] ] ], [ [ [ 706145.445104547310621, 3574962.214538949076086 ], [ 706498.884996495442465, 3576882.225338321644813 ], [ 707541.689634273643605, 3576903.627096557524055 ], [ 707188.322850951459259, 3574983.567013402469456 ], [ 706145.445104547310621, 3574962.214538949076086 ] ] ], [ [ [ 710157.458568386267871, 3579827.309477294795215 ], [ 709803.983006264315918, 3577906.897233526688069 ], [ 706675.66874787863344, 3577842.293994056992233 ], [ 706498.884996495442465, 3576882.225338321644813 ], [ 705456.083689375431277, 3576860.931536588352174 ], [ 705632.904014369472861, 3577820.975554829929024 ], [ 704590.142595859244466, 3577799.765098151285201 ], [ 704767.042052990291268, 3578759.826673907227814 ], [ 707895.22651311813388, 3578823.855955319013447 ], [ 708072.058731266763061, 3579784.033728120848536 ], [ 710157.458568386267871, 3579827.309477294795215 ] ] ], [ [ [ 708268.636161827715114, 3586484.813363988418132 ], [ 706183.769436086760834, 3586441.83979179058224 ], [ 706538.376657204702497, 3588362.766208149027079 ], [ 708623.09657676180359, 3588405.838954654987901 ], [ 708268.636161827715114, 3586484.813363988418132 ] ] ], [ [ [ 713480.861750142648816, 3586594.141602043062449 ], [ 713657.887246968224645, 3587554.757622196339071 ], [ 712615.472034992533736, 3587532.650528167374432 ], [ 713324.145312322652899, 3591375.439792921300977 ], [ 714366.413644543499686, 3591397.646823089569807 ], [ 714012.065569458995014, 3589476.117156228516251 ], [ 716096.759464407106861, 3589520.756247469224036 ], [ 715742.727966716047376, 3587599.296670126728714 ], [ 714700.3058853126131, 3587576.973001933190972 ], [ 714523.317076950916089, 3586616.332009728066623 ], [ 713480.861750142648816, 3586594.141602043062449 ] ] ], [ [ [ 705341.299653626861982, 3593122.937089974991977 ], [ 704986.120155728189275, 3591201.685645746532828 ], [ 701859.415310810902156, 3591138.316123438999057 ], [ 702037.094074046472088, 3592098.846407452598214 ], [ 703079.28900705371052, 3592119.885918574407697 ], [ 703256.97357123286929, 3593080.483329106587917 ], [ 705341.299653626861982, 3593122.937089974991977 ] ] ], [ [ [ 713501.419750262284651, 3592336.243454380426556 ], [ 711416.966814749408513, 3592292.104621456004679 ], [ 711771.790093683404848, 3594213.739682534709573 ], [ 712813.941320795100182, 3594235.804870652966201 ], [ 712636.545226586051285, 3593274.941055624280125 ], [ 713678.736629884457216, 3593297.089696345850825 ], [ 713501.419750262284651, 3592336.243454380426556 ] ] ], [ [ [ 718024.748794812941924, 3594347.758085240144283 ], [ 719066.92067368212156, 3594370.474202344659716 ], [ 718889.745218793977983, 3593409.459784450009465 ], [ 716805.331402209820226, 3593364.186361228581518 ], [ 716450.960617277538404, 3591442.386087944265455 ], [ 715408.685407310957089, 3591419.962253843434155 ], [ 715585.886345529695973, 3592380.81599355628714 ], [ 714543.651332104811445, 3592358.475509313400835 ], [ 714720.931449164403602, 3593319.34679234912619 ], [ 713678.736629884457216, 3593297.089696345850825 ], [ 714033.497702633379959, 3595218.910006673075259 ], [ 715075.618960225023329, 3595241.217233760282397 ], [ 715430.476154591306113, 3597163.258317246101797 ], [ 717514.581775605096482, 3597208.298885813914239 ], [ 717159.871796049410477, 3595286.157237174920738 ], [ 718202.003407512558624, 3595308.79001906234771 ], [ 718024.748794812941924, 3594347.758085240144283 ] ] ], [ [ [ 708822.942353245336562, 3595109.00150748109445 ], [ 709000.570551968296058, 3596069.850599026773125 ], [ 707958.506358967861161, 3596048.16948969848454 ], [ 708136.213866423116997, 3597009.036231017205864 ], [ 709178.241241763113067, 3597030.742274375166744 ], [ 709355.954419755958952, 3597991.676554757170379 ], [ 708313.963874259381555, 3597969.945561039727181 ], [ 708669.591379574034363, 3599891.892072140239179 ], [ 710753.428418418043293, 3599935.562601758632809 ], [ 710397.948303464101627, 3598013.516133754514158 ], [ 711439.94554197229445, 3598035.464300732593983 ], [ 711084.708962749456987, 3596113.538403926417232 ], [ 713168.860850621247664, 3596157.66034184768796 ], [ 712991.37986310152337, 3595196.711292315740138 ], [ 708822.942353245336562, 3595109.00150748109445 ] ] ], [ [ [ 716649.982637108187191, 3598146.834050762467086 ], [ 716827.48043570376467, 3599107.986528523266315 ], [ 717869.46131764864549, 3599130.611477344296873 ], [ 717692.000352769391611, 3598169.433803072664887 ], [ 716649.982637108187191, 3598146.834050762467086 ] ] ], [ [ [ 706077.952574077877216, 3602710.216159543022513 ], [ 703994.369825580506586, 3602667.482670998200774 ], [ 704172.55930653703399, 3603628.523167923558503 ], [ 706256.068239246844314, 3603671.306494961492717 ], [ 706077.952574077877216, 3602710.216159543022513 ] ] ], [ [ [ 700167.940893420018256, 3496543.030640820972621 ], [ 701213.801153937354684, 3496563.262128224596381 ], [ 700695.414077811874449, 3493693.07877555815503 ], [ 701741.38431619759649, 3493713.345175160560757 ], [ 701396.077269362285733, 3491800.0452612452209 ], [ 696165.904656006488949, 3491700.002696008421481 ], [ 696684.461865894962102, 3494569.66139395814389 ], [ 697730.383165719103999, 3494589.529279807116836 ], [ 698249.218141057994217, 3497459.622732151299715 ], [ 700340.857464602682739, 3497499.816022722050548 ], [ 700167.940893420018256, 3496543.030640820972621 ] ] ], [ [ [ 707143.82675140700303, 3494773.08847126038745 ], [ 705051.926443848060444, 3494731.558880468830466 ], [ 704879.315486360574141, 3493774.777328606229275 ], [ 703833.335002876352519, 3493754.194449123926461 ], [ 703660.731161772273481, 3492797.477098381146789 ], [ 702614.718605782138184, 3492777.023294551298022 ], [ 702787.357952020131052, 3493733.717065498698503 ], [ 701741.38431619759649, 3493713.345175160560757 ], [ 702432.510257898946293, 3497540.431713440921158 ], [ 704524.176661419565789, 3497581.469824667554349 ], [ 704351.4023080378538, 3496624.590044498443604 ], [ 705397.27620881376788, 3496645.243843149859458 ], [ 705224.580018895678222, 3495688.381045246962458 ], [ 707316.409275069832802, 3495729.958001297898591 ], [ 707143.82675140700303, 3494773.08847126038745 ] ] ], [ [ [ 699114.796913634636439, 3502243.923364870250225 ], [ 700160.436927881790325, 3502264.084944098256528 ], [ 699987.271422711783089, 3501307.119990797713399 ], [ 701032.950410250923596, 3501327.363703982904553 ], [ 700686.818610604852438, 3499413.50859219674021 ], [ 698595.321591406362131, 3499373.221152429934591 ], [ 699114.796913634636439, 3502243.923364870250225 ] ] ], [ [ [ 703297.377178784925491, 3502325.204134857282043 ], [ 703124.318520607776009, 3501368.168276169802994 ], [ 706261.39628717827145, 3501430.168037425726652 ], [ 705915.620440864353441, 3499516.076237806584686 ], [ 701732.572166459052823, 3499433.810796652920544 ], [ 702251.727042942424305, 3502304.725326546002179 ], [ 703297.377178784925491, 3502325.204134857282043 ] ] ], [ [ [ 710962.770986504619941, 3504386.044031606521457 ], [ 711135.708015917334706, 3505343.368911662138999 ], [ 712181.279028224642389, 3505364.765550344716758 ], [ 711489.928669010405429, 3501535.61555403098464 ], [ 709398.505195517558604, 3501493.119344462174922 ], [ 709744.237751871114597, 3503407.517050268594176 ], [ 708698.602518826723099, 3503386.379863053560257 ], [ 708871.568265513982624, 3504343.61610241420567 ], [ 710962.770986504619941, 3504386.044031606521457 ] ] ], [ [ [ 701206.080298479413614, 3502284.35226380918175 ], [ 700160.436927881790325, 3502264.084944098256528 ], [ 700853.525593879865482, 3506092.351765565574169 ], [ 701899.02637802134268, 3506112.713668547570705 ], [ 701552.468038308201358, 3504198.451492567081004 ], [ 702598.043515839497559, 3504218.871872699353844 ], [ 702424.863958995207213, 3503261.778233496937901 ], [ 701379.252842061920092, 3503241.381519922055304 ], [ 701206.080298479413614, 3502284.35226380918175 ] ] ], [ [ [ 710090.140538667095825, 3505322.078125324565917 ], [ 710263.15576168266125, 3506279.419977119192481 ], [ 711308.68758560041897, 3506300.734690411016345 ], [ 711135.708015917334706, 3505343.368911662138999 ], [ 710090.140538667095825, 3505322.078125324565917 ] ] ], [ [ [ 702944.53054111986421, 3506133.181428968440741 ], [ 703117.83800415857695, 3507090.397386606317014 ], [ 704163.309889912372455, 3507110.994749384466559 ], [ 703990.038100654492155, 3506153.755049391184002 ], [ 702944.53054111986421, 3506133.181428968440741 ] ] ], [ [ [ 715310.304900982999243, 3511153.117685708217323 ], [ 715483.432487517595291, 3512110.801520589273423 ], [ 718619.439138575340621, 3512176.76821415591985 ], [ 718446.418709195335396, 3511219.011885039042681 ], [ 715310.304900982999243, 3511153.117685708217323 ] ] ], [ [ [ 718093.523163354024291, 3515028.116461262106895 ], [ 718266.749139998108149, 3515986.013200694229454 ], [ 719311.94532380416058, 3516008.205095610115677 ], [ 719138.755112869199365, 3515050.28409957466647 ], [ 718093.523163354024291, 3515028.116461262106895 ] ] ], [ [ [ 719133.515724256867543, 3520776.115339166019112 ], [ 722268.578242389950901, 3520843.374569314997643 ], [ 721921.959190233494155, 3518927.063804654870182 ], [ 719831.77057636261452, 3518882.215473177377135 ], [ 720005.130524555454031, 3519840.30146386474371 ], [ 718960.077523169806227, 3519818.012384289409965 ], [ 719133.515724256867543, 3520776.115339166019112 ] ] ], [ [ [ 707117.858715927693993, 3534846.3106934344396 ], [ 707467.14369798777625, 3536763.202202200889587 ], [ 708511.500348067376763, 3536784.436641756910831 ], [ 708860.883432697854005, 3538701.542335484176874 ], [ 710949.462810695171356, 3538744.428632151335478 ], [ 710774.822131768334657, 3537785.806491938885301 ], [ 709730.494648666237481, 3537764.334219392389059 ], [ 709555.860433425870724, 3536805.777857513166964 ], [ 710600.223971245111898, 3536827.225852129980922 ], [ 710425.668331905035302, 3535868.686692081391811 ], [ 711470.07138093735557, 3535890.217177587095648 ], [ 711819.153085664031096, 3537807.385574677959085 ], [ 712863.487527527147904, 3537829.07147030159831 ], [ 713387.320646333973855, 3540705.208591749891639 ], [ 712343.094433802645653, 3540683.449594652745873 ], [ 712517.826549655059353, 3541642.220730478875339 ], [ 714606.210283407825045, 3541685.894453109242022 ], [ 713558.887953248573467, 3535933.59841798292473 ], [ 712514.477915655472316, 3535911.854418655391783 ], [ 712165.638303639483638, 3533994.803331012837589 ], [ 711121.159724060329609, 3533973.214680751785636 ], [ 710423.846642646822147, 3530139.706727992277592 ], [ 712513.095189523650333, 3530182.796633674297482 ], [ 713035.800338005647063, 3533058.011023129336536 ], [ 714080.321938164182939, 3533079.78874913463369 ], [ 714254.605981810251251, 3534038.300737050827593 ], [ 715299.095114821568131, 3534060.209498254116625 ], [ 715124.847072219359688, 3533101.673152838367969 ], [ 716169.375757390167564, 3533123.664236970711499 ], [ 715995.206175036728382, 3532165.144998194184154 ], [ 713906.080378832994029, 3532121.318222179543227 ], [ 713383.610634521930479, 3529246.155200924258679 ], [ 711294.283168795634992, 3529202.900621650740504 ], [ 711120.139688895549625, 3528244.6442023771815 ], [ 712164.837609078153037, 3528266.193991200067103 ], [ 711990.772582730511203, 3527307.954693367704749 ], [ 714080.250832650694065, 3527351.325373331084847 ], [ 713732.391968438168988, 3525434.873826029710472 ], [ 714777.208221351960674, 3525456.67039354564622 ], [ 714429.591107402928174, 3523540.335624639876187 ], [ 716519.377846217947081, 3523584.151011451613158 ], [ 716172.074126412975602, 3521667.884404742624611 ], [ 715127.10725003387779, 3521645.972033176571131 ], [ 714779.901737127103843, 3519729.918995002284646 ], [ 715824.940285403979942, 3519751.782908490393311 ], [ 715651.437076367205009, 3518793.794025493320078 ], [ 716696.515028783585876, 3518815.73999243741855 ], [ 716869.982420938904397, 3519773.753109368495643 ], [ 718960.077523169806227, 3519818.012384289409965 ], [ 718786.68176142743323, 3518859.950713517144322 ], [ 719831.77057636261452, 3518882.215473177377135 ], [ 719658.45305832347367, 3517924.170761914923787 ], [ 718613.328441804042086, 3517901.930306330788881 ], [ 718266.749139998108149, 3515986.013200694229454 ], [ 715131.182328281691298, 3515920.074591061100364 ], [ 714957.849047793657519, 3514962.25044951075688 ], [ 717048.294847596436739, 3515006.054975317791104 ], [ 716875.075569270527922, 3514048.223629639483988 ], [ 714784.55825633648783, 3514004.467442150227726 ], [ 714264.940843660850078, 3511131.365020791068673 ], [ 715310.304900982999243, 3511153.117685708217323 ], [ 714964.177194958901964, 3509237.873200268018991 ], [ 711827.881508997059427, 3509173.077622288838029 ], [ 711654.774334870278835, 3508215.589025364723057 ], [ 710609.31385333254002, 3508194.226410922594368 ], [ 710436.213534145965241, 3507236.802732204087079 ], [ 708345.231759199057706, 3507194.443138377275318 ], [ 708518.40343625319656, 3508151.818986078258604 ], [ 707472.95346579910256, 3508130.774170368444175 ], [ 707299.746108002145775, 3507173.422195238526911 ], [ 706254.263924366561696, 3507152.507151103112847 ], [ 705907.905630539287813, 3505237.97345032915473 ], [ 704862.355566301150247, 3505217.211886005941778 ], [ 704689.20467013574671, 3504260.030043892562389 ], [ 706780.37954004202038, 3504301.611446853727102 ], [ 706607.342528241686523, 3503344.422855339478701 ], [ 703470.478468575747684, 3503282.280721253249794 ], [ 703643.622387283830903, 3504239.398055617697537 ], [ 702598.043515839497559, 3504218.871872699353844 ], [ 702771.265710780397058, 3505176.006264429539442 ], [ 703816.808932210551575, 3505196.556158234830946 ], [ 703990.038100654492155, 3506153.755049391184002 ], [ 705035.549074100330472, 3506174.434532392304391 ], [ 705208.785190826049075, 3507131.698003352619708 ], [ 704163.309889912372455, 3507110.994749384466559 ], [ 704683.380955511471257, 3509982.958905534818769 ], [ 705728.749167469097301, 3510003.733566899318248 ], [ 705902.155692795291543, 3510961.160539419390261 ], [ 704856.82320095365867, 3510940.362044070381671 ], [ 705030.308053663000464, 3511897.806093093007803 ], [ 703985.014715199591592, 3511877.089782263617963 ], [ 704158.577917619375512, 3512834.550925220828503 ], [ 706249.096526817651466, 3512876.137283592950553 ], [ 706422.630830071866512, 3513833.687095986679196 ], [ 702241.75026314612478, 3513750.843266929965466 ], [ 702589.232832986977883, 3515665.874977742787451 ], [ 700498.955965955858119, 3515624.99447129946202 ], [ 700672.832790664862841, 3516582.524164200294763 ], [ 701717.933748034294695, 3516602.935133796185255 ], [ 701891.817413568613119, 3517560.529581871815026 ], [ 699801.690460086334497, 3517519.766233008820564 ], [ 699975.688405992579646, 3518477.354065275285393 ], [ 698930.665748820872977, 3518457.107918004970998 ], [ 698756.631978775025345, 3517499.543845710810274 ], [ 697711.576804592856206, 3517479.427646461874247 ], [ 697885.646400056080893, 3518436.967987394891679 ], [ 696840.630342339165509, 3518416.934270925354213 ], [ 697014.778457243926823, 3519374.491840433329344 ], [ 694924.827826627180912, 3519334.695688613690436 ], [ 695099.090336491935886, 3520292.246826905291528 ], [ 696144.028169871075079, 3520312.115461102686822 ], [ 696318.297525858972222, 3521269.73123284894973 ], [ 698408.111260595498607, 3521309.834774596616626 ], [ 698582.351563130738214, 3522267.539026472251862 ], [ 699627.227491100784391, 3522287.774040688760579 ], [ 700150.096717026666738, 3525161.20452960440889 ], [ 699105.328479826333933, 3525140.898036443628371 ], [ 699279.739446032326669, 3526098.766526023391634 ], [ 701369.207397403079085, 3526139.53367396723479 ], [ 701194.868271507904865, 3525181.617439737543464 ], [ 703284.4214014938334, 3525222.762521119788289 ], [ 703458.688692066003568, 3526180.726614496670663 ], [ 704503.43438634800259, 3526201.482763399370015 ], [ 704852.024931364925578, 3528117.582485306542367 ], [ 705896.702148287324235, 3528138.493139986880124 ], [ 706071.025362608022988, 3529096.628885793033987 ], [ 705026.384096139809117, 3529075.694182344246656 ], [ 705200.78585209895391, 3530033.847130801994354 ], [ 704156.183940575458109, 3530012.994933120440692 ], [ 704854.36079543014057, 3533845.923349026590586 ], [ 707987.744816829450428, 3533909.088908737525344 ], [ 708162.287444123649038, 3534867.496739560738206 ], [ 707117.858715927693993, 3534846.3106934344396 ] ], [ [ 707467.859531348221935, 3513854.663282061461359 ], [ 707641.400655265082605, 3514812.278007567860186 ], [ 706596.207720525097102, 3514791.277895765844733 ], [ 706422.630830071866512, 3513833.687095986679196 ], [ 707467.859531348221935, 3513854.663282061461359 ] ], [ [ 699104.742187786265276, 3519414.712953246664256 ], [ 699278.861292963614687, 3520372.358971834648401 ], [ 697188.969262181199156, 3520332.090361656621099 ], [ 697014.778457243926823, 3519374.491840433329344 ], [ 699104.742187786265276, 3519414.712953246664256 ] ], [ [ 707115.670037656789646, 3529117.670133633539081 ], [ 707289.99986998771783, 3530075.871240037027746 ], [ 706245.391156153520569, 3530054.805898903403431 ], [ 706071.025362608022988, 3529096.628885793033987 ], [ 707115.670037656789646, 3529117.670133633539081 ] ], [ [ 709204.969682523631491, 3529160.072273014113307 ], [ 708160.318138542934321, 3529138.817928493954241 ], [ 707986.066821532440372, 3528180.633999237325042 ], [ 706941.382772587239742, 3528159.510310423094779 ], [ 706592.935955237946473, 3526243.314431440085173 ], [ 707637.691864416585304, 3526264.389955800957978 ], [ 707811.858062572660856, 3527222.491348517127335 ], [ 708856.58148833818268, 3527243.697439537849277 ], [ 709204.969682523631491, 3529160.072273014113307 ] ], [ [ 702936.014665363472886, 3523306.957774446345866 ], [ 700846.317936364328489, 3523265.908316224813461 ], [ 700497.938174910028465, 3521350.363516252022237 ], [ 705722.564031282789074, 3521453.545753411948681 ], [ 706070.585052394424565, 3523369.329723780974746 ], [ 708160.315708083799109, 3523411.442894965410233 ], [ 708508.363489517359994, 3525327.487701592501253 ], [ 704329.203011588775553, 3525243.494697507936507 ], [ 703806.764511154498905, 3522369.777434170246124 ], [ 702761.875225269468501, 3522349.117080199532211 ], [ 702936.014665363472886, 3523306.957774446345866 ] ], [ [ 705548.617403178010136, 3520495.715457217302173 ], [ 707638.563241622876376, 3520537.684572459664196 ], [ 707812.438166024861857, 3521495.562855619937181 ], [ 705722.564031282789074, 3521453.545753411948681 ], [ 705548.617403178010136, 3520495.715457217302173 ] ], [ [ 710430.175164537969977, 3512960.582807421684265 ], [ 709384.900284161325544, 3512939.31231900351122 ], [ 709211.515795314917341, 3511981.731705262325704 ], [ 710256.826414785929956, 3512002.978213640861213 ], [ 710430.175164537969977, 3512960.582807421684265 ] ], [ [ 711128.87006394052878, 3511066.743192514404655 ], [ 712174.22344256809447, 3511088.177776894532144 ], [ 712001.031212474568747, 3510130.607199338264763 ], [ 713046.423844952369109, 3510152.123773479834199 ], [ 713392.779393668286502, 3512067.354034048039466 ], [ 711302.140542721375823, 3512024.330769448075444 ], [ 711128.87006394052878, 3511066.743192514404655 ] ] ], [ [ [ 706070.585052394424565, 3523369.329723780974746 ], [ 705025.724861162831075, 3523348.432702286634594 ], [ 705199.835138182039373, 3524306.362419339828193 ], [ 706244.659439926035702, 3524327.283438899088651 ], [ 706070.585052394424565, 3523369.329723780974746 ] ] ], [ [ [ 716519.377846217947081, 3523584.151011451613158 ], [ 716693.093403741950169, 3524542.346282558981329 ], [ 717737.956275397911668, 3524564.437890818342566 ], [ 717564.27659459086135, 3523606.218306518625468 ], [ 716519.377846217947081, 3523584.151011451613158 ] ] ], [ [ [ 714777.208221351960674, 3525456.67039354564622 ], [ 714951.08050354802981, 3526414.899759790394455 ], [ 715995.864412952214479, 3526436.827068782877177 ], [ 715822.028033657930791, 3525478.573414924088866 ], [ 714777.208221351960674, 3525456.67039354564622 ] ] ], [ [ [ 713736.755160331260413, 3542622.841276620514691 ], [ 713911.536139386007562, 3543581.720062326639891 ], [ 715999.782442202209495, 3543625.705512459389865 ], [ 715825.073708843090571, 3542666.77777864318341 ], [ 716869.238292038207874, 3542688.90647488925606 ], [ 716694.608124233083799, 3541729.995907704345882 ], [ 714606.210283407825045, 3541685.894453109242022 ], [ 714780.912670649122447, 3542644.756046799942851 ], [ 713736.755160331260413, 3542622.841276620514691 ] ] ], [ [ [ 717043.910904196207412, 3543647.858725777361542 ], [ 717218.625957898097113, 3544606.852681112010032 ], [ 718262.721850950038061, 3544629.137452018912882 ], [ 718088.042929401388392, 3543670.118934938684106 ], [ 717043.910904196207412, 3543647.858725777361542 ] ] ], [ [ [ 716174.533629140933044, 3544584.674934729468077 ], [ 716349.327266851905733, 3545543.686066196300089 ], [ 717393.383450335240923, 3545565.888361641671509 ], [ 717218.625957898097113, 3544606.852681112010032 ], [ 716174.533629140933044, 3544584.674934729468077 ] ] ], [ [ [ 716699.041883348254487, 3547461.833539745770395 ], [ 716349.327266851905733, 3545543.686066196300089 ], [ 715305.27463164483197, 3545521.590821196325123 ], [ 715480.146875719656236, 3546480.619146227836609 ], [ 714436.133931188145652, 3546458.606441215146333 ], [ 714261.225527616334148, 3545499.602623887360096 ], [ 713217.179937665467151, 3545477.721471534576267 ], [ 713567.111547281499952, 3547395.721850820817053 ], [ 716699.041883348254487, 3547461.833539745770395 ] ] ], [ [ [ 714793.210105118807405, 3554110.038557934109122 ], [ 713749.493901090929285, 3554088.043817880097777 ], [ 713924.856965708080679, 3555047.374633868224919 ], [ 717055.907308322377503, 3555113.754627804271877 ], [ 716530.271842768415809, 3552235.66625253809616 ], [ 715486.476108171278611, 3552213.506164888385683 ], [ 715661.681737340870313, 3553172.802449484355748 ], [ 714617.925769421970472, 3553150.725016344804317 ], [ 714793.210105118807405, 3554110.038557934109122 ] ] ], [ [ [ 713232.106631949776784, 3556944.200719642918557 ], [ 713407.633399602491409, 3557903.632605460472405 ], [ 712364.069320078822784, 3557881.754212439991534 ], [ 712539.674879961879924, 3558841.203417005483061 ], [ 711496.150582439266145, 3558819.407858026679605 ], [ 711671.834956977516413, 3559778.874398720916361 ], [ 712715.322920719627291, 3559800.694546652026474 ], [ 712891.013439530972391, 3560760.227622258476913 ], [ 713934.468521015718579, 3560782.179868198931217 ], [ 713583.202638880582526, 3558863.106411577668041 ], [ 716713.806853712536395, 3558929.460036134812981 ], [ 716538.346569721936248, 3557969.912253228481859 ], [ 714451.200956398621202, 3557925.618408107198775 ], [ 714275.710496183251962, 3556966.161908132024109 ], [ 713232.106631949776784, 3556944.200719642918557 ] ] ], [ [ [ 718459.468675119103864, 3562790.503061727620661 ], [ 718635.104716797126457, 3563750.28579776501283 ], [ 720721.835411043372005, 3563795.521753901615739 ], [ 720546.272119736531749, 3562835.689338063821197 ], [ 721589.679210036993027, 3562858.443829464260489 ], [ 721414.194665165850893, 3561898.628668239805847 ], [ 719327.311344768386334, 3561853.276960176415741 ], [ 719502.868613741011359, 3562813.042416423093528 ], [ 718459.468675119103864, 3562790.503061727620661 ] ] ], [ [ [ 718294.85853415413294, 3567567.282117173541337 ], [ 719338.072917546262033, 3567589.838053235318512 ], [ 719162.26726796082221, 3566629.886750728357583 ], [ 720205.521631124312989, 3566652.525504389312118 ], [ 720029.794791264808737, 3565692.591501017101109 ], [ 716899.933109461329877, 3565625.072809865232557 ], [ 716372.679432271048427, 3562745.747041985858232 ], [ 714285.904255738598295, 3562701.421256595291197 ], [ 714637.509820397826843, 3564620.830744026694447 ], [ 713594.200238774996251, 3564598.779802108649164 ], [ 713770.103105433867313, 3565558.522920988034457 ], [ 710640.304322760552168, 3565492.941760000772774 ], [ 710816.358908881549723, 3566452.652931205462664 ], [ 708729.916351342806593, 3566409.421100509352982 ], [ 708906.086300613358617, 3567369.125080794561654 ], [ 707862.906544743105769, 3567347.646069766953588 ], [ 708039.155457970453426, 3568307.367492138873786 ], [ 706996.015521187218837, 3568285.971596857067198 ], [ 707172.343420855817385, 3569245.710478647612035 ], [ 708215.446896337904036, 3569267.130951939616352 ], [ 708391.78085702075623, 3570226.936470114160329 ], [ 710477.924997823662125, 3570270.149898692034185 ], [ 710301.663980562938377, 3569310.295106143224984 ], [ 712387.89468826376833, 3569353.890221718233079 ], [ 712211.749083921778947, 3568394.028163010254502 ], [ 714298.066460483474657, 3568438.004789990838617 ], [ 714122.036219127709046, 3567478.135393972508609 ], [ 716208.440366703434847, 3567522.493356917984784 ], [ 716384.397726128576323, 3568482.412307045888156 ], [ 718470.743015870917588, 3568527.250736227724701 ], [ 718294.85853415413294, 3567567.282117173541337 ] ] ], [ [ [ 714474.139154388802126, 3569397.916320310439914 ], [ 712387.89468826376833, 3569353.890221718233079 ], [ 712740.31331586651504, 3571273.740729045122862 ], [ 714826.411888465518132, 3571317.865867802873254 ], [ 714474.139154388802126, 3569397.916320310439914 ] ] ], [ [ [ 722141.313687045476399, 3577214.58865510346368 ], [ 722670.14656967355404, 3580096.040988803375512 ], [ 723712.893476073164493, 3580119.137759709265083 ], [ 723184.170299961231649, 3577237.610086823347956 ], [ 722141.313687045476399, 3577214.58865510346368 ] ] ], [ [ [ 717514.581775605096482, 3597208.298885813914239 ], [ 717692.000352769391611, 3598169.433803072664887 ], [ 718734.021539344568737, 3598192.142162641044706 ], [ 718556.639782686368562, 3597230.982036482542753 ], [ 717514.581775605096482, 3597208.298885813914239 ] ] ] ] } }
]
}
