{
"type": "FeatureCollection",
"name": "urban-2035",
"crs": { "type": "name", "properties": { "name": "urn:ogc:def:crs:EPSG::32636" } },
"features": [
{ "type": "Feature", "properties": { "year": 2035 }, "geometry": { "type": "MultiPolygon", "coordinates": [ [ [ [ 443908.856036262353882, 1671502.539964792318642 ], [ 443823.351498280535452, 1670596.034335044678301 ], [ 441631.90646831819322, 1670601.348691755905747 ], [ 441717.44307414261857, 1671507.849323532544076 ], [ 443908.856036262353882, 1671502.539964792318642 ] ] ], [ [ [ 437334.597638745151926, 1671519.0784827391617 ], [ 436238.882038951735012, 1671522.012950299307704 ], [ 436324.544455832627136, 1672428.515537222847342 ], [ 435228.843158692354336, 1672431.498549309093505 ], [ 435314.567239942436572, 1673338.012782313860953 ], [ 434218.88022928260034, 1673341.044387690490112 ], [ 434648.265172431012616, 1677873.813844562508166 ], [ 437935.07946548203472, 1677864.907107656123117 ], [ 437849.159592863288708, 1676958.318111034110188 ], [ 436753.540467240731232, 1676961.238353058462963 ], [ 436410.25246879470069, 1673335.032104095909745 ], [ 437505.935946023906581, 1673332.102352598449215 ], [ 437334.597638745151926, 1671519.0784827391617 ] ] ], [ [ [ 443327.230156828998588, 1676944.482429925119504 ], [ 442231.619285363645758, 1676947.147496980847791 ], [ 442317.474743290455081, 1677853.746341458754614 ], [ 443413.069517478230409, 1677851.083804828580469 ], [ 443327.230156828998588, 1676944.482429925119504 ] ] ], [ [ [ 444508.662733886681963, 1677848.472329372307286 ], [ 443413.069517478230409, 1677851.083804828580469 ], [ 443498.954416699125431, 1678757.699253070401028 ], [ 444594.531529508472886, 1678755.090341888135299 ], [ 444508.662733886681963, 1677848.472329372307286 ] ] ], [ [ [ 440384.216769649414346, 1680579.090557356132194 ], [ 439288.665509243612178, 1680581.898896284401417 ], [ 439374.751566311868373, 1681488.54655847651884 ], [ 440470.286686267645564, 1681485.740693691419438 ], [ 440384.216769649414346, 1680579.090557356132194 ] ] ], [ [ [ 436002.001583038945682, 1680590.630784383276477 ], [ 436174.316168572753668, 1682403.925657079555094 ], [ 437269.840226407744922, 1682400.968672525137663 ], [ 437097.557946090120822, 1680587.669009373057634 ], [ 436002.001583038945682, 1680590.630784383276477 ] ] ], [ [ [ 438710.409465541422833, 1686024.841017921920866 ], [ 439056.18559671548428, 1689651.845118035795167 ], [ 440151.576698160090018, 1689649.010393660981208 ], [ 440238.118435010837857, 1690555.79930687812157 ], [ 438047.367023201659322, 1690561.515178828733042 ], [ 438133.986808036628645, 1691468.313258421141654 ], [ 440324.705735887284391, 1691462.602395506342873 ], [ 440411.338600068818778, 1692369.419668702175841 ], [ 442602.018477120727766, 1692363.919831663370132 ], [ 442428.863277116906829, 1690550.289219641825184 ], [ 441333.491662223415915, 1690553.018540375865996 ], [ 441160.486202845524531, 1688739.449808543780819 ], [ 442255.890262172266375, 1688736.71536138211377 ], [ 442169.472075899364427, 1687829.949692007387057 ], [ 441074.051807674753945, 1687832.686692618764937 ], [ 440815.021968871587887, 1685112.482234986266121 ], [ 439719.551499476074241, 1685115.27813839353621 ], [ 439374.751566311868373, 1681488.54655847651884 ], [ 438279.214778194902465, 1681491.403595584444702 ], [ 438365.362558364344295, 1682398.062888524960726 ], [ 437269.840226407744922, 1682400.968672525137663 ], [ 437442.304859700845554, 1684214.324656288605183 ], [ 436346.813142596976832, 1684217.276824465487152 ], [ 436433.130023505480494, 1685123.973541471874341 ], [ 437528.605556924710982, 1685121.023791214451194 ], [ 437614.951840245164931, 1686027.73703367752023 ], [ 438710.409465541422833, 1686024.841017921920866 ] ] ], [ [ [ 442775.355856409005355, 1694177.607270780717954 ], [ 441680.049236945342273, 1694180.326260454719886 ], [ 442027.335647781495936, 1697807.861477997852489 ], [ 443122.577129704353865, 1697805.152923862915486 ], [ 442948.875409200205468, 1695991.351610373239964 ], [ 444044.147910877072718, 1695988.689435084816068 ], [ 443697.356034988129977, 1692361.247163555584848 ], [ 442602.018477120727766, 1692363.919831663370132 ], [ 442775.355856409005355, 1694177.607270780717954 ] ] ], [ [ [ 437907.492444547300693, 1700539.98264910839498 ], [ 439002.691496259125415, 1700537.074999765027314 ], [ 438741.601531478518154, 1697816.297131221508607 ], [ 437646.353502286132425, 1697819.212347279069945 ], [ 437820.400546759075951, 1699633.044970765942708 ], [ 436725.183453523553908, 1699636.006870202254504 ], [ 436899.44551535253413, 1701449.891474162228405 ], [ 435804.259373962820973, 1701452.900140752550215 ], [ 435717.089198429952376, 1700545.953194304835051 ], [ 434621.884943899116479, 1700549.016091034980491 ], [ 434534.744026361091528, 1699642.085834740428254 ], [ 433439.521632300224155, 1699645.202900734730065 ], [ 433788.424389885389246, 1703272.999668052187189 ], [ 434883.581350064720027, 1703269.892318384256214 ], [ 434970.904700893035624, 1704176.879577549174428 ], [ 436066.043496422527824, 1704173.826532930601388 ], [ 435978.73652368306648, 1703266.8368008909747 ], [ 437073.889940789144021, 1703263.833115125307813 ], [ 436986.644932981580496, 1702356.855160431470722 ], [ 438081.812987609126139, 1702353.900784870609641 ], [ 437907.492444547300693, 1700539.98264910839498 ] ] ], [ [ [ 433042.963815409457311, 1706904.17403237358667 ], [ 434138.057005550421309, 1706901.02456191717647 ], [ 434313.146995677612722, 1708715.122739770216867 ], [ 433218.086652236233931, 1708718.267314831959084 ], [ 433305.716502029274125, 1709625.335411041975021 ], [ 434400.76040877494961, 1709622.193293558666483 ], [ 434576.124067406286485, 1711436.377376798540354 ], [ 435671.13328104437096, 1711433.292273360304534 ], [ 435145.688221362710465, 1705990.896925997920334 ], [ 434050.580429972789716, 1705993.996919488534331 ], [ 433875.764121416257694, 1704179.984481730265543 ], [ 432780.621727944351733, 1704183.14124592859298 ], [ 433042.963815409457311, 1706904.17403237358667 ] ] ], [ [ [ 431818.567920155008323, 1716888.797483596252277 ], [ 430723.650315612205304, 1716892.076435873750597 ], [ 430811.740284970845096, 1717799.266316286753863 ], [ 431906.641364807263017, 1717795.989798896247521 ], [ 431818.567920155008323, 1716888.797483596252277 ] ] ], [ [ [ 406989.021679822530132, 1720606.090779948746786 ], [ 409178.818928046151996, 1720597.300938223488629 ], [ 409267.423221931792796, 1721504.504910162882879 ], [ 411457.177300153532997, 1721495.928387579042464 ], [ 411191.601490775356069, 1718774.347757868235931 ], [ 410096.675870998937171, 1718778.615626234794036 ], [ 410185.171935484919231, 1719685.792961078928784 ], [ 406900.429983570240438, 1719698.904813447035849 ], [ 406989.021679822530132, 1720606.090779948746786 ] ] ], [ [ [ 432259.391448131296784, 1721424.903003039536998 ], [ 431164.556556171039119, 1721428.169714585645124 ], [ 431252.874718762526754, 1722335.43157934374176 ], [ 432347.693041488179006, 1722332.167335853213444 ], [ 432259.391448131296784, 1721424.903003039536998 ] ] ], [ [ [ 421665.098072081746068, 1725088.977142864372581 ], [ 426044.231514811399393, 1725074.375141326105222 ], [ 425867.201015519385692, 1723259.803277631988749 ], [ 424772.387549464183394, 1723263.379675967385992 ], [ 424683.924225752823986, 1722356.117659800685942 ], [ 421399.421558684960473, 1722367.16826408286579 ], [ 421665.098072081746068, 1725088.977142864372581 ] ] ], [ [ [ 425278.024260737176519, 1739600.152834140462801 ], [ 424183.506963007210288, 1739603.792371656280011 ], [ 424272.871791214332916, 1740511.324652837589383 ], [ 425367.372320025926456, 1740507.687497886596248 ], [ 425278.024260737176519, 1739600.152834140462801 ] ] ], [ [ [ 436401.496598083118442, 1741381.803339670179412 ], [ 436312.270485461514909, 1740474.228714443743229 ], [ 435217.788985288818367, 1740477.336282979696989 ], [ 435307.031848982791416, 1741384.908245032187551 ], [ 436401.496598083118442, 1741381.803339670179412 ] ] ], [ [ [ 428077.643836709787138, 1756842.270901996642351 ], [ 429171.837050986359827, 1756838.784693193156272 ], [ 429081.700641033588909, 1755930.981401288881898 ], [ 426893.278402478259522, 1755938.012362641980872 ], [ 426983.448663554678205, 1756845.810564188286662 ], [ 425889.251501716324128, 1756849.403680285904557 ], [ 426160.087149320635945, 1759572.879143833415583 ], [ 428348.377807507000398, 1759565.761553760850802 ], [ 428258.087489937024657, 1758657.916585092199966 ], [ 429352.246829000418074, 1758654.435514404205605 ], [ 429262.01911389111774, 1757746.602727796183899 ], [ 428167.842832755413838, 1757750.086370937991887 ], [ 428077.643836709787138, 1756842.270901996642351 ] ] ], [ [ [ 447309.022543043887708, 1763145.626697155181319 ], [ 446214.97503782104468, 1763148.236545319901779 ], [ 446305.222037684055977, 1764056.200526008848101 ], [ 447399.252590022864752, 1764053.593729448737577 ], [ 447309.022543043887708, 1763145.626697155181319 ] ] ], [ [ [ 449670.191751231031958, 1775856.014383123721927 ], [ 448576.38379544147756, 1775858.526865592692047 ], [ 448667.250830279197544, 1776766.703721915138885 ], [ 451948.619408437923994, 1776759.337943254737183 ], [ 451585.628947374061681, 1773126.682468598242849 ], [ 452679.484039458795451, 1773124.322317487094551 ], [ 452588.86712806543801, 1772216.192845119163394 ], [ 449307.246772786777001, 1772223.444718981161714 ], [ 449670.191751231031958, 1775856.014383123721927 ] ] ], [ [ [ 454227.019019892264623, 1777662.905759121291339 ], [ 453133.250492350198328, 1777665.195584776811302 ], [ 453770.432695013994817, 1784023.052412939956412 ], [ 454864.081457309541292, 1784020.785819408716634 ], [ 454227.019019892264623, 1777662.905759121291339 ] ] ], [ [ [ 467752.978080217784736, 1656952.664259734563529 ], [ 467837.434508846956305, 1657859.02388309687376 ], [ 470029.264849124359898, 1657856.1636294699274 ], [ 469944.840098339424003, 1656949.797830954194069 ], [ 467752.978080217784736, 1656952.664259734563529 ] ] ], [ [ [ 472390.013964500336442, 1659666.291510562412441 ], [ 472221.091880623949692, 1657853.505179578671232 ], [ 470029.264849124359898, 1657856.1636294699274 ], [ 470198.250322302919813, 1659668.937352686421946 ], [ 472390.013964500336442, 1659666.291510562412441 ] ] ], [ [ [ 447110.507509016548283, 1670588.444111838936806 ], [ 444919.071676224237308, 1670593.453419441357255 ], [ 445004.560184098256286, 1671499.961589251644909 ], [ 443908.856036262353882, 1671502.539964792318642 ], [ 444080.00171562586911, 1673315.593281137524173 ], [ 445175.673776644282043, 1673313.020005035912618 ], [ 445090.094217809266411, 1672406.483781409682706 ], [ 446185.780813978635706, 1672403.958848465234041 ], [ 446100.262816705333535, 1671497.434082422172651 ], [ 447195.96396427671425, 1671494.957443931838498 ], [ 447110.507509016548283, 1670588.444111838936806 ] ] ], [ [ [ 475014.06080977874808, 1675982.721407543634996 ], [ 473918.466924508393276, 1675983.909941748483106 ], [ 474003.811290493584238, 1676890.579043535981327 ], [ 475099.38915962720057, 1676889.393827648833394 ], [ 475014.06080977874808, 1675982.721407543634996 ] ] ], [ [ [ 445518.447248940879945, 1676939.30539679271169 ], [ 444422.839467965997756, 1676941.868396657286212 ], [ 444508.662733886681963, 1677848.472329372307286 ], [ 445604.254422677913681, 1677845.91191470506601 ], [ 445518.447248940879945, 1676939.30539679271169 ] ] ], [ [ [ 444766.405706995632499, 1680568.36864287732169 ], [ 445861.949066017521545, 1680565.816022593993694 ], [ 445776.005331933207344, 1679659.167218462331221 ], [ 446871.563317380787339, 1679656.663108767708763 ], [ 446785.681210074864794, 1678750.025783673161641 ], [ 444594.531529508472886, 1678755.090341888135299 ], [ 444766.405706995632499, 1680568.36864287732169 ] ] ], [ [ [ 475270.181705713155679, 1678702.781431833282113 ], [ 473079.08937424083706, 1678705.189632203429937 ], [ 473250.127237279491965, 1680518.621007607551292 ], [ 475441.155375443748198, 1680516.226116266800091 ], [ 475270.181705713155679, 1678702.781431833282113 ] ] ], [ [ [ 472261.885621919063851, 1693216.749998338753358 ], [ 471166.594689312682021, 1693218.080452888272703 ], [ 470908.057965400046669, 1690497.383185627870262 ], [ 469812.717703943431843, 1690498.77503509237431 ], [ 469985.062554419739172, 1692312.552263052668422 ], [ 467794.444225339510012, 1692315.477286179317161 ], [ 467880.717018477153033, 1693222.380936077563092 ], [ 466785.422736890963279, 1693223.917471023043618 ], [ 466958.136759523011278, 1695037.761426668614149 ], [ 469148.659611311159097, 1695034.752835341496393 ], [ 469062.312349277373869, 1694127.817187505075708 ], [ 470157.588697085389867, 1694126.386970545398071 ], [ 470243.919751149835065, 1695033.325902281096205 ], [ 472434.437609132903162, 1695030.626760322134942 ], [ 472261.885621919063851, 1693216.749998338753358 ] ] ], [ [ [ 456438.854523386689834, 1699590.605714380508289 ], [ 455343.662357034976594, 1699592.688404611777514 ], [ 455430.493208363244776, 1700499.669830229366198 ], [ 456525.669081010564696, 1700497.590107027441263 ], [ 456438.854523386689834, 1699590.605714380508289 ] ] ], [ [ [ 477193.386367739818525, 1710447.428251547273248 ], [ 476098.406695575336926, 1710448.538153854897246 ], [ 476185.487965996260755, 1711355.751547710737213 ], [ 477280.45128294127062, 1711354.645184573950246 ], [ 477193.386367739818525, 1710447.428251547273248 ] ] ], [ [ [ 472900.593979310768191, 1711359.383041427005082 ], [ 471805.627871772041544, 1711360.697674693306908 ], [ 471892.819895278429613, 1712267.911750940838829 ], [ 472987.769628833630122, 1712266.60055383737199 ], [ 472900.593979310768191, 1711359.383041427005082 ] ] ], [ [ [ 479557.453536503715441, 1712259.827364329248667 ], [ 475177.666905404243153, 1712264.134445061674342 ], [ 475090.523996414849535, 1711356.909978117560968 ], [ 473995.559344189008698, 1711358.120475963456556 ], [ 474082.718622207583394, 1712265.341451939428225 ], [ 472987.769628833630122, 1712266.60055383737199 ], [ 473074.99057623517001, 1713173.832647217204794 ], [ 474169.923189232533332, 1713172.577015494694933 ], [ 474344.468187310325447, 1714987.091942687053233 ], [ 476534.265760316688102, 1714984.751131149940193 ], [ 476447.003406337811612, 1714077.479315404314548 ], [ 478636.831187232921366, 1714075.340052782092243 ], [ 478724.060762273555156, 1714982.61902717105113 ], [ 479818.957374087884091, 1714981.631240119924769 ], [ 479557.453536503715441, 1712259.827364329248667 ] ] ], [ [ [ 465015.950426132883877, 1720443.92080767522566 ], [ 463921.141636341577396, 1720445.619523533852771 ], [ 464008.918485657835845, 1721352.952730504795909 ], [ 465103.710792665428016, 1721351.257297856966034 ], [ 465015.950426132883877, 1720443.92080767522566 ] ] ], [ [ [ 425188.721886356303003, 1738692.63272343040444 ], [ 430661.362132005451713, 1738675.216738280374557 ], [ 430750.580746741848998, 1739582.749139046762139 ], [ 434034.091712100547738, 1739572.942097748396918 ], [ 433855.800544263911434, 1737757.876488317037001 ], [ 430572.189158311928622, 1737767.698914871783927 ], [ 430483.061826401448343, 1736860.195659568533301 ], [ 432672.171379269449972, 1736853.589418911375105 ], [ 432583.123121491458733, 1735946.09565497096628 ], [ 430393.980137011269107, 1735952.706963116768748 ], [ 430304.944090879405849, 1735045.232816265430301 ], [ 431399.53322703478625, 1735041.898238379275426 ], [ 431310.559524207783397, 1734134.436125234235078 ], [ 432405.163482955715153, 1734131.151806850917637 ], [ 432494.120489140332211, 1735038.616454034578055 ], [ 433588.705907101801131, 1735035.387462751474231 ], [ 433499.765594897733536, 1734127.920254138763994 ], [ 434594.365889945009258, 1734124.741466624895111 ], [ 434683.289510824659374, 1735032.211264055222273 ], [ 436872.45139517512871, 1735026.017242570174858 ], [ 436961.387231873522978, 1735933.506880349013954 ], [ 438055.948880020703655, 1735930.491734338458627 ], [ 438144.913605288427789, 1736837.998646317748353 ], [ 439239.456862897553947, 1736835.039030248997733 ], [ 439328.450460811960511, 1737742.563266506185755 ], [ 438233.923910674930084, 1737745.520164088578895 ], [ 438322.979795438004658, 1738653.056296929251403 ], [ 437228.468277634005062, 1738656.063369651790708 ], [ 437317.586468970985152, 1739563.611422324553132 ], [ 438412.081258834223263, 1739560.607054121326655 ], [ 438501.228300121088978, 1740468.172444947529584 ], [ 437406.750247112417128, 1740471.174101915676147 ], [ 437495.959611315454822, 1741378.751417707651854 ], [ 436401.496598083118442, 1741381.803339670179412 ], [ 436758.856983466655947, 1745012.248321080114692 ], [ 435664.45932782482123, 1745015.34250646061264 ], [ 435575.034055991156492, 1744107.711960552027449 ], [ 431197.358410177985206, 1744120.63012738712132 ], [ 431018.510429815505631, 1742305.433898091316223 ], [ 432112.965650496305898, 1742302.119614841882139 ], [ 432023.626887717226055, 1741394.540866102324799 ], [ 430929.154896387364715, 1741397.857709689531475 ], [ 430839.845001782814506, 1740490.296126429690048 ], [ 425367.372320025926456, 1740507.687497886596248 ], [ 425546.205490377382375, 1742322.80052145733498 ], [ 426640.670422645751387, 1742319.221167483832687 ], [ 426730.138739238493145, 1743226.801975923124701 ], [ 427824.584879143687431, 1743223.278094622539356 ], [ 428003.624923311581369, 1745038.488446231000125 ], [ 429098.035491724382155, 1745035.022596958791837 ], [ 429187.607193738047499, 1745942.652206246042624 ], [ 428093.213439706014469, 1745946.115550415357575 ], [ 428182.847617985273246, 1746853.757285873638466 ], [ 430371.599550553248264, 1746846.888772306963801 ], [ 430640.675010414503049, 1749569.91709326999262 ], [ 429546.35052397265099, 1749573.31711631314829 ], [ 429636.15048336237669, 1750481.020008448045701 ], [ 434013.369793445395771, 1750467.749740156112239 ], [ 434192.971733775513712, 1752283.220526746939868 ], [ 435287.238271775539033, 1752280.041479516075924 ], [ 435197.431358654983342, 1751372.296036502579227 ], [ 436291.712993813038338, 1751369.167585557559505 ], [ 436201.968536415137351, 1750461.434160111937672 ], [ 437296.26528429944301, 1750458.356256975792348 ], [ 437206.583262859669048, 1749550.634825923480093 ], [ 439395.205333136313129, 1749544.633247805293649 ], [ 439216.045345141319558, 1747729.223497524159029 ], [ 440310.387524770805612, 1747726.296946986345574 ], [ 440042.039718350861222, 1745003.284320957958698 ], [ 441136.430652159964666, 1745000.40250479686074 ], [ 441225.817572402476799, 1745908.061477990821004 ], [ 443414.561090246832464, 1745902.462813935708255 ], [ 443325.20773219736293, 1744994.798145748209208 ], [ 445513.978627844480798, 1744989.406148339388892 ], [ 445424.704341393779032, 1744081.750405427301303 ], [ 447613.502814854262397, 1744076.564865826396272 ], [ 447702.743577957793605, 1744984.226509409956634 ], [ 448797.12389808188891, 1744981.716323420871049 ], [ 448975.708387643040624, 1746797.089853001059964 ], [ 447881.361609749961644, 1746799.594035902060568 ], [ 448239.143674630089663, 1750430.506307663628832 ], [ 447144.862677173397969, 1750433.051656606607139 ], [ 447234.438762027129997, 1751340.813688330585137 ], [ 448328.702936731278896, 1751338.271350691327825 ], [ 448418.307695677794982, 1752246.051202453672886 ], [ 446229.811574057675898, 1752251.183149995747954 ], [ 446588.820405380101874, 1755882.426661047851667 ], [ 445494.63759828300681, 1755885.060676944442093 ], [ 445584.520466776099056, 1756792.905639055883512 ], [ 446678.686392361996695, 1756790.274620332289487 ], [ 446768.59788949333597, 1757698.13743094378151 ], [ 447862.745475061645266, 1757695.562889353837818 ], [ 448132.702302875521127, 1760419.249657689826563 ], [ 447038.605434220517054, 1760421.815064414171502 ], [ 447309.022543043887708, 1763145.626697155181319 ], [ 448403.068614495918155, 1763143.070486549986526 ], [ 448493.281711228890345, 1764051.040597845101729 ], [ 449587.309431069239508, 1764048.541130825411528 ], [ 449948.548882344621234, 1767680.583495312137529 ], [ 451042.507361433003098, 1767678.150295968167484 ], [ 450952.146252591279335, 1766770.114100883714855 ], [ 452046.120378402411006, 1766767.731486490694806 ], [ 451865.568515901104547, 1764951.697655397001654 ], [ 450771.560460768523626, 1764954.086626315955073 ], [ 450681.335779310786165, 1764046.095328023424372 ], [ 451775.360785722208675, 1764043.7031890808139 ], [ 450427.701466473634355, 1750425.575369131984189 ], [ 449333.423261120216921, 1750428.014211961068213 ], [ 449065.068870346993208, 1747704.798766249790788 ], [ 450159.397474779980257, 1747702.350765697192401 ], [ 449980.755555900046602, 1745886.941636576782912 ], [ 451075.116350813186727, 1745884.540680175414309 ], [ 450985.880377748806495, 1744976.855216555995867 ], [ 452080.256597003724892, 1744974.504294967046008 ], [ 452526.807317805069033, 1749513.094904897268862 ], [ 451432.514981841261033, 1749515.430357172619551 ], [ 451969.97706171986647, 1754962.209369519958273 ], [ 454158.358546989504248, 1754957.629426462575793 ], [ 454517.441000408376567, 1758589.138069580774754 ], [ 453423.318367612548172, 1758591.38857724587433 ], [ 453513.219488316564821, 1759499.299799321917817 ], [ 455701.429738272388931, 1759494.858728191815317 ], [ 455342.232991217344534, 1755863.277564589632675 ], [ 456436.403777661733329, 1755861.124301112955436 ], [ 456078.001406622468494, 1752229.768570594256744 ], [ 454983.763277406455018, 1752231.934741295874119 ], [ 454894.259453591192141, 1751324.136205740505829 ], [ 457082.768139292486012, 1751319.850722856586799 ], [ 456903.964017557213083, 1749504.285336759174243 ], [ 457998.250180643401109, 1749502.216003351612017 ], [ 457819.661321299732663, 1747686.703511769417673 ], [ 456725.341604092041962, 1747688.779327156487852 ], [ 456546.900904952432029, 1745873.33261904399842 ], [ 458735.606220972491428, 1745869.221191572258249 ], [ 458646.487505367957056, 1744961.513590029673651 ], [ 457552.118681739433669, 1744963.545991911087185 ], [ 457463.028644765261561, 1744055.856439139461145 ], [ 458557.414202803163789, 1744053.820799241075292 ], [ 458379.403839815407991, 1742238.479612446622923 ], [ 459473.821704137546476, 1742236.49052005703561 ], [ 459296.026403730327729, 1740421.201980180805549 ], [ 458201.575138048559893, 1740423.197556263767183 ], [ 458023.928103534854017, 1738607.97455581324175 ], [ 459118.412734974175692, 1738605.972522934200242 ], [ 459029.674014349351637, 1737698.379926899680868 ], [ 460124.174196538806427, 1737696.427541733020917 ], [ 460035.497544155456126, 1736788.846449278527871 ], [ 461130.013292963791173, 1736786.943663450889289 ], [ 461218.673289837257471, 1737694.52802231349051 ], [ 462313.171324134571478, 1737692.681368362857029 ], [ 461693.621011979819741, 1731339.877292843535542 ], [ 462788.234383220085874, 1731338.060396387474611 ], [ 462699.925332895712927, 1730430.57254650304094 ], [ 464889.182222887058742, 1730427.090141857974231 ], [ 465065.779348248324823, 1732242.093820632901043 ], [ 466160.373168724763673, 1732240.438305994030088 ], [ 466337.118533833825495, 1734055.507637958973646 ], [ 464147.996354352449998, 1734058.857929048594087 ], [ 464236.470298409112729, 1734966.40797928837128 ], [ 463141.924375552334823, 1734968.158928819699213 ], [ 463496.340397415566258, 1738598.493322934955359 ], [ 462401.860051533032674, 1738600.283783763414249 ], [ 462490.59416165802395, 1739507.900971255265176 ], [ 461396.129459963412955, 1739509.74101744312793 ], [ 461573.767193563748151, 1741325.013111529173329 ], [ 460479.334811285196338, 1741326.89949814346619 ], [ 460746.181956693239044, 1744049.908693541307002 ], [ 461840.564212262746878, 1744048.032227165997028 ], [ 462018.655828103772365, 1745863.452396643580869 ], [ 463113.00358537764987, 1745861.635689540067688 ], [ 463023.951817337598186, 1744953.914834941970184 ], [ 464118.315298968576826, 1744952.147857886971906 ], [ 464029.325629949278664, 1744044.438465990824625 ], [ 465123.704851782880723, 1744042.721170663600788 ], [ 464857.05816721485462, 1741319.671801064861938 ], [ 463762.628841658006422, 1741321.399263254366815 ], [ 463673.820654340321198, 1740413.749155384255573 ], [ 464768.266663342539687, 1740412.018317703390494 ], [ 464590.819746617402416, 1738596.755754443118349 ], [ 466779.775574525003321, 1738593.439293460920453 ], [ 466602.576711523812264, 1736778.222300014924258 ], [ 467697.086539386364166, 1736776.636538678780198 ], [ 467608.571761849452741, 1735869.046792841283605 ], [ 469797.622055997140706, 1735866.026849176734686 ], [ 469709.185856329684611, 1734958.44496385497041 ], [ 470803.726365944370627, 1734957.010705578373745 ], [ 470362.308176288264804, 1730419.305417336989194 ], [ 469267.684725531376898, 1730420.757073224522173 ], [ 469003.327968261030037, 1727698.321230202913284 ], [ 470098.001077057968359, 1727696.859215993899852 ], [ 470186.058123827388044, 1728604.3265573407989 ], [ 471280.713873691216577, 1728602.920578489778563 ], [ 471192.673368206946179, 1727695.449763643788174 ], [ 472287.344871641078498, 1727694.092872946057469 ], [ 472199.366207813436631, 1726786.633283824427053 ], [ 473294.053480861068238, 1726785.32543294550851 ], [ 473206.136639178497717, 1725877.877046120585874 ], [ 478679.645203234511428, 1725872.107810093555599 ], [ 478591.856167876801919, 1724964.656185251427814 ], [ 479686.572506254189648, 1724963.65618276479654 ], [ 479862.16282974218484, 1726778.581532481126487 ], [ 480956.845619070110843, 1726777.641415000660345 ], [ 480693.577474704070482, 1724055.26441244292073 ], [ 476314.644941739446949, 1724059.383988562738523 ], [ 476226.913449490093626, 1723151.969067960046232 ], [ 475132.16228677763138, 1723153.133666555862874 ], [ 475044.45959012908861, 1722245.73702292656526 ], [ 470665.381908630719408, 1722250.933665964286774 ], [ 470753.150532259081956, 1723158.316301491810009 ], [ 469658.395667941251304, 1723159.743021314498037 ], [ 469570.610556326573715, 1722252.363819302991033 ], [ 468475.838371333375107, 1722253.846370081184432 ], [ 468388.082103264168836, 1721346.485224691219628 ], [ 467293.292571504716761, 1721348.02354518766515 ], [ 467381.065323692339007, 1722255.381318516796455 ], [ 466286.291383443865925, 1722256.968664835207164 ], [ 466549.931207718967926, 1724979.119811438489705 ], [ 465455.205865654570516, 1724980.749564182944596 ], [ 465191.516520631092135, 1722258.608409268083051 ], [ 463001.963907470169943, 1722262.04509345209226 ], [ 462826.331859016907401, 1720447.370583197101951 ], [ 463921.141636341577396, 1720445.619523533852771 ], [ 463833.4101580902352, 1719538.300921824993566 ], [ 464928.235421782010235, 1719536.598929396830499 ], [ 464840.565780359203927, 1718629.291653699940071 ], [ 467030.246379941352643, 1718626.037995003163815 ], [ 466942.655006912595127, 1717718.738703774288297 ], [ 468037.510386329668108, 1717717.186961461789906 ], [ 468125.085310765192844, 1718624.48959818854928 ], [ 469219.923368911026046, 1718622.993489423766732 ], [ 469307.527175409719348, 1719530.314118850044906 ], [ 470402.347938388818875, 1719528.873704851837829 ], [ 470314.760584356205072, 1718621.549668489722535 ], [ 471409.596987074008211, 1718620.158135174540803 ], [ 471497.167891139921267, 1719527.485605875262991 ], [ 472591.987063632055651, 1719526.149821716360748 ], [ 472416.923451963462867, 1717711.502596538048238 ], [ 473511.774755259975791, 1717710.21215534559451 ], [ 473424.327329679566901, 1716802.90701709757559 ], [ 471234.591110871639103, 1716805.547083647223189 ], [ 471059.766482233942952, 1714990.994489703560248 ], [ 473249.568361685262062, 1714988.340614214073867 ], [ 473074.99057623517001, 1713173.832647217204794 ], [ 469790.188191043853294, 1713177.912278810050339 ], [ 469702.918087611964438, 1712270.690431540831923 ], [ 467513.01295917283278, 1712273.677495372947305 ], [ 467425.755414847575594, 1711366.476889761397615 ], [ 468520.724793110392056, 1711364.953983277315274 ], [ 468346.37847545259865, 1709550.589745291974396 ], [ 469441.379727296996862, 1709549.112219324335456 ], [ 469615.693308680842165, 1711363.483145414385945 ], [ 470710.660991565207951, 1711362.064375955611467 ], [ 470623.497907960845623, 1710454.868266900070012 ], [ 471718.481155763263814, 1710453.498163482639939 ], [ 471631.37974799744552, 1709546.313207989558578 ], [ 472726.378576887364034, 1709544.99172221054323 ], [ 472813.463628413679544, 1710452.180100659374148 ], [ 476098.406695575336926, 1710448.538153854897246 ], [ 476011.370697913691401, 1709541.33934212452732 ], [ 477106.366716428485233, 1709540.225907249841839 ], [ 477019.392329755995888, 1708633.03814234235324 ], [ 474829.366957726655528, 1708635.3240490865428 ], [ 474916.374021828873083, 1709542.504789460916072 ], [ 473821.376658159715589, 1709543.722249429905787 ], [ 473647.375137113034725, 1707729.382261274848133 ], [ 472552.34437492955476, 1707730.65861497935839 ], [ 472639.338825477985665, 1708637.817896757507697 ], [ 471544.323649219470099, 1708639.142798892920837 ], [ 471370.347381605417468, 1706824.845582632115111 ], [ 472465.395225988759194, 1706823.513867561938241 ], [ 472378.491379396698903, 1705916.383645191090181 ], [ 473473.554787011991721, 1705915.100436926586553 ], [ 473299.91561381064821, 1704100.87670185463503 ], [ 472204.819596236979123, 1704102.166738346219063 ], [ 472118.051661154429894, 1703195.080035260645673 ], [ 473213.163970405934379, 1703193.78659452078864 ], [ 473126.457623454509303, 1702286.710981578566134 ], [ 469841.069514958187938, 1702290.756878382293507 ], [ 469927.82471776381135, 1703197.822380498284474 ], [ 468832.710023532621562, 1703199.271285398630425 ], [ 468919.526848506124225, 1704106.34794014506042 ], [ 470014.625243626593146, 1704104.902357290731743 ], [ 470101.471091804734897, 1705011.99681805470027 ], [ 469006.389004665194079, 1705013.439072287175804 ], [ 469354.290926332643721, 1708641.948560738004744 ], [ 466069.235465763602406, 1708646.547100585652515 ], [ 465982.142946929845493, 1707739.407866371562704 ], [ 467077.178674923838116, 1707737.819760425481945 ], [ 466729.327470429649111, 1704109.394653679104522 ], [ 465634.226427390589379, 1704110.995784807018936 ], [ 465721.137522426026408, 1705018.077095481101424 ], [ 464626.051854614692274, 1705019.726857467321679 ], [ 464539.124441627878696, 1704112.648765819147229 ], [ 463444.021483101067133, 1704114.353596958797425 ], [ 463617.954324789636303, 1705928.517850798089057 ], [ 464713.024633533786982, 1705926.819409492425621 ], [ 464800.042777647380717, 1706833.926431173225865 ], [ 461514.877850142132957, 1706839.167938694590703 ], [ 461427.810683891468216, 1705932.070449184859172 ], [ 460332.737291671161074, 1705933.92460678704083 ], [ 460245.699180375318974, 1705026.844683203147724 ], [ 459150.608360876329243, 1705028.753835391020402 ], [ 459237.662811556831002, 1705935.830670355819166 ], [ 458142.587213515012991, 1705937.788640171056613 ], [ 458491.324561009067111, 1709566.228129449067637 ], [ 460681.343736427603289, 1709562.388827132992446 ], [ 460768.608843818074092, 1710469.541060090297833 ], [ 459673.616193796275184, 1710471.431581770302728 ], [ 459760.943090844724793, 1711378.595176271395758 ], [ 457570.987237807945348, 1711382.526175460545346 ], [ 457483.627547856187448, 1710475.368755096336827 ], [ 455293.634240629384294, 1710479.514103648951277 ], [ 455206.287189036025666, 1709572.377204546937719 ], [ 457396.313281549431849, 1709568.225804638816044 ], [ 457309.044439624005463, 1708661.097314817365259 ], [ 454023.95431892509805, 1708667.411456207511947 ], [ 454111.272315947397146, 1709574.530929875327274 ], [ 451921.238766013819259, 1709578.994432861218229 ], [ 451659.32283588196151, 1706857.696879242546856 ], [ 452754.389406188216526, 1706855.430369082605466 ], [ 452492.931786484376062, 1704134.253724219975993 ], [ 450302.699169741303194, 1704138.855979340383783 ], [ 450128.556065449258313, 1702324.821592363296077 ], [ 451223.705715438583866, 1702322.488831917056814 ], [ 451136.71871241054032, 1701415.490320643177256 ], [ 450041.552738253434654, 1701417.825924274977297 ], [ 449867.682537415239494, 1699603.87759279133752 ], [ 455343.662357034976594, 1699592.688404611777514 ], [ 455256.876947049517184, 1698685.721331298118457 ], [ 456352.085398230061401, 1698683.635680593317375 ], [ 456265.361706272931769, 1697776.679996429942548 ], [ 454074.91102117090486, 1697780.908866277430207 ], [ 454161.667267564858776, 1698687.858669985784218 ], [ 453066.456329709093552, 1698690.047696970868856 ], [ 452979.683802296407521, 1697783.100792400538921 ], [ 450789.225461538298987, 1697787.639628656907007 ], [ 450702.465842777921353, 1696880.712747847894207 ], [ 451797.711950905388221, 1696878.414661132497713 ], [ 451711.014079533051699, 1695971.499247504863888 ], [ 450615.751703059184365, 1695973.800165486289188 ], [ 450529.083043110207655, 1695066.90187236526981 ], [ 452719.63898632011842, 1695062.345966329565272 ], [ 452806.275129871617537, 1695969.249936297303066 ], [ 454996.793372466694564, 1695964.906132888747379 ], [ 454910.189735165738966, 1695057.99637650907971 ], [ 453814.914994995633606, 1695060.145382055314258 ], [ 453641.811579014756717, 1693246.374572801636532 ], [ 452546.503088179219048, 1693248.58089649467729 ], [ 452460.003335046349093, 1692341.719778210390359 ], [ 454650.651496155769564, 1692337.35290754516609 ], [ 454391.522281784447841, 1689616.837945359991863 ], [ 453296.150216795445886, 1689619.004255209118128 ], [ 453382.497371814155485, 1690525.825445008929819 ], [ 452287.14022429077886, 1690528.040328883100301 ], [ 452114.458979057439137, 1688714.417867878451943 ], [ 451019.06812177633401, 1688716.68981326604262 ], [ 450932.77951460564509, 1687809.902730338275433 ], [ 455314.399894809001125, 1687801.111907262122259 ], [ 455142.088464209111407, 1685987.557721011573449 ], [ 451855.778121754527092, 1685994.090868571540341 ], [ 451339.644116770417895, 1680553.820052523631603 ], [ 448053.031344740302302, 1680560.864209377905354 ], [ 448138.988349805469625, 1681467.532431510975584 ], [ 444852.41108742589131, 1681475.028949634870514 ], [ 445110.700386849523056, 1684195.094604728044942 ], [ 444015.220081944309641, 1684197.687994339503348 ], [ 444101.423731107555795, 1685104.402211864246055 ], [ 445196.887870305974502, 1685101.811431870795786 ], [ 445283.120877720415592, 1686008.542411997215822 ], [ 444187.672913103480823, 1686011.130575880175456 ], [ 444273.967627213103697, 1686917.873095541959628 ], [ 446464.829687417077366, 1686912.753347646677867 ], [ 446551.137550809362438, 1687819.515317716635764 ], [ 447646.550170630856883, 1687817.035129265394062 ], [ 447732.887350841949228, 1688723.813976699020714 ], [ 448828.282337781856768, 1688721.387867330573499 ], [ 449260.569673328311183, 1693255.509014523588121 ], [ 448165.255787287314888, 1693257.921437314711511 ], [ 448338.521664859727025, 1695071.664097292115912 ], [ 446147.954610891989432, 1695076.632643910124898 ], [ 446408.292325967748184, 1697797.337246704148129 ], [ 444217.817049994249828, 1697802.49603419448249 ], [ 444304.719917308539152, 1698709.420731733785942 ], [ 445399.942004592390731, 1698706.818186156451702 ], [ 445747.943480661488138, 1702334.670629624743015 ], [ 444652.786687996296678, 1702337.262389617739245 ], [ 444827.093244017101824, 1704151.269067980349064 ], [ 442636.840489256079309, 1704156.597291429061443 ], [ 442811.394639088306576, 1705970.650548372417688 ], [ 441716.298667938099243, 1705973.387150661321357 ], [ 442066.019085599516984, 1709601.655127646867186 ], [ 439875.953568866825663, 1709607.26306218886748 ], [ 440051.152805622084998, 1711421.472641735570505 ], [ 441146.153504336776678, 1711418.647927191806957 ], [ 441058.547541844192892, 1710511.533320158254355 ], [ 442153.563063820416573, 1710508.758019635919482 ], [ 442416.468283931084443, 1713230.152997640194371 ], [ 443511.43289285665378, 1713227.437835249118507 ], [ 443686.897840669669677, 1715041.778590494766831 ], [ 442591.966161224641837, 1715044.488326898310333 ], [ 442679.783416840073187, 1715951.677622387651354 ], [ 443774.698618202819489, 1715948.97060890099965 ], [ 443862.544930508418474, 1716856.177066808566451 ], [ 439482.940548923215829, 1716867.307646859902889 ], [ 439307.161567625182215, 1715052.93065167660825 ], [ 437117.283575881796423, 1715058.819801985751837 ], [ 437029.429479676065966, 1714151.658100804081187 ], [ 438124.385804032383021, 1714148.6848526338581 ], [ 438036.593770763836801, 1713241.534960068296641 ], [ 436941.620973086333834, 1713244.510780980344862 ], [ 436853.858056841068901, 1712337.377833307255059 ], [ 433568.879768213082571, 1712346.625629809917882 ], [ 433481.113060744712129, 1711439.514559343457222 ], [ 432386.100231046206318, 1711442.703821456292644 ], [ 432473.883404533611611, 1712349.812441941117868 ], [ 431378.885190436732955, 1712353.051361495163292 ], [ 431466.730468147899956, 1713260.171889309072867 ], [ 432561.712204691779334, 1713256.935398954199627 ], [ 432649.586630792182405, 1714164.07270168652758 ], [ 433744.550035733205732, 1714160.89080933178775 ], [ 433832.453594328835607, 1715068.044936780352145 ], [ 432737.506682108156383, 1715071.22435933095403 ], [ 433001.540580057306215, 1717792.765553720295429 ], [ 431906.641364807263017, 1717795.989798896247521 ], [ 431994.760440660989843, 1718703.196499285055324 ], [ 430899.875894435332157, 1718706.470575162675232 ], [ 430988.057143276382703, 1719613.689221701584756 ], [ 429893.187250290298834, 1719617.013176905689761 ], [ 429981.430691849323921, 1720524.243792922236025 ], [ 432171.135483053454664, 1720517.653092148248106 ], [ 432259.391448131296784, 1721424.903003039536998 ], [ 433354.224486080696806, 1721421.688673256430775 ], [ 433442.509512849675957, 1722328.955501512158662 ], [ 432347.693041488179006, 1722332.167335853213444 ], [ 432436.040262392896693, 1723239.446099803084508 ], [ 431341.238517808495089, 1723242.707868594909087 ], [ 431518.103022336319555, 1725057.303757433779538 ], [ 426044.231514811399393, 1725074.375141326105222 ], [ 426132.815283041330986, 1725981.682696869596839 ], [ 423943.285972133046016, 1725988.874073641607538 ], [ 424120.657084346574266, 1727803.523171594599262 ], [ 425215.389491206849925, 1727799.905847993213683 ], [ 425304.126939080830198, 1728707.254365036729723 ], [ 422019.973422465729527, 1728718.257182229543105 ], [ 422197.685369897750206, 1730532.983739227289334 ], [ 421102.996650020242669, 1730536.752054596086964 ], [ 421191.937874336901587, 1731444.134738814085722 ], [ 422286.609909117396455, 1731440.368684253189713 ], [ 422464.596114905260038, 1733255.181953386869282 ], [ 424653.867064369551372, 1733247.817155748372898 ], [ 424742.895313845248893, 1734155.250142160570249 ], [ 423648.277589972363785, 1734158.903834167402238 ], [ 423915.686644317000173, 1736881.282769097248092 ], [ 422821.117015364579856, 1736884.982265927828848 ], [ 422910.361504717089701, 1737792.468600807711482 ], [ 425099.46519762033131, 1737785.127156517934054 ], [ 425188.721886356303003, 1738692.63272343040444 ] ], [ [ 453621.098359523748513, 1749510.812677048845217 ], [ 453710.528094028995838, 1750418.578354357508942 ], [ 452616.253853097558022, 1750420.857440675608814 ], [ 452526.807317805069033, 1749513.094904897268862 ], [ 453621.098359523748513, 1749510.812677048845217 ] ], [ [ 453263.833966998849064, 1745879.898112555965781 ], [ 455452.546484008780681, 1745875.46800292795524 ], [ 455541.760876287473366, 1746783.180752277374268 ], [ 454447.422000217717141, 1746785.366080701816827 ], [ 454715.388136832218152, 1749508.583673292538151 ], [ 453621.098359523748513, 1749510.812677048845217 ], [ 453263.833966998849064, 1745879.898112555965781 ] ], [ [ 455162.907252118457109, 1754047.576397963333875 ], [ 452974.494606193562504, 1754052.055941891856492 ], [ 452705.745850337960292, 1751328.634802895598114 ], [ 453800.003281571669504, 1751326.358864872017875 ], [ 453889.523921396583319, 1752234.154217963572592 ], [ 454983.763277406455018, 1752231.934741295874119 ], [ 455162.907252118457109, 1754047.576397963333875 ] ], [ [ 469746.226103960361797, 1724067.13688983162865 ], [ 468651.486908832972404, 1724068.612621729262173 ], [ 468563.63997343997471, 1723161.222165979444981 ], [ 469658.395667941251304, 1723159.743021314498037 ], [ 469746.226103960361797, 1724067.13688983162865 ] ], [ [ 469964.864368424285203, 1714992.399694055086002 ], [ 467775.05764267797349, 1714995.366637002443895 ], [ 467687.664073832565919, 1714088.122359680244699 ], [ 468782.584273631335236, 1714086.609452699078247 ], [ 468695.252447246224619, 1713179.376402148045599 ], [ 469790.188191043853294, 1713177.912278810050339 ], [ 469964.864368424285203, 1714992.399694055086002 ] ], [ [ 424564.884504949557595, 1732340.398657759884372 ], [ 425659.533571279491298, 1732336.793015607167035 ], [ 425748.499435840523802, 1733244.213869927451015 ], [ 424653.867064369551372, 1733247.817155748372898 ], [ 424564.884504949557595, 1732340.398657759884372 ] ], [ [ 425837.510981539147906, 1734151.649219359271228 ], [ 425926.568207639269531, 1735059.099073129240423 ], [ 428115.760076795646455, 1735052.060354629065841 ], [ 428204.829547388653737, 1735959.529556947993115 ], [ 429299.405807793955319, 1735956.091849074233323 ], [ 429388.504216994217131, 1736863.578052865108475 ], [ 428293.944679075560998, 1736867.013295465847477 ], [ 428383.1054711182951, 1737774.51157942507416 ], [ 427288.560708874312695, 1737777.99722724314779 ], [ 427199.3831827462418, 1736870.501387873431668 ], [ 425010.254195265413728, 1736877.63612416619435 ], [ 424742.895313845248893, 1734155.250142160570249 ], [ 425837.510981539147906, 1734151.649219359271228 ] ], [ [ 438768.942883886804339, 1743190.95651212730445 ], [ 438858.272229294816498, 1744098.580530398758128 ], [ 437763.861212854506448, 1744101.571275173453614 ], [ 437674.515094930829946, 1743193.949995045550168 ], [ 438768.942883886804339, 1743190.95651212730445 ] ], [ [ 463851.48240053630434, 1742229.064178059110418 ], [ 463940.381330219912343, 1743136.743909175507724 ], [ 462845.984414309030399, 1743138.517629542620853 ], [ 462757.06878083513584, 1742230.841259976383299 ], [ 463851.48240053630434, 1742229.064178059110418 ] ], [ [ 428740.205228107515723, 1741404.650354615179822 ], [ 428829.594310864340514, 1742312.221504510613158 ], [ 427735.133352849690709, 1742315.694828674197197 ], [ 427645.72749140416272, 1741408.126156950136647 ], [ 428740.205228107515723, 1741404.650354615179822 ] ], [ [ 429949.256353686912917, 1731415.48153999610804 ], [ 430038.109819412464276, 1732322.897580875316635 ], [ 426754.180605971487239, 1732333.24008735944517 ], [ 426665.277106537658256, 1731425.831341897370294 ], [ 427759.938820088165812, 1731422.328722615726292 ], [ 427671.097666003450286, 1730514.932062767446041 ], [ 428765.774074064567685, 1730511.479703845921904 ], [ 428854.59855916374363, 1731418.87878881720826 ], [ 429949.256353686912917, 1731415.48153999610804 ] ], [ [ 473030.438843074254692, 1724063.024406784679741 ], [ 473118.265092998510227, 1724970.443373855436221 ], [ 472023.544791805557907, 1724971.758247999474406 ], [ 471935.702041131036822, 1724064.342782564228401 ], [ 473030.438843074254692, 1724063.024406784679741 ] ], [ [ 445309.216663303843234, 1720482.506528395693749 ], [ 445573.525565782387275, 1723204.394795036641881 ], [ 444478.744028509128839, 1723207.02735476824455 ], [ 444214.385512756067328, 1720485.147478317376226 ], [ 445309.216663303843234, 1720482.506528395693749 ] ], [ [ 460548.928306784422603, 1719543.72079857555218 ], [ 460461.192790136730764, 1718636.426438207970932 ], [ 461556.037586514430586, 1718634.564308051718399 ], [ 461643.75663056364283, 1719541.861856153234839 ], [ 460548.928306784422603, 1719543.72079857555218 ] ], [ [ 461293.152799285657238, 1715912.759066668804735 ], [ 462388.045900032273494, 1715910.939620434073731 ], [ 462300.524856274947524, 1715003.697121318662539 ], [ 463395.433358900016174, 1715001.926666134502739 ], [ 463482.93797064665705, 1715909.17238126671873 ], [ 464577.829041116405278, 1715907.457348906667903 ], [ 464752.941502609988675, 1717721.998971263645217 ], [ 462563.224137818091549, 1717725.468284181552008 ], [ 462650.881330360018183, 1718632.754467424238101 ], [ 461556.037586514430586, 1718634.564308051718399 ], [ 461293.152799285657238, 1715912.759066668804735 ] ], [ [ 459278.640327561821323, 1717731.06421822309494 ], [ 459366.34691125084646, 1718638.340858166338876 ], [ 458271.499919881112874, 1718640.307568207615986 ], [ 458183.776867404405493, 1717733.034054569201544 ], [ 459278.640327561821323, 1717731.06421822309494 ] ], [ [ 465410.43994965357706, 1713184.081513592740521 ], [ 465585.247386148490477, 1714998.542293740669265 ], [ 464490.340858861047309, 1715000.20839035930112 ], [ 464315.500595054763835, 1713185.754131984896958 ], [ 465410.43994965357706, 1713184.081513592740521 ] ], [ [ 462125.618922748602927, 1713189.255742098437622 ], [ 462038.234034463413991, 1712282.056843399535865 ], [ 463133.191779836721253, 1712280.276779867475852 ], [ 463220.560262753337156, 1713187.478874736232683 ], [ 462125.618922748602927, 1713189.255742098437622 ] ], [ [ 463045.868674683442805, 1711373.08920648926869 ], [ 464140.841803808812983, 1711371.358023210894316 ], [ 464228.148514990170952, 1712278.548813549103215 ], [ 463133.191779836721253, 1712280.276779867475852 ], [ 463045.868674683442805, 1711373.08920648926869 ] ] ], [ [ [ 468880.138964628451504, 1737682.711604877607897 ], [ 468791.595485048484989, 1736775.103613897925243 ], [ 467697.086539386364166, 1736776.636538678780198 ], [ 467785.646656686847564, 1737684.241071431897581 ], [ 468880.138964628451504, 1737682.711604877607897 ] ] ], [ [ [ 458714.422283705906011, 1756764.8607561388053 ], [ 457620.27069344901247, 1756766.903890843736008 ], [ 457710.013430386548862, 1757674.798248039092869 ], [ 458804.148158942291047, 1757672.758418697863817 ], [ 458714.422283705906011, 1756764.8607561388053 ] ] ], [ [ [ 458893.919445497565903, 1758580.671016698936 ], [ 457799.801587554742582, 1758582.707533880369738 ], [ 457710.013430386548862, 1757674.798248039092869 ], [ 456615.877550214878283, 1757676.891547131584957 ], [ 456975.370238952047657, 1761308.605176599696279 ], [ 458069.438572820974514, 1761306.525057349586859 ], [ 457979.514159534592181, 1760398.570929124718532 ], [ 459073.598249510920141, 1760396.541056666290388 ], [ 458893.919445497565903, 1758580.671016698936 ] ] ], [ [ [ 457335.589745193603449, 1764940.558157735737041 ], [ 456241.587939643184654, 1764942.678677443880588 ], [ 455971.304384844668675, 1762218.701373473508283 ], [ 457065.356978279480245, 1762216.570959132863209 ], [ 456975.370238952047657, 1761308.605176599696279 ], [ 454787.230028353806119, 1761312.926154414657503 ], [ 454697.254907428752631, 1760404.981859485851601 ], [ 453603.166063388984185, 1760407.225941644981503 ], [ 453873.278507195122074, 1763131.09398407721892 ], [ 454967.316601223894395, 1763128.859591239364818 ], [ 455057.428051642957143, 1764036.848751949379221 ], [ 452869.384480070148129, 1764041.364713648566976 ], [ 453049.811501829361077, 1765857.375006972346455 ], [ 454143.800012881984003, 1765855.096647183177993 ], [ 454053.580727604450658, 1764947.080785947619006 ], [ 455147.584943700698204, 1764944.852886741282418 ], [ 455237.787276632909197, 1765852.872005029814318 ], [ 457425.758181259792764, 1765848.583872338291258 ], [ 457335.589745193603449, 1764940.558157735737041 ] ] ], [ [ [ 454234.06474718922982, 1766763.12749450141564 ], [ 454505.131636646809056, 1769487.31004715198651 ], [ 453411.211034645442851, 1769489.575420003151521 ], [ 453592.183533467061352, 1771305.76569039421156 ], [ 454686.070127406448592, 1771303.506852065213025 ], [ 455048.492436015745625, 1774936.081048958934844 ], [ 456142.30968561116606, 1774933.88935360009782 ], [ 456323.759381246811245, 1776750.27356825908646 ], [ 454136.191886018961668, 1776754.697662149788812 ], [ 454227.019019892264623, 1777662.905759121291339 ], [ 456414.552375794446561, 1777658.488330100197345 ], [ 456505.390800469496753, 1778566.718207555823028 ], [ 458692.885275444714352, 1778562.52386102732271 ], [ 458602.080997473211028, 1777654.287195324199274 ], [ 459695.843607233895455, 1777652.267737505026162 ], [ 459605.101802045013756, 1776744.042772823013365 ], [ 458511.322131776134484, 1776746.065658994717523 ], [ 458420.608679123106413, 1775837.859242576174438 ], [ 457326.810827900015283, 1775839.939568357542157 ], [ 456964.343035640311427, 1772207.278420212911442 ], [ 458058.209014390420634, 1772205.18458682927303 ], [ 457877.281680334417615, 1770388.937732574762776 ], [ 456783.381691359507386, 1770391.03827860369347 ], [ 456692.969159871398006, 1769482.940782863181084 ], [ 457786.886140576680191, 1769480.836890787351876 ], [ 457606.231319440121297, 1767664.680330693023279 ], [ 456512.28038203791948, 1767666.790894330944866 ], [ 456422.004137225507293, 1766758.738482674816623 ], [ 454234.06474718922982, 1766763.12749450141564 ] ], [ [ 456873.839650204754435, 1771299.150821240618825 ], [ 455779.955489741521887, 1771301.301895788405091 ], [ 455689.480527634965256, 1770393.192678643856198 ], [ 456783.381691359507386, 1770391.03827860369347 ], [ 456873.839650204754435, 1771299.150821240618825 ] ] ], [ [ [ 466712.275037070037797, 1782182.744911152403802 ], [ 465618.603907004464418, 1782184.421869947342202 ], [ 465800.506625832116697, 1784001.104465369367972 ], [ 462519.590167579590343, 1784006.439096164191142 ], [ 462610.660921845235862, 1784914.792465444421396 ], [ 468078.764735718083102, 1784906.19083306286484 ], [ 467805.945263805915602, 1782181.122160450322554 ], [ 468899.614616889914032, 1782179.553617604775354 ], [ 468808.782550262461882, 1781271.224187891697511 ], [ 466621.408799085300416, 1781274.422818153863773 ], [ 466712.275037070037797, 1782182.744911152403802 ] ] ], [ [ [ 495151.676505798764993, 1668716.419744841754436 ], [ 497343.102973638742696, 1668716.071941104717553 ], [ 497427.734739686304238, 1669622.70561207132414 ], [ 498523.431955732754432, 1669622.61174543062225 ], [ 498354.24530404858524, 1667809.350974330678582 ], [ 497258.516310959530529, 1667809.452573735965416 ], [ 497173.974752384645399, 1666902.84750067256391 ], [ 494982.484751724172384, 1666903.210579764796421 ], [ 495151.676505798764993, 1668716.419744841754436 ] ] ], [ [ [ 486640.470920211984776, 1671439.67425072658807 ], [ 484449.134937636146788, 1671441.01623627380468 ], [ 484534.093226346245501, 1672347.648344465764239 ], [ 485629.745468955836259, 1672346.955481778364629 ], [ 485799.765742822841275, 1674160.269637147895992 ], [ 486895.385672216594685, 1674159.634856057586148 ], [ 486810.368899945169687, 1673252.967038449598476 ], [ 487906.004429132619407, 1673252.379571653436869 ], [ 487821.048796758637764, 1672345.722418326651677 ], [ 486725.397315699723549, 1672346.313506430014968 ], [ 486640.470920211984776, 1671439.67425072658807 ] ] ], [ [ [ 476365.726835348235909, 1678701.653952457476407 ], [ 478556.815173190203495, 1678699.552234498318285 ], [ 478386.118774399103131, 1676886.144333438482136 ], [ 475099.38915962720057, 1676889.393827648833394 ], [ 475184.762791849672794, 1677796.080499331699684 ], [ 476280.323952885111794, 1677794.949661309598014 ], [ 476365.726835348235909, 1678701.653952457476407 ] ] ], [ [ [ 493054.601538705115672, 1681411.231480907183141 ], [ 494150.091846359486226, 1681410.932701953453943 ], [ 494064.809749232023023, 1680504.127777595072985 ], [ 495160.315913100959733, 1680503.876315613510087 ], [ 494989.919114707910921, 1678690.301985301543027 ], [ 492798.842603245400824, 1678690.87132482137531 ], [ 493054.601538705115672, 1681411.231480907183141 ] ] ], [ [ [ 504009.500989164982457, 1681410.545929501298815 ], [ 501818.521181057381909, 1681410.27375322766602 ], [ 501988.996432552230544, 1683223.981937940930948 ], [ 504179.91218942659907, 1683224.27035121829249 ], [ 504009.500989164982457, 1681410.545929501298815 ] ] ], [ [ [ 507295.971604081627447, 1681411.337900402955711 ], [ 505104.991043626971077, 1681410.758758905576542 ], [ 505275.370225268183276, 1683224.491381365107372 ], [ 504179.91218942659907, 1683224.27035121829249 ], [ 504265.185360939067323, 1684131.15428507514298 ], [ 506456.069534944661427, 1684131.655808718176559 ], [ 506370.828406225133222, 1683224.763627223670483 ], [ 507466.286762432020623, 1683225.087088835425675 ], [ 507381.106672462949064, 1682318.205247002188116 ], [ 508476.581240810570307, 1682318.575738551327959 ], [ 508306.388113411667291, 1680504.84717897279188 ], [ 507210.881558039342053, 1680504.485039676772431 ], [ 507295.971604081627447, 1681411.337900402955711 ] ] ], [ [ [ 504435.866842989111319, 1685944.965645572170615 ], [ 504265.185360939067323, 1684131.15428507514298 ], [ 503169.743464970320929, 1684130.980387910967693 ], [ 503255.077716800442431, 1685037.874727045884356 ], [ 502159.651944077690132, 1685037.74801116832532 ], [ 502245.047295485099312, 1685944.652779353316873 ], [ 504435.866842989111319, 1685944.965645572170615 ] ] ], [ [ [ 508732.208525721274782, 1685039.277364303125069 ], [ 508561.745324021554552, 1683225.461766247171909 ], [ 507466.286762432020623, 1683225.087088835425675 ], [ 507551.511873242736328, 1684131.983435271773487 ], [ 506456.069534944661427, 1684131.655808718176559 ], [ 506541.355692588025704, 1685038.562497683800757 ], [ 505445.929560929420404, 1685038.281970273470506 ], [ 505531.27678464690689, 1685945.199025552487001 ], [ 504435.866842989111319, 1685944.965645572170615 ], [ 504521.275152029294986, 1686851.893090936588123 ], [ 506712.063091646530665, 1686852.41943550738506 ], [ 506626.686878405336756, 1685945.483703489881009 ], [ 507722.097154385526665, 1685945.819679427426308 ], [ 507636.782004143577069, 1685038.894295677309856 ], [ 508732.208525721274782, 1685039.277364303125069 ] ] ], [ [ [ 494919.661407339503057, 1689572.826501464936882 ], [ 497110.352486477873754, 1689572.452448420692235 ], [ 497024.696452018688433, 1688665.509683771524578 ], [ 498120.057949410402216, 1688665.395811302820221 ], [ 497948.913352893723641, 1686851.545864739688113 ], [ 502330.487709658744279, 1686851.572047723922879 ], [ 502245.047295485099312, 1685944.652779353316873 ], [ 501149.63762939668959, 1685944.57329306867905 ], [ 501064.226230749161914, 1685037.672565754503012 ], [ 499968.800546687794849, 1685037.648390793474391 ], [ 500054.227994920511264, 1685944.545104649849236 ], [ 497863.408700320578646, 1685944.642621398204938 ], [ 497777.94914586644154, 1685037.753852222580463 ], [ 496682.523368853493594, 1685037.883488627849147 ], [ 496767.9989799525938, 1685944.768326580291614 ], [ 492386.358908522815909, 1685945.784126546233892 ], [ 492471.943912181304768, 1686852.667955347103998 ], [ 494662.732098591572139, 1686852.065143041312695 ], [ 494748.330078604572918, 1687758.971119415480644 ], [ 495843.707857573812362, 1687758.750590743264183 ], [ 495929.33487284113653, 1688665.674936366500333 ], [ 494833.97318176884437, 1688665.891569111961871 ], [ 494919.661407339503057, 1689572.826501464936882 ] ] ], [ [ [ 491547.887136082339566, 1688666.849748607724905 ], [ 492643.249343498377129, 1688666.478975189384073 ], [ 492471.943912181304768, 1686852.667955347103998 ], [ 491376.549523561669048, 1686853.046349653974175 ], [ 491547.887136082339566, 1688666.849748607724905 ] ] ], [ [ [ 499215.419395125180017, 1688665.333318943390623 ], [ 498120.057949410402216, 1688665.395811302820221 ], [ 498205.697891861665994, 1689572.342533216811717 ], [ 499301.043247929308563, 1689572.284025534288958 ], [ 499215.419395125180017, 1688665.333318943390623 ] ] ], [ [ [ 477394.092436138773337, 1689583.221663249423727 ], [ 476298.740373676759191, 1689584.308333039749414 ], [ 476384.747882209136151, 1690491.195498334011063 ], [ 477480.083798194187693, 1690490.112271608086303 ], [ 477394.092436138773337, 1689583.221663249423727 ] ] ], [ [ [ 487423.974140189995524, 1691389.615142695140094 ], [ 490709.918075587716885, 1691388.074099474586546 ], [ 490452.524696331762243, 1688667.271902349311858 ], [ 488261.798999390506651, 1688668.270351058105007 ], [ 488433.413886065070983, 1690482.108990514650941 ], [ 487338.082804365782067, 1690482.677857940318063 ], [ 487423.974140189995524, 1691389.615142695140094 ] ] ], [ [ [ 492900.546039311971981, 1691387.304050498409197 ], [ 495091.173222712590359, 1691386.73985151341185 ], [ 494919.661407339503057, 1689572.826501464936882 ], [ 493824.315673373290338, 1689573.090639359550551 ], [ 493738.611348690872546, 1688666.159582039806992 ], [ 492643.249343498377129, 1688666.478975189384073 ], [ 492900.546039311971981, 1691387.304050498409197 ] ] ], [ [ [ 494081.699427459563594, 1692293.97076156293042 ], [ 490795.806180768064223, 1692295.037121908739209 ], [ 490881.739440754929092, 1693202.014638259075582 ], [ 489786.457370244432241, 1693202.469280169578269 ], [ 489872.451937172678299, 1694109.457501746248454 ], [ 492062.983524328679778, 1694108.607358816312626 ], [ 491977.021260771609377, 1693201.611513774143532 ], [ 493072.302860383060761, 1693201.259906655643135 ], [ 493158.248975838767365, 1694108.259604544378817 ], [ 494253.514239417389035, 1694107.963394997641444 ], [ 494081.699427459563594, 1692293.97076156293042 ] ] ], [ [ [ 474884.022888682840858, 1697749.077520109945908 ], [ 475979.230602910800371, 1697747.918760985834524 ], [ 475892.844724340073299, 1696840.919679745798931 ], [ 476988.067998859623913, 1696839.809108751127496 ], [ 476901.743606269243173, 1695932.821015093708411 ], [ 480187.458376995986328, 1695929.788523889845237 ], [ 480101.227842877677176, 1695022.804347512777895 ], [ 483386.986286442726851, 1695020.225486593320966 ], [ 483300.849536488240119, 1694113.245010803220794 ], [ 485491.385183935926761, 1694111.776327057741582 ], [ 485405.325981478847098, 1693204.803023521089926 ], [ 487595.892357385309879, 1693203.533116543432698 ], [ 487423.974140189995524, 1691389.615142695140094 ], [ 486328.658844050718471, 1691390.231749331811443 ], [ 486242.751374696090352, 1690483.298160794889554 ], [ 484052.087351038644556, 1690484.693073163973168 ], [ 484224.012046964024194, 1692298.560075227636844 ], [ 483128.711683147819713, 1692299.327450416982174 ], [ 482956.7546968475217, 1690485.467682883143425 ], [ 481861.421574279724155, 1690486.293728441698477 ], [ 481775.494773794489447, 1689579.389073804719374 ], [ 479584.794727192609571, 1689581.202550876187161 ], [ 479670.753803602478001, 1690488.100127568468451 ], [ 480766.087953231297433, 1690487.171209960943088 ], [ 480852.076126414118335, 1691394.08672848274 ], [ 481947.39360185933765, 1691393.212806158000603 ], [ 482033.410855792695656, 1692300.146316254511476 ], [ 479842.807690087181982, 1692301.938520361902192 ], [ 479928.90249868290266, 1693208.879355051554739 ], [ 478833.61626831657486, 1693209.849176144227386 ], [ 478747.505291550653055, 1692302.911858895560727 ], [ 476556.898712637252174, 1692305.013009636197239 ], [ 476384.747882209136151, 1690491.195498334011063 ], [ 475289.411317236081231, 1690492.330161741236225 ], [ 475375.48025491280714, 1691399.228295329259709 ], [ 474280.159171071019955, 1691400.411000801250339 ], [ 474366.289557314186823, 1692307.320126318372786 ], [ 473270.9839382628561, 1692308.550922306487337 ], [ 473357.175792506022844, 1693215.471063380362466 ], [ 474452.465231164998841, 1693214.243647825438529 ], [ 474538.686191884218715, 1694121.181574602378532 ], [ 473443.41294247697806, 1694122.405603193910792 ], [ 473529.695387439627666, 1695029.354551025433466 ], [ 472434.437609132903162, 1695030.626760322134942 ], [ 472520.781557780341245, 1695937.58675281656906 ], [ 469235.052203047263902, 1695941.702874324750155 ], [ 469321.490123749827035, 1696848.667313727317378 ], [ 470416.717821059399284, 1696847.246968085179105 ], [ 470503.184835430583917, 1697754.22912070248276 ], [ 471598.39548833493609, 1697752.863735569408163 ], [ 471771.43298144673463, 1699566.878008130704984 ], [ 472866.610368744586594, 1699565.571016081143171 ], [ 473039.796573699568398, 1701379.649853724287823 ], [ 474134.940699866041541, 1701378.401390394661576 ], [ 474308.275544753356371, 1703192.544974777847528 ], [ 475403.386414244596381, 1703191.355175849981606 ], [ 475143.500887189758942, 1700470.151189718162641 ], [ 476238.659881526895333, 1700469.002791486680508 ], [ 476065.66175579233095, 1698654.932300488697365 ], [ 474970.470272665901575, 1698656.087612536968663 ], [ 474884.022888682840858, 1697749.077520109945908 ] ] ], [ [ [ 479178.51268235250609, 1696837.742852083873004 ], [ 478083.29064150567865, 1696838.75016624876298 ], [ 478169.644082949205767, 1697745.756210746942088 ], [ 479264.849908899923321, 1697744.752419315977022 ], [ 479178.51268235250609, 1696837.742852083873004 ] ] ], [ [ [ 477247.312770818825811, 1699560.860159997595474 ], [ 478342.486734865698963, 1699559.811723141232505 ], [ 478169.644082949205767, 1697745.756210746942088 ], [ 477074.437657642411068, 1697746.81165791884996 ], [ 477247.312770818825811, 1699560.860159997595474 ] ] ], [ [ [ 487854.108535887149628, 1695924.518728046212345 ], [ 485663.63918081135489, 1695925.766383179230615 ], [ 485922.359144864080008, 1698646.86022987915203 ], [ 483731.985424150945619, 1698648.29224447440356 ], [ 483991.209501372824889, 1701369.494671421591192 ], [ 485086.347882067668252, 1701368.763861202867702 ], [ 485172.830080416868441, 1702275.864099838770926 ], [ 484077.707946744631045, 1702276.591217507841066 ], [ 484164.251600687741302, 1703183.702314372640103 ], [ 486354.462951860099565, 1703182.307296685641631 ], [ 486095.065091360185761, 1700460.995411560405046 ], [ 487190.218916918849573, 1700460.364389634691179 ], [ 486931.2764344055322, 1697739.172228580573574 ], [ 488026.478548001497984, 1697738.581678396090865 ], [ 487854.108535887149628, 1695924.518728046212345 ] ] ], [ [ [ 482842.287523156031966, 1712257.144043576205149 ], [ 482929.361135974759236, 1713164.408355099381879 ], [ 484024.288459655886982, 1713163.621819474734366 ], [ 483937.231205073592719, 1712256.353791126515716 ], [ 485032.174446846183855, 1712255.61563237872906 ], [ 484945.178748384234495, 1711348.358513484708965 ], [ 486040.137924514419865, 1711347.668683299096301 ], [ 485605.919052885030396, 1706811.583840210689232 ], [ 486700.959423844586127, 1706810.927212960785255 ], [ 486614.267523312417325, 1705903.750341250328347 ], [ 485519.210863457876258, 1705904.410721346968785 ], [ 485432.547870748559944, 1704997.25219722930342 ], [ 484337.474531297862995, 1704997.968197811627761 ], [ 484250.840462454536464, 1704090.827971359249204 ], [ 482060.659910234156996, 1704092.422937948955223 ], [ 481887.462338704674039, 1702278.200829286128283 ], [ 482982.585376190079842, 1702277.370127285365015 ], [ 482896.07068136887392, 1701370.27724634250626 ], [ 480705.79160322190728, 1701371.997690759599209 ], [ 480878.931240408041049, 1703186.183487575268373 ], [ 479783.823444531706627, 1703187.114184900652617 ], [ 479870.477389584004413, 1704094.225293173687533 ], [ 478775.385315997060388, 1704095.204241850413382 ], [ 478862.100789357267786, 1705002.326318037929013 ], [ 479957.17657715867972, 1705001.350944603560492 ], [ 480043.921006508229766, 1705908.491148521658033 ], [ 477853.801442876050714, 1705910.486634119413793 ], [ 477767.024421776412055, 1705003.353566441684961 ], [ 476671.947444380202796, 1705004.432689966866747 ], [ 477019.392329755995888, 1708633.03814234235324 ], [ 479209.415181725576986, 1708630.960175181506202 ], [ 479296.356900814862456, 1709538.155074239708483 ], [ 477106.366716428485233, 1709540.225907249841839 ], [ 477193.386367739818525, 1710447.428251547273248 ], [ 479383.343866806128062, 1710445.36456588585861 ], [ 479557.453536503715441, 1712259.827364329248667 ], [ 482842.287523156031966, 1712257.144043576205149 ] ], [ [ 479122.5187102878117, 1707723.77985936915502 ], [ 480217.545587545901071, 1707722.815251159714535 ], [ 480304.425737739191391, 1708629.999168558977544 ], [ 479209.415181725576986, 1708630.960175181506202 ], [ 479122.5187102878117, 1707723.77985936915502 ] ], [ [ 480565.337618035438936, 1711351.638497194973752 ], [ 480478.321753733092919, 1710444.410782228223979 ], [ 481573.299105602898635, 1710443.509037830634043 ], [ 481660.298624511633534, 1711350.740401588845998 ], [ 480565.337618035438936, 1711351.638497194973752 ] ], [ [ 481399.435753797821235, 1708629.090146383969113 ], [ 482494.445259923522826, 1708628.233108523767442 ], [ 482581.337996023416054, 1709535.438914347672835 ], [ 483676.330699458427262, 1709534.637551077408716 ], [ 483589.454286134161521, 1708627.428054851712659 ], [ 484684.462862449581735, 1708626.674985249759629 ], [ 484858.228250996500719, 1710441.116038908483461 ], [ 481573.299105602898635, 1710443.509037830634043 ], [ 481399.435753797821235, 1708629.090146383969113 ] ] ] ] } }
]
}
