{
"type": "FeatureCollection",
"name": "urban-2005",
"crs": { "type": "name", "properties": { "name": "urn:ogc:def:crs:EPSG::32636" } },
"features": [
{ "type": "Feature", "properties": { "year": 2005 }, "geometry": { "type": "MultiPolygon", "coordinates": [ [ [ [ 451941.959605150390416, 1686900.852321633603424 ], [ 452028.186557825480122, 1687807.627985006198287 ], [ 454218.996717809524853, 1687803.232573791407049 ], [ 454046.652957098383922, 1685989.684132261201739 ], [ 451855.778121754527092, 1685994.090868571540341 ], [ 451769.642108364147134, 1685087.343616633908823 ], [ 450674.186560554022435, 1685089.626722783548757 ], [ 450416.002922875864897, 1682369.478384282905608 ], [ 451511.506895447091665, 1682367.186975758522749 ], [ 451425.552769300469663, 1681460.496436521876603 ], [ 450330.032672878995072, 1681462.790599534520879 ], [ 450244.107905367272906, 1680556.116963546955958 ], [ 448053.031344740302302, 1680560.864209377905354 ], [ 448224.990855093230493, 1682374.214789447840303 ], [ 446033.973089511389844, 1682379.155981100397184 ], [ 446120.05337748338934, 1683285.847153777256608 ], [ 445024.55842807184672, 1683288.391921409871429 ], [ 445369.39940837409813, 1686915.287554265931249 ], [ 446464.829687417077366, 1686912.753347646677867 ], [ 446551.137550809362438, 1687819.515317716635764 ], [ 447646.550170630856883, 1687817.035129265394062 ], [ 447732.887350841949228, 1688723.813976699020714 ], [ 448828.282337781856768, 1688721.387867330573499 ], [ 448741.961351125675719, 1687814.606302121654153 ], [ 449837.371122411452234, 1687812.228835929417983 ], [ 449751.111813067574985, 1686905.458732045022771 ], [ 451941.959605150390416, 1686900.852321633603424 ] ], [ [ 448483.271365083695855, 1685094.346769697964191 ], [ 449578.729656170122325, 1685091.961107023758814 ], [ 449664.897990745899733, 1685998.702825469663367 ], [ 448569.455864053743426, 1686001.085762481437996 ], [ 448483.271365083695855, 1685094.346769697964191 ] ] ], [ [ [ 442602.018477120727766, 1692363.919831663370132 ], [ 442515.418104347074404, 1691457.09742685011588 ], [ 441420.062724989838898, 1691459.824174601351842 ], [ 441506.679342180141248, 1692366.643999912543222 ], [ 442602.018477120727766, 1692363.919831663370132 ] ] ], [ [ [ 442602.018477120727766, 1692363.919831663370132 ], [ 442775.355856409005355, 1694177.607270780717954 ], [ 441680.049236945342273, 1694180.326260454719886 ], [ 441853.601340740686283, 1695994.065395352197811 ], [ 442948.875409200205468, 1695991.351610373239964 ], [ 442862.092861479148269, 1695084.472323430003598 ], [ 443957.381640525476541, 1695081.807515140157193 ], [ 443697.356034988129977, 1692361.247163555584848 ], [ 442602.018477120727766, 1692363.919831663370132 ] ] ], [ [ [ 470416.717821059399284, 1696847.246968085179105 ], [ 470330.296126053493936, 1695940.279231703141704 ], [ 469235.052203047263902, 1695941.702874324750155 ], [ 469321.490123749827035, 1696848.667313727317378 ], [ 470416.717821059399284, 1696847.246968085179105 ] ] ], [ [ [ 469841.069514958187938, 1702290.756878382293507 ], [ 470101.471091804734897, 1705011.99681805470027 ], [ 469006.389004665194079, 1705013.439072287175804 ], [ 469354.290926332643721, 1708641.948560738004744 ], [ 470449.307692845060956, 1708640.519686819287017 ], [ 470536.380141472851392, 1709547.686706959968433 ], [ 471631.37974799744552, 1709546.313207989558578 ], [ 471022.938586955016945, 1703196.425297187408432 ], [ 472118.051661154429894, 1703195.080035260645673 ], [ 472031.329031392931938, 1702288.007819994352758 ], [ 469841.069514958187938, 1702290.756878382293507 ] ] ], [ [ [ 459237.662811556831002, 1705935.830670355819166 ], [ 459324.76267181057483, 1706842.921942068496719 ], [ 458229.703424555598758, 1706844.876844079699367 ], [ 458491.324561009067111, 1709566.228129449067637 ], [ 462871.358600626466796, 1709558.757587034255266 ], [ 462609.93384128017351, 1706837.368836779613048 ], [ 461514.877850142132957, 1706839.167938694590703 ], [ 461427.810683891468216, 1705932.070449184859172 ], [ 459237.662811556831002, 1705935.830670355819166 ] ] ], [ [ [ 476447.003406337811612, 1714077.479315404314548 ], [ 476272.614508428843692, 1712262.979533027857542 ], [ 475177.666905404243153, 1712264.134445061674342 ], [ 475352.088563040248118, 1714078.627170858671889 ], [ 476447.003406337811612, 1714077.479315404314548 ] ] ], [ [ [ 470139.721834853757173, 1716806.94546573725529 ], [ 467949.980799672484864, 1716809.898928572190925 ], [ 467338.543213517405093, 1710459.290822764858603 ], [ 468433.528966850135475, 1710457.764596328604966 ], [ 468346.37847545259865, 1709550.589745291974396 ], [ 466156.373338694684207, 1709553.70083891088143 ], [ 466243.556564981117845, 1710460.869090645341203 ], [ 464053.58046225248836, 1710464.181751673808321 ], [ 463966.364491063170135, 1709557.019989645341411 ], [ 462871.358600626466796, 1709558.757587034255266 ], [ 463045.868674683442805, 1711373.08920648926869 ], [ 465235.813950204814319, 1711369.67890949267894 ], [ 465323.104269926669076, 1712276.872944189468399 ], [ 466418.059074652846903, 1712275.249171543633565 ], [ 466505.378356552508194, 1713182.46101931319572 ], [ 465410.43994965357706, 1713184.081513592740521 ], [ 465760.236253738694359, 1716813.061324404552579 ], [ 464665.362589280644897, 1716814.72087277052924 ], [ 464840.565780359203927, 1718629.291653699940071 ], [ 467030.246379941352643, 1718626.037995003163815 ], [ 466942.655006912595127, 1717718.738703774288297 ], [ 468037.510386329668108, 1717717.186961461789906 ], [ 468125.085310765192844, 1718624.48959818854928 ], [ 470314.760584356205072, 1718621.549668489722535 ], [ 470139.721834853757173, 1716806.94546573725529 ] ] ], [ [ [ 459454.09890303312568, 1719545.632058198563755 ], [ 460548.928306784422603, 1719543.72079857555218 ], [ 460461.192790136730764, 1718636.426438207970932 ], [ 461556.037586514430586, 1718634.564308051718399 ], [ 461380.735670131864026, 1716820.012922613415867 ], [ 459190.979152709594928, 1716823.802129070740193 ], [ 459454.09890303312568, 1719545.632058198563755 ] ] ], [ [ [ 463307.974122687650379, 1714094.695500392233953 ], [ 463220.560262753337156, 1713187.478874736232683 ], [ 461030.676545041846111, 1713191.084734332980588 ], [ 460943.275248865305912, 1712283.889004406752065 ], [ 458753.354436970083043, 1712287.709619926987216 ], [ 458665.965730713447556, 1711380.53464041184634 ], [ 454286.044662343105301, 1711388.813209017505869 ], [ 454198.63576399924932, 1710481.664844392100349 ], [ 453103.636032003967557, 1710483.867629863787442 ], [ 453016.256184946163557, 1709576.736672538565472 ], [ 451921.238766013819259, 1709578.994432861218229 ], [ 451659.32283588196151, 1706857.696879242546856 ], [ 452754.389406188216526, 1706855.430369082605466 ], [ 452667.191403191362042, 1705948.357093276688829 ], [ 451572.108466859848704, 1705950.626506876666099 ], [ 451484.93956957210321, 1705043.57052519521676 ], [ 452580.038863045803737, 1705041.298214735696092 ], [ 452492.931786484376062, 1704134.253724219975993 ], [ 450302.699169741303194, 1704138.855979340383783 ], [ 450477.024202358676121, 1705952.947828896343708 ], [ 449381.938579651003238, 1705955.321059675421566 ], [ 449469.185688388475683, 1706862.385707339271903 ], [ 448374.115051139437128, 1706864.808025964535773 ], [ 448286.851568702142686, 1705957.74619956407696 ], [ 447191.763139477174263, 1705960.223248917376623 ], [ 446930.19660992117133, 1703239.132300649769604 ], [ 448025.334114632511046, 1703236.646909141680226 ], [ 447938.252630125090946, 1702329.642511187121272 ], [ 449033.40504702826729, 1702327.206152003491297 ], [ 448859.411232348764315, 1700513.234778823330998 ], [ 449954.594895332236774, 1700510.844594156369567 ], [ 449867.682537415239494, 1699603.87759279133752 ], [ 450962.881133266782854, 1699601.53632246889174 ], [ 450789.225461538298987, 1697787.639628656907007 ], [ 449693.994279511040077, 1697789.98653945652768 ], [ 449607.218380981183145, 1696883.062469065422192 ], [ 450702.465842777921353, 1696880.712747847894207 ], [ 450529.083043110207655, 1695066.90187236526981 ], [ 451624.361679052817635, 1695064.598129656398669 ], [ 451537.754750192572828, 1694157.711298374924809 ], [ 452633.048305512755178, 1694155.456289465073496 ], [ 452460.003335046349093, 1692341.719778210390359 ], [ 451364.677310244587716, 1692343.980458697769791 ], [ 451191.781765503576025, 1690530.306654852349311 ], [ 450096.421965348359663, 1690532.624423252185807 ], [ 450010.026199276035186, 1689625.811672347830608 ], [ 448914.648818888352253, 1689628.183641702402383 ], [ 449347.163615817262325, 1694162.375972509384155 ], [ 448251.865976584667806, 1694164.785638418281451 ], [ 448338.521664859727025, 1695071.664097292115912 ], [ 447243.238862383121159, 1695074.122580209746957 ], [ 447416.719276073679794, 1696887.91681639640592 ], [ 446321.467572809488047, 1696890.421443223720416 ], [ 446582.078373053227551, 1699611.211707294220105 ], [ 445486.874092447338626, 1699613.75984783610329 ], [ 445747.943480661488138, 1702334.670629624743015 ], [ 444652.786687996296678, 1702337.262389617739245 ], [ 444739.917202390090097, 1703244.258567011449486 ], [ 443644.775239474198315, 1703246.89944261754863 ], [ 443731.967638428614009, 1704153.907251610886306 ], [ 442636.840489256079309, 1704156.597291429061443 ], [ 442898.740028600441292, 1706877.698679316788912 ], [ 441803.660446610650979, 1706880.432624682784081 ], [ 442066.019085599516984, 1709601.655127646867186 ], [ 440970.987136306008324, 1709604.433084054850042 ], [ 441058.547541844192892, 1710511.533320158254355 ], [ 442153.563063820416573, 1710508.758019635919482 ], [ 442328.787663717812393, 1712323.006945412838832 ], [ 443423.768724043271504, 1712320.289079943671823 ], [ 444214.385512756067328, 1720485.147478317376226 ], [ 445309.216663303843234, 1720482.506528395693749 ], [ 445397.274109582707752, 1721389.788112561218441 ], [ 446492.087236862396821, 1721387.202329334570095 ], [ 446756.483069329988211, 1724109.142620951868594 ], [ 444566.954592507740017, 1724114.349661576095968 ], [ 444478.744028509128839, 1723207.02735476824455 ], [ 443383.960972065164242, 1723209.712346279993653 ], [ 443207.643341836985201, 1721395.116809229599312 ], [ 442112.82564144016942, 1721397.85972345340997 ], [ 441936.657109006191604, 1719583.327603740384802 ], [ 440841.804759860853665, 1719586.128304944606498 ], [ 440665.785397083149292, 1717771.659420718206093 ], [ 439570.898394376272336, 1717774.51777321123518 ], [ 439395.028273095667828, 1715960.111942756921053 ], [ 438300.106611991941463, 1715963.027810891391709 ], [ 438212.22341801848961, 1715055.849133169278502 ], [ 436022.342011218890548, 1715061.842658563284203 ], [ 435934.471430173900444, 1714154.6835093467962 ], [ 434839.511625526763964, 1714157.761078704614192 ], [ 435103.309650368872099, 1716879.274093846092001 ], [ 434008.397557544871233, 1716882.396313052158803 ], [ 434096.437960705661681, 1717789.59358028578572 ], [ 433001.540580057306215, 1717792.765553720295429 ], [ 433089.643124942434952, 1718699.974723008228466 ], [ 431994.760440660989843, 1718703.196499285055324 ], [ 432082.925146985857282, 1719610.41759396600537 ], [ 433177.791291395493317, 1719607.198293219087645 ], [ 433354.224486080696806, 1721421.688673256430775 ], [ 436638.712775549618527, 1721412.359969803364947 ], [ 436550.52302537165815, 1720505.099939382402226 ], [ 439835.04534114850685, 1720496.234778045210987 ], [ 439923.185457764484454, 1721403.502685694023967 ], [ 438828.362914553086739, 1721406.402734538307413 ], [ 439004.812955415516626, 1723220.976638126652688 ], [ 437910.021853743761312, 1723223.923794603906572 ], [ 437998.331805847352371, 1724131.229816474020481 ], [ 436903.55557910783682, 1724134.226788920583203 ], [ 436991.927695522201248, 1725041.544668688671663 ], [ 434802.403206756338477, 1725047.690832576714456 ], [ 434625.638235368474852, 1723233.079871361842379 ], [ 433530.840158259205054, 1723236.236767549766228 ], [ 433707.638302070030477, 1725050.842649863101542 ], [ 432612.871583914267831, 1725054.04695799248293 ], [ 432701.355683064786717, 1725961.369070674758404 ], [ 430511.849898921325803, 1725967.930199421476573 ], [ 430600.412852892186493, 1726875.261804882669821 ], [ 429505.673743880819529, 1726878.618701965780929 ], [ 429417.094170822936576, 1725971.289543047081679 ], [ 426132.815283041330986, 1725981.682696869596839 ], [ 426221.444729353301227, 1726889.004680480342358 ], [ 425126.697728866362013, 1726892.571770766749978 ], [ 425215.389491206849925, 1727799.905847993213683 ], [ 426310.119853016629349, 1727796.341101367026567 ], [ 426487.607129468175117, 1729611.057291806209832 ], [ 428676.995245556696318, 1729604.095106362598017 ], [ 428854.59855916374363, 1731418.87878881720826 ], [ 429949.256353686912917, 1731415.48153999610804 ], [ 430127.008931343443692, 1733230.328134387498721 ], [ 431221.631457198527642, 1733226.988549893721938 ], [ 431310.559524207783397, 1734134.436125234235078 ], [ 434594.365889945009258, 1734124.741466624895111 ], [ 434505.487878140935209, 1733217.286227082135156 ], [ 435600.103065961622633, 1733214.157594787655398 ], [ 435688.964398006210104, 1734121.6154438436497 ], [ 436783.56114898994565, 1734118.542185334954411 ], [ 436872.45139517512871, 1735026.017242570174858 ], [ 437967.029735612741206, 1735022.9994188726414 ], [ 438144.913605288427789, 1736837.998646317748353 ], [ 439239.456862897553947, 1736835.039030248997733 ], [ 439595.704674366977997, 1740465.223743099253625 ], [ 437406.750247112417128, 1740471.174101915676147 ], [ 437585.214560836204328, 1742286.343378988560289 ], [ 438679.659113391826395, 1742283.347164659295231 ], [ 438858.272229294816498, 1744098.580530398758128 ], [ 441047.089287507813424, 1744092.758234486915171 ], [ 440957.793479192070663, 1743185.128657749854028 ], [ 444241.057363625732251, 1743176.784648483851925 ], [ 444330.302886085526552, 1744084.422768369782716 ], [ 446519.104307696514297, 1744079.131104707717896 ], [ 446340.725796828395687, 1742263.857918061316013 ], [ 447435.157797982275952, 1742261.285771321970969 ], [ 447524.307554612460081, 1743168.917956239078194 ], [ 448618.721381325332914, 1743166.401794128352776 ], [ 448975.708387643040624, 1746797.089853001059964 ], [ 450070.053773946710862, 1746794.638813385507092 ], [ 449713.133806006284431, 1743163.938665715511888 ], [ 450807.544858518813271, 1743161.52857063873671 ], [ 450629.391246832208708, 1741346.260904210386798 ], [ 452818.276260274345987, 1741341.587530734483153 ], [ 452907.296883474569768, 1742249.220130415633321 ], [ 454001.720725601131562, 1742246.966018315870315 ], [ 454269.005143638059963, 1744969.961713753873482 ], [ 455363.377530729339924, 1744967.770053463988006 ], [ 455631.020706810755655, 1747690.908310879021883 ], [ 454536.698599611583631, 1747693.090463247383013 ], [ 454715.388136832218152, 1749508.583673292538151 ], [ 456903.964017557213083, 1749504.285336759174243 ], [ 456368.6419261849951, 1744057.945137465605512 ], [ 457463.028644765261561, 1744055.856439139461145 ], [ 457284.984839668730274, 1742240.5217081643641 ], [ 458379.403839815407991, 1742238.479612446622923 ], [ 458290.466780902061146, 1741330.831197709776461 ], [ 457196.031073055579327, 1741332.876511237816885 ], [ 457107.122731403331272, 1740425.246080874465406 ], [ 456012.669153916940559, 1740427.347554312087595 ], [ 455923.78954550891649, 1739519.735058114398271 ], [ 457018.259815465658903, 1739517.630407718243077 ], [ 456929.442325995478313, 1738610.02948241843842 ], [ 459118.412734974175692, 1738605.972522934200242 ], [ 458940.980703897890635, 1736790.80207345308736 ], [ 462224.527980216429569, 1736785.093715690309182 ], [ 461605.295373506844044, 1730432.392717280890793 ], [ 462699.925332895712927, 1730430.57254650304094 ], [ 462611.661663177597802, 1729523.099391212454066 ], [ 464800.951704067294486, 1729519.61036908836104 ], [ 464889.182222887058742, 1730427.090141857974231 ], [ 465983.80921333306469, 1730425.427907480858266 ], [ 466248.723175441497006, 1733147.96560061420314 ], [ 467343.299475379113574, 1733146.366183056961745 ], [ 467431.678229089593515, 1734053.911624404136091 ], [ 468526.237034562858753, 1734052.368365194415674 ], [ 468614.644519258697983, 1734959.932003436842933 ], [ 470803.726365944370627, 1734957.010705578373745 ], [ 470627.02314097317867, 1733141.884291134541854 ], [ 468437.874883007607423, 1733144.819492440437898 ], [ 468261.286582338216249, 1731329.766005910700187 ], [ 467166.677997066755779, 1731331.319539255928248 ], [ 466902.08586368127726, 1728608.860030332813039 ], [ 467996.744148752011824, 1728607.296283044153824 ], [ 467908.654011881153565, 1727699.835806485265493 ], [ 469003.327968261030037, 1727698.321230202913284 ], [ 468915.299707227793988, 1726790.872041560942307 ], [ 471104.678174482949544, 1726787.993668752722442 ], [ 471016.728293274180032, 1725880.552284453529865 ], [ 472111.432847617194057, 1725879.188411965267733 ], [ 472023.544791805557907, 1724971.758247999474406 ], [ 470928.823725332156755, 1724973.125601381994784 ], [ 470753.150532259081956, 1723158.316301491810009 ], [ 469658.395667941251304, 1723159.743021314498037 ], [ 469746.226103960361797, 1724067.13688983162865 ], [ 468651.486908832972404, 1724068.612621729262173 ], [ 468739.379176762420684, 1724976.017746676923707 ], [ 467644.65563477302203, 1724977.542539013782516 ], [ 467556.746856076060794, 1724070.140806088456884 ], [ 466462.005915739806369, 1724071.721443134360015 ], [ 466549.931207718967926, 1724979.119811438489705 ], [ 464360.479578631813638, 1724982.431797486031428 ], [ 464096.740705292962957, 1722260.300552058033645 ], [ 461907.186097205500118, 1722263.842033706605434 ], [ 461819.330886654148344, 1721356.500709668267518 ], [ 457440.142909702495672, 1721364.225130923325196 ], [ 457176.651786048954818, 1718642.326568620512262 ], [ 458271.499919881112874, 1718640.307568207615986 ], [ 457920.88021927617956, 1715011.300741453655064 ], [ 460110.704723060596734, 1715007.394570959266275 ], [ 460023.196209884423297, 1714100.172951213782653 ], [ 461118.123235997394659, 1714098.294981824234128 ], [ 461205.615320993412752, 1715005.519756171153858 ], [ 464490.340858861047309, 1715000.20839035930112 ], [ 464402.898043259105179, 1714092.973987821489573 ], [ 463307.974122687650379, 1714094.695500392233953 ] ], [ [ 458928.268088596989401, 1714102.103073417907581 ], [ 458840.788556511863135, 1713194.899094501510262 ], [ 459935.733099629927892, 1713192.965851708780974 ], [ 460023.196209884423297, 1714100.172951213782653 ], [ 458928.268088596989401, 1714102.103073417907581 ] ], [ [ 439684.880549677181989, 1741372.806522197555751 ], [ 440779.338534556736704, 1741369.913547778502107 ], [ 440868.543227959307842, 1742277.513765282928944 ], [ 439774.101992475916632, 1742280.403960234485567 ], [ 439684.880549677181989, 1741372.806522197555751 ] ] ], [ [ [ 464928.235421782010235, 1719536.598929396830499 ], [ 464840.565780359203927, 1718629.291653699940071 ], [ 462650.881330360018183, 1718632.754467424238101 ], [ 462738.583904340688605, 1719540.055230658268556 ], [ 461643.75663056364283, 1719541.861856153234839 ], [ 461819.330886654148344, 1721356.500709668267518 ], [ 462914.12519364192849, 1721354.700534355826676 ], [ 462826.331859016907401, 1720447.370583197101951 ], [ 463921.141636341577396, 1720445.619523533852771 ], [ 463833.4101580902352, 1719538.300921824993566 ], [ 464928.235421782010235, 1719536.598929396830499 ] ] ], [ [ [ 423203.509807340451516, 1729621.895305480575189 ], [ 423381.279819803021383, 1731436.655317821539938 ], [ 424475.947636318858713, 1731432.994638975244015 ], [ 424387.056459211511537, 1730525.60509017854929 ], [ 426576.419280792702921, 1730518.437079786323011 ], [ 426487.607129468175117, 1729611.057291806209832 ], [ 423203.509807340451516, 1729621.895305480575189 ] ] ], [ [ [ 453085.474508597457316, 1744064.529586107702926 ], [ 451991.082849252328742, 1744066.830521281808615 ], [ 452437.406245217600372, 1748605.347186196129769 ], [ 453531.714078812976368, 1748603.061823578784242 ], [ 453085.474508597457316, 1744064.529586107702926 ] ] ], [ [ [ 440131.443423648306634, 1745910.94048774545081 ], [ 436848.3110598155763, 1745919.896233007544652 ], [ 436758.856983466655947, 1745012.248321080114692 ], [ 435664.45932782482123, 1745015.34250646061264 ], [ 435753.930199834110681, 1745922.98772155190818 ], [ 433565.163192690175492, 1745929.330061533953995 ], [ 433654.713281278614886, 1746836.984630117192864 ], [ 432560.343886985152494, 1746840.232861078577116 ], [ 432649.956413601816166, 1747747.899475788930431 ], [ 433744.308986393967643, 1747744.653872979572043 ], [ 433833.95030729030259, 1748652.337799409171566 ], [ 434928.284245522052515, 1748649.148035415681079 ], [ 434838.659752376377583, 1747741.461446692235768 ], [ 435933.008741396770347, 1747738.322196459397674 ], [ 436022.616409459325951, 1748646.011474868748337 ], [ 437116.946828944666777, 1748642.928117307601497 ], [ 437206.583262859669048, 1749550.634825923480093 ], [ 438300.895139054569881, 1749547.607422122731805 ], [ 438211.275533818465192, 1748639.897962281480432 ], [ 439305.602553922857624, 1748636.921009345678613 ], [ 439216.045345141319558, 1747729.223497524159029 ], [ 440310.387524770805612, 1747726.296946986345574 ], [ 440131.443423648306634, 1745910.94048774545081 ] ] ], [ [ [ 449065.068870346993208, 1747704.798766249790788 ], [ 448975.708387643040624, 1746797.089853001059964 ], [ 447881.361609749961644, 1746799.594035902060568 ], [ 447970.738876935676672, 1747707.299937484320253 ], [ 449065.068870346993208, 1747704.798766249790788 ] ] ], [ [ [ 456346.735037003993057, 1754953.263037381926551 ], [ 456257.111727772222366, 1754045.416667312849313 ], [ 455162.907252118457109, 1754047.576397963333875 ], [ 455252.547401498944964, 1754955.41953783784993 ], [ 456346.735037003993057, 1754953.263037381926551 ] ] ], [ [ [ 455521.740488629729953, 1757679.038316282443702 ], [ 455252.547401498944964, 1754955.41953783784993 ], [ 454158.358546989504248, 1754957.629426462575793 ], [ 454427.602215835358948, 1757681.238555804826319 ], [ 455521.740488629729953, 1757679.038316282443702 ] ] ], [ [ [ 450875.784371341345832, 1754964.579424623399973 ], [ 449781.590342720621265, 1754967.002869237447158 ], [ 449691.865953558008187, 1754059.175469331908971 ], [ 450786.076835354731884, 1754056.748931523179635 ], [ 450606.798194389091805, 1752241.132487056776881 ], [ 449512.553632986033335, 1752243.565190920140594 ], [ 449333.423261120216921, 1750428.014211961068213 ], [ 448239.143674630089663, 1750430.506307663628832 ], [ 448507.957950716372579, 1753153.845872306264937 ], [ 447413.727448264544364, 1753156.382167030591518 ], [ 447503.440048139367718, 1754064.188632713397965 ], [ 448597.653701091650873, 1754061.655369607266039 ], [ 448777.18168482882902, 1755877.318884000182152 ], [ 447683.001757626887411, 1755879.846063525881618 ], [ 447772.850865728687495, 1756787.69704738073051 ], [ 448867.013916679366957, 1756785.172919823788106 ], [ 449226.797759634268004, 1760416.737805953482166 ], [ 450320.891834280046169, 1760414.279508836567402 ], [ 450410.934601896849927, 1761322.211076324107125 ], [ 449316.857445471337996, 1761324.666260080644861 ], [ 449497.113281948317308, 1763140.567913128528744 ], [ 451685.19852394098416, 1763135.723676381399855 ], [ 451235.069267645536456, 1758596.050088189309463 ], [ 450140.94274088984821, 1758598.461092150304466 ], [ 450051.036416633636691, 1757690.574224181473255 ], [ 451145.179832231311593, 1757688.160099868895486 ], [ 450875.784371341345832, 1754964.579424623399973 ] ] ], [ [ [ 466712.275037070037797, 1782182.744911152403802 ], [ 465618.603907004464418, 1782184.421869947342202 ], [ 465800.506625832116697, 1784001.104465369367972 ], [ 464706.868773810507264, 1784002.828412136528641 ], [ 464797.905282460385934, 1784911.188940272433683 ], [ 466985.145823431143072, 1784907.80257839220576 ], [ 466894.143550021923147, 1783999.434781761374325 ], [ 467987.779576049710158, 1783997.819361068075523 ], [ 467715.096112789295148, 1781272.796412799973041 ], [ 466621.408799085300416, 1781274.422818153863773 ], [ 466712.275037070037797, 1782182.744911152403802 ] ] ], [ [ [ 494982.484751724172384, 1666903.210579764796421 ], [ 495067.058067880570889, 1667809.808021579869092 ], [ 496162.787242304359097, 1667809.604922811035067 ], [ 496247.389791431312915, 1668716.22045442275703 ], [ 498438.816082620993257, 1668715.974204865051433 ], [ 498354.24530404858524, 1667809.350974330678582 ], [ 497258.516310959530529, 1667809.452573735965416 ], [ 497173.974752384645399, 1666902.84750067256391 ], [ 494982.484751724172384, 1666903.210579764796421 ] ] ], [ [ [ 486725.397315699723549, 1672346.313506430014968 ], [ 486640.470920211984776, 1671439.67425072658807 ], [ 485544.803128050931264, 1671440.319813531823456 ], [ 485799.765742822841275, 1674160.269637147895992 ], [ 486895.385672216594685, 1674159.634856057586148 ], [ 486810.368899945169687, 1673252.967038449598476 ], [ 487906.004429132619407, 1673252.379571653436869 ], [ 487821.048796758637764, 1672345.722418326651677 ], [ 486725.397315699723549, 1672346.313506430014968 ] ] ], [ [ [ 478556.815173190203495, 1678699.552234498318285 ], [ 478386.118774399103131, 1676886.144333438482136 ], [ 477290.542871417885181, 1676887.17647276353091 ], [ 477461.271314455836546, 1678700.577553399372846 ], [ 478556.815173190203495, 1678699.552234498318285 ] ] ], [ [ [ 495160.315913100959733, 1680503.876315613510087 ], [ 494989.919114707910921, 1678690.301985301543027 ], [ 492798.842603245400824, 1678690.87132482137531 ], [ 492969.30342203786131, 1680504.430373078677803 ], [ 495160.315913100959733, 1680503.876315613510087 ] ] ], [ [ [ 508391.462170357117429, 1681411.70421258197166 ], [ 508306.388113411667291, 1680504.84717897279188 ], [ 507210.881558039342053, 1680504.485039676772431 ], [ 507295.971604081627447, 1681411.337900402955711 ], [ 508391.462170357117429, 1681411.70421258197166 ] ] ], [ [ [ 506200.481238552485593, 1681411.022749192779884 ], [ 506285.632307178515475, 1682317.885943836765364 ], [ 507381.106672462949064, 1682318.205247002188116 ], [ 507295.971604081627447, 1681411.337900402955711 ], [ 506200.481238552485593, 1681411.022749192779884 ] ] ], [ [ [ 506370.828406225133222, 1683224.763627223670483 ], [ 506285.632307178515475, 1682317.885943836765364 ], [ 505190.158114821184427, 1682317.617829008726403 ], [ 505275.370225268183276, 1683224.491381365107372 ], [ 506370.828406225133222, 1683224.763627223670483 ] ] ], [ [ [ 505275.370225268183276, 1683224.491381365107372 ], [ 504179.91218942659907, 1683224.27035121829249 ], [ 504265.185360939067323, 1684131.15428507514298 ], [ 505360.627374220057391, 1684131.37942533264868 ], [ 505275.370225268183276, 1683224.491381365107372 ] ] ], [ [ [ 507551.511873242736328, 1684131.983435271773487 ], [ 506456.069534944661427, 1684131.655808718176559 ], [ 506626.686878405336756, 1685945.483703489881009 ], [ 507722.097154385526665, 1685945.819679427426308 ], [ 507636.782004143577069, 1685038.894295677309856 ], [ 508732.208525721274782, 1685039.277364303125069 ], [ 508561.745324021554552, 1683225.461766247171909 ], [ 507466.286762432020623, 1683225.087088835425675 ], [ 507551.511873242736328, 1684131.983435271773487 ] ] ], [ [ [ 504435.866842989111319, 1685944.965645572170615 ], [ 504350.503579042677302, 1685038.052713405806571 ], [ 502159.651944077690132, 1685037.74801116832532 ], [ 502245.047295485099312, 1685944.652779353316873 ], [ 504435.866842989111319, 1685944.965645572170615 ] ] ], [ [ [ 501149.63762939668959, 1685944.57329306867905 ], [ 501235.094099647598341, 1686851.488514064112678 ], [ 502330.487709658744279, 1686851.572047723922879 ], [ 502245.047295485099312, 1685944.652779353316873 ], [ 501149.63762939668959, 1685944.57329306867905 ] ] ], [ [ [ 506712.063091646530665, 1686852.41943550738506 ], [ 506626.686878405336756, 1685945.483703489881009 ], [ 505531.27678464690689, 1685945.199025552487001 ], [ 505616.669044622802176, 1686852.130600535776466 ], [ 506712.063091646530665, 1686852.41943550738506 ] ] ], [ [ [ 498958.818361935496796, 1685944.568214091472328 ], [ 493481.769165117817465, 1685945.453229601727799 ], [ 493567.338093818689231, 1686852.340886492282152 ], [ 494662.732098591572139, 1686852.065143041312695 ], [ 494748.330078604572918, 1687758.971119415480644 ], [ 495843.707857573812362, 1687758.750590743264183 ], [ 495929.33487284113653, 1688665.674936366500333 ], [ 494833.97318176884437, 1688665.891569111961871 ], [ 494919.661407339503057, 1689572.826501464936882 ], [ 497110.352486477873754, 1689572.452448420692235 ], [ 496939.085522280831356, 1687758.581414809916168 ], [ 498034.463102839305066, 1687758.463591592386365 ], [ 497948.913352893723641, 1686851.545864739688113 ], [ 499044.306951381731778, 1686851.475422572344542 ], [ 498958.818361935496796, 1685944.568214091472328 ] ] ], [ [ [ 488519.289090761041734, 1691389.049998894799501 ], [ 489614.603725860652048, 1691388.53631784603931 ], [ 489528.74464989482658, 1690481.591558434069157 ], [ 490624.075125958712306, 1690481.125561623601243 ], [ 490538.277332625119016, 1689574.191499024396762 ], [ 488347.583855360921007, 1689575.182444342644885 ], [ 488519.289090761041734, 1691389.049998894799501 ] ] ], [ [ [ 493995.859713504032698, 1691386.996219780994579 ], [ 493824.315673373290338, 1689573.090639359550551 ], [ 492728.969769669580273, 1689573.406184885650873 ], [ 492900.546039311971981, 1691387.304050498409197 ], [ 493995.859713504032698, 1691386.996219780994579 ] ] ], [ [ [ 476988.067998859623913, 1696839.809108751127496 ], [ 476901.743606269243173, 1695932.821015093708411 ], [ 480187.458376995986328, 1695929.788523889845237 ], [ 480101.227842877677176, 1695022.804347512777895 ], [ 483386.986286442726851, 1695020.225486593320966 ], [ 483300.849536488240119, 1694113.245010803220794 ], [ 485491.385183935926761, 1694111.776327057741582 ], [ 485405.325981478847098, 1693204.803023521089926 ], [ 486500.609354857355356, 1693204.142311163246632 ], [ 486328.658844050718471, 1691390.231749331811443 ], [ 484138.02709467697423, 1691391.619351481320336 ], [ 484310.04220715892734, 1693205.515253714285791 ], [ 483214.758001808833797, 1693206.279001848539338 ], [ 483128.711683147819713, 1692299.327450416982174 ], [ 480938.109534803486895, 1692301.016672860365361 ], [ 481024.188177661097143, 1693207.961052393075079 ], [ 479928.90249868290266, 1693208.879355051554739 ], [ 480015.042549859499559, 1694115.834627667441964 ], [ 477824.501864137360826, 1694117.818767888704315 ], [ 477910.71953135979129, 1695024.781454121228307 ], [ 476815.464480612252373, 1695025.847367648500949 ], [ 476729.230622628121637, 1694118.888157118810341 ], [ 475633.958741905749775, 1694120.009092634776607 ], [ 475806.50412082276307, 1695933.935047470265999 ], [ 474711.263970977102872, 1695935.100681100739166 ], [ 474624.952438734704629, 1695028.133915932616219 ], [ 473529.695387439627666, 1695029.354551025433466 ], [ 473616.023126655141823, 1695936.317916156724095 ], [ 471425.539234272029717, 1695938.907191267469898 ], [ 471511.944706052483525, 1696845.878252027789131 ], [ 470416.717821059399284, 1696847.246968085179105 ], [ 470503.184835430583917, 1697754.22912070248276 ], [ 472693.605361465306487, 1697751.550007220357656 ], [ 472780.085215024882928, 1698658.55328769935295 ], [ 471684.891580379102379, 1698659.863651175517589 ], [ 471771.43298144673463, 1699566.878008130704984 ], [ 472866.610368744586594, 1699565.571016081143171 ], [ 472953.180821882851887, 1700472.603201657067984 ], [ 475143.500887189758942, 1700470.151189718162641 ], [ 474884.022888682840858, 1697749.077520109945908 ], [ 475979.230602910800371, 1697747.918760985834524 ], [ 475892.844724340073299, 1696840.919679745798931 ], [ 476988.067998859623913, 1696839.809108751127496 ] ] ], [ [ [ 486008.689521563646849, 1699553.920552774099633 ], [ 485922.359144864080008, 1698646.86022987915203 ], [ 483731.985424150945619, 1698648.29224447440356 ], [ 483991.209501372824889, 1701369.494671421591192 ], [ 486181.485853506717831, 1701368.084815579466522 ], [ 486095.065091360185761, 1700460.995411560405046 ], [ 487190.218916918849573, 1700460.364389634691179 ], [ 487103.859571590612177, 1699553.285796613665298 ], [ 486008.689521563646849, 1699553.920552774099633 ] ] ], [ [ [ 483242.400762250355911, 1704998.73607272375375 ], [ 481052.251815216441173, 1705000.427445995155722 ], [ 481312.571922400733456, 1707721.902599992230535 ], [ 483502.62308500072686, 1707720.233168255304918 ], [ 483242.400762250355911, 1704998.73607272375375 ] ] ], [ [ [ 483763.252324223285541, 1710441.861666291253641 ], [ 482668.275952429277822, 1710442.659332559909672 ], [ 482842.287523156031966, 1712257.144043576205149 ], [ 483937.231205073592719, 1712256.353791126515716 ], [ 483763.252324223285541, 1710441.861666291253641 ] ] ] ] } }
]
}
