{
"type": "FeatureCollection",
"name": "urban-2100",
"crs": { "type": "name", "properties": { "name": "urn:ogc:def:crs:EPSG::32636" } },
"features": [
{ "type": "Feature", "properties": { "year": 2100 }, "geometry": { "type": "MultiPolygon", "coordinates": [ [ [ [ 433948.454930624342524, 1658835.456790783442557 ], [ 432852.511850779410452, 1658838.524529359769076 ], [ 432937.567721286788583, 1659744.827902499586344 ], [ 434033.494863329047803, 1659741.762374217621982 ], [ 433948.454930624342524, 1658835.456790783442557 ] ] ], [ [ [ 430745.707855226006359, 1659751.110510196536779 ], [ 430830.841250482597388, 1660657.423372239107266 ], [ 433022.66921549977269, 1660651.145115764811635 ], [ 432937.567721286788583, 1659744.827902499586344 ], [ 430745.707855226006359, 1659751.110510196536779 ] ] ], [ [ [ 433193.009072229964659, 1662463.821098877349868 ], [ 433107.816332714457531, 1661557.476178205804899 ], [ 430916.020286479324568, 1661563.750070676440373 ], [ 430830.841250482597388, 1660657.423372239107266 ], [ 429734.92442035448039, 1660660.638318037148565 ], [ 429905.360067761619575, 1662473.301272097276524 ], [ 431001.244962515193038, 1662470.090614557266235 ], [ 431086.515277886530384, 1663376.445012926356867 ], [ 432182.382290882116649, 1663373.287136444356292 ], [ 432097.127953927149065, 1662466.930556972278282 ], [ 433193.009072229964659, 1662463.821098877349868 ] ] ], [ [ [ 438773.10620216303505, 1675142.308175816433504 ], [ 437677.456599294149783, 1675145.182204422540963 ], [ 437763.285303896875121, 1676051.743146325927228 ], [ 438858.918816996156238, 1676048.871525694383308 ], [ 438773.10620216303505, 1675142.308175816433504 ] ] ], [ [ [ 436324.544455832627136, 1672428.515537222847342 ], [ 435228.843158692354336, 1672431.498549309093505 ], [ 435314.567239942436572, 1673338.012782313860953 ], [ 434218.88022928260034, 1673341.044387690490112 ], [ 434648.265172431012616, 1677873.813844562508166 ], [ 435743.871695651265327, 1677870.793868333566934 ], [ 435829.869391707004979, 1678777.392133435001597 ], [ 436925.458024464955088, 1678774.425593860214576 ], [ 437011.485190084262285, 1679681.040275220526382 ], [ 438107.055958816956263, 1679678.127233096165583 ], [ 437763.285303896875121, 1676051.743146325927228 ], [ 436667.650077061669435, 1676054.665775395929813 ], [ 436410.25246879470069, 1673335.032104095909745 ], [ 437505.935946023906581, 1673332.102352598449215 ], [ 437334.597638745151926, 1671519.0784827391617 ], [ 436238.882038951735012, 1671522.012950299307704 ], [ 436324.544455832627136, 1672428.515537222847342 ] ] ], [ [ [ 439202.62502409593435, 1679675.265308946603909 ], [ 438107.055958816956263, 1679678.127233096165583 ], [ 438193.112578108208254, 1680584.758380149491131 ], [ 439288.665509243612178, 1680581.898896284401417 ], [ 439202.62502409593435, 1679675.265308946603909 ] ] ], [ [ [ 442083.099438054254279, 1686923.198183593107387 ], [ 440987.662969810131472, 1686925.937731151469052 ], [ 440556.402165216160938, 1682392.404920486500487 ], [ 439460.883194586203899, 1682395.208304651780054 ], [ 439374.751566311868373, 1681488.54655847651884 ], [ 438279.214778194902465, 1681491.403595584444702 ], [ 438365.362558364344295, 1682398.062888524960726 ], [ 437269.840226407744922, 1682400.968672525137663 ], [ 437011.485190084262285, 1679681.040275220526382 ], [ 435915.912687740579713, 1679684.004435747861862 ], [ 435829.869391707004979, 1678777.392133435001597 ], [ 434734.278992603474762, 1678780.409764464944601 ], [ 434648.265172431012616, 1677873.813844562508166 ], [ 433552.656850120460149, 1677876.884885308332741 ], [ 433810.883543225820176, 1680596.707773512694985 ], [ 434906.443458801135421, 1680593.643705615540966 ], [ 435078.790354715369176, 1682406.933842622907832 ], [ 436174.316168572753668, 1682403.925657079555094 ], [ 436260.541857380478177, 1683310.594199374783784 ], [ 437356.049749289755709, 1683307.639619767433032 ], [ 437442.304859700845554, 1684214.324656288605183 ], [ 436346.813142596976832, 1684217.276824465487152 ], [ 436519.492499391548336, 1686030.684359525330365 ], [ 437614.951840245164931, 1686027.73703367752023 ], [ 437701.343708946602419, 1686934.464392811292782 ], [ 438796.785135379992425, 1686931.570835345657542 ], [ 439056.18559671548428, 1689651.845118035795167 ], [ 437960.792820156435482, 1689654.731261617969722 ], [ 437874.264199619588908, 1688747.961497641634196 ], [ 435683.441041948040947, 1688753.892917576944456 ], [ 435856.608800834277645, 1690567.436838853172958 ], [ 438047.367023201659322, 1690561.515178828733042 ], [ 438133.986808036628645, 1691468.313258421141654 ], [ 437038.624809082364663, 1691471.245901269838214 ], [ 437125.30642972572241, 1692378.055682436330244 ], [ 442602.018477120727766, 1692363.919831663370132 ], [ 442428.863277116906829, 1690550.289219641825184 ], [ 441333.491662223415915, 1690553.018540375865996 ], [ 441160.486202845524531, 1688739.449808543780819 ], [ 442255.890262172266375, 1688736.71536138211377 ], [ 442083.099438054254279, 1686923.198183593107387 ] ] ], [ [ [ 437298.806437995866872, 1694191.717776409815997 ], [ 437559.398357048397884, 1696912.317383797373623 ], [ 438654.662694292434026, 1696909.399658595211804 ], [ 438567.769433849025518, 1696002.516412460245192 ], [ 439663.048383147921413, 1695999.647795985918492 ], [ 439402.690905906958506, 1693279.075774114346132 ], [ 438307.363120194873773, 1693281.951941353036091 ], [ 438394.119646077975631, 1694188.792563002556562 ], [ 437298.806437995866872, 1694191.717776409815997 ] ] ], [ [ [ 437646.353502286132425, 1697819.212347279069945 ], [ 437559.398357048397884, 1696912.317383797373623 ], [ 436464.132305205799639, 1696915.286748146172613 ], [ 436551.103761091711931, 1697822.179229869274423 ], [ 437646.353502286132425, 1697819.212347279069945 ] ] ], [ [ [ 441541.711766453459859, 1704159.339187829289585 ], [ 441280.17306479299441, 1701438.374568623490632 ], [ 442375.350848412141204, 1701435.624780328711495 ], [ 442201.252152272034436, 1699621.71458183019422 ], [ 440010.829642869648524, 1699627.276335378643125 ], [ 440446.581439977220725, 1704162.132941215066239 ], [ 441541.711766453459859, 1704159.339187829289585 ] ] ], [ [ [ 440533.8684884714894, 1705069.1471451157704 ], [ 440621.201098294346593, 1705976.175664711743593 ], [ 441716.298667938099243, 1705973.387150661321357 ], [ 441628.982440976891667, 1705066.356008110102266 ], [ 440533.8684884714894, 1705069.1471451157704 ] ] ], [ [ [ 429757.673107826150954, 1706913.934101457940415 ], [ 429845.260988008929417, 1707820.966425184626132 ], [ 430940.343349975242745, 1707817.663487645564601 ], [ 430852.771896581456531, 1706910.628801670158282 ], [ 429757.673107826150954, 1706913.934101457940415 ] ] ], [ [ [ 429932.894516292028129, 1708728.01302635925822 ], [ 429845.260988008929417, 1707820.966425184626132 ], [ 427655.090463135798927, 1707827.728215122595429 ], [ 427742.756870714714751, 1708734.770160784479231 ], [ 429932.894516292028129, 1708728.01302635925822 ] ] ], [ [ [ 432123.024477875442244, 1708721.46388730336912 ], [ 429932.894516292028129, 1708728.01302635925822 ], [ 430020.573691948200576, 1709635.073914148379117 ], [ 432210.670766990922857, 1709628.529553320957348 ], [ 432123.024477875442244, 1708721.46388730336912 ] ] ], [ [ [ 414777.621310193149839, 1710593.756318711675704 ], [ 414865.622531024215277, 1711500.815241997828707 ], [ 415960.668611323926598, 1711496.792637913487852 ], [ 415872.683890228741802, 1710589.731709377840161 ], [ 414777.621310193149839, 1710593.756318711675704 ] ] ], [ [ [ 428093.879145543673076, 1712363.080769482767209 ], [ 428006.030081607401371, 1711455.981675065588206 ], [ 429101.050503591599409, 1711452.584089922020212 ], [ 428925.522291898669209, 1709638.424133657710627 ], [ 425640.356281370215584, 1709648.786954495823011 ], [ 425903.865313344169408, 1712370.027587508084252 ], [ 428093.879145543673076, 1712363.080769482767209 ] ] ], [ [ [ 414865.622531024215277, 1711500.815241997828707 ], [ 413770.57411742315162, 1711504.889934650622308 ], [ 413858.637619499990251, 1712411.961095228558406 ], [ 414953.669521752395667, 1712407.888387042796239 ], [ 414865.622531024215277, 1711500.815241997828707 ] ] ], [ [ [ 411844.897155960497912, 1714234.440051786601543 ], [ 411933.131074460921809, 1715141.549986181547865 ], [ 413028.118124184082262, 1715137.378873037640005 ], [ 413116.381284027185757, 1716044.505002016667277 ], [ 415306.315169257577509, 1716036.323367413366213 ], [ 415218.085106133192312, 1715129.193244024645537 ], [ 414123.102791408193298, 1715133.259959186892956 ], [ 413858.637619499990251, 1712411.961095228558406 ], [ 412763.603356631530914, 1712416.085919961798936 ], [ 412939.9007491908269, 1714230.266989121213555 ], [ 411844.897155960497912, 1714234.440051786601543 ] ] ], [ [ [ 415748.151964908873197, 1720572.188178626121953 ], [ 415925.207027030992322, 1722386.634231201373041 ], [ 419209.742408837715629, 1722374.797404134180397 ], [ 419032.786944048362784, 1720560.338699152925983 ], [ 415748.151964908873197, 1720572.188178626121953 ] ] ], [ [ [ 408083.921561987022869, 1720601.669675733195618 ], [ 409178.818928046151996, 1720597.300938223488629 ], [ 409267.423221931792796, 1721504.504910162882879 ], [ 411457.177300153532997, 1721495.928387579042464 ], [ 411191.601490775356069, 1718774.347757868235931 ], [ 410096.675870998937171, 1718778.615626234794036 ], [ 410185.171935484919231, 1719685.792961078928784 ], [ 406900.429983570240438, 1719698.904813447035849 ], [ 407255.071770022041164, 1723327.734276463277638 ], [ 406160.219235509284772, 1723332.202233291696757 ], [ 405982.773404199571814, 1721517.762646497692913 ], [ 404887.885024953109678, 1721522.286681850906461 ], [ 405243.026640376949217, 1725151.215695404214785 ], [ 406337.84843009483302, 1725146.698943384923041 ], [ 406249.010912753059529, 1724239.443443361436948 ], [ 409533.51099361811066, 1724226.202557446667925 ], [ 409444.769255438819528, 1723318.955710637150332 ], [ 408349.921766676940024, 1723323.318769127829 ], [ 408083.921561987022869, 1720601.669675733195618 ] ] ], [ [ [ 424094.187828631140292, 1738696.274636794812977 ], [ 424272.871791214332916, 1740511.324652837589383 ], [ 425367.372320025926456, 1740507.687497886596248 ], [ 425188.721886356303003, 1738692.63272343040444 ], [ 424094.187828631140292, 1738696.274636794812977 ] ] ], [ [ [ 436291.712993813038338, 1751369.167585557559505 ], [ 436381.503046161611564, 1752276.915745298843831 ], [ 437475.766086759336758, 1752273.843323637498543 ], [ 437385.992892515088897, 1751366.092419776134193 ], [ 436291.712993813038338, 1751369.167585557559505 ] ] ], [ [ [ 429995.806805912870914, 1754111.97851400799118 ], [ 430266.028336190851405, 1756835.351937266532332 ], [ 431360.217722127505112, 1756831.97263371408917 ], [ 431090.04692149895709, 1754108.59138983907178 ], [ 429995.806805912870914, 1754111.97851400799118 ] ] ], [ [ [ 425979.484372164588422, 1757757.214100074023008 ], [ 426160.087149320635945, 1759572.879143833415583 ], [ 427254.233468689548317, 1759569.293580759083852 ], [ 427344.586408546892926, 1760477.150754591915756 ], [ 428438.713784718303941, 1760473.621286251582205 ], [ 428348.377807507000398, 1759565.761553760850802 ], [ 429442.520195564837195, 1759562.283062321832404 ], [ 429352.246829000418074, 1758654.435514404205605 ], [ 430446.404244394507259, 1758651.007951373932883 ], [ 430266.028336190851405, 1756835.351937266532332 ], [ 429171.837050986359827, 1756838.784693193156272 ], [ 429081.700641033588909, 1755930.981401288881898 ], [ 423610.630034678324591, 1755948.95950487931259 ], [ 423700.851092768018134, 1756856.750276311766356 ], [ 424795.052321389841381, 1756853.050250815460458 ], [ 424885.302133107790723, 1757760.858187111094594 ], [ 425979.484372164588422, 1757757.214100074023008 ] ] ], [ [ [ 446214.97503782104468, 1763148.236545319901779 ], [ 446305.222037684055977, 1764056.200526008848101 ], [ 447399.252590022864752, 1764053.593729448737577 ], [ 447309.022543043887708, 1763145.626697155181319 ], [ 446214.97503782104468, 1763148.236545319901779 ] ] ], [ [ [ 415762.433201661100611, 1765058.884953769156709 ], [ 415853.247496343392413, 1765966.804078127490357 ], [ 416947.296123051259201, 1765962.699068774702027 ], [ 417129.027877147891559, 1767778.586185193387792 ], [ 419317.050160123151727, 1767770.54676434234716 ], [ 419135.386628663167357, 1765954.650249642319977 ], [ 418041.342490569280926, 1765958.647792810341343 ], [ 417859.827825747779571, 1764142.815047823591158 ], [ 416765.747379935113713, 1764146.870968242641538 ], [ 416856.498874747718219, 1765054.777646165108308 ], [ 415762.433201661100611, 1765058.884953769156709 ] ] ], [ [ [ 454432.565673943259753, 1655161.490578578785062 ], [ 453336.588585907476954, 1655163.609952278900892 ], [ 453421.16024373692926, 1656069.904248555423692 ], [ 454517.121477357810363, 1656067.78757991688326 ], [ 454432.565673943259753, 1655161.490578578785062 ] ] ], [ [ [ 453590.439933315501548, 1657882.53462533140555 ], [ 453421.16024373692926, 1656069.904248555423692 ], [ 452325.197724214638583, 1656072.071317235240713 ], [ 452409.830706006207038, 1656978.376854499569163 ], [ 450217.933427200419828, 1656982.856907326029614 ], [ 450302.643632029707078, 1657889.171073665376753 ], [ 453590.439933315501548, 1657882.53462533140555 ] ] ], [ [ [ 445417.757509395771194, 1664245.740224233362824 ], [ 445247.586395019199699, 1662432.956500564003363 ], [ 443055.859835524635855, 1662438.112879988737404 ], [ 443396.511853848583996, 1666063.716105985688046 ], [ 444492.312049359839875, 1666061.122586484299973 ], [ 444748.23124084121082, 1668780.479110382497311 ], [ 445843.981929573055822, 1668777.943920503370464 ], [ 445502.911350938898977, 1665152.153015322051942 ], [ 446598.724487664992921, 1665149.658347957301885 ], [ 446683.907879302161746, 1666056.087660311255604 ], [ 447779.703574162558652, 1666053.6462528987322 ], [ 447609.414233804331161, 1664240.796438631834462 ], [ 445417.757509395771194, 1664245.740224233362824 ] ] ], [ [ [ 441631.90646831819322, 1670601.348691755905747 ], [ 441717.44307414261857, 1671507.849323532544076 ], [ 443908.856036262353882, 1671502.539964792318642 ], [ 443823.351498280535452, 1670596.034335044678301 ], [ 441631.90646831819322, 1670601.348691755905747 ] ] ], [ [ [ 443908.856036262353882, 1671502.539964792318642 ], [ 444080.00171562586911, 1673315.593281137524173 ], [ 446271.344327509694267, 1673310.497652416583151 ], [ 446185.780813978635706, 1672403.958848465234041 ], [ 447281.465927644341718, 1672401.484811245696619 ], [ 447110.507509016548283, 1670588.444111838936806 ], [ 444919.071676224237308, 1670593.453419441357255 ], [ 445004.560184098256286, 1671499.961589251644909 ], [ 443908.856036262353882, 1671502.539964792318642 ] ] ], [ [ [ 446528.307958506105933, 1676030.198383040726185 ], [ 446614.053529919765424, 1676936.793429954210296 ], [ 447709.658341070637107, 1676934.332495772046968 ], [ 447538.244859245489351, 1675121.151215823832899 ], [ 445346.969466832291801, 1675126.134583204751834 ], [ 445261.29885989043396, 1674219.570269258692861 ], [ 443069.985313476412557, 1674224.762653940357268 ], [ 443241.436335469887126, 1676037.895119227468967 ], [ 446528.307958506105933, 1676030.198383040726185 ] ] ], [ [ [ 443241.436335469887126, 1676037.895119227468967 ], [ 442145.809375597164035, 1676040.562710250495002 ], [ 442317.474743290455081, 1677853.746341458754614 ], [ 443413.069517478230409, 1677851.083804828580469 ], [ 443241.436335469887126, 1676037.895119227468967 ] ] ], [ [ [ 439288.665509243612178, 1680581.898896284401417 ], [ 439374.751566311868373, 1681488.54655847651884 ], [ 440470.286686267645564, 1681485.740693691419438 ], [ 440384.216769649414346, 1680579.090557356132194 ], [ 439288.665509243612178, 1680581.898896284401417 ] ] ], [ [ [ 442255.890262172266375, 1688736.71536138211377 ], [ 442342.353996151476167, 1689643.495200873119757 ], [ 443437.74025291937869, 1689640.814731649821624 ], [ 443351.29273414844647, 1688734.032304814551026 ], [ 442255.890262172266375, 1688736.71536138211377 ] ] ], [ [ [ 443437.74025291937869, 1689640.814731649821624 ], [ 443524.233309797593392, 1690547.611344273667783 ], [ 444619.601790371059906, 1690544.984913879074156 ], [ 444706.12415423465427, 1691451.798349215881899 ], [ 445801.474884968949482, 1691449.226018553832546 ], [ 445714.9687489453936, 1690542.409928071312606 ], [ 446810.334215623675846, 1690539.886386471567675 ], [ 446637.49092712305719, 1688726.291474763303995 ], [ 445542.093036510050297, 1688728.820361887803301 ], [ 445628.508132551796734, 1689635.608045573346317 ], [ 443437.74025291937869, 1689640.814731649821624 ] ] ], [ [ [ 440498.017026834306307, 1693276.251135626807809 ], [ 440584.741015462612268, 1694183.096805443521589 ], [ 441680.049236945342273, 1694180.326260454719886 ], [ 441593.341513072722591, 1693273.478025474352762 ], [ 440498.017026834306307, 1693276.251135626807809 ] ] ], [ [ [ 458196.006645473651588, 1695051.858829119708389 ], [ 458282.561542352079414, 1695958.77747056260705 ], [ 460473.06787719996646, 1695954.949720700038597 ], [ 460386.545461347792298, 1695048.025018914137036 ], [ 459291.276612455025315, 1695049.916135404026136 ], [ 459204.783366853487678, 1694143.008809803752229 ], [ 458109.497166973480489, 1694144.954513457603753 ], [ 458023.033107583178207, 1693238.064514347352087 ], [ 456927.729530473065097, 1693240.064744131173939 ], [ 457100.735530320205726, 1695053.853100345237181 ], [ 458196.006645473651588, 1695051.858829119708389 ] ] ], [ [ [ 460300.068446134217083, 1694141.114655980374664 ], [ 460386.545461347792298, 1695048.025018914137036 ], [ 461481.813222237338778, 1695046.185479371109977 ], [ 461395.352434903092217, 1694139.272051710169762 ], [ 460300.068446134217083, 1694141.114655980374664 ] ] ], [ [ [ 443783.985701857018284, 1693268.086388553492725 ], [ 444879.305464591598138, 1693265.467860992997885 ], [ 444792.692045881703962, 1692358.62599519523792 ], [ 442602.018477120727766, 1692363.919831663370132 ], [ 442775.355856409005355, 1694177.607270780717954 ], [ 441680.049236945342273, 1694180.326260454719886 ], [ 442027.335647781495936, 1697807.861477997852489 ], [ 443122.577129704353865, 1697805.152923862915486 ], [ 442948.875409200205468, 1695991.351610373239964 ], [ 445139.418875852250494, 1695986.078869096003473 ], [ 444965.964409638720099, 1694172.323955787578598 ], [ 443870.660903943527956, 1694174.939836022909731 ], [ 443783.985701857018284, 1693268.086388553492725 ] ] ], [ [ [ 456092.050624883268028, 1695962.811640049563721 ], [ 457187.306671484664548, 1695960.768752707634121 ], [ 457100.735530320205726, 1695053.853100345237181 ], [ 456005.463236913084984, 1695055.898949375376105 ], [ 456092.050624883268028, 1695962.811640049563721 ] ] ], [ [ [ 458282.561542352079414, 1695958.77747056260705 ], [ 457187.306671484664548, 1695960.768752707634121 ], [ 457273.923239169409499, 1696867.698733543977141 ], [ 458369.16185687831603, 1696865.710447019198909 ], [ 458282.561542352079414, 1695958.77747056260705 ] ] ], [ [ [ 453414.001030331710353, 1702317.978707241127267 ], [ 453240.137763288978022, 1700503.984505255240947 ], [ 452144.958130742365029, 1700506.21945771179162 ], [ 452318.854027048917487, 1702320.207870321115479 ], [ 453414.001030331710353, 1702317.978707241127267 ] ] ], [ [ [ 464278.614405647851527, 1701391.501160355051979 ], [ 465373.765292031574063, 1701389.838561697863042 ], [ 465547.360690153960604, 1703203.928931804839522 ], [ 467737.594474217970856, 1703200.772012102184817 ], [ 467564.064244205248542, 1701386.668667219346389 ], [ 466468.91522819979582, 1701388.227730731479824 ], [ 466295.533821199380327, 1699574.188646253664047 ], [ 465200.35133396438323, 1699575.805910955416039 ], [ 465287.035632622428238, 1700482.815026041585952 ], [ 464191.868463774619158, 1700484.480817448813468 ], [ 464278.614405647851527, 1701391.501160355051979 ] ] ], [ [ [ 429456.596214572084136, 1748665.628899305826053 ], [ 429725.996091994922608, 1751388.737584996037185 ], [ 430820.286856875638478, 1751385.342701202491298 ], [ 430910.16123983846046, 1752293.077551221242175 ], [ 432004.433247631997801, 1752289.738562122453004 ], [ 431914.57573615165893, 1751382.00110494159162 ], [ 434103.147957211709581, 1751375.477773069636896 ], [ 434282.841122388432268, 1753190.978010493796319 ], [ 435377.090788021858316, 1753187.801659368677065 ], [ 435197.431358654983342, 1751372.296036502579227 ], [ 436291.712993813038338, 1751369.167585557559505 ], [ 436201.968536415137351, 1750461.434160111937672 ], [ 437296.26528429944301, 1750458.356256975792348 ], [ 437206.583262859669048, 1749550.634825923480093 ], [ 439395.205333136313129, 1749544.633247805293649 ], [ 439216.045345141319558, 1747729.223497524159029 ], [ 440310.387524770805612, 1747726.296946986345574 ], [ 440220.892692704044748, 1746818.611359983449802 ], [ 441315.250047486973926, 1746815.735163379227743 ], [ 441225.817572402476799, 1745908.061477990821004 ], [ 444508.930519044282846, 1745899.743158815661445 ], [ 444419.593938141420949, 1744992.075602039229125 ], [ 445513.978627844480798, 1744989.406148339388892 ], [ 445424.704341393779032, 1744081.750405427301303 ], [ 447613.502814854262397, 1744076.564865826396272 ], [ 447702.743577957793605, 1744984.226509409956634 ], [ 448797.12389808188891, 1744981.716323420871049 ], [ 448975.708387643040624, 1746797.089853001059964 ], [ 447881.361609749961644, 1746799.594035902060568 ], [ 448239.143674630089663, 1750430.506307663628832 ], [ 447144.862677173397969, 1750433.051656606607139 ], [ 447324.060352642904036, 1752248.590522021055222 ], [ 446229.811574057675898, 1752251.183149995747954 ], [ 446498.999929304874968, 1754974.593543729744852 ], [ 445404.800249615043867, 1754977.230550012784079 ], [ 445584.520466776099056, 1756792.905639055883512 ], [ 446678.686392361996695, 1756790.274620332289487 ], [ 447309.022543043887708, 1763145.626697155181319 ], [ 448403.068614495918155, 1763143.070486549986526 ], [ 448493.281711228890345, 1764051.040597845101729 ], [ 449587.309431069239508, 1764048.541130825411528 ], [ 449767.838187271961942, 1765864.532395533053204 ], [ 448673.844389423786197, 1765867.02562928176485 ], [ 448764.193969363463111, 1766775.040568209951743 ], [ 449858.170792830234859, 1766772.550461337435991 ], [ 450038.972455051960424, 1768588.631506860023364 ], [ 451132.91394454264082, 1768586.201475462177768 ], [ 451042.507361433003098, 1767678.150295968167484 ], [ 452136.464509198325686, 1767675.770870085107163 ], [ 451955.821713715326041, 1765859.707084731431678 ], [ 454143.800012881984003, 1765855.096647183177993 ], [ 454414.730559836898465, 1768579.23418506490998 ], [ 453320.792967189394403, 1768581.502814908279106 ], [ 453682.737963302177377, 1772213.883374542929232 ], [ 454776.60753982438473, 1772211.627813751343638 ], [ 455229.976241573924199, 1776752.458591967122629 ], [ 454136.191886018961668, 1776754.697662149788812 ], [ 454227.019019892264623, 1777662.905759121291339 ], [ 455320.786304472596385, 1777660.670007671462372 ], [ 455411.641806426108815, 1778568.896532111568376 ], [ 458692.885275444714352, 1778562.52386102732271 ], [ 458783.734964916133322, 1779470.775665572378784 ], [ 457690.005384018586483, 1779472.842373799998313 ], [ 458145.020515576004982, 1784014.311633750330657 ], [ 457051.375337917881552, 1784016.415430133230984 ], [ 457142.53175184171414, 1784924.751381920417771 ], [ 459329.786699917924125, 1784920.604939019540325 ], [ 458965.570575265795924, 1781287.324729066574946 ], [ 460059.264853734115604, 1781285.319053494837135 ], [ 459423.754404798906762, 1774927.638214352540672 ], [ 458329.940640287881251, 1774929.667936605866998 ], [ 457696.536020022002049, 1768572.751093306113034 ], [ 458790.468833315477241, 1768570.697660922538489 ], [ 458700.181104019284248, 1767662.623538545332849 ], [ 457606.231319440121297, 1767664.680330693023279 ], [ 457515.972039597050752, 1766756.624593514017761 ], [ 456422.004137225507293, 1766758.738482674816623 ], [ 456331.773322838998865, 1765850.701080187689513 ], [ 457425.758181259792764, 1765848.583872338291258 ], [ 457155.389142938889563, 1763124.551710554864258 ], [ 456061.353469881752972, 1763126.678833504673094 ], [ 455971.304384844668675, 1762218.701373473508283 ], [ 457065.356978279480245, 1762216.570959132863209 ], [ 456975.370238952047657, 1761308.605176599696279 ], [ 459163.505765443202108, 1761304.498517462518066 ], [ 458983.736142607755028, 1759488.598559550475329 ], [ 462266.032497130217962, 1759482.820109286578372 ], [ 462086.545732870232314, 1757666.959746233420447 ], [ 458804.148158942291047, 1757672.758418697863817 ], [ 458355.972911184013356, 1753133.419272224185988 ], [ 457261.75396323541645, 1753135.475560497725382 ], [ 457620.27069344901247, 1756766.903890843736008 ], [ 456526.117948985600378, 1756769.00046789762564 ], [ 456885.428925718239043, 1760400.654353542486206 ], [ 455791.342518277699128, 1760402.791330225765705 ], [ 455342.232991217344534, 1755863.277564589632675 ], [ 456436.403777661733329, 1755861.124301112955436 ], [ 455988.514396222773939, 1751321.966825174400583 ], [ 457082.768139292486012, 1751319.850722856586799 ], [ 456993.343365270353388, 1750412.060603056335822 ], [ 458087.612737934512552, 1750409.994520780164748 ], [ 457641.254140656790696, 1745871.250348693691194 ], [ 458735.606220972491428, 1745869.221191572258249 ], [ 458646.487505367957056, 1744961.513590029673651 ], [ 459740.855200887890533, 1744959.534273677971214 ], [ 459651.79863015958108, 1744051.8382174721919 ], [ 460746.181956693239044, 1744049.908693541307002 ], [ 460924.307034846104216, 1745865.322215832769871 ], [ 464207.350336517731193, 1745859.872094255872071 ], [ 464118.315298968576826, 1744952.147857886971906 ], [ 466307.039355578133836, 1744948.773155999369919 ], [ 466218.083122089563403, 1744041.056931838626042 ], [ 465123.704851782880723, 1744042.721170663600788 ], [ 464945.8950337509159, 1742227.340098089538515 ], [ 466040.306710346136242, 1742225.66901981481351 ], [ 465862.711710637900978, 1740410.340426910901442 ], [ 468051.599039603606798, 1740407.14348501409404 ], [ 467785.646656686847564, 1737684.241071431897581 ], [ 468880.138964628451504, 1737682.711604877607897 ], [ 468703.097336339415051, 1735867.510416545672342 ], [ 469797.622055997140706, 1735866.026849176734686 ], [ 469709.185856329684611, 1734958.44496385497041 ], [ 470803.726365944370627, 1734957.010705578373745 ], [ 470186.058123827388044, 1728604.3265573407989 ], [ 471280.713873691216577, 1728602.920578489778563 ], [ 471192.673368206946179, 1727695.449763643788174 ], [ 472287.344871641078498, 1727694.092872946057469 ], [ 472199.366207813436631, 1726786.633283824427053 ], [ 476578.111037693626713, 1726781.717082717455924 ], [ 476753.981443448574282, 1728596.67951623024419 ], [ 478943.283812901529018, 1728594.551209541736171 ], [ 478767.479489695921075, 1726779.574182829353958 ], [ 477672.795568991510663, 1726780.619366189930588 ], [ 477584.944776451797225, 1725873.15664544980973 ], [ 479774.345046885311604, 1725871.111480342457071 ], [ 480037.93411910359282, 1728593.565938016399741 ], [ 481132.583879529905971, 1728592.633254176471382 ], [ 480693.577474704070482, 1724055.26441244292073 ], [ 476314.644941739446949, 1724059.383988562738523 ], [ 476226.913449490093626, 1723151.969067960046232 ], [ 475132.16228677763138, 1723153.133666555862874 ], [ 475044.45959012908861, 1722245.73702292656526 ], [ 473949.691268995520659, 1722246.957588527118787 ], [ 473774.38878933689557, 1720432.215429462492466 ], [ 471584.784104850084987, 1720434.827718992484733 ], [ 471497.167891139921267, 1719527.485605875262991 ], [ 472591.987063632055651, 1719526.149821716360748 ], [ 472504.432607039634604, 1718618.818889272864908 ], [ 473599.267474230204243, 1718617.531930590281263 ], [ 473336.925198238983285, 1715895.616506501566619 ], [ 476621.573383311450016, 1715892.03757573151961 ], [ 476534.265760316688102, 1714984.751131149940193 ], [ 479818.957374087884091, 1714981.631240119924769 ], [ 479644.576238710724283, 1713167.08068982232362 ], [ 481834.433344590011984, 1713165.247011949075386 ], [ 481747.343371090770233, 1712257.986389842350036 ], [ 482842.287523156031966, 1712257.144043576205149 ], [ 482929.361135974759236, 1713164.408355099381879 ], [ 485119.215345630596858, 1713162.887404959183186 ], [ 484945.178748384234495, 1711348.358513484708965 ], [ 486040.137924514419865, 1711347.668683299096301 ], [ 485953.203762760502286, 1710440.422450301470235 ], [ 488143.153661305899732, 1710439.191389014944434 ], [ 488056.297338772099465, 1709531.952211712254211 ], [ 485866.314793968689628, 1709533.190858860732988 ], [ 485605.919052885030396, 1706811.583840210689232 ], [ 486700.959423844586127, 1706810.927212960785255 ], [ 486614.267523312417325, 1705903.750341250328347 ], [ 485519.210863457876258, 1705904.410721346968785 ], [ 485432.547870748559944, 1704997.25219722930342 ], [ 484337.474531297862995, 1704997.968197811627761 ], [ 484164.251600687741302, 1703183.702314372640103 ], [ 483069.145288442785386, 1703184.477552436757833 ], [ 482896.07068136887392, 1701370.27724634250626 ], [ 480705.79160322190728, 1701371.997690759599209 ], [ 480792.338804238999728, 1702279.083323632832617 ], [ 479697.214742746436968, 1702280.017610454466194 ], [ 479870.477389584004413, 1704094.225293173687533 ], [ 478775.385315997060388, 1704095.204241850413382 ], [ 478688.71509402099764, 1703188.096702242037281 ], [ 476498.496608922607265, 1703190.217197560472414 ], [ 476585.199392094684299, 1704097.317682050168514 ], [ 477680.292660180362873, 1704096.23503809212707 ], [ 477767.024421776412055, 1705003.353566441684961 ], [ 476671.947444380202796, 1705004.432689966866747 ], [ 476932.463208467583172, 1707725.864947488997132 ], [ 472552.34437492955476, 1707730.65861497935839 ], [ 472378.491379396698903, 1705916.383645191090181 ], [ 473473.554787011991721, 1705915.100436926586553 ], [ 473386.712552926910575, 1705007.981312886811793 ], [ 474481.791539991507307, 1705006.746563019230962 ], [ 474395.010898950393312, 1704099.638513761106879 ], [ 473299.91561381064821, 1704100.87670185463503 ], [ 473039.796573699568398, 1701379.649853724287823 ], [ 474134.940699866041541, 1701378.401390394661576 ], [ 474308.275544753356371, 1703192.544974777847528 ], [ 475403.386414244596381, 1703191.355175849981606 ], [ 475143.500887189758942, 1700470.151189718162641 ], [ 476238.659881526895333, 1700469.002791486680508 ], [ 476152.138182244612835, 1699561.960307554574683 ], [ 478342.486734865698963, 1699559.811723141232505 ], [ 478169.644082949205767, 1697745.756210746942088 ], [ 479264.849908899923321, 1697744.752419315977022 ], [ 479092.22070427890867, 1695930.747753455769271 ], [ 482377.932120244891848, 1695928.024866558844224 ], [ 482291.733968308370095, 1695021.033533876761794 ], [ 484482.238148300617468, 1695019.469012172659859 ], [ 484396.11757451860467, 1694112.484896257519722 ], [ 485491.385183935926761, 1694111.776327057741582 ], [ 485405.325981478847098, 1693204.803023521089926 ], [ 486500.609354857355356, 1693204.142311163246632 ], [ 486672.740623506251723, 1695018.110781481023878 ], [ 487767.991297018597834, 1695017.509025010280311 ], [ 487423.974140189995524, 1691389.615142695140094 ], [ 486328.658844050718471, 1691390.231749331811443 ], [ 486242.751374696090352, 1690483.298160794889554 ], [ 485147.419566954253241, 1690483.969899169867858 ], [ 485061.541162203648128, 1689577.05442208936438 ], [ 483966.192816791357473, 1689577.781230968888849 ], [ 484052.087351038644556, 1690484.693073163973168 ], [ 481861.421574279724155, 1690486.293728441698477 ], [ 481775.494773794489447, 1689579.389073804719374 ], [ 479584.794727192609571, 1689581.202550876187161 ], [ 479670.753803602478001, 1690488.100127568468451 ], [ 477480.083798194187693, 1690490.112271608086303 ], [ 477394.092436138773337, 1689583.221663249423727 ], [ 475203.387659783067647, 1689585.446412111166865 ], [ 475289.411317236081231, 1690492.330161741236225 ], [ 474194.07407317054458, 1690493.516261996002868 ], [ 474280.159171071019955, 1691400.411000801250339 ], [ 473184.837380485609174, 1691401.64517069561407 ], [ 473529.695387439627666, 1695029.354551025433466 ], [ 472434.437609132903162, 1695030.626760322134942 ], [ 472520.781557780341245, 1695937.58675281656906 ], [ 469235.052203047263902, 1695941.702874324750155 ], [ 469321.490123749827035, 1696848.667313727317378 ], [ 470416.717821059399284, 1696847.246968085179105 ], [ 470589.697168427810539, 1698661.225698835914955 ], [ 471684.891580379102379, 1698659.863651175517589 ], [ 472031.329031392931938, 1702288.007819994352758 ], [ 469841.069514958187938, 1702290.756878382293507 ], [ 469927.82471776381135, 1703197.822380498284474 ], [ 467737.594474217970856, 1703200.772012102184817 ], [ 467824.427600787370466, 1704107.84537220094353 ], [ 463444.021483101067133, 1704114.353596958797425 ], [ 463530.965216542419512, 1705021.428496979409829 ], [ 460245.699180375318974, 1705026.844683203147724 ], [ 460158.706470511562657, 1704119.779193684458733 ], [ 457968.491047522053123, 1704123.655513598350808 ], [ 458229.703424555598758, 1706844.876844079699367 ], [ 457134.643031868967228, 1706846.883680019760504 ], [ 457221.821022817981429, 1707753.983276365324855 ], [ 453936.68177366652526, 1707760.30641413340345 ], [ 453849.454680909810122, 1706853.21579440170899 ], [ 452754.389406188216526, 1706855.430369082605466 ], [ 452492.931786484376062, 1704134.253724219975993 ], [ 451397.816144751035608, 1704136.528924962971359 ], [ 451049.777184776728973, 1700508.506153900641948 ], [ 452144.958130742365029, 1700506.21945771179162 ], [ 452058.078383089974523, 1699599.246768821729347 ], [ 454248.46896491071675, 1699594.822810217738152 ], [ 454335.316112475644331, 1700501.801296200836077 ], [ 457620.843760476214811, 1700495.562126289354637 ], [ 457534.045494028541725, 1699588.574739220319316 ], [ 455343.662357034976594, 1699592.688404611777514 ], [ 455256.876947049517184, 1698685.721331298118457 ], [ 456352.085398230061401, 1698683.635680593317375 ], [ 456092.050624883268028, 1695962.811640049563721 ], [ 454996.793372466694564, 1695964.906132888747379 ], [ 454910.189735165738966, 1695057.99637650907971 ], [ 453814.914994995633606, 1695060.145382055314258 ], [ 453555.328053650737274, 1692339.510594601044431 ], [ 454650.651496155769564, 1692337.35290754516609 ], [ 454218.996717809524853, 1687803.232573791407049 ], [ 455314.399894809001125, 1687801.111907262122259 ], [ 455142.088464209111407, 1685987.557721011573449 ], [ 452951.21618632163154, 1685991.861848007654771 ], [ 452865.096329728548881, 1685085.111788239562884 ], [ 451769.642108364147134, 1685087.343616633908823 ], [ 451683.551565700385254, 1684180.610556639032438 ], [ 453874.491005449846853, 1684176.192547214217484 ], [ 453788.478209834545851, 1683269.46805289783515 ], [ 451597.506494487693999, 1683273.891679405700415 ], [ 451339.644116770417895, 1680553.820052523631603 ], [ 445861.949066017521545, 1680565.816022593993694 ], [ 445776.005331933207344, 1679659.167218462331221 ], [ 446871.563317380787339, 1679656.663108767708763 ], [ 446785.681210074864794, 1678750.025783673161641 ], [ 445690.107117247011047, 1678752.532518881373107 ], [ 445518.447248940879945, 1676939.30539679271169 ], [ 444422.839467965997756, 1676941.868396657286212 ], [ 444508.662733886681963, 1677848.472329372307286 ], [ 443413.069517478230409, 1677851.083804828580469 ], [ 443584.884853778057732, 1679664.328783784527332 ], [ 444680.445854117395356, 1679661.722443341976032 ], [ 445110.700386849523056, 1684195.094604728044942 ], [ 442919.738237130455673, 1684200.332636827602983 ], [ 443005.958054556511343, 1685107.044272121274844 ], [ 445196.887870305974502, 1685101.811431870795786 ], [ 445283.120877720415592, 1686008.542411997215822 ], [ 444187.672913103480823, 1686011.130575880175456 ], [ 444360.307872715347912, 1687824.629780009388924 ], [ 447646.550170630856883, 1687817.035129265394062 ], [ 447819.270034378045239, 1689630.607026786077768 ], [ 448914.648818888352253, 1689628.183641702402383 ], [ 449260.569673328311183, 1693255.509014523588121 ], [ 448165.255787287314888, 1693257.921437314711511 ], [ 448251.865976584667806, 1694164.785638418281451 ], [ 446061.266403584973887, 1694169.759629692183807 ], [ 446408.292325967748184, 1697797.337246704148129 ], [ 444217.817049994249828, 1697802.49603419448249 ], [ 444304.719917308539152, 1698709.420731733785942 ], [ 445399.942004592390731, 1698706.818186156451702 ], [ 445747.943480661488138, 1702334.670629624743015 ], [ 443557.628376638691407, 1702339.905950631247833 ], [ 443644.775239474198315, 1703246.89944261754863 ], [ 442549.631730392982718, 1703249.59214702132158 ], [ 442811.394639088306576, 1705970.650548372417688 ], [ 441716.298667938099243, 1705973.387150661321357 ], [ 442066.019085599516984, 1709601.655127646867186 ], [ 440970.987136306008324, 1709604.433084054850042 ], [ 440796.002999012824148, 1707790.275687783258036 ], [ 439700.936598421889357, 1707793.110903132939711 ], [ 440138.820772041159216, 1712328.598987218458205 ], [ 441233.805023053078912, 1712325.776914369314909 ], [ 441058.547541844192892, 1710511.533320158254355 ], [ 442153.563063820416573, 1710508.758019635919482 ], [ 442416.468283931084443, 1713230.152997640194371 ], [ 443511.43289285665378, 1713227.437835249118507 ], [ 443686.897840669669677, 1715041.778590494766831 ], [ 442591.966161224641837, 1715044.488326898310333 ], [ 442679.783416840073187, 1715951.677622387651354 ], [ 439395.028273095667828, 1715960.111942756921053 ], [ 439307.161567625182215, 1715052.93065167660825 ], [ 438212.22341801848961, 1715055.849133169278502 ], [ 437948.847318943822756, 1712334.399446261581033 ], [ 436853.858056841068901, 1712337.377833307255059 ], [ 436766.14073167211609, 1711430.259248577058315 ], [ 435671.13328104437096, 1711433.292273360304534 ], [ 435583.445098432188388, 1710526.190567912068218 ], [ 436678.468998307071161, 1710523.1550175875891 ], [ 436590.842857475683559, 1709616.065131139243022 ], [ 435495.802517249714583, 1709619.103200408862904 ], [ 435145.688221362710465, 1705990.896925997920334 ], [ 436240.794234035012778, 1705987.848846840439364 ], [ 436153.396066781482659, 1705080.830545186530799 ], [ 437248.516724036831874, 1705077.831866511376575 ], [ 436986.644932981580496, 1702356.855160431470722 ], [ 438081.812987609126139, 1702353.900784870609641 ], [ 437994.629925072309561, 1701446.934584085363895 ], [ 439089.812633180350531, 1701444.029470086097717 ], [ 438915.615933185676113, 1699630.134792633587494 ], [ 440010.829642869648524, 1699627.276335378643125 ], [ 439923.815977601276245, 1698720.347832632251084 ], [ 438828.585944683640264, 1698723.208839510567486 ], [ 438741.601531478518154, 1697816.297131221508607 ], [ 437646.353502286132425, 1697819.212347279069945 ], [ 437820.400546759075951, 1699633.044970765942708 ], [ 436725.183453523553908, 1699636.006870202254504 ], [ 436812.291688625409734, 1700542.942047143820673 ], [ 434621.884943899116479, 1700549.016091034980491 ], [ 434534.744026361091528, 1699642.085834740428254 ], [ 433439.521632300224155, 1699645.202900734730065 ], [ 433265.343964743136894, 1697831.389881232986227 ], [ 431074.828322457964532, 1697837.788656332297251 ], [ 431249.071332885185257, 1699651.592202462023124 ], [ 432344.297411163977813, 1699648.371689819730818 ], [ 432431.471021581499372, 1700555.297135008964688 ], [ 433526.678894970333204, 1700552.130737784085795 ], [ 433613.881775939720683, 1701459.072805245406926 ], [ 432518.690259189868812, 1701462.236804055748507 ], [ 432605.955123268126044, 1702369.190706116845831 ], [ 431510.778122765943408, 1702372.404105664696544 ], [ 431598.104989638959523, 1703279.369865749496967 ], [ 433788.424389885389246, 1703272.999668052187189 ], [ 433875.764121416257694, 1704179.984481730265543 ], [ 432780.621727944351733, 1704183.14124592859298 ], [ 432868.023467096383683, 1705090.137902010697871 ], [ 431772.895624421245884, 1705093.344129403121769 ], [ 431947.868789097468834, 1706907.375445468118414 ], [ 434138.057005550421309, 1706901.02456191717647 ], [ 434225.579194360296242, 1707808.066498950123787 ], [ 432035.423818335635588, 1707814.41252107755281 ], [ 432123.024477875442244, 1708721.46388730336912 ], [ 433218.086652236233931, 1708718.267314831959084 ], [ 433305.716502029274125, 1709625.335411041975021 ], [ 432210.670766990922857, 1709628.529553320957348 ], [ 432298.362684956227895, 1710535.609528310131282 ], [ 433393.391971774282865, 1710532.417822816409171 ], [ 433481.113060744712129, 1711439.514559343457222 ], [ 431291.085548297152855, 1711445.945163605036214 ], [ 431203.331542455242015, 1710538.853286454686895 ], [ 430108.298514254041947, 1710542.149097724817693 ], [ 430283.885095912788529, 1712356.342388946563005 ], [ 431378.885190436732955, 1712353.051361495163292 ], [ 431466.730468147899956, 1713260.171889309072867 ], [ 430371.746853815100621, 1713263.460514948237687 ], [ 430547.60730013041757, 1715077.73977365042083 ], [ 425072.825026336824521, 1715094.941652563633397 ], [ 425249.033234842005186, 1716909.254886800423265 ], [ 428533.809384884196334, 1716898.791076846653596 ], [ 428621.932411597983446, 1717805.976169645087793 ], [ 427527.025558091583662, 1717809.409506597090513 ], [ 427615.210784287832212, 1718716.606605250621215 ], [ 429804.989456284616608, 1718709.796951123280451 ], [ 429893.187250290298834, 1719617.013176905689761 ], [ 426608.565935903228819, 1719627.29901224700734 ], [ 426696.85905560629908, 1720534.522510411217809 ], [ 425601.997870449326001, 1720538.053462598007172 ], [ 425867.201015519385692, 1723259.803277631988749 ], [ 424772.387549464183394, 1723263.379675967385992 ], [ 424683.924225752823986, 1722356.117659800685942 ], [ 419209.742408837715629, 1722374.797404134180397 ], [ 419298.288743322947994, 1723282.048279150156304 ], [ 420393.112801205425058, 1723278.209675166057423 ], [ 420481.688253002066631, 1724185.4770908721257 ], [ 421576.493518840346951, 1724181.693136607063934 ], [ 421665.098072081746068, 1725088.977142864372581 ], [ 422759.884572301467415, 1725085.247899181675166 ], [ 423114.693353600683622, 1728714.536971249151975 ], [ 422019.973422465729527, 1728718.257182229543105 ], [ 422108.806540770397987, 1729625.613241620361805 ], [ 421014.101144714746624, 1729629.383811119711027 ], [ 421191.937874336901587, 1731444.134738814085722 ], [ 422286.609909117396455, 1731440.368684253189713 ], [ 422464.596114905260038, 1733255.181953386869282 ], [ 423559.23263402923476, 1733251.473183389753103 ], [ 423915.686644317000173, 1736881.282769097248092 ], [ 422821.117015364579856, 1736884.982265927828848 ], [ 422910.361504717089701, 1737792.468600807711482 ], [ 425099.46519762033131, 1737785.127156517934054 ], [ 425188.721886356303003, 1738692.63272343040444 ], [ 426283.253901363583282, 1738689.043716204119846 ], [ 426461.87081150978338, 1740504.103303847601637 ], [ 425367.372320025926456, 1740507.687497886596248 ], [ 425456.766063485527411, 1741415.236723909853026 ], [ 424362.282312515308149, 1741418.871489577461034 ], [ 424272.871791214332916, 1740511.324652837589383 ], [ 423178.369195191189647, 1740515.014769235393032 ], [ 423446.788203829608392, 1743237.691877234028652 ], [ 424541.240431451296899, 1743234.008866700343788 ], [ 424451.738526173459832, 1742326.432891117874533 ], [ 426640.670422645751387, 1742319.221167483832687 ], [ 426998.817724245600402, 1745949.632018785225227 ], [ 425904.420017498719972, 1745953.201611870666966 ], [ 426173.560552658280358, 1748676.155884091509506 ], [ 427267.907746542070527, 1748672.593682452803478 ], [ 427357.695758800604381, 1749580.276862656930462 ], [ 428452.024116714543197, 1749576.770372606813908 ], [ 428362.252957232238259, 1748669.084687695838511 ], [ 429456.596214572084136, 1748665.628899305826053 ] ], [ [ 477566.120422760024667, 1691397.017276963684708 ], [ 476470.800662109279074, 1691398.097054105484858 ], [ 476384.747882209136151, 1690491.195498334011063 ], [ 477480.083798194187693, 1690490.112271608086303 ], [ 477566.120422760024667, 1691397.017276963684708 ] ], [ [ 443774.698618202819489, 1715948.97060890099965 ], [ 443862.544930508418474, 1716856.177066808566451 ], [ 442767.646216122084297, 1716858.881350759416819 ], [ 442679.783416840073187, 1715951.677622387651354 ], [ 443774.698618202819489, 1715948.97060890099965 ] ], [ [ 434970.904700893035624, 1704176.879577549174428 ], [ 435058.273658233869355, 1705083.881110361777246 ], [ 433963.149468353367411, 1705086.983562484383583 ], [ 433875.764121416257694, 1704179.984481730265543 ], [ 434970.904700893035624, 1704176.879577549174428 ] ], [ [ 429716.837310562375933, 1717802.595106373773888 ], [ 430811.740284970845096, 1717799.266316286753863 ], [ 430899.875894435332157, 1718706.470575162675232 ], [ 429804.989456284616608, 1718709.796951123280451 ], [ 429716.837310562375933, 1717802.595106373773888 ] ], [ [ 428093.213439706014469, 1745946.115550415357575 ], [ 428272.527457408199552, 1747761.413661876926199 ], [ 427178.16540286882082, 1747764.925154587486759 ], [ 426998.817724245600402, 1745949.632018785225227 ], [ 428093.213439706014469, 1745946.115550415357575 ] ], [ [ 437406.750247112417128, 1740471.174101915676147 ], [ 435217.788985288818367, 1740477.336282979696989 ], [ 435307.031848982791416, 1741384.908245032187551 ], [ 436401.496598083118442, 1741381.803339670179412 ], [ 436580.085605283500627, 1743196.996515699196607 ], [ 435485.654385077184997, 1743200.096074535045773 ], [ 435575.034055991156492, 1744107.711960552027449 ], [ 433386.199868067924399, 1744114.064910048386082 ], [ 433296.78663352271542, 1743206.454308576881886 ], [ 432202.350042438250966, 1743209.712984715821221 ], [ 431934.333754842285998, 1740486.976729229092598 ], [ 433028.820649859611876, 1740483.710289905080572 ], [ 432939.589897769852541, 1739576.158181346487254 ], [ 437317.586468970985152, 1739563.611422324553132 ], [ 437406.750247112417128, 1740471.174101915676147 ] ], [ [ 436961.387231873522978, 1735933.506880349013954 ], [ 438055.948880020703655, 1735930.491734338458627 ], [ 438322.979795438004658, 1738653.056296929251403 ], [ 433944.923321036563721, 1738665.401994284009561 ], [ 433855.800544263911434, 1737757.876488317037001 ], [ 432761.265261734137312, 1737761.097755113383755 ], [ 432583.123121491458733, 1735946.09565497096628 ], [ 433677.691836558049545, 1735942.869231813121587 ], [ 433588.705907101801131, 1735035.387462751474231 ], [ 436872.45139517512871, 1735026.017242570174858 ], [ 436961.387231873522978, 1735933.506880349013954 ] ], [ [ 430423.332587385259103, 1725060.613048666389659 ], [ 427139.009742774709594, 1725070.855877999681979 ], [ 426873.582314930914436, 1722349.012654502410442 ], [ 429063.23239936173195, 1722342.117295699194074 ], [ 429240.071979473810643, 1724156.674560132902116 ], [ 430334.860919016413391, 1724153.310343398479745 ], [ 430423.332587385259103, 1725060.613048666389659 ] ], [ [ 430246.434894546691794, 1723246.022074401611462 ], [ 431341.238517808495089, 1723242.707868594909087 ], [ 431429.647952577390242, 1724149.998591552488506 ], [ 430334.860919016413391, 1724153.310343398479745 ], [ 430246.434894546691794, 1723246.022074401611462 ] ], [ [ 445573.525565782387275, 1723204.394795036641881 ], [ 444478.744028509128839, 1723207.02735476824455 ], [ 444214.385512756067328, 1720485.147478317376226 ], [ 445309.216663303843234, 1720482.506528395693749 ], [ 445573.525565782387275, 1723204.394795036641881 ] ], [ [ 431252.874718762526754, 1722335.43157934374176 ], [ 430158.054514708463103, 1722338.748232463840395 ], [ 429981.430691849323921, 1720524.243792922236025 ], [ 431076.284030765353236, 1720520.922265107510611 ], [ 431252.874718762526754, 1722335.43157934374176 ] ], [ [ 468212.705572231439874, 1719531.806848080595955 ], [ 470402.347938388818875, 1719528.873704851837829 ], [ 470665.381908630719408, 1722250.933665964286774 ], [ 468475.838371333375107, 1722253.846370081184432 ], [ 468388.082103264168836, 1721346.485224691219628 ], [ 466198.502144625992514, 1721349.614236165536568 ], [ 466286.291383443865925, 1722256.968664835207164 ], [ 465191.516520631092135, 1722258.608409268083051 ], [ 465015.950426132883877, 1720443.92080767522566 ], [ 463921.141636341577396, 1720445.619523533852771 ], [ 463833.4101580902352, 1719538.300921824993566 ], [ 464928.235421782010235, 1719536.598929396830499 ], [ 464840.565780359203927, 1718629.291653699940071 ], [ 468125.085310765192844, 1718624.48959818854928 ], [ 468212.705572231439874, 1719531.806848080595955 ] ], [ [ 477160.852581875864416, 1698653.82867190008983 ], [ 476065.66175579233095, 1698654.932300488697365 ], [ 475892.844724340073299, 1696840.919679745798931 ], [ 476988.067998859623913, 1696839.809108751127496 ], [ 477160.852581875864416, 1698653.82867190008983 ] ] ], [ [ [ 460924.307034846104216, 1745865.322215832769871 ], [ 459829.957175751973409, 1745867.245147381676361 ], [ 459919.104553996468894, 1746774.970847958000377 ], [ 458824.770348860882223, 1746776.943613240262493 ], [ 459092.535198656027205, 1749500.19989277725108 ], [ 461281.101918803295121, 1749496.327338952338323 ], [ 461191.835108752653468, 1748588.553774891421199 ], [ 462286.133641773543786, 1748586.693977096816525 ], [ 462107.76971476408653, 1746771.184737241826952 ], [ 461013.43766601558309, 1746773.051222718553618 ], [ 460924.307034846104216, 1745865.322215832769871 ] ] ], [ [ [ 458790.468833315477241, 1768570.697660922538489 ], [ 458971.18052429711679, 1770386.891040248563513 ], [ 460065.078252984560095, 1770384.898201326373965 ], [ 459884.400526133948006, 1768568.698027133243158 ], [ 458790.468833315477241, 1768570.697660922538489 ] ] ], [ [ [ 449216.624247010564432, 1771315.339870961848646 ], [ 449397.914786862209439, 1773131.564584787469357 ], [ 448304.05565898725763, 1773134.086550579406321 ], [ 448485.562254768854473, 1774950.365057877730578 ], [ 449579.387276850291528, 1774947.849407435394824 ], [ 449670.191751231031958, 1775856.014383123721927 ], [ 448576.38379544147756, 1775858.526865592692047 ], [ 448667.250830279197544, 1776766.703721915138885 ], [ 451948.619408437923994, 1776759.337943254737183 ], [ 451585.628947374061681, 1773126.682468598242849 ], [ 452679.484039458795451, 1773124.322317487094551 ], [ 452588.86712806543801, 1772216.192845119163394 ], [ 451494.995004386873916, 1772218.556225819513202 ], [ 451404.406531844462734, 1771310.445014539407566 ], [ 449216.624247010564432, 1771315.339870961848646 ] ] ], [ [ [ 450033.864493435015902, 1779488.824934978503734 ], [ 450124.896386316395365, 1780397.065282391384244 ], [ 451218.617522844870109, 1780394.62290072417818 ], [ 451036.633426919463091, 1778578.150846467353404 ], [ 452130.387441692699213, 1778575.756114789051935 ], [ 452039.480692145007197, 1777667.539484972367063 ], [ 448758.163358516350854, 1777674.895636272151023 ], [ 448940.124892121355515, 1779491.324676809366792 ], [ 450033.864493435015902, 1779488.824934978503734 ] ] ], [ [ [ 453133.250492350198328, 1777665.195584776811302 ], [ 453770.432695013994817, 1784023.052412939956412 ], [ 454864.081457309541292, 1784020.785819408716634 ], [ 454227.019019892264623, 1777662.905759121291339 ], [ 453133.250492350198328, 1777665.195584776811302 ] ] ], [ [ [ 451674.373517261876259, 1784936.067618897650391 ], [ 451309.677779886580538, 1781302.881587454583496 ], [ 449122.268390111799818, 1781307.814062677323818 ], [ 449304.593846338277217, 1783124.36386939464137 ], [ 450398.264950251672417, 1783121.876978374784812 ], [ 450580.738056246831547, 1784938.493748307228088 ], [ 451674.373517261876259, 1784936.067618897650391 ] ] ], [ [ [ 464524.931843929516617, 1782186.153037080774084 ], [ 464706.868773810507264, 1784002.828412136528641 ], [ 462519.590167579590343, 1784006.439096164191142 ], [ 462428.564793380792253, 1783098.100943310186267 ], [ 460241.247881591843907, 1783101.935718508204445 ], [ 460423.412504251231439, 1784918.613156016217545 ], [ 468078.764735718083102, 1784906.19083306286484 ], [ 467805.945263805915602, 1782181.122160450322554 ], [ 468899.614616889914032, 1782179.553617604775354 ], [ 468808.782550262461882, 1781271.224187891697511 ], [ 466621.408799085300416, 1781274.422818153863773 ], [ 466712.275037070037797, 1782182.744911152403802 ], [ 464524.931843929516617, 1782186.153037080774084 ] ] ], [ [ [ 464380.719706811360084, 1656051.005515046650544 ], [ 464465.178301453881431, 1656957.342083184048533 ], [ 465561.112501588999294, 1656955.732384365284815 ], [ 465476.669745561201125, 1656049.392830902943388 ], [ 464380.719706811360084, 1656051.005515046650544 ] ] ], [ [ [ 465561.112501588999294, 1656955.732384365284815 ], [ 465645.600617806834634, 1657862.085942142643034 ], [ 466741.518022296426352, 1657860.529686832800508 ], [ 466657.045751092140563, 1656954.173109958646819 ], [ 465561.112501588999294, 1656955.732384365284815 ] ] ], [ [ [ 467752.978080217784736, 1656952.664259734563529 ], [ 467837.434508846956305, 1657859.02388309687376 ], [ 470029.264849124359898, 1657856.1636294699274 ], [ 469944.840098339424003, 1656949.797830954194069 ], [ 467752.978080217784736, 1656952.664259734563529 ] ] ], [ [ [ 465645.600617806834634, 1657862.085942142643034 ], [ 464549.682265129114967, 1657863.69264925760217 ], [ 464634.231597120757215, 1658770.057222416158766 ], [ 465730.134093497646973, 1658768.453513389918953 ], [ 465645.600617806834634, 1657862.085942142643034 ] ] ], [ [ [ 466741.518022296426352, 1657860.529686832800508 ], [ 466826.035644130897708, 1658766.9002835592255 ], [ 467921.936279266315978, 1658765.397532694973052 ], [ 467837.434508846956305, 1657859.02388309687376 ], [ 466741.518022296426352, 1657860.529686832800508 ] ] ], [ [ [ 470029.264849124359898, 1657856.1636294699274 ], [ 470198.250322302919813, 1659668.937352686421946 ], [ 472390.013964500336442, 1659666.291510562412441 ], [ 472221.091880623949692, 1657853.505179578671232 ], [ 470029.264849124359898, 1657856.1636294699274 ] ] ], [ [ [ 464634.231597120757215, 1658770.057222416158766 ], [ 463538.328124756400939, 1658771.71141087426804 ], [ 463622.938691941730212, 1659678.087023189291358 ], [ 464718.82629671273753, 1659676.43581181531772 ], [ 464634.231597120757215, 1658770.057222416158766 ] ] ], [ [ [ 462696.439110866282135, 1661492.576113865245134 ], [ 463792.295952784013934, 1661490.880313985981047 ], [ 463622.938691941730212, 1659678.087023189291358 ], [ 462527.050083392707165, 1659679.788741629570723 ], [ 462696.439110866282135, 1661492.576113865245134 ] ] ], [ [ [ 464888.15179583337158, 1661489.23507595481351 ], [ 463792.295952784013934, 1661490.880313985981047 ], [ 463961.834710811555851, 1663303.729754054220393 ], [ 465057.658756755874492, 1663302.09051495953463 ], [ 464888.15179583337158, 1661489.23507595481351 ] ] ], [ [ [ 473833.167850474535953, 1675077.255075842374936 ], [ 473662.70558116940083, 1673263.988014746690169 ], [ 470375.775465992453974, 1673267.888864349806681 ], [ 470461.031937335093971, 1674174.505553718656301 ], [ 471556.660087903030217, 1674173.15757069690153 ], [ 471641.945873444376048, 1675079.791681342525408 ], [ 473833.167850474535953, 1675077.255075842374936 ] ] ], [ [ [ 473918.466924508393276, 1675983.909941748483106 ], [ 474003.811290493584238, 1676890.579043535981327 ], [ 475099.38915962720057, 1676889.393827648833394 ], [ 475014.06080977874808, 1675982.721407543634996 ], [ 473918.466924508393276, 1675983.909941748483106 ] ] ], [ [ [ 470887.994078796822578, 1678707.802155926590785 ], [ 470631.680839151318651, 1675987.781535868532956 ], [ 468440.48612261575181, 1675990.617593453964218 ], [ 468525.91060589015251, 1676897.270514609757811 ], [ 469621.492355213093106, 1676895.830167532665655 ], [ 469792.445244196685962, 1678709.185039521194994 ], [ 470887.994078796822578, 1678707.802155926590785 ] ] ], [ [ [ 476280.323952885111794, 1677794.949661309598014 ], [ 476365.726835348235909, 1678701.653952457476407 ], [ 478556.815173190203495, 1678699.552234498318285 ], [ 478471.444346245611086, 1677792.841143857920542 ], [ 479567.003638889291324, 1677791.863464118679985 ], [ 479481.694082322763279, 1676885.163219321053475 ], [ 475099.38915962720057, 1676889.393827648833394 ], [ 475184.762791849672794, 1677796.080499331699684 ], [ 476280.323952885111794, 1677794.949661309598014 ] ] ], [ [ [ 468525.91060589015251, 1676897.270514609757811 ], [ 467430.327990039659198, 1676898.761888530338183 ], [ 467601.345050464093219, 1678712.104051193455234 ], [ 468696.895578137424309, 1678710.619004539679736 ], [ 468525.91060589015251, 1676897.270514609757811 ] ] ], [ [ [ 479567.003638889291324, 1677791.863464118679985 ], [ 479652.358441707736347, 1678698.577995605068281 ], [ 480747.901150162506383, 1678697.654836575500667 ], [ 480662.562369053601287, 1677790.936836842447519 ], [ 479567.003638889291324, 1677791.863464118679985 ] ] ], [ [ [ 466505.793631019652821, 1678713.64017969998531 ], [ 466591.38623573910445, 1679620.329447635216638 ], [ 467686.921595351595897, 1679618.796465069055557 ], [ 467601.345050464093219, 1678712.104051193455234 ], [ 466505.793631019652821, 1678713.64017969998531 ] ] ], [ [ [ 474431.212474130326882, 1681424.138413966633379 ], [ 475526.710129847051576, 1681422.969886694569141 ], [ 475270.181705713155679, 1678702.781431833282113 ], [ 473079.08937424083706, 1678705.189632203429937 ], [ 473250.127237279491965, 1680518.621007607551292 ], [ 474345.641659342800267, 1680517.397994210477918 ], [ 474431.212474130326882, 1681424.138413966633379 ] ] ], [ [ [ 465172.97681893868139, 1687784.337027102475986 ], [ 465086.94379491370637, 1686877.525705905631185 ], [ 466182.352186567382887, 1686875.915466720238328 ], [ 466010.454490327101666, 1685062.329400521004573 ], [ 463819.572217289009131, 1685065.613712375750765 ], [ 464077.583614319213666, 1687785.995473244227469 ], [ 465172.97681893868139, 1687784.337027102475986 ] ] ], [ [ [ 477222.245502510399092, 1687769.483600394800305 ], [ 477394.092436138773337, 1689583.221663249423727 ], [ 478489.443877275974955, 1689582.18640257883817 ], [ 478317.629205163801089, 1687768.441418337170035 ], [ 477222.245502510399092, 1687769.483600394800305 ] ] ], [ [ [ 472261.885621919063851, 1693216.749998338753358 ], [ 471166.594689312682021, 1693218.080452888272703 ], [ 470908.057965400046669, 1690497.383185627870262 ], [ 469812.717703943431843, 1690498.77503509237431 ], [ 469898.867467290954664, 1691405.656468762783334 ], [ 468803.542548751051072, 1691407.096498234663159 ], [ 468889.753817261545919, 1692313.989028214709833 ], [ 466699.133748559514061, 1692317.017037165816873 ], [ 466958.136759523011278, 1695037.761426668614149 ], [ 469148.659611311159097, 1695034.752835341496393 ], [ 469062.312349277373869, 1694127.817187505075708 ], [ 470157.588697085389867, 1694126.386970545398071 ], [ 470243.919751149835065, 1695033.325902281096205 ], [ 472434.437609132903162, 1695030.626760322134942 ], [ 472261.885621919063851, 1693216.749998338753358 ] ] ], [ [ [ 488112.73131975310389, 1698645.634944386314601 ], [ 487854.108535887149628, 1695924.518728046212345 ], [ 485663.63918081135489, 1695925.766383179230615 ], [ 485836.073962008289527, 1697739.814433536492288 ], [ 484740.871100738819223, 1697740.508293360006064 ], [ 484827.172492767858785, 1698647.550395989092067 ], [ 483731.985424150945619, 1698648.29224447440356 ], [ 484164.251600687741302, 1703183.702314372640103 ], [ 486354.462951860099565, 1703182.307296685641631 ], [ 486181.485853506717831, 1701368.084815579466522 ], [ 488371.760688824520912, 1701366.882017726544291 ], [ 488285.372390913078561, 1700459.785104704322293 ], [ 487190.218916918849573, 1700460.364389634691179 ], [ 487017.545410503982566, 1698646.221746042370796 ], [ 488112.73131975310389, 1698645.634944386314601 ] ] ], [ [ [ 482139.357894383836538, 1727684.246100717457011 ], [ 482227.233124107238837, 1728591.753157884115353 ], [ 483321.881882764224429, 1728590.925649009644985 ], [ 483234.023167000443209, 1727683.414816866395995 ], [ 482139.357894383836538, 1727684.246100717457011 ] ] ], [ [ [ 480213.886368272884283, 1730408.609474541386589 ], [ 482403.119249379786197, 1730406.811669938731939 ], [ 482491.13014340918744, 1731314.36314364685677 ], [ 483585.729306921246462, 1731313.546999792801216 ], [ 483409.78581184631912, 1729498.45128393615596 ], [ 482315.153576025681105, 1729499.275011154823005 ], [ 482227.233124107238837, 1728591.753157884115353 ], [ 481132.583879529905971, 1728592.633254176471382 ], [ 481220.520856748626102, 1729500.151353201596066 ], [ 480125.887624091410544, 1729501.080310204997659 ], [ 480213.886368272884283, 1730408.609474541386589 ] ] ], [ [ [ 483673.76887139264727, 1732221.117099554976448 ], [ 484768.35103928548051, 1732220.357454357203096 ], [ 484944.532677625422366, 1734035.549862996907905 ], [ 486039.081313540809788, 1734034.850647794315591 ], [ 485774.92631803516997, 1731312.072720560012385 ], [ 483585.729306921246462, 1731313.546999792801216 ], [ 483673.76887139264727, 1732221.117099554976448 ] ] ], [ [ [ 483938.158823392295744, 1734943.916479238076136 ], [ 485032.691296976874582, 1734943.168361604213715 ], [ 484944.532677625422366, 1734035.549862996907905 ], [ 483849.98363039130345, 1734036.301829853095114 ], [ 483938.158823392295744, 1734943.916479238076136 ] ] ], [ [ [ 486127.223361702868715, 1734942.473023035330698 ], [ 485032.691296976874582, 1734943.168361604213715 ], [ 485120.895115433610044, 1735850.801735646789894 ], [ 486215.410600088944193, 1735850.110280418768525 ], [ 486127.223361702868715, 1734942.473023035330698 ] ] ], [ [ [ 503918.426605524145998, 1656931.159103617770597 ], [ 501726.588828077132348, 1656930.899389179423451 ], [ 501894.566890424175654, 1658743.848920501302928 ], [ 504086.341588399896864, 1658744.124395708087832 ], [ 503918.426605524145998, 1656931.159103617770597 ] ] ], [ [ [ 499702.792401580838487, 1658743.775347594404593 ], [ 500798.679634982428979, 1658743.786896265577525 ], [ 500714.652292029990349, 1657837.308920770417899 ], [ 499618.749278568720911, 1657837.301246964372694 ], [ 499702.792401580838487, 1658743.775347594404593 ] ] ], [ [ [ 501894.566890424175654, 1658743.848920501302928 ], [ 500798.679634982428979, 1658743.786896265577525 ], [ 500966.869548625138123, 1660556.785537850344554 ], [ 502062.725222121283878, 1660556.855385815259069 ], [ 501894.566890424175654, 1658743.848920501302928 ] ] ], [ [ [ 492537.44979227008298, 1664184.09230634639971 ], [ 491441.656624235911295, 1664184.462494677631184 ], [ 491610.672816665493883, 1665997.563668285263702 ], [ 492706.434254815860186, 1665997.20088724908419 ], [ 492537.44979227008298, 1664184.09230634639971 ] ] ], [ [ [ 491779.869607971108053, 1667810.721816378179938 ], [ 491610.672816665493883, 1665997.563668285263702 ], [ 490514.911147217324469, 1665997.97714436869137 ], [ 490430.364604061469436, 1665091.423119838815182 ], [ 489334.586799028271344, 1665091.890943078557029 ], [ 489588.409552139812149, 1667811.5847621220164 ], [ 491779.869607971108053, 1667810.721816378179938 ] ] ], [ [ [ 497343.102973638742696, 1668716.071941104717553 ], [ 497427.734739686304238, 1669622.70561207132414 ], [ 498523.431955732754432, 1669622.61174543062225 ], [ 498354.24530404858524, 1667809.350974330678582 ], [ 497258.516310959530529, 1667809.452573735965416 ], [ 497173.974752384645399, 1666902.84750067256391 ], [ 494982.484751724172384, 1666903.210579764796421 ], [ 495151.676505798764993, 1668716.419744841754436 ], [ 497343.102973638742696, 1668716.071941104717553 ] ] ], [ [ [ 507120.078152694506571, 1667810.365166999166831 ], [ 502737.161124796955846, 1667809.452073227148503 ], [ 502821.668390261940658, 1668716.091030512470752 ], [ 505013.094889889645856, 1668716.45410578744486 ], [ 505182.181059603812173, 1670529.791131262201816 ], [ 506277.862739418051206, 1670530.056963967857882 ], [ 506108.808331851207186, 1668716.711809111293405 ], [ 507204.521942174178548, 1668717.02028960804455 ], [ 507120.078152694506571, 1667810.365166999166831 ] ] ], [ [ [ 500799.45546634477796, 1670529.236119752284139 ], [ 500714.826295949111227, 1669622.576425559353083 ], [ 502906.220714961178601, 1669622.744323564926162 ], [ 502821.668390261940658, 1668716.091030512470752 ], [ 499534.529148575325962, 1668715.92724568862468 ], [ 499703.774198577913921, 1670529.224446600535884 ], [ 500799.45546634477796, 1670529.236119752284139 ] ] ], [ [ [ 492118.804963745642453, 1671437.209332681726664 ], [ 492203.651667814643588, 1672343.866936729289591 ], [ 493299.301773195795249, 1672343.530283693689853 ], [ 493214.471000305959024, 1671436.868927761446685 ], [ 495405.802542769815773, 1671436.340696164174005 ], [ 495321.048743979365099, 1670529.68607284524478 ], [ 490938.321226591535378, 1670530.961010336643085 ], [ 491023.138710052415263, 1671437.600597080308944 ], [ 492118.804963745642453, 1671437.209332681726664 ] ] ], [ [ [ 495405.802542769815773, 1671436.340696164174005 ], [ 495575.445496064377949, 1673249.692907899850979 ], [ 496671.079205284826458, 1673249.512755803763866 ], [ 496501.468109047855251, 1671436.152869409648702 ], [ 495405.802542769815773, 1671436.340696164174005 ] ] ], [ [ [ 484449.134937636146788, 1671441.01623627380468 ], [ 484619.096721491252538, 1673254.294716080650687 ], [ 485714.733007457340136, 1673253.60541989444755 ], [ 485799.765742822841275, 1674160.269637147895992 ], [ 486895.385672216594685, 1674159.634856057586148 ], [ 486810.368899945169687, 1673252.967038449598476 ], [ 487906.004429132619407, 1673252.379571653436869 ], [ 487821.048796758637764, 1672345.722418326651677 ], [ 486725.397315699723549, 1672346.313506430014968 ], [ 486640.470920211984776, 1671439.67425072658807 ], [ 484449.134937636146788, 1671441.01623627380468 ] ] ], [ [ [ 493384.177681831410155, 1673250.20595462503843 ], [ 493469.098725476243999, 1674156.895949849626049 ], [ 495660.334649093740154, 1674156.390514912316576 ], [ 495575.445496064377949, 1673249.692907899850979 ], [ 493384.177681831410155, 1673250.20595462503843 ] ] ], [ [ [ 494150.091846359486226, 1681410.932701953453943 ], [ 494064.809749232023023, 1680504.127777595072985 ], [ 495160.315913100959733, 1680503.876315613510087 ], [ 494989.919114707910921, 1678690.301985301543027 ], [ 492798.842603245400824, 1678690.87132482137531 ], [ 493054.601538705115672, 1681411.231480907183141 ], [ 494150.091846359486226, 1681410.932701953453943 ] ] ], [ [ [ 505104.991043626971077, 1681410.758758905576542 ], [ 505190.158114821184427, 1682317.617829008726403 ], [ 504094.684065253008157, 1682317.400902479421347 ], [ 504009.500989164982457, 1681410.545929501298815 ], [ 501818.521181057381909, 1681410.27375322766602 ], [ 501988.996432552230544, 1683223.981937940930948 ], [ 504179.91218942659907, 1683224.27035121829249 ], [ 504265.185360939067323, 1684131.15428507514298 ], [ 503169.743464970320929, 1684130.980387910967693 ], [ 503255.077716800442431, 1685037.874727045884356 ], [ 502159.651944077690132, 1685037.74801116832532 ], [ 502245.047295485099312, 1685944.652779353316873 ], [ 504435.866842989111319, 1685944.965645572170615 ], [ 504350.503579042677302, 1685038.052713405806571 ], [ 505445.929560929420404, 1685038.281970273470506 ], [ 505360.627374220057391, 1684131.37942533264868 ], [ 506456.069534944661427, 1684131.655808718176559 ], [ 506370.828406225133222, 1683224.763627223670483 ], [ 507466.286762432020623, 1683225.087088835425675 ], [ 507381.106672462949064, 1682318.205247002188116 ], [ 508476.581240810570307, 1682318.575738551327959 ], [ 508306.388113411667291, 1680504.84717897279188 ], [ 507210.881558039342053, 1680504.485039676772431 ], [ 507295.971604081627447, 1681411.337900402955711 ], [ 505104.991043626971077, 1681410.758758905576542 ] ] ], [ [ [ 497607.165334295539651, 1683224.019699010299519 ], [ 497777.94914586644154, 1685037.753852222580463 ], [ 498873.374861769028939, 1685037.675486281048506 ], [ 498787.976451627328061, 1684130.797229798743501 ], [ 499883.418179643747862, 1684130.766154766315594 ], [ 499712.788692101545166, 1682317.045078815892339 ], [ 498617.314904404745903, 1682317.084093448938802 ], [ 498702.623132258071564, 1683223.93343530013226 ], [ 497607.165334295539651, 1683224.019699010299519 ] ] ], [ [ [ 506456.069534944661427, 1684131.655808718176559 ], [ 506541.355692588025704, 1685038.562497683800757 ], [ 505445.929560929420404, 1685038.281970273470506 ], [ 505531.27678464690689, 1685945.199025552487001 ], [ 504435.866842989111319, 1685944.965645572170615 ], [ 504521.275152029294986, 1686851.893090936588123 ], [ 506712.063091646530665, 1686852.41943550738506 ], [ 506626.686878405336756, 1685945.483703489881009 ], [ 508817.507642708718777, 1685946.206953412853181 ], [ 508561.745324021554552, 1683225.461766247171909 ], [ 507466.286762432020623, 1683225.087088835425675 ], [ 507551.511873242736328, 1684131.983435271773487 ], [ 506456.069534944661427, 1684131.655808718176559 ] ] ], [ [ [ 486242.751374696090352, 1690483.298160794889554 ], [ 487338.082804365782067, 1690482.677857940318063 ], [ 487423.974140189995524, 1691389.615142695140094 ], [ 490709.918075587716885, 1691388.074099474586546 ], [ 490538.277332625119016, 1689574.191499024396762 ], [ 492728.969769669580273, 1689573.406184885650873 ], [ 492900.546039311971981, 1691387.304050498409197 ], [ 495091.173222712590359, 1691386.73985151341185 ], [ 494919.661407339503057, 1689572.826501464936882 ], [ 500396.388584786094725, 1689572.276925364043564 ], [ 500739.270413833146449, 1693200.24113970506005 ], [ 501834.551333420211449, 1693200.301670295419171 ], [ 501748.779382910928689, 1692293.284731431398541 ], [ 502844.076470848056488, 1692293.392686175415292 ], [ 502758.365695809246972, 1691386.386220047948882 ], [ 501663.052498760516755, 1691386.282351792557165 ], [ 501406.142251966171898, 1688665.362474523950368 ], [ 499215.419395125180017, 1688665.333318943390623 ], [ 499129.840629360696767, 1687758.397121073212475 ], [ 500225.218131960835308, 1687758.382003241684288 ], [ 500139.70052359381225, 1686851.456305681494996 ], [ 502330.487709658744279, 1686851.572047723922879 ], [ 502245.047295485099312, 1685944.652779353316873 ], [ 501149.63762939668959, 1685944.57329306867905 ], [ 501064.226230749161914, 1685037.672565754503012 ], [ 498873.374861769028939, 1685037.675486281048506 ], [ 498958.818361935496796, 1685944.568214091472328 ], [ 497863.408700320578646, 1685944.642621398204938 ], [ 497777.94914586644154, 1685037.753852222580463 ], [ 496682.523368853493594, 1685037.883488627849147 ], [ 496767.9989799525938, 1685944.768326580291614 ], [ 492386.358908522815909, 1685945.784126546233892 ], [ 492471.943912181304768, 1686852.667955347103998 ], [ 491376.549523561669048, 1686853.046349653974175 ], [ 491547.887136082339566, 1688666.849748607724905 ], [ 488261.798999390506651, 1688668.270351058105007 ], [ 488347.583855360921007, 1689575.182444342644885 ], [ 486156.889097031147685, 1689576.379021422937512 ], [ 486242.751374696090352, 1690483.298160794889554 ] ], [ [ 493567.338093818689231, 1686852.340886492282152 ], [ 493652.952155257400591, 1687759.243000861490145 ], [ 494748.330078604572918, 1687758.971119415480644 ], [ 494833.97318176884437, 1688665.891569111961871 ], [ 492643.249343498377129, 1688666.478975189384073 ], [ 492471.943912181304768, 1686852.667955347103998 ], [ 493567.338093818689231, 1686852.340886492282152 ] ] ], [ [ [ 489700.507966225093696, 1692295.495555314701051 ], [ 489872.451937172678299, 1694109.457501746248454 ], [ 494253.514239417389035, 1694107.963394997641444 ], [ 494081.699427459563594, 1692293.97076156293042 ], [ 489700.507966225093696, 1692295.495555314701051 ] ] ], [ [ [ 499643.989514555083588, 1693200.232126280432567 ], [ 499729.838791317888536, 1694107.255516875069588 ], [ 500825.103559094946831, 1694107.26857502781786 ], [ 500739.270413833146449, 1693200.24113970506005 ], [ 499643.989514555083588, 1693200.232126280432567 ] ] ], [ [ [ 504282.602789264929015, 1695921.74026754219085 ], [ 505377.835557478072587, 1695921.967832494759932 ], [ 505206.163157696544658, 1694107.836253560846671 ], [ 504110.898118752229493, 1694107.617017004871741 ], [ 504196.727930799417663, 1695014.67134205205366 ], [ 503101.479138062626589, 1695014.499516615411267 ], [ 503187.370138659200165, 1695921.564302051905543 ], [ 499901.672591717971954, 1695921.34600213333033 ], [ 499987.657113852910697, 1696828.413115544943139 ], [ 501082.873434064676985, 1696828.438347129384056 ], [ 501254.945375840645283, 1698642.624510774156079 ], [ 502350.129387900815345, 1698642.709572377847508 ], [ 502264.087055034411605, 1697735.605081198737025 ], [ 503359.28730262001045, 1697735.737692174967378 ], [ 503273.306193762633484, 1696828.643690775381401 ], [ 504368.522693395265378, 1696828.823802867205814 ], [ 504282.602789264929015, 1695921.74026754219085 ] ] ], [ [ [ 488112.73131975310389, 1698645.634944386314601 ], [ 488285.372390913078561, 1700459.785104704322293 ], [ 490475.678404432081152, 1700458.781745496671647 ], [ 490303.102189338940661, 1698644.616387276444584 ], [ 488112.73131975310389, 1698645.634944386314601 ] ] ], [ [ [ 488371.760688824520912, 1701366.882017726544291 ], [ 488458.194160626386292, 1702273.993498456897214 ], [ 489553.314847254951019, 1702273.473548233043402 ], [ 489466.897612809785642, 1701366.358265321003273 ], [ 488371.760688824520912, 1701366.882017726544291 ] ] ], [ [ [ 496155.389316400629468, 1714065.735352596733719 ], [ 496068.466731399530545, 1713158.40990088833496 ], [ 493878.618275941407774, 1713158.888437442248687 ], [ 494052.573940616683103, 1714973.538021229207516 ], [ 492957.682175762369297, 1714973.847523216856644 ], [ 492696.767335488344543, 1712251.907136634225026 ], [ 491601.826334635785315, 1712252.280642080120742 ], [ 492036.991865885211155, 1716788.901831541443244 ], [ 493131.851083926332649, 1716788.548072829144076 ], [ 493044.744062218407635, 1715881.190429230453447 ], [ 494139.619464056391735, 1715880.884910624008626 ], [ 494226.710113886569161, 1716788.246544231893495 ], [ 495321.568985746183898, 1716787.997245704056695 ], [ 495060.481498020992149, 1714065.9445357224904 ], [ 496155.389316400629468, 1714065.735352596733719 ] ] ], [ [ [ 487261.961027774610557, 1724050.658561175921932 ], [ 487349.572993375128135, 1724958.125543540110812 ], [ 486254.859915760869626, 1724958.758202319266275 ], [ 486342.533539747993927, 1725866.236111900769174 ], [ 488531.926396320865024, 1725865.031028202269226 ], [ 488707.343251989397686, 1727680.046793747227639 ], [ 489802.00622289639432, 1727679.530867658322677 ], [ 489977.570749970735051, 1729494.613825797569007 ], [ 492166.829884938488249, 1729493.755587136140093 ], [ 492079.058050349005498, 1728586.198712138459086 ], [ 490984.412101620517205, 1728586.605525386054069 ], [ 490633.710269742819946, 1724956.542430307716131 ], [ 489538.998140420648269, 1724957.017657615244389 ], [ 489451.419104814063758, 1724049.542877136496827 ], [ 487261.961027774610557, 1724050.658561175921932 ] ] ], [ [ [ 497727.708950359025039, 1730400.122925157193094 ], [ 497552.285144107649103, 1728584.953444034326822 ], [ 495362.994716867804527, 1728585.293791818199679 ], [ 495450.717056172026787, 1729492.862834176514298 ], [ 496545.345824621676002, 1729492.670477682724595 ], [ 496633.096776403719559, 1730400.258523067925125 ], [ 497727.708950359025039, 1730400.122925157193094 ] ] ], [ [ [ 495538.484510419599246, 1730400.446762256324291 ], [ 495626.297078842762858, 1731308.045585515210405 ], [ 494531.701204659126233, 1731308.282369431806728 ], [ 494619.575409113895148, 1732215.891994058853015 ], [ 496808.733995116199367, 1732215.479328904533759 ], [ 496633.096776403719559, 1730400.258523067925125 ], [ 495538.484510419599246, 1730400.446762256324291 ] ] ] ] } }
]
}
