{
"type": "FeatureCollection",
"name": "urban-2010",
"crs": { "type": "name", "properties": { "name": "urn:ogc:def:crs:EPSG::32636" } },
"features": [
{ "type": "Feature", "properties": { "year": 2010 }, "geometry": { "type": "MultiPolygon", "coordinates": [ [ [ [ 717381.269349055830389, 3701764.387467719148844 ], [ 719457.086447473498993, 3701811.311890438664705 ], [ 719639.756719288881868, 3702776.779954118188471 ], [ 720677.632018116186373, 3702800.436206395272166 ], [ 720494.999932687613182, 3701834.941603728570044 ], [ 721532.916729309712537, 3701858.6829888029024 ], [ 721350.365077884285711, 3700893.206684793811291 ], [ 717198.565000712755136, 3700799.017193785402924 ], [ 717381.269349055830389, 3701764.387467719148844 ] ] ], [ [ [ 726904.953911588061601, 3702944.719535369891673 ], [ 728980.754954068223014, 3702993.707692677620798 ], [ 728798.428331606090069, 3702027.999739029444754 ], [ 729836.372179410187528, 3702052.634603667538613 ], [ 729654.125884157954715, 3701086.944854137953371 ], [ 726540.190129781374708, 3701013.45560175459832 ], [ 726904.953911588061601, 3702944.719535369891673 ] ] ], [ [ [ 725194.251806158339605, 3704827.515188104007393 ], [ 726232.067418782971799, 3704851.783390465658158 ], [ 725502.218373693292961, 3700989.182509205769747 ], [ 724464.250006022281013, 3700965.021074173972011 ], [ 724646.687143170041963, 3701930.577203739434481 ], [ 723608.760318997781724, 3701906.500785896554589 ], [ 723426.285011205705814, 3700940.97129371156916 ], [ 722388.323373680235818, 3700917.033164890948683 ], [ 722753.392567953560501, 3702848.083815772552043 ], [ 720677.632018116186373, 3702800.436206395272166 ], [ 720860.306361424503848, 3703765.975680936127901 ], [ 721898.146774304099381, 3703789.770218750927597 ], [ 722080.825161633081734, 3704755.381189547479153 ], [ 723118.630693106446415, 3704779.314090579748154 ], [ 722935.990515732089989, 3703813.676488965284079 ], [ 723973.837601243052632, 3703837.694494491908699 ], [ 723791.277850052691065, 3702872.075178678147495 ], [ 724829.166490995907225, 3702896.178250952623785 ], [ 725194.251806158339605, 3704827.515188104007393 ] ] ], [ [ [ 717564.015996095491573, 3702729.802539982832968 ], [ 715488.288335212739184, 3702683.271894016768783 ], [ 715671.15368152956944, 3703648.678876894526184 ], [ 714633.332913701655343, 3703625.554673091974109 ], [ 714267.568148121703416, 3701694.83830050798133 ], [ 713229.674204704118893, 3701671.878557958640158 ], [ 713046.817146053886972, 3700706.613852553535253 ], [ 710970.96249084873125, 3700661.081931672990322 ], [ 711886.053295241203159, 3705487.589587314985693 ], [ 713961.525897606508806, 3705533.384905172511935 ], [ 714144.594669957412407, 3706498.873485314194113 ], [ 716220.003613814013079, 3706545.168769365176558 ], [ 716037.011323930695653, 3705579.627292154822499 ], [ 717074.758884870447218, 3705602.916143596172333 ], [ 716708.977684692596085, 3703671.914795910473913 ], [ 717746.804938728339039, 3703695.262432973366231 ], [ 717564.015996095491573, 3702729.802539982832968 ] ] ], [ [ [ 730383.363938807044178, 3704949.973959695547819 ], [ 731421.196663803886622, 3704974.801056895870715 ], [ 732150.955988158821128, 3708838.658907116390765 ], [ 734226.325984571594745, 3708888.864051531068981 ], [ 734043.899483052897267, 3707922.777931858319789 ], [ 735081.627980133867823, 3707948.021350156981498 ], [ 734716.977719916263595, 3706015.930673650465906 ], [ 733679.172755809850059, 3705990.741237792186439 ], [ 733496.872536431532353, 3705024.790618288330734 ], [ 734534.715715103782713, 3705049.953088566660881 ], [ 733806.088605185621418, 3701186.493910189252347 ], [ 731730.100281111430377, 3701136.496031225193292 ], [ 732094.482330803293735, 3703068.027867586817592 ], [ 730018.660622370312922, 3703018.369356115814298 ], [ 730383.363938807044178, 3704949.973959695547819 ] ], [ [ 732459.03285783843603, 3704999.739942081272602 ], [ 732276.736536232754588, 3704033.86136381700635 ], [ 733314.614417444332503, 3704058.885120422113687 ], [ 733496.872536431532353, 3705024.790618288330734 ], [ 732459.03285783843603, 3704999.739942081272602 ] ] ], [ [ [ 728307.708833846030757, 3704900.65511716529727 ], [ 726232.067418782971799, 3704851.783390465658158 ], [ 726414.63515960238874, 3705817.5460598282516 ], [ 728490.200136390049011, 3705866.47134214732796 ], [ 728307.708833846030757, 3704900.65511716529727 ] ] ], [ [ [ 730383.363938807044178, 3704949.973959695547819 ], [ 729345.534667328349315, 3704925.25864745490253 ], [ 729527.987751827808097, 3705891.101693566422909 ], [ 730565.778805977432057, 3705915.843855821527541 ], [ 730383.363938807044178, 3704949.973959695547819 ] ] ], [ [ [ 721043.02295949566178, 3704731.560049777384847 ], [ 721225.781809211475775, 3705697.189335365779698 ], [ 722263.545788021059707, 3705721.037094156257808 ], [ 722080.825161633081734, 3704755.381189547479153 ], [ 721043.02295949566178, 3704731.560049777384847 ] ] ], [ [ [ 724156.439569440437481, 3704803.358755790162832 ], [ 724339.08375151490327, 3705769.06798503594473 ], [ 725376.857767227571458, 3705793.251122971996665 ], [ 725194.251806158339605, 3704827.515188104007393 ], [ 724156.439569440437481, 3704803.358755790162832 ] ] ], [ [ [ 728855.309219292830676, 3707798.238990838639438 ], [ 729220.586918254382908, 3709730.187054654583335 ], [ 732333.501109594246373, 3709804.736257368233055 ], [ 732150.955988158821128, 3708838.658907116390765 ], [ 730075.599878950510174, 3708788.90137692913413 ], [ 729893.020360796479508, 3707822.923035776708275 ], [ 728855.309219292830676, 3707798.238990838639438 ] ] ], [ [ [ 716403.038212014595047, 3707510.755122867412865 ], [ 715365.37038229056634, 3707487.525101348757744 ], [ 715548.485551661113277, 3708453.129856483545154 ], [ 716586.115115425549448, 3708476.386375106405467 ], [ 716952.395825435873121, 3710407.783665619324893 ], [ 717989.952060720650479, 3710431.205146876163781 ], [ 719272.998316997196525, 3717192.699678630568087 ], [ 720310.289429627591744, 3717216.41968203522265 ], [ 720677.177680311258882, 3719148.734662058763206 ], [ 722751.616171917645261, 3719196.618158116936684 ], [ 722384.881503311684355, 3717264.196066591888666 ], [ 724459.486810881411657, 3717312.420974191743881 ], [ 724276.259560338919982, 3716346.22410854883492 ], [ 726350.954972092062235, 3716394.843827308621258 ], [ 726167.846644771518186, 3715428.638464748393744 ], [ 728242.632252795738168, 3715477.652821532450616 ], [ 727693.790364178246818, 3712579.14669432817027 ], [ 725618.774751021759585, 3712530.293581591453403 ], [ 725984.780496712424792, 3714462.478318002540618 ], [ 724947.354405402438715, 3714438.166116053704172 ], [ 724581.272001773701049, 3712506.035023868083954 ], [ 722506.276540713384748, 3712457.85389095870778 ], [ 722323.222017040126957, 3711491.909558785613626 ], [ 725435.835159700363874, 3711564.268946777097881 ], [ 725070.082555865636095, 3709632.355031148996204 ], [ 726107.703561518108472, 3709656.645162411499768 ], [ 726473.379584642127156, 3711588.612677303608507 ], [ 728548.478593339561485, 3711637.63605790073052 ], [ 728365.696081707254052, 3710671.576037390623242 ], [ 729403.288990861037746, 3710696.228798582684249 ], [ 729220.586918254382908, 3709730.187054654583335 ], [ 728182.955727238790132, 3709705.561171188950539 ], [ 727817.601502430159599, 3707773.666811505332589 ], [ 728855.309219292830676, 3707798.238990838639438 ], [ 728672.733599256491289, 3706832.332625866401941 ], [ 726597.245085960719734, 3706783.353753766976297 ], [ 726414.63515960238874, 3705817.5460598282516 ], [ 725376.857767227571458, 3705793.251122971996665 ], [ 725559.505926439887844, 3706759.032065337058157 ], [ 722446.308650341583416, 3706686.737955036573112 ], [ 722629.113745466573164, 3707652.483794660307467 ], [ 725742.196280654752627, 3707724.858037693891674 ], [ 725924.928826729301363, 3708690.729062547441572 ], [ 722811.961070264922455, 3708618.274635514244437 ], [ 722994.850621603662148, 3709584.1105000898242 ], [ 721957.239662045380101, 3709560.156094425357878 ], [ 721774.31183699471876, 3708594.346917199902236 ], [ 720736.665920691564679, 3708570.531072701793164 ], [ 720553.742072889814153, 3707604.793543498963118 ], [ 721591.42625108663924, 3707628.582746604457498 ], [ 721225.781809211475775, 3705697.189335365779698 ], [ 717074.758884870447218, 3705602.916143596172333 ], [ 717257.71293478528969, 3706568.484112613834441 ], [ 716220.003613814013079, 3706545.168769365176558 ], [ 716403.038212014595047, 3707510.755122867412865 ] ], [ [ 719516.061195380985737, 3707581.11618244741112 ], [ 719333.141352348728105, 3706615.450215749908239 ], [ 720370.860479954280891, 3706639.100981355179101 ], [ 720553.742072889814153, 3707604.793543498963118 ], [ 719516.061195380985737, 3707581.11618244741112 ] ], [ [ 719882.027680693892762, 3709512.582988244481385 ], [ 717806.828846522374079, 3709465.457469657994807 ], [ 717440.709280439768918, 3707534.096974993124604 ], [ 719516.061195380985737, 3707581.11618244741112 ], [ 719882.027680693892762, 3709512.582988244481385 ] ] ], [ [ [ 723788.840375013067387, 3719220.728187462780625 ], [ 722751.616171917645261, 3719196.618158116936684 ], [ 722935.046833580243401, 3720162.897049009799957 ], [ 723972.232623336138204, 3720187.033925296273082 ], [ 723788.840375013067387, 3719220.728187462780625 ] ] ], [ [ [ 734527.326221187599003, 3721401.196542741265148 ], [ 732452.967039681156166, 3721350.736085101030767 ], [ 732636.13620418717619, 3722317.348490993957967 ], [ 733673.27563004870899, 3722342.54972307709977 ], [ 733856.448443196597509, 3723309.234747840091586 ], [ 734893.552890344872139, 3723334.575472597964108 ], [ 734527.326221187599003, 3721401.196542741265148 ] ] ], [ [ [ 735930.660819167038426, 3723360.028534518554807 ], [ 734893.552890344872139, 3723334.575472597964108 ], [ 735076.729324192507192, 3724301.333202288020402 ], [ 736113.798796541872434, 3724326.813497845549136 ], [ 735930.660819167038426, 3723360.028534518554807 ] ] ], [ [ [ 724404.01156632299535, 3727894.759448140393943 ], [ 724587.822040317463689, 3728861.446497202850878 ], [ 725624.661540431668982, 3728885.825769590213895 ], [ 725440.889593742904253, 3727919.111718778032809 ], [ 727514.655659653013572, 3727968.153617426753044 ], [ 727331.002916083903983, 3727001.430969781707972 ], [ 728367.929497661767527, 3727026.093532521743327 ], [ 728184.357407742762007, 3726059.389301505871117 ], [ 729221.325865560909733, 3726084.137212858069688 ], [ 729404.859456344740465, 3727050.86852677538991 ], [ 730441.792807430494577, 3727075.755955547094345 ], [ 730074.844741733395495, 3725142.284603654872626 ], [ 732148.875646737404168, 3725192.288190600927919 ], [ 732332.251650580437854, 3726159.055392667185515 ], [ 733369.233767128316686, 3726184.252944629639387 ], [ 733002.600811081007123, 3724250.709706336725503 ], [ 734039.663334146142006, 3724275.965272812172771 ], [ 733856.448443196597509, 3723309.234747840091586 ], [ 731782.24993258563336, 3723258.890297510195524 ], [ 731415.792631147080101, 3721325.674267604481429 ], [ 730378.621656954404898, 3721300.724720257800072 ], [ 730195.417747977655381, 3720334.211913598701358 ], [ 727083.810010719578713, 3720260.117887949571013 ], [ 727267.129186866921373, 3721226.549668881110847 ], [ 723118.51970927498769, 3721129.221200153697282 ], [ 722935.046833580243401, 3720162.897049009799957 ], [ 720860.685170921497047, 3720114.959945714101195 ], [ 721227.826866936287843, 3722047.546213375404477 ], [ 722264.9291829460999, 3722071.512287659104913 ], [ 722632.162892772816122, 3724004.333338606636971 ], [ 723669.191588945919648, 3724028.465441515669227 ], [ 723852.833289149566554, 3724994.970860145520419 ], [ 721778.856150635052472, 3724946.765205251984298 ], [ 721962.617029814980924, 3725913.262183935847133 ], [ 722999.565458750701509, 3725937.3357242369093 ], [ 723367.13685554265976, 3727870.519626018125564 ], [ 724404.01156632299535, 3727894.759448140393943 ] ], [ [ 723485.592090121237561, 3723062.005373753141612 ], [ 724522.662563962396234, 3723086.222893930505961 ], [ 724339.143720975145698, 3722119.781255881302059 ], [ 725376.255973691004328, 3722144.08415568433702 ], [ 725559.736366119235754, 3723110.552721104118973 ], [ 727633.894016732927412, 3723159.549308273941278 ], [ 727817.339664091006853, 3724126.117212099954486 ], [ 728854.385082128224894, 3724150.811009305529296 ], [ 729037.834406424546614, 3725117.451381277292967 ], [ 726963.823893611785024, 3725068.12206363864243 ], [ 726780.297621080535464, 3724101.535759697202593 ], [ 723669.191588945919648, 3724028.465441515669227 ], [ 723485.592090121237561, 3723062.005373753141612 ] ] ], [ [ [ 738187.948249446228147, 3724378.111199596431106 ], [ 736113.798796541872434, 3724326.813497845549136 ], [ 736296.978823114652187, 3725293.644018556922674 ], [ 738371.051339514320716, 3725344.996308794710785 ], [ 738187.948249446228147, 3724378.111199596431106 ] ] ], [ [ [ 736296.978823114652187, 3725293.644018556922674 ], [ 735259.947819937719032, 3725268.136472143698484 ], [ 735443.208374366513453, 3726234.985304925125092 ], [ 736480.200895665213466, 3726260.52011942025274 ], [ 736296.978823114652187, 3725293.644018556922674 ] ] ], [ [ [ 723550.985857564141043, 3728837.179702225141227 ], [ 723918.810452978126705, 3730770.636218895670027 ], [ 724955.569541633594781, 3730794.957011291291565 ], [ 724587.822040317463689, 3728861.446497202850878 ], [ 723550.985857564141043, 3728837.179702225141227 ] ] ], [ [ [ 734103.004623991902918, 3730051.886218324769288 ], [ 733552.613368066842668, 3727151.09287925530225 ], [ 732515.669747995794751, 3727125.868128744885325 ], [ 733066.176569584291428, 3730026.579768736381084 ], [ 730992.530766159994528, 3729976.304457644000649 ], [ 731176.194302302435972, 3730943.24510922562331 ], [ 733249.763009185087867, 3730993.574868606869131 ], [ 733433.391526291845366, 3731960.615616427734494 ], [ 734470.142473354935646, 3731985.976618333719671 ], [ 734653.774491993477568, 3732953.090338982176036 ], [ 735690.490323653211817, 3732978.591263179201633 ], [ 735874.12581575778313, 3733945.77804297208786 ], [ 737947.490744144655764, 3733997.172547780442983 ], [ 737763.932419967022724, 3733029.930984657257795 ], [ 736727.209627899574116, 3733004.204810702241957 ], [ 736543.654752924689092, 3732037.036399147007614 ], [ 735506.896877151099034, 3732011.45021154358983 ], [ 735139.836133883800358, 3730077.305201365612447 ], [ 734103.004623991902918, 3730051.886218324769288 ] ] ], [ [ [ 738433.745258308947086, 3731121.369108901824802 ], [ 736360.141914055566303, 3731069.913710174150765 ], [ 736543.654752924689092, 3732037.036399147007614 ], [ 738617.180981382494792, 3732088.546569967642426 ], [ 738433.745258308947086, 3731121.369108901824802 ] ] ], [ [ [ 740269.992577688302845, 3740795.205537373200059 ], [ 739233.575304315891117, 3740769.146768800914288 ], [ 739417.469672569539398, 3741736.755258187185973 ], [ 740453.848260781494901, 3741762.841600339859724 ], [ 740269.992577688302845, 3740795.205537373200059 ] ] ], [ [ [ 748764.463030340033583, 3758354.198995970655233 ], [ 748948.879243807168677, 3759322.806210264097899 ], [ 751020.285838299896568, 3759377.451996570453048 ], [ 750651.650894830469042, 3757440.171767949126661 ], [ 751687.437452175072394, 3757467.608595639467239 ], [ 751871.69510854058899, 3758436.253560696728528 ], [ 754978.960053673712537, 3758519.328832276165485 ], [ 754610.719916133908555, 3756581.916493929922581 ], [ 755646.560054159956053, 3756609.778673199005425 ], [ 755278.564796601771377, 3754672.496085747145116 ], [ 753206.732753509073518, 3754616.997727829031646 ], [ 753574.883474142639898, 3756554.167678539641201 ], [ 752539.05071319534909, 3756526.532223671209067 ], [ 751802.761085142730735, 3752652.490557739045471 ], [ 750766.776574663119391, 3752625.080736926291138 ], [ 750950.825085114338435, 3753593.493457165081054 ], [ 748878.944667775649577, 3753538.957526701502502 ], [ 748510.734170809271745, 3751602.290428938344121 ], [ 749546.750220151734538, 3751629.445809717755765 ], [ 749362.746582115069032, 3750661.15380424214527 ], [ 747290.640482329530641, 3750607.012116366066039 ], [ 747658.844879434327595, 3752543.530688432045281 ], [ 745586.908462475752458, 3752489.730134873650968 ], [ 745402.707675887271762, 3751521.503487185575068 ], [ 742294.713344732881524, 3751441.735278042498976 ], [ 741926.204660814022645, 3749505.587546279653907 ], [ 739854.070880264509469, 3749453.085556428879499 ], [ 739669.80188884108793, 3748485.136354153044522 ], [ 740705.905810887692496, 3748511.303104643709958 ], [ 740521.717575418413617, 3747543.372348972596228 ], [ 738449.435677243862301, 3747491.207240981981158 ], [ 738265.211887565557845, 3746523.377861048094928 ], [ 741373.756281792884693, 3746601.712170777376741 ], [ 741557.863784165587276, 3747569.624497090466321 ], [ 743630.166796402307227, 3747622.467997458297759 ], [ 743446.136816254118457, 3746654.500228743534535 ], [ 745518.531575571745634, 3746707.740464348811656 ], [ 745150.752390317735262, 3744771.832300238776952 ], [ 746187.032622312777676, 3744798.566399654839188 ], [ 746003.244624528801069, 3743830.653745955321938 ], [ 742894.298505404964089, 3743750.873647674452513 ], [ 742526.616022378322668, 3741815.352967476472259 ], [ 740453.848260781494901, 3741762.841600339859724 ], [ 740637.745921942056157, 3742730.523649681359529 ], [ 738565.069650150369853, 3742678.408702539280057 ], [ 738197.161538584972732, 3740743.200861336663365 ], [ 739233.575304315891117, 3740769.146768800914288 ], [ 738682.144177269889042, 3737866.596885150764138 ], [ 736609.088175480952486, 3737814.982901144307107 ], [ 736057.803350232192315, 3734913.010573788080364 ], [ 735021.16470104153268, 3734887.454935777466744 ], [ 734837.448568965308368, 3733920.249770511407405 ], [ 732764.104434053297155, 3733869.531169994734228 ], [ 733131.733169643091969, 3735803.877933939918876 ], [ 735204.922884987900034, 3735854.705857645720243 ], [ 735388.723117569810711, 3736822.002558991778642 ], [ 733315.610650217509829, 3736771.119921809993684 ], [ 733499.530201671645045, 3737738.407677447423339 ], [ 732463.017757357680239, 3737713.108124444726855 ], [ 732647.018026865553111, 3738680.414322782773525 ], [ 731610.547648418694735, 3738655.200206417124718 ], [ 731794.628658858593553, 3739622.524864662904292 ], [ 729721.775417099939659, 3739572.380387601908296 ], [ 729169.426746723474935, 3736670.707380567677319 ], [ 728132.88923036691267, 3736645.886046885978431 ], [ 727764.790144782047719, 3734711.720284537412226 ], [ 726728.178738150047138, 3734687.065985663793981 ], [ 728017.533411255804822, 3741457.255552995949984 ], [ 729053.874242326826788, 3741482.10027528880164 ], [ 729791.420403078082018, 3745351.895842970814556 ], [ 728755.234466801630333, 3745326.94192625163123 ], [ 729124.33771714172326, 3747262.060241415631026 ], [ 728088.232650289544836, 3747237.164653134997934 ], [ 728272.886226536473259, 3748204.765325408894569 ], [ 729308.952511641778983, 3748229.688261464703828 ], [ 729493.609414712525904, 3749197.362220464739949 ], [ 728457.58192411926575, 3749172.411919259466231 ], [ 728827.099670341587625, 3751107.84296363638714 ], [ 727791.153140088077635, 3751082.951022444292903 ], [ 728160.91701249894686, 3753018.5112349470146 ], [ 727125.051481208764017, 3752993.677696914412081 ], [ 727310.035455570090562, 3753961.499426224268973 ], [ 728345.862127187312581, 3753986.360358508769423 ], [ 728530.84935653838329, 3754954.255524327978492 ], [ 731638.232737192185596, 3755029.60009941784665 ], [ 731453.362121426151134, 3754061.622524973470718 ], [ 732489.202162703149952, 3754086.936380443163216 ], [ 732674.033908501965925, 3755054.941482316236943 ], [ 735781.45776584406849, 3755131.645247509237379 ], [ 735596.742626402992755, 3754163.557389649562538 ], [ 736632.596277654403821, 3754189.324217277113348 ], [ 736817.272549457964487, 3755157.439718375913799 ], [ 737853.090773667558096, 3755183.34746899548918 ], [ 738961.797006284119561, 3760993.177983945701271 ], [ 739997.385217466042377, 3761019.365590816363692 ], [ 740552.188151858048514, 3763924.989932941738516 ], [ 742623.141199569101445, 3763977.872835334390402 ], [ 742808.081434246269055, 3764946.56298683444038 ], [ 743843.524214837932959, 3764973.202728991396725 ], [ 744028.467367703095078, 3765941.967367292381823 ], [ 741957.663325305562466, 3765888.745533535722643 ], [ 742327.831456359941512, 3767826.302506955340505 ], [ 741292.51273264514748, 3767799.806106407660991 ], [ 741848.196553146583028, 3770706.40683868015185 ], [ 742883.398100338410586, 3770732.987216508481652 ], [ 744181.187223191023804, 3777516.884635476861149 ], [ 743146.259539394173771, 3777490.107696087099612 ], [ 743517.511890611611307, 3779428.728563317097723 ], [ 742482.66605262295343, 3779402.00931589724496 ], [ 742668.394281482789665, 3780371.36181347630918 ], [ 741633.591113370610401, 3780344.728445769753307 ], [ 742191.144927851040848, 3783252.982508029323071 ], [ 743225.83041307516396, 3783279.700364771764725 ], [ 743411.726260728668422, 3784249.24031292879954 ], [ 742377.080029013101012, 3784222.494257906451821 ], [ 742563.057039401843213, 3785192.052911463193595 ], [ 741528.453530222526751, 3785165.392818834166974 ], [ 741714.511726318742149, 3786134.970195000991225 ], [ 742749.075955648673698, 3786161.658492196816951 ], [ 742935.136774381040595, 3787131.311023606918752 ], [ 743969.665167866856791, 3787158.1417793687433 ], [ 743597.664004660211504, 3785218.827182412613183 ], [ 744632.274440694251098, 3785245.715634899679571 ], [ 744446.375962784397416, 3784276.100520478561521 ], [ 745481.029149887152016, 3784303.074883786961436 ], [ 745295.21180794807151, 3783333.478452032897621 ], [ 744260.519368202541955, 3783306.53234502999112 ], [ 744074.704660323797725, 3782337.011085065081716 ], [ 745109.436339761829004, 3782363.928953402675688 ], [ 744738.011038150521927, 3780424.970661575440317 ], [ 745772.824656197335571, 3780451.946148426737636 ], [ 746144.171518111485057, 3782390.960922713857144 ], [ 747178.910210097092204, 3782418.106996252667159 ], [ 746807.641787045053206, 3780479.035681472159922 ], [ 747842.462445438141003, 3780506.239263975061476 ], [ 747656.930218802299351, 3779536.745692414231598 ], [ 746622.070360809797421, 3779509.570382735226303 ], [ 746436.540795937879011, 3778540.151958478614688 ], [ 747471.439840585226193, 3778567.299012950621545 ], [ 747100.584642917383462, 3776628.546236495487392 ], [ 746065.607263774494641, 3776601.455639609601349 ], [ 745694.841217508539557, 3774662.946537402458489 ], [ 746729.896879421779886, 3774689.980747089721262 ], [ 746544.615793910576031, 3773720.768176483456045 ], [ 745509.521009998163208, 3773693.762134017422795 ], [ 744768.65902911813464, 3769817.491626342292875 ], [ 746839.164852314512245, 3769871.392458484042436 ], [ 747024.239373188931495, 3770840.446289178449661 ], [ 748059.458536645164713, 3770867.595463887322694 ], [ 747874.423085253918543, 3769898.513478223234415 ], [ 748909.684885558439419, 3769925.748238098807633 ], [ 749094.681267886189744, 3770894.858407742343843 ], [ 750129.907581755425781, 3770922.235124031081796 ], [ 750314.90672248613555, 3771891.420258317142725 ], [ 749279.719490192015655, 3771864.015311475843191 ], [ 749464.799549108487554, 3772833.218972681090236 ], [ 747394.514009000966325, 3772778.694070852827281 ], [ 747579.714117216994055, 3773747.888068580068648 ], [ 750685.030471631558612, 3773829.93087541218847 ], [ 750499.947686903178692, 3772860.652167645283043 ], [ 751535.099422954604961, 3772888.199196379631758 ], [ 751905.228582326788455, 3774826.860040785744786 ], [ 752940.305705192266032, 3774854.57757167937234 ], [ 753125.393854941474274, 3775824.006635386031121 ], [ 754160.435474251862615, 3775851.866452710703015 ], [ 753420.490065884659998, 3771974.317940654233098 ], [ 752385.29199550091289, 3771946.571569580584764 ], [ 751645.858901222236454, 3768069.885466940701008 ], [ 750610.50821273738984, 3768042.365956269670278 ], [ 750795.342819767422043, 3769011.439112611114979 ], [ 749760.034784837160259, 3768984.005087042227387 ], [ 749205.539351319312118, 3766077.010260081849992 ], [ 750240.964474784210324, 3766104.359717563726008 ], [ 750056.255350587889552, 3765135.426588522270322 ], [ 751091.723087675636634, 3765162.861496676225215 ], [ 750907.094788205926307, 3764193.946830960456282 ], [ 751942.605140109080821, 3764221.467152599710971 ], [ 751389.088096470572054, 3761314.918322852347046 ], [ 750353.460851983283646, 3761287.482480528298765 ], [ 750168.999871823121794, 3760318.754168319981545 ], [ 748097.678359419922344, 3760264.279119641985744 ], [ 747913.18136514374055, 3759295.653465177398175 ], [ 746877.487078919657506, 3759268.614147752523422 ], [ 746692.993038000538945, 3758300.062968063633889 ], [ 748764.463030340033583, 3758354.198995970655233 ] ], [ [ 748170.117823292035609, 3766049.774433278478682 ], [ 748354.946812083013356, 3767018.697900107130408 ], [ 747319.567882042378187, 3766991.547586882952601 ], [ 747134.699875810067169, 3766022.652233864180744 ], [ 746099.285493980278261, 3765995.643658565357327 ], [ 745914.420352434855886, 3765026.822972685564309 ], [ 749020.791223422158509, 3765108.105285338591784 ], [ 749205.539351319312118, 3766077.010260081849992 ], [ 748170.117823292035609, 3766049.774433278478682 ] ], [ [ 750537.963667002739385, 3762256.257346183527261 ], [ 749502.37899742659647, 3762228.906882846262306 ], [ 749317.837230694363825, 3761260.160130450502038 ], [ 750353.460851983283646, 3761287.482480528298765 ], [ 750537.963667002739385, 3762256.257346183527261 ] ], [ [ 747504.477754595689476, 3767960.48956306418404 ], [ 747689.429490117821842, 3768929.478185733314604 ], [ 745618.838463168591261, 3768875.406128952745348 ], [ 745433.808639869326726, 3767906.473717032000422 ], [ 747504.477754595689476, 3767960.48956306418404 ] ], [ [ 748466.797936527989805, 3762201.669937457889318 ], [ 748836.084942756569944, 3764139.246922184713185 ], [ 747800.585419386392459, 3764112.067328443750739 ], [ 747431.220469376072288, 3762174.546506730373949 ], [ 748466.797936527989805, 3762201.669937457889318 ] ], [ [ 750467.396174477529712, 3756471.60138215078041 ], [ 749431.574366725282744, 3756444.305988858919591 ], [ 749247.322611049166881, 3755475.810095162130892 ], [ 750283.183292836183682, 3755503.077451057266444 ], [ 750467.396174477529712, 3756471.60138215078041 ] ], [ [ 747175.612094423966482, 3755421.615334822796285 ], [ 746991.324469995801337, 3754453.221808069385588 ], [ 749063.112710288027301, 3754507.360615505371243 ], [ 749247.322611049166881, 3755475.810095162130892 ], [ 747175.612094423966482, 3755421.615334822796285 ] ], [ [ 740776.045433221152052, 3754293.524067087098956 ], [ 742847.790951569564641, 3754346.303559717256576 ], [ 742663.389809563057497, 3753378.06787713477388 ], [ 745771.151152498321608, 3753458.003074775915593 ], [ 745955.435742638655938, 3754426.322330041322857 ], [ 744919.55059045762755, 3754399.536131462547928 ], [ 745103.915940381237306, 3755367.873821267392486 ], [ 740960.566239946056157, 3755261.750430766958743 ], [ 740776.045433221152052, 3754293.524067087098956 ] ], [ [ 740591.566587482229806, 3753325.343954742420465 ], [ 740222.734792142990045, 3751389.122391575016081 ], [ 741258.722311649587937, 3751415.372244976926595 ], [ 741443.078399056335911, 3752383.487659796606749 ], [ 742479.030606183456257, 3752409.878457617480308 ], [ 742663.389809563057497, 3753378.06787713477388 ], [ 740591.566587482229806, 3753325.343954742420465 ] ], [ [ 739186.750771166523919, 3751362.985714661888778 ], [ 739002.359013961395249, 3750394.971907041035593 ], [ 740038.381849126890302, 3750421.080894545186311 ], [ 740222.734792142990045, 3751389.122391575016081 ], [ 739186.750771166523919, 3751362.985714661888778 ] ], [ [ 739785.38437835033983, 3743672.110167032573372 ], [ 739969.404709338909015, 3744639.856632470153272 ], [ 738933.145763148437254, 3744613.800442404579371 ], [ 738749.086708103539422, 3743646.081573645584285 ], [ 739785.38437835033983, 3743672.110167032573372 ] ], [ [ 737528.736762248212472, 3742652.520604338031262 ], [ 737712.792532033985481, 3743620.165925074368715 ], [ 736676.50183501758147, 3743594.363218178972602 ], [ 736492.407352829002775, 3742626.745418863836676 ], [ 737528.736762248212472, 3742652.520604338031262 ] ], [ [ 733867.495504285907373, 3739673.12058358034119 ], [ 734419.758908892981708, 3742575.533773625735193 ], [ 733383.439844103064388, 3742550.097307656891644 ], [ 732831.060373529559001, 3739647.766317362431437 ], [ 733867.495504285907373, 3739673.12058358034119 ] ], [ [ 735756.449715678812936, 3738756.733391700312495 ], [ 736124.344469427247532, 3740691.647617171052843 ], [ 735087.941135689965449, 3740666.040274223778397 ], [ 734719.96904531866312, 3738731.180912348907441 ], [ 735756.449715678812936, 3738756.733391700312495 ] ] ], [ [ [ 746329.90774702723138, 3783360.538689025212079 ], [ 746144.171518111485057, 3782390.960922713857144 ], [ 745109.436339761829004, 3782363.928953402675688 ], [ 745295.21180794807151, 3783333.478452032897621 ], [ 746329.90774702723138, 3783360.538689025212079 ] ] ], [ [ [ 745272.988475090125576, 3793947.224348882213235 ], [ 746307.244933416484855, 3793974.367801099549979 ], [ 746120.969657885492779, 3793004.329176654107869 ], [ 747155.268987720599398, 3793031.55864175921306 ], [ 746969.074934408301488, 3792061.538752888329327 ], [ 745934.736235182150267, 3792034.337703182827681 ], [ 745748.544668706483208, 3791064.393357082735747 ], [ 746782.92272433405742, 3791091.566009093541652 ], [ 746596.812360899755731, 3790121.640386776067317 ], [ 745562.394961855141446, 3790094.496114759705961 ], [ 745190.221140605164692, 3788154.842847130261362 ], [ 743121.239492224995047, 3788101.010529209859669 ], [ 744425.131408175686374, 3794890.224323875270784 ], [ 743390.921280858805403, 3794863.281390143092722 ], [ 743950.478517689509317, 3797773.566217179875821 ], [ 744984.570377314928919, 3797800.59434849396348 ], [ 744611.569197079050355, 3795860.300471127033234 ], [ 745645.743375554913655, 3795887.386283867526799 ], [ 745832.183610906358808, 3796857.538045748136938 ], [ 746866.3218429206172, 3796884.766816542483866 ], [ 747052.764495696406811, 3797854.994281206279993 ], [ 749120.972576679079793, 3797909.852462502662092 ], [ 748934.608792345738038, 3796939.5679607312195 ], [ 747900.463565209181979, 3796912.110120441764593 ], [ 747714.102173022227362, 3795941.901415014173836 ], [ 746679.921029341639951, 3795914.586597406771034 ], [ 746493.562058369861916, 3794944.453600139822811 ], [ 745459.344995813909918, 3794917.281726124230772 ], [ 745272.988475090125576, 3793947.224348882213235 ] ] ], [ [ [ 750816.666689263656735, 3796024.532925134059042 ], [ 748748.286821182002313, 3795969.330739971715957 ], [ 748934.608792345738038, 3796939.5679607312195 ], [ 751002.909819449996576, 3796994.827263687737286 ], [ 750816.666689263656735, 3796024.532925134059042 ] ] ], [ [ [ 751375.521437775460072, 3798935.557913995347917 ], [ 748273.31182471755892, 3798852.669344777707011 ], [ 748646.32736159581691, 3800793.417811654973775 ], [ 749680.314774446422234, 3800820.98989076865837 ], [ 750613.387714000185952, 3805673.833437688183039 ], [ 752680.977999393828213, 3805729.608399567194283 ], [ 752121.246010025613941, 3802817.587771377526224 ], [ 753155.16504558280576, 3802845.561228442937136 ], [ 752782.298196045914665, 3800904.394076673313975 ], [ 751748.300177140161395, 3800876.478019946720451 ], [ 751375.521437775460072, 3798935.557913995347917 ] ] ], [ [ [ 746369.557220034766942, 3713038.988363462965935 ], [ 746734.030089764273725, 3714972.258122969884425 ], [ 747771.530145162483677, 3714998.92414021724835 ], [ 747042.905359338503331, 3711132.456936275120825 ], [ 746005.252092379843816, 3711105.900567452423275 ], [ 745641.114732652087696, 3709172.994553432334214 ], [ 744603.38860908173956, 3709146.604850187432021 ], [ 745331.984208678011782, 3713012.489264735020697 ], [ 746369.557220034766942, 3713038.988363462965935 ] ] ], [ [ [ 740691.635769396554679, 3715781.155432749539614 ], [ 739961.770415633916855, 3711915.271740091498941 ], [ 738924.18083084130194, 3711889.472135118208826 ], [ 739289.106104669393972, 3713822.268741002772003 ], [ 738251.596701419213787, 3713796.526783482637256 ], [ 738616.766725319670513, 3715729.450533342082053 ], [ 740691.635769396554679, 3715781.155432749539614 ] ] ], [ [ [ 740384.890329608693719, 3719621.748728000558913 ], [ 740750.487786634126678, 3721555.272718769032508 ], [ 741787.693795122439042, 3721581.345106285996735 ], [ 741970.517090796492994, 3722548.202825830318034 ], [ 745082.041425810428336, 3722627.176100387703627 ], [ 744534.043212559539825, 3719726.492975069209933 ], [ 742459.459566913545132, 3719673.896358483936638 ], [ 742642.160492615541443, 3720640.690283339936286 ], [ 741604.912482080515474, 3720614.532979118172079 ], [ 741422.173154902877286, 3719647.766421569045633 ], [ 740384.890329608693719, 3719621.748728000558913 ] ] ], [ [ [ 746484.688417654018849, 3724587.797275473829359 ], [ 746119.223452594596893, 3722653.725200455170125 ], [ 745082.041425810428336, 3722627.176100387703627 ], [ 745447.583279560087249, 3724561.193146644160151 ], [ 746484.688417654018849, 3724587.797275473829359 ] ] ], [ [ [ 742214.557169554987922, 3729291.193511435762048 ], [ 742031.40156964934431, 3728324.043500380590558 ], [ 744105.278659615432844, 3728376.684721645899117 ], [ 743739.247369719203562, 3726442.411952960770577 ], [ 745813.29287223261781, 3726495.393042607232928 ], [ 745630.417110158829018, 3725528.270226998720318 ], [ 744593.354071555659175, 3725501.750984533224255 ], [ 744410.481776982545853, 3724534.7014154586941 ], [ 742336.289617097005248, 3724482.05513315461576 ], [ 742153.382365867611952, 3723515.106160525232553 ], [ 741116.253225024207495, 3723488.979010231327266 ], [ 741848.287942409398966, 3727356.939224106259644 ], [ 740811.316265429486521, 3727330.81481322273612 ], [ 740262.111815440119244, 3724429.858402986079454 ], [ 739225.028260646038689, 3724403.928612020798028 ], [ 739408.09288336278405, 3725370.84105885727331 ], [ 738371.051339514320716, 3725344.996308794710785 ], [ 738554.196450139745139, 3726311.927032602485269 ], [ 739591.199513921281323, 3726337.799137530382723 ], [ 740140.771420299191959, 3729238.947392638307065 ], [ 738066.999857029179111, 3729187.1513667460531 ], [ 737883.690185298793949, 3728220.111039974261075 ], [ 738920.612720142817125, 3728245.925415221136063 ], [ 738737.383578093373217, 3727278.903393809683621 ], [ 736663.465010972693563, 3727227.441823215223849 ], [ 736846.771165812853724, 3728194.4091527312994 ], [ 735809.855646401643753, 3728168.819750369992107 ], [ 736176.671114525292069, 3730102.836720941588283 ], [ 743434.614442139863968, 3730284.708642964251339 ], [ 743617.815435589756817, 3731251.977720094844699 ], [ 742580.994274364318699, 3731225.630829291418195 ], [ 742764.275772759225219, 3732192.918181827291846 ], [ 746911.4278230011696, 3732299.091656501404941 ], [ 746728.300540596595965, 3731331.693949295673519 ], [ 745691.468553455546498, 3731305.009276879951358 ], [ 745508.344642478390597, 3730337.685056975577027 ], [ 744471.477738253190182, 3730311.140567513648421 ], [ 744288.35722696990706, 3729343.889748501591384 ], [ 742214.557169554987922, 3729291.193511435762048 ] ] ], [ [ [ 749351.251625867909752, 3734287.898086119443178 ], [ 749168.117685549426824, 3733320.353144935332239 ], [ 750204.883519601309672, 3733347.431083389092237 ], [ 750021.830023577203974, 3732379.904358826577663 ], [ 746911.4278230011696, 3732299.091656501404941 ], [ 747094.597014014841989, 3733266.53525910153985 ], [ 742947.59923080378212, 3733160.251360612455755 ], [ 743130.964645236963406, 3734127.630388542544097 ], [ 742094.262766397092491, 3734101.313484489452094 ], [ 742277.708727552904747, 3735068.710816325154155 ], [ 745387.709339356631972, 3735148.08234595367685 ], [ 745204.379157403483987, 3734180.602222796995193 ], [ 747277.808110360288993, 3734234.024780016392469 ], [ 747461.061108757043257, 3735201.560242186766118 ], [ 748497.742447548545897, 3735228.468262954615057 ], [ 748314.528040185570717, 3734260.905087829101831 ], [ 749351.251625867909752, 3734287.898086119443178 ] ] ], [ [ [ 749231.018903953372501, 3739099.181008349172771 ], [ 749414.44270832312759, 3740066.974320853129029 ], [ 750450.934558839187957, 3740094.134030510205775 ], [ 750267.549408987862989, 3739126.312889450695366 ], [ 749231.018903953372501, 3739099.181008349172771 ] ] ], [ [ [ 744048.420948915649205, 3738965.214067653287202 ], [ 743011.912165739573538, 3738938.75914974603802 ], [ 743379.265595195465721, 3740874.059041377622634 ], [ 744415.697050672140904, 3740900.569286088924855 ], [ 744048.420948915649205, 3738965.214067653287202 ] ] ], [ [ [ 751854.248603158979677, 3742057.243021530099213 ], [ 752890.67047087312676, 3742084.684294803999364 ], [ 752523.929296608781442, 3740148.792055955622345 ], [ 750450.934558839187957, 3740094.134030510205775 ], [ 750634.361565393977799, 3741062.001285395585001 ], [ 751670.818422895856202, 3741089.301737545523793 ], [ 751854.248603158979677, 3742057.243021530099213 ] ] ], [ [ [ 744415.697050672140904, 3740900.569286088924855 ], [ 744599.397998496191576, 3741868.315932950936258 ], [ 746672.194310275255702, 3741921.730522427242249 ], [ 746488.570727000012994, 3740953.928409833926708 ], [ 744415.697050672140904, 3740900.569286088924855 ] ] ], [ [ [ 748745.005078849615529, 3741975.596761790569872 ], [ 746672.194310275255702, 3741921.730522427242249 ], [ 746855.859794871415943, 3742889.578725500032306 ], [ 745819.498534278478473, 3742862.787211443297565 ], [ 746003.244624528801069, 3743830.653745955321938 ], [ 747039.567177491262555, 3743857.473042078781873 ], [ 747223.316454836633056, 3744825.413495213259012 ], [ 749295.894981916761026, 3744879.446687773801386 ], [ 749479.608685592538677, 3745847.489021074958146 ], [ 750515.864678509300575, 3745874.703028375282884 ], [ 750699.581499968655407, 3746842.819500265643001 ], [ 751735.802410052041523, 3746870.174495911691338 ], [ 751919.522320752497762, 3747838.365193267352879 ], [ 750883.340167752699926, 3747810.982230094727129 ], [ 751618.79323563631624, 3751684.096191258169711 ], [ 753690.850907122367062, 3751739.199421504512429 ], [ 753507.002503822557628, 3750770.795325302053243 ], [ 752470.933020503493026, 3750743.215168608818203 ], [ 752287.087629309855402, 3749774.8855064753443 ], [ 753323.195907829329371, 3749802.437614415772259 ], [ 752955.708151122089475, 3747865.86125594843179 ], [ 753991.897673942148685, 3747893.470421468839049 ], [ 753441.095907296403311, 3744988.869170567952096 ], [ 752404.790154275484383, 3744961.344029404222965 ], [ 752221.234472167911008, 3743993.264144385699183 ], [ 751184.893692183773965, 3743965.87996342452243 ], [ 751001.34113537799567, 3742997.874228798784316 ], [ 749964.965325270080939, 3742970.630929367151111 ], [ 749414.44270832312759, 3740066.974320853129029 ], [ 747341.469968234072439, 3740012.993491215165704 ], [ 747525.012978155631572, 3740980.777295330073684 ], [ 748561.458858172409236, 3741007.739067576359957 ], [ 748745.005078849615529, 3741975.596761790569872 ] ], [ [ 751368.488092444604263, 3744933.931904094293714 ], [ 750332.189706695149653, 3744906.632791319862008 ], [ 750148.556587843573652, 3743938.60876600863412 ], [ 751184.893692183773965, 3743965.87996342452243 ], [ 751368.488092444604263, 3744933.931904094293714 ] ] ], [ [ [ 744666.323630059836432, 3747649.059356104582548 ], [ 745034.431826254702173, 3749585.188975936267525 ], [ 748142.691146758385003, 3749665.808616587892175 ], [ 747774.815622183610685, 3747729.511904558166862 ], [ 744666.323630059836432, 3747649.059356104582548 ] ] ], [ [ [ 753091.706982087809592, 3759432.551533084362745 ], [ 753276.009348671301268, 3760401.317723972722888 ], [ 754311.686489621526562, 3760429.065851179417223 ], [ 754127.423047368880361, 3759460.271465983241796 ], [ 753091.706982087809592, 3759432.551533084362745 ] ] ], [ [ [ 755531.633605207316577, 3761425.796681118197739 ], [ 755347.367313154740259, 3760456.927454955410212 ], [ 754311.686489621526562, 3760429.065851179417223 ], [ 754495.991718525416218, 3761397.906836522743106 ], [ 755531.633605207316577, 3761425.796681118197739 ] ] ], [ [ [ 755900.291497083380818, 3763363.675079587846994 ], [ 754864.727522814762779, 3763335.728700843174011 ], [ 754680.3387307128869, 3762366.794445309322327 ], [ 752609.143891915795393, 3762311.298839936498553 ], [ 752793.61061045282986, 3763280.176630866713822 ], [ 753829.167232244159095, 3763307.895885723643005 ], [ 754013.636776825180277, 3764276.848546997178346 ], [ 756084.683090156177059, 3764332.684298532083631 ], [ 756269.11644347931724, 3765301.74022839544341 ], [ 758340.099576764507219, 3765358.087072857655585 ], [ 758155.744199374457821, 3764388.974434174597263 ], [ 757120.211787825217471, 3764360.772566645406187 ], [ 756567.279189788037911, 3761453.800034669693559 ], [ 755531.633605207316577, 3761425.796681118197739 ], [ 755900.291497083380818, 3763363.675079587846994 ] ] ], [ [ [ 752978.119131345185451, 3764249.101056832820177 ], [ 751942.605140109080821, 3764221.467152599710971 ], [ 752127.194449587725103, 3765190.410013111308217 ], [ 753162.669451224268414, 3765218.072141154669225 ], [ 752978.119131345185451, 3764249.101056832820177 ] ] ], [ [ [ 750425.715429955045693, 3767073.339499034453183 ], [ 752496.498490758589469, 3767128.435749938711524 ], [ 752127.194449587725103, 3765190.410013111308217 ], [ 751091.723087675636634, 3765162.861496676225215 ], [ 751276.393208578578196, 3766131.822809023782611 ], [ 750240.964474784210324, 3766104.359717563726008 ], [ 750425.715429955045693, 3767073.339499034453183 ] ] ], [ [ [ 755787.298063909867778, 3768181.100496287923306 ], [ 754751.932782184914686, 3768153.126184253487736 ], [ 754936.611223394516855, 3769122.312458379659802 ], [ 755971.937464579474181, 3769150.31512241717428 ], [ 755787.298063909867778, 3768181.100496287923306 ] ] ], [ [ [ 747024.239373188931495, 3770840.446289178449661 ], [ 745989.023762673605233, 3770813.410880340263247 ], [ 746174.179232176626101, 3771782.483266486786306 ], [ 747209.355759870377369, 3771809.546818844974041 ], [ 747024.239373188931495, 3770840.446289178449661 ] ] ], [ [ [ 749835.085163285722956, 3774771.766661094967276 ], [ 750020.290711797424592, 3775741.11073512211442 ], [ 752090.35586462286301, 3775796.260745573788881 ], [ 751905.228582326788455, 3774826.860040785744786 ], [ 749835.085163285722956, 3774771.766661094967276 ] ] ], [ [ [ 754160.435474251862615, 3775851.866452710703015 ], [ 754345.52626313525252, 3776821.37082587974146 ], [ 755380.532381435157731, 3776849.373008657246828 ], [ 755195.480737344361842, 3775879.840200905222446 ], [ 754160.435474251862615, 3775851.866452710703015 ] ] ], [ [ [ 746515.685836740885861, 3784330.163406103849411 ], [ 748585.009768517920747, 3784384.682940814178437 ], [ 748770.751186482491903, 3785354.411325182765722 ], [ 749805.379196812049486, 3785381.870734190102667 ], [ 749619.677042848314159, 3784412.113959770649672 ], [ 751689.022281904472038, 3784467.318517400417477 ], [ 751503.440447398112155, 3783497.551938332151622 ], [ 746329.90774702723138, 3783360.538689025212079 ], [ 746515.685836740885861, 3784330.163406103849411 ] ] ], [ [ [ 754872.278861781116575, 3790342.91083338111639 ], [ 751768.952181708998978, 3790259.076809861231595 ], [ 751954.865833738120273, 3791229.144767658319324 ], [ 750920.470118913799524, 3791201.400271804537624 ], [ 750734.517125326907262, 3790231.360839179251343 ], [ 748665.65768017724622, 3790176.271933532319963 ], [ 748479.667826477903873, 3789206.336597404908389 ], [ 747445.204078771872446, 3789178.992076176218688 ], [ 748003.417136596981436, 3792088.854193803388625 ], [ 749037.762856370187365, 3792116.284029212780297 ], [ 749223.878172043361701, 3793086.360835981555283 ], [ 748189.571820902172476, 3793058.902527105528861 ], [ 748562.006666607805528, 3794999.140776549465954 ], [ 750630.465349634643644, 3795054.285879395902157 ], [ 750258.188055756734684, 3793113.93357168789953 ], [ 751292.501486654626206, 3793141.620737540069968 ], [ 751106.464907162473537, 3792171.486896715126932 ], [ 755243.911863133544102, 3792283.265511685516685 ], [ 754872.278861781116575, 3790342.91083338111639 ] ] ], [ [ [ 758904.443164226133376, 3795279.446088669355959 ], [ 759090.329256980563514, 3796249.922625777777284 ], [ 760124.553416733746417, 3796278.611752166412771 ], [ 759938.706728553515859, 3795308.106397850438952 ], [ 758904.443164226133376, 3795279.446088669355959 ] ] ], [ [ [ 760310.441778138745576, 3797249.164559023454785 ], [ 761344.630199946230277, 3797277.997097259853035 ], [ 761158.781255920534022, 3796307.415426368359476 ], [ 760124.553416733746417, 3796278.611752166412771 ], [ 760310.441778138745576, 3797249.164559023454785 ] ] ], [ [ [ 759648.237639046041295, 3799161.636940810829401 ], [ 760682.343506744829938, 3799190.412625370081514 ], [ 760868.356866998365149, 3800161.107932396233082 ], [ 763970.578240216709673, 3800248.2096495218575 ], [ 763598.829881402547471, 3798306.692934057675302 ], [ 764632.98999987822026, 3798335.898192849010229 ], [ 764447.217689112527296, 3797365.182208017911762 ], [ 761344.630199946230277, 3797277.997097259853035 ], [ 761530.520800668513402, 3798248.626262206584215 ], [ 756359.812497516395524, 3798105.465187214780599 ], [ 756545.941971480846405, 3799075.997662894427776 ], [ 758614.135436967480928, 3799132.975887837354094 ], [ 758800.227711086859927, 3800103.613447408657521 ], [ 759834.290456109447405, 3800132.303359570913017 ], [ 759648.237639046041295, 3799161.636940810829401 ] ] ], [ [ [ 754724.983543253154494, 3719029.132932250853628 ], [ 755089.422018140787259, 3720963.3363425610587 ], [ 756126.718061003251933, 3720990.953480658121407 ], [ 755762.356363157741725, 3719056.69460014719516 ], [ 754724.983543253154494, 3719029.132932250853628 ] ] ], [ [ [ 757528.470007272670045, 3722953.180656715296209 ], [ 757164.017906145658344, 3721018.682936779223382 ], [ 756126.718061003251933, 3720990.953480658121407 ], [ 756491.246989327832125, 3722925.395603549666703 ], [ 757528.470007272670045, 3722953.180656715296209 ] ] ], [ [ [ 757710.758741890778765, 3723920.498315579723567 ], [ 756673.574156692251563, 3723892.685438037849963 ], [ 756855.943121796473861, 3724860.02115172566846 ], [ 758930.239220466464758, 3724915.815027372911572 ], [ 759112.573063840041868, 3725883.252389882691205 ], [ 760149.688399962848052, 3725911.345903928391635 ], [ 759785.139384289970621, 3723976.461299065966159 ], [ 758747.947145983111113, 3723948.423601458314806 ], [ 758565.696843694895506, 3722981.07808923535049 ], [ 757528.470007272670045, 3722953.180656715296209 ], [ 757710.758741890778765, 3723920.498315579723567 ] ] ], [ [ [ 758805.368518280563876, 3729725.368896008934826 ], [ 758987.949678235687315, 3730693.008311302401125 ], [ 763135.648840495501645, 3730806.166983766946942 ], [ 762588.492760939989239, 3727903.050811721943319 ], [ 761551.446660688496195, 3727874.676346553489566 ], [ 761733.828799531562254, 3728842.307622723281384 ], [ 760696.825061125215143, 3728814.017694437876344 ], [ 760879.287438277853653, 3729781.667018588166684 ], [ 758805.368518280563876, 3729725.368896008934826 ] ] ], [ [ [ 772524.821684846538119, 3736846.725040323100984 ], [ 772160.126240385812707, 3734910.261511229909956 ], [ 771123.318376372102648, 3734880.78846988407895 ], [ 770212.115007042651996, 3730040.582130340859294 ], [ 768138.125792477047071, 3729982.257185570430011 ], [ 768502.636391553329304, 3731918.087853243108839 ], [ 769539.551961517427117, 3731947.250505053438246 ], [ 769721.831182906404138, 3732915.26345093594864 ], [ 768684.954157380154356, 3732886.072529197204858 ], [ 769597.167514800559729, 3737726.690252847969532 ], [ 768560.4873651873786, 3737697.470567113719881 ], [ 768925.741348289418966, 3739633.985407640691847 ], [ 767889.142401581746526, 3739604.821914819069207 ], [ 767706.455958876176737, 3738636.569637801963836 ], [ 765633.19257305841893, 3738578.637917993124574 ], [ 766547.427782625658438, 3743420.080148044973612 ], [ 767583.864211158826947, 3743449.131125753745437 ], [ 767400.972534664324485, 3742480.721540268976241 ], [ 770510.421443400671706, 3742568.467334498185664 ], [ 769779.735068342415616, 3738694.952828023117036 ], [ 770816.380557367694564, 3738724.313733377493918 ], [ 770451.364303403766826, 3736787.778226730413735 ], [ 772524.821684846538119, 3736846.725040323100984 ] ] ], [ [ [ 775999.667952140793204, 3738872.811505382414907 ], [ 774963.002429342828691, 3738842.88617297122255 ], [ 775510.375090973218903, 3741748.379377652425319 ], [ 776546.924675372894853, 3741778.390371883288026 ], [ 776729.42665160051547, 3742747.009772254154086 ], [ 777765.941617142409086, 3742777.162367664743215 ], [ 777401.056527209002525, 3740839.912920002825558 ], [ 776364.464231111225672, 3740809.817542751319706 ], [ 775999.667952140793204, 3738872.811505382414907 ] ] ], [ [ [ 774839.029739252408035, 3743655.652426816523075 ], [ 775875.497928741155192, 3743685.60757801681757 ], [ 775510.375090973218903, 3741748.379377652425319 ], [ 774473.829544308595359, 3741718.481363185681403 ], [ 774839.029739252408035, 3743655.652426816523075 ] ] ], [ [ [ 778802.460650880238973, 3742807.427979185245931 ], [ 777765.941617142409086, 3742777.162367664743215 ], [ 777948.446437281090766, 3743745.856997680850327 ], [ 778984.926786564290524, 3743776.151273443829268 ], [ 778802.460650880238973, 3742807.427979185245931 ] ] ], [ [ [ 768620.304556894581765, 3743478.295112687628716 ], [ 768803.199174939421937, 3744446.779550406616181 ], [ 769839.60475363698788, 3744476.084970290772617 ], [ 769656.74883495294489, 3743507.572112379129976 ], [ 768620.304556894581765, 3743478.295112687628716 ] ] ], [ [ [ 762401.720938085811213, 3743305.006259272806346 ], [ 762035.592417523497716, 3741368.516306061763316 ], [ 759962.607375872554258, 3741311.770031840540469 ], [ 760328.890625859610736, 3743248.147279380820692 ], [ 759292.481194324907847, 3743219.88726846780628 ], [ 759842.335190276615322, 3746124.716213723644614 ], [ 760878.628476760350168, 3746153.060753723606467 ], [ 760695.340800810372457, 3745184.709884355310351 ], [ 761731.676627211505547, 3745213.139273502398282 ], [ 762098.216232350445352, 3747149.943883986212313 ], [ 764170.74444780847989, 3747207.254904807079583 ], [ 763987.531270904932171, 3746238.772819043137133 ], [ 765023.83989749616012, 3746267.569667454343289 ], [ 765207.014334961073473, 3747236.080080468673259 ], [ 766243.288095174590126, 3747265.018370947334915 ], [ 766792.94509708089754, 3750170.913885994814336 ], [ 764720.634040093515068, 3750112.980160199571401 ], [ 764904.013913442846388, 3751081.648322088643909 ], [ 769048.496421072864905, 3751198.082357468083501 ], [ 768865.271710029337555, 3750229.300433513242751 ], [ 771973.791060273186304, 3750317.72935741301626 ], [ 772156.899402304319665, 3751286.596907882019877 ], [ 771120.761130812112242, 3751256.978810267988592 ], [ 771303.949850473320112, 3752225.864471313077956 ], [ 772340.049319610698149, 3752255.511157603468746 ], [ 772523.240808774484321, 3753224.472129885107279 ], [ 774595.374026232981123, 3753284.162649432662874 ], [ 774778.529428043635562, 3754253.227701981086284 ], [ 775814.56319408165291, 3754283.271647114306688 ], [ 775997.721294476301409, 3755252.412232095375657 ], [ 774961.726368980715051, 3755222.339558688458055 ], [ 775144.964845609618351, 3756191.498242910485715 ], [ 776180.920917611685582, 3756221.599662078078836 ], [ 776364.162060043541715, 3757190.833960436284542 ], [ 778436.008518159273081, 3757251.43464142922312 ], [ 777886.642771603539586, 3754343.699591877870262 ], [ 778922.688613098813221, 3754374.083598818164319 ], [ 777825.310488716932014, 3748559.705471870489419 ], [ 776789.031878976384178, 3748529.493990913964808 ], [ 777154.736129492055625, 3750467.375409422907978 ], [ 775082.346088693011552, 3750407.177290161605924 ], [ 775265.338063740753569, 3751376.130728628486395 ], [ 774229.187853730283678, 3751346.172863458283246 ], [ 773863.167878910782747, 3749408.370014170650393 ], [ 771790.724296935019083, 3749348.908482907805592 ], [ 771241.773513207910582, 3746442.725682453718036 ], [ 768132.789074199623428, 3746354.638741428032517 ], [ 767949.772484311717562, 3745386.089703143574297 ], [ 768986.135417899116874, 3745415.310489792376757 ], [ 768803.199174939421937, 3744446.779550406616181 ], [ 765694.005973967956379, 3744359.541527389083058 ], [ 765328.026205310365185, 3742422.789250985719264 ], [ 764291.558878181385808, 3742393.992567856330425 ], [ 764657.61603497993201, 3744330.688253520522267 ], [ 763621.229968142230064, 3744301.948007383383811 ], [ 763438.141849025618285, 3743333.605235141236335 ], [ 762401.720938085811213, 3743305.006259272806346 ] ], [ [ 776301.492283332860097, 3751406.201856884174049 ], [ 776484.486993341473863, 3752375.230751894880086 ], [ 775448.371575276134536, 3752345.130918722134084 ], [ 775265.338063740753569, 3751376.130728628486395 ], [ 776301.492283332860097, 3751406.201856884174049 ] ] ], [ [ [ 755787.298063909867778, 3768181.100496287923306 ], [ 760964.180052159237675, 3768322.677755655255169 ], [ 760779.777544134645723, 3767353.36780861672014 ], [ 761815.204187444760464, 3767381.995915586594492 ], [ 761630.88239047920797, 3766412.704328638501465 ], [ 755418.144544870476238, 3766242.8115811701864 ], [ 755787.298063909867778, 3768181.100496287923306 ] ] ], [ [ [ 776781.469353394815698, 3791929.334165093954653 ], [ 773678.024366939789616, 3791838.205925882328302 ], [ 774048.323971690377221, 3793779.69609665311873 ], [ 773013.928807035787031, 3793749.490601047407836 ], [ 773199.180237962049432, 3794720.277930271346122 ], [ 775267.89569893036969, 3794780.861838720273226 ], [ 775082.723019448574632, 3793810.016102449502796 ], [ 776117.125964908627793, 3793840.450622083619237 ], [ 775932.034135461668484, 3792869.623303940519691 ], [ 776966.480355577543378, 3792900.143082522787154 ], [ 776781.469353394815698, 3791929.334165093954653 ] ] ], [ [ [ 769725.438459653407335, 3792688.90876096021384 ], [ 768691.019318147329614, 3792659.190324743278325 ], [ 769061.795622891164385, 3794600.484512518160045 ], [ 770096.136024774517864, 3794630.261076090391725 ], [ 769725.438459653407335, 3792688.90876096021384 ] ] ], [ [ [ 765958.797220506239682, 3794511.841935151722282 ], [ 766993.126235349103808, 3794541.274945608340204 ], [ 766807.638546716887504, 3793570.662139017134905 ], [ 765773.270154990721494, 3793541.258113831747323 ], [ 765958.797220506239682, 3794511.841935151722282 ] ] ], [ [ [ 769061.795622891164385, 3794600.484512518160045 ], [ 766993.126235349103808, 3794541.274945608340204 ], [ 767178.65551272733137, 3795511.93528150441125 ], [ 769247.246120905969292, 3795571.202941740397364 ], [ 769061.795622891164385, 3794600.484512518160045 ] ] ], [ [ [ 764924.471972158644348, 3794482.523435304872692 ], [ 765295.729698513168842, 3796423.775670751929283 ], [ 766329.976153495255858, 3796453.152136221993715 ], [ 765958.797220506239682, 3794511.841935151722282 ], [ 764924.471972158644348, 3794482.523435304872692 ] ] ], [ [ [ 767549.838819743134081, 3797453.398636327590793 ], [ 767364.226375358528458, 3796482.643170482479036 ], [ 766329.976153495255858, 3796453.152136221993715 ], [ 766515.628013986628503, 3797423.878563518635929 ], [ 767549.838819743134081, 3797453.398636327590793 ] ] ], [ [ [ 767549.838819743134081, 3797453.398636327590793 ], [ 767735.492842383449897, 3798424.201702837832272 ], [ 768769.66800075233914, 3798453.865462493617088 ], [ 768584.05340712913312, 3797483.033310565631837 ], [ 767549.838819743134081, 3797453.398636327590793 ] ] ], [ [ [ 768769.66800075233914, 3798453.865462493617088 ], [ 768955.324156035436317, 3799424.745256681926548 ], [ 769989.463668810203671, 3799454.552782732062042 ], [ 769803.846955476445146, 3798483.643856242764741 ], [ 768769.66800075233914, 3798453.865462493617088 ] ] ], [ [ [ 769141.021869466872886, 3800395.672716961242259 ], [ 768955.324156035436317, 3799424.745256681926548 ], [ 767921.188439773628488, 3799395.052393826190382 ], [ 768106.925608408171684, 3800365.950733116362244 ], [ 769141.021869466872886, 3800395.672716961242259 ] ] ], [ [ [ 765852.92833862057887, 3799336.010643443092704 ], [ 766038.744418168207631, 3800306.850828055292368 ], [ 767072.833129485836253, 3800336.343438000418246 ], [ 766887.056505482411012, 3799365.474190597888082 ], [ 765852.92833862057887, 3799336.010643443092704 ] ] ], [ [ [ 768292.704344779602252, 3801336.896744548808783 ], [ 768106.925608408171684, 3800365.950733116362244 ], [ 767072.833129485836253, 3800336.343438000418246 ], [ 767258.651334322290495, 3801307.260339750442654 ], [ 768292.704344779602252, 3801336.896744548808783 ] ] ], [ [ [ 765004.659459923277609, 3800277.472899738699198 ], [ 763970.578240216709673, 3800248.2096495218575 ], [ 764156.514851518440992, 3801219.039396810345352 ], [ 765190.556602214463055, 3801248.33166941953823 ], [ 765004.659459923277609, 3800277.472899738699198 ] ] ], [ [ [ 768850.289925166754983, 3804250.021050246432424 ], [ 770918.170340808923356, 3804309.813150640577078 ], [ 770546.563065031543374, 3802367.565760913304985 ], [ 768478.524645373225212, 3802307.890451969578862 ], [ 768850.289925166754983, 3804250.021050246432424 ] ] ], [ [ [ 771289.943726296187378, 3806252.251753454096615 ], [ 772323.810590373701416, 3806282.378574713133276 ], [ 772137.94266930106096, 3805311.106073610950261 ], [ 773171.852893339004368, 3805341.318453819490969 ], [ 772986.066003404790536, 3804370.064500349573791 ], [ 770918.170340808923356, 3804309.813150640577078 ], [ 771289.943726296187378, 3806252.251753454096615 ] ] ] ] } }
]
}
