{
"type": "FeatureCollection",
"name": "urban-2085",
"crs": { "type": "name", "properties": { "name": "urn:ogc:def:crs:EPSG::32647" } },
"features": [
{ "type": "Feature", "properties": { "year": 2085 }, "geometry": { "type": "MultiPolygon", "coordinates": [ [ [ [ 769062.660721852676943, 312313.023585938499309 ], [ 767951.903154917643405, 312310.716142503486481 ], [ 767998.57589452364482, 313205.980984740483109 ], [ 769109.330875305458903, 313208.295449589961208 ], [ 769062.660721852676943, 312313.023585938499309 ] ] ], [ [ [ 762871.103371446486562, 321251.776504385401495 ], [ 761760.420543759712018, 321249.457736324286088 ], [ 761808.444315325119533, 322144.715082822949626 ], [ 762919.124475378077477, 322147.040743367164396 ], [ 762871.103371446486562, 321251.776504385401495 ] ] ], [ [ [ 761808.444315325119533, 322144.715082822949626 ], [ 760697.772128946846351, 322142.399289976456203 ], [ 760745.932123977923766, 323037.653227922623046 ], [ 761856.601634026737884, 323039.975889444642235 ], [ 761808.444315325119533, 322144.715082822949626 ] ] ], [ [ [ 773411.326917423401028, 350818.151856681914069 ], [ 772300.670660814968869, 350815.517691914341412 ], [ 772405.618952054879628, 352606.388879691134207 ], [ 773516.269401654135436, 352609.037522009573877 ], [ 773411.326917423401028, 350818.151856681914069 ] ] ], [ [ [ 765110.356279390864074, 360646.811456702125724 ], [ 767331.497452719369903, 360652.095792263105977 ], [ 767277.740398690802976, 359756.659425400954206 ], [ 766167.162779514910653, 359754.018845751590561 ], [ 766113.536261943518184, 358858.593477735295892 ], [ 763892.399334609974176, 358853.359513814968523 ], [ 763946.031805857899599, 359748.770747911243234 ], [ 759503.865968920988962, 359738.406786820793059 ], [ 759611.555448982981034, 361529.184974984673318 ], [ 758501.039807056775317, 361526.607686962001026 ], [ 758555.087897356133908, 362421.995671384502202 ], [ 759665.600532255251892, 362424.579887648869772 ], [ 759719.779177220305428, 363319.978692682343535 ], [ 761940.822158576920629, 363325.194374085287564 ], [ 761995.12832569971215, 364220.611036573362071 ], [ 765326.743608988123015, 364228.539163697918411 ], [ 765272.446489569265395, 363333.101362812740263 ], [ 764161.897019555559382, 363330.454570482834242 ], [ 764053.697347666369751, 361539.604861912725028 ], [ 765164.252824419760145, 361542.237519353453536 ], [ 765110.356279390864074, 360646.811456702125724 ] ] ], [ [ [ 750944.727094556437805, 365090.260901333473157 ], [ 749834.285547257983126, 365087.745324091694783 ], [ 749888.89225796610117, 365983.094352195388637 ], [ 750999.330756774055772, 365985.616654621786438 ], [ 750944.727094556437805, 365090.260901333473157 ] ] ], [ [ [ 749888.89225796610117, 365983.094352195388637 ], [ 748778.461361075751483, 365980.583256465150043 ], [ 748833.204756079008803, 366875.929478010104503 ], [ 749943.632595566567034, 366878.447275615937542 ], [ 749888.89225796610117, 365983.094352195388637 ] ] ], [ [ [ 747777.664581436663866, 367768.7663582067471 ], [ 748888.081785036367364, 367771.279600657813717 ], [ 748833.204756079008803, 366875.929478010104503 ], [ 747722.784486158750951, 366873.422914136433974 ], [ 747777.664581436663866, 367768.7663582067471 ] ] ], [ [ [ 754550.406274913810194, 369574.794396728277206 ], [ 753439.957017363281921, 369572.211200813937467 ], [ 753495.222606752882712, 370467.600124457618222 ], [ 754605.66878325608559, 370470.190148500085343 ], [ 754550.406274913810194, 369574.794396728277206 ] ] ], [ [ [ 757992.440764638362452, 371373.448669329867698 ], [ 754661.064887049025856, 371365.589861822023522 ], [ 754716.594585927319713, 372260.993546658486594 ], [ 761379.398428776999936, 372276.855122707725968 ], [ 761323.887273265514523, 371381.4098430518643 ], [ 759102.915041150059551, 371376.091019339917693 ], [ 759047.531276063527912, 370480.663702562800609 ], [ 757937.05391713778954, 370478.028294561314397 ], [ 757992.440764638362452, 371373.448669329867698 ] ] ], [ [ [ 764710.907231222838163, 372284.939841393614188 ], [ 763600.396289678057656, 372282.233531799050979 ], [ 763656.034811762627214, 373177.696910820552148 ], [ 764766.542663674801588, 373180.410307954938617 ], [ 764710.907231222838163, 372284.939841393614188 ] ] ], [ [ [ 744834.425733570475131, 374028.668801796040498 ], [ 743724.060190323390998, 374026.154501529352274 ], [ 743780.021921642590314, 374921.502904297842178 ], [ 744890.38433306873776, 374924.023806810495444 ], [ 744834.425733570475131, 374028.668801796040498 ] ] ], [ [ [ 752551.391817157971673, 373151.191573338932358 ], [ 751440.970325409900397, 373148.60389402799774 ], [ 751608.789847186417319, 375834.789486932684667 ], [ 752719.201975589618087, 375837.397548850160092 ], [ 752663.131647555739619, 374941.99155736080138 ], [ 753773.554589207284153, 374944.604302588966675 ], [ 753717.620989197050221, 374049.195492445782293 ], [ 752607.194927956210449, 374046.589568842435256 ], [ 752551.391817157971673, 373151.191573338932358 ] ] ], [ [ [ 770712.281189644010738, 379462.806955420295708 ], [ 772933.359285965329036, 379468.484331303858198 ], [ 772820.39641147502698, 377677.389509288477711 ], [ 769488.772864772821777, 377668.934561913192738 ], [ 769545.196938964538276, 378564.458080646640155 ], [ 770655.726752757793292, 378567.272075684915762 ], [ 770712.281189644010738, 379462.806955420295708 ] ] ], [ [ [ 738738.133800778305158, 382967.091636380413547 ], [ 738680.953055453603156, 382071.739945838577114 ], [ 739791.253350972547196, 382074.255333123612218 ], [ 739848.43088974209968, 382969.613527110486757 ], [ 740958.735271367360838, 382972.147141622786876 ], [ 741073.484998842002824, 384762.888737238768954 ], [ 742183.790277785854414, 384765.44720539759146 ], [ 742126.351789159001783, 383870.067813083413057 ], [ 743236.667648285627365, 383872.631466326536611 ], [ 743294.102920182980597, 384768.017452953208704 ], [ 745514.750430630054325, 384773.19328783324454 ], [ 745457.321587475365959, 383877.794030324905179 ], [ 747678.005380095681176, 383883.003606982412748 ], [ 747563.561464436352253, 382092.190564233460464 ], [ 746453.209420920233242, 382089.593294174352195 ], [ 746396.184738540789112, 381194.199560710985679 ], [ 745285.836999349296093, 381191.620653029414825 ], [ 745172.182228813762777, 379400.858631752606016 ], [ 750724.027942840242758, 379413.80276634026086 ], [ 750667.416866890271194, 378518.394266674353275 ], [ 748446.649619897594675, 378513.195255107246339 ], [ 748390.165856511797756, 377617.804274866299238 ], [ 747279.790426274295896, 377615.228855444584042 ], [ 747336.277346583199687, 378510.613134263549 ], [ 746225.912594940047711, 378508.042602850706317 ], [ 746056.843314492958598, 375821.921800654323306 ], [ 743836.117320774588734, 375816.855276324437 ], [ 743780.021921642590314, 374921.502904297842178 ], [ 740448.979036060860381, 374914.009066703787539 ], [ 740561.322378065437078, 376704.678467473713681 ], [ 739450.995717920362949, 376702.190479169308674 ], [ 739677.29935757687781, 380283.551028846995905 ], [ 737456.693239164305851, 380278.557883469387889 ], [ 737513.609773250529543, 381173.895062621915713 ], [ 736403.320756211993285, 381171.409511239617132 ], [ 736517.561365548870526, 382962.083024721825495 ], [ 735407.285951640689746, 382959.596303024969529 ], [ 735522.067872165353037, 384750.273073720163666 ], [ 736632.336841163225472, 384752.772650746977888 ], [ 736574.882245261454955, 383857.425818750343751 ], [ 737685.161633216659538, 383859.930715995258652 ], [ 737627.843970656162128, 382964.581469045893755 ], [ 738738.133800778305158, 382967.091636380413547 ] ], [ [ 743892.346387348021381, 376712.211627486511134 ], [ 742781.997678948217072, 376709.689041247882415 ], [ 742838.363568260683678, 377605.042793927539606 ], [ 741728.025400322163478, 377602.525180637196172 ], [ 741615.420989223872311, 375811.834775989351328 ], [ 743836.117320774588734, 375816.855276324437 ], [ 743892.346387348021381, 376712.211627486511134 ] ], [ [ 743179.366047894582152, 382977.2495435513556 ], [ 742069.04697947576642, 382974.692480306257494 ], [ 742011.875849111936986, 382079.321197182463948 ], [ 743122.198119383421727, 382081.87167473352747 ], [ 743179.366047894582152, 382977.2495435513556 ] ], [ [ 740901.560937584377825, 382076.782416775589809 ], [ 740844.520290944492444, 381181.421727407141589 ], [ 741954.838398449588567, 381183.953953831165563 ], [ 742011.875849111936986, 382079.321197182463948 ], [ 740901.560937584377825, 382076.782416775589809 ] ], [ [ 741897.934627861017361, 380288.590740374638699 ], [ 743008.263279519625939, 380291.128059409966227 ], [ 743065.163863132707775, 381186.497849982464686 ], [ 741954.838398449588567, 381183.953953831165563 ], [ 741897.934627861017361, 380288.590740374638699 ] ] ], [ [ [ 746339.293706499738619, 380298.809874279017095 ], [ 746396.184738540789112, 381194.199560710985679 ], [ 747506.539970227633603, 381196.790139691671357 ], [ 747449.652118931291625, 380301.393766465946101 ], [ 746339.293706499738619, 380298.809874279017095 ] ] ], [ [ [ 734239.824107864289545, 382061.795352679153439 ], [ 734297.017695109825581, 382957.121303573716432 ], [ 735407.285951640689746, 382959.596303024969529 ], [ 735350.095577230793424, 382064.263958336494397 ], [ 734239.824107864289545, 382061.795352679153439 ] ] ], [ [ [ 743294.102920182980597, 384768.017452953208704 ], [ 742183.790277785854414, 384765.44720539759146 ], [ 742241.362444975296967, 385660.830667136004195 ], [ 743351.671863202354871, 385663.407513328362256 ], [ 743294.102920182980597, 384768.017452953208704 ] ] ], [ [ [ 735522.067872165353037, 384750.273073720163666 ], [ 734411.806063702097163, 384747.785273762186989 ], [ 734527.129355212906376, 386538.465400585148018 ], [ 735637.38468575803563, 386540.966018342820462 ], [ 735522.067872165353037, 384750.273073720163666 ] ] ], [ [ [ 744461.988680284353904, 385665.996166730474215 ], [ 743351.671863202354871, 385663.407513328362256 ], [ 743467.210761094233021, 387454.199894926103298 ], [ 744577.521110690315254, 387456.801813453494105 ], [ 744461.988680284353904, 385665.996166730474215 ] ] ], [ [ [ 742414.881014105165377, 388347.005567807122134 ], [ 743525.180715202586725, 388349.602235957339872 ], [ 743467.210761094233021, 387454.199894926103298 ], [ 742356.907813516561873, 387451.609838446427602 ], [ 742414.881014105165377, 388347.005567807122134 ] ] ], [ [ [ 733590.878843215061352, 389222.008093065815046 ], [ 734701.117266242974438, 389224.516056380816735 ], [ 734527.129355212906376, 386538.465400585148018 ], [ 732306.640049972571433, 386533.499659215623979 ], [ 732364.508795947069302, 387428.833057327079587 ], [ 731254.278008553781547, 387426.361599774158094 ], [ 731487.103528151870705, 391007.710513135010842 ], [ 730376.892871650517918, 391005.225646645587403 ], [ 730552.926296389079653, 393691.261296351382043 ], [ 729442.732551509398036, 393688.769482987991069 ], [ 729560.76359569397755, 395479.46786735142814 ], [ 731781.144809455727227, 395484.488860892714001 ], [ 731545.644285110523924, 391903.057953893905506 ], [ 732655.858685773564503, 391905.561142841354012 ], [ 732538.917499400908127, 390114.857650398567785 ], [ 733649.145545825711451, 390117.360074033495039 ], [ 733590.878843215061352, 389222.008093065815046 ] ] ], [ [ [ 729679.329693573992699, 397270.1827915715985 ], [ 728569.156245553866029, 397267.677856197871733 ], [ 728688.264100424246863, 399058.396786539582536 ], [ 729798.43084198073484, 399060.914334097469691 ], [ 729679.329693573992699, 397270.1827915715985 ] ] ], [ [ [ 728688.264100424246863, 399058.396786539582536 ], [ 727578.104308560723439, 399055.891451917996164 ], [ 727697.753980371169746, 400846.614485823258292 ], [ 728807.907032556948252, 400849.132395749329589 ], [ 728688.264100424246863, 399058.396786539582536 ] ] ], [ [ [ 797977.896382624749094, 290888.636773259553593 ], [ 798021.297875149757601, 291784.02810966107063 ], [ 799132.354447300545871, 291786.425388925825246 ], [ 799088.955331240431406, 290891.026344102341682 ], [ 797977.896382624749094, 290888.636773259553593 ] ] ], [ [ [ 795799.211953360121697, 291779.260391566785984 ], [ 795842.751524734427221, 292674.639623052091338 ], [ 796953.787573793437332, 292677.026665599318221 ], [ 796910.250388491665944, 291781.639777330390643 ], [ 795799.211953360121697, 291779.260391566785984 ] ] ], [ [ [ 804818.736117600579746, 294484.879574646998663 ], [ 807040.954737536376342, 294489.837822658999357 ], [ 806866.625186715042219, 290908.003116280247923 ], [ 805755.501696469844319, 290905.551098763244227 ], [ 805712.250072114635259, 290010.10847551363986 ], [ 804601.133541788440198, 290007.673250008374453 ], [ 804644.387528392253444, 290903.108003319415729 ], [ 803533.282648500520736, 290900.673829573206604 ], [ 803576.672270315699279, 291796.103982716391329 ], [ 802465.579016451956704, 291793.670912016590592 ], [ 802378.928308248170651, 290002.829481314460281 ], [ 801267.839537078747526, 290000.420937381219119 ], [ 801138.856016964418814, 287314.206325056031346 ], [ 797805.623496717773378, 287307.103585381235462 ], [ 797891.493322283844464, 289097.863768108538352 ], [ 799002.557002006331459, 289100.23793191392906 ], [ 799088.955331240431406, 290891.026344102341682 ], [ 800200.023398162331432, 290893.424834785750136 ], [ 800330.613500140607357, 293579.654915128659923 ], [ 802552.762839840608649, 293584.525339685671497 ], [ 802596.554669041768648, 294479.957452917878982 ], [ 803707.640763888368383, 294482.41399818676291 ], [ 803884.131210627034307, 298064.206698071793653 ], [ 806106.311931074364111, 298069.209903895040043 ], [ 806061.994256011210382, 297173.741002964379732 ], [ 808284.217139575397596, 297178.764900887035765 ], [ 808240.037542374571785, 296283.283452006406151 ], [ 804906.709994036937132, 296275.785038455971517 ], [ 804818.736117600579746, 294484.879574646998663 ] ], [ [ 804731.29529498401098, 292693.987256900290959 ], [ 804774.949074428062886, 293589.431777635356411 ], [ 803663.851328285876662, 293586.97405679844087 ], [ 803620.195163668948226, 292691.537388383469079 ], [ 804731.29529498401098, 292693.987256900290959 ] ] ], [ [ [ 796997.458073967136443, 293572.41679686011048 ], [ 795886.424418260925449, 293570.022094237152487 ], [ 796018.243028979515657, 296256.18904755229596 ], [ 797129.269460948649794, 296258.606750256265514 ], [ 797173.473217831342481, 297154.009955158981029 ], [ 799395.548446526983753, 297158.888041615311522 ], [ 799263.351597961387597, 294472.642000490741339 ], [ 798152.30219884798862, 294470.221576225652825 ], [ 798064.832675546058454, 292679.422682173375506 ], [ 796953.787573793437332, 292677.026665599318221 ], [ 796997.458073967136443, 293572.41679686011048 ] ] ], [ [ [ 782642.518027108279057, 295332.582670362375211 ], [ 783753.440848673111759, 295334.884054659341928 ], [ 783841.773257183260284, 297125.506684615451377 ], [ 786063.635155220399611, 297130.166143386741169 ], [ 786019.407120192889124, 296234.83843640552368 ], [ 788241.308759340899996, 296239.519445877755061 ], [ 788197.218961545266211, 295344.180115951050539 ], [ 785975.312471881043166, 295339.513979772222228 ], [ 785931.351210563909262, 294444.192763415630907 ], [ 789264.231356939533725, 294451.183206576213706 ], [ 789176.723434790386818, 292660.505801885039546 ], [ 788065.749803542625159, 292658.181567331135739 ], [ 788022.193496935884468, 291762.855164555890951 ], [ 786911.226251241285354, 291760.547338280070107 ], [ 786954.784953281283379, 292655.86630390805658 ], [ 785843.82885004626587, 292653.560011259804014 ], [ 785887.52333652600646, 293548.874777266988531 ], [ 782554.714388252818026, 293541.987646154477261 ], [ 782598.549503063084558, 294437.283548120351043 ], [ 781487.632872976129875, 294434.998525337432511 ], [ 781531.603820302872919, 295330.290337766462471 ], [ 778198.912548964144662, 295323.467646670411341 ], [ 778243.024211534764618, 296218.740911354718264 ], [ 777132.146559665328823, 296216.47757869225461 ], [ 777176.3941029405687, 297111.746863717678934 ], [ 776065.527341201668605, 297109.485429196269251 ], [ 776154.42767246090807, 298900.01934179518139 ], [ 777265.289524354040623, 298902.295144852192607 ], [ 777220.775091265561059, 298007.019382439320907 ], [ 780553.418850204907358, 298013.880028826999478 ], [ 780509.045208437833935, 297118.585797681764234 ], [ 782730.85530177410692, 297123.190615830302704 ], [ 782642.518027108279057, 295332.582670362375211 ] ] ], [ [ [ 807217.416271610185504, 298071.725219360319898 ], [ 806106.311931074364111, 298069.209903895040043 ], [ 806150.762861228082329, 298964.682135670387652 ], [ 807261.864775434602052, 298967.205378366692457 ], [ 807217.416271610185504, 298071.725219360319898 ] ] ], [ [ [ 803041.803203323390335, 303434.460666206607129 ], [ 805263.935993392486125, 303439.539993532001972 ], [ 805218.816328231245279, 302544.058870271255728 ], [ 804107.742832843563519, 302541.522442884743214 ], [ 804017.898377417353913, 300750.58609061333118 ], [ 799573.677094990387559, 300740.595684762462042 ], [ 799663.541207168484107, 302531.469513495045248 ], [ 797441.495332322316244, 302526.498711491527501 ], [ 797531.902534421300516, 304317.355027773184702 ], [ 799753.938508284743875, 304322.356789199402556 ], [ 799844.868996046716347, 306113.257593571674079 ], [ 800955.895694227423519, 306115.788047570094932 ], [ 800910.366293757455423, 305220.328159576922189 ], [ 802021.404654821148142, 305222.860183597716969 ], [ 801976.011026576627046, 304327.395877772883978 ], [ 803087.061074794153683, 304329.929420706990641 ], [ 803041.803203323390335, 303434.460666206607129 ] ] ], [ [ [ 773046.51595203904435, 303369.531606733333319 ], [ 775268.172875565243885, 303374.108692082110792 ], [ 775177.933044733013958, 301583.556473732343875 ], [ 771845.445184862939641, 301576.747502112935763 ], [ 771935.69998747901991, 303367.257007493404672 ], [ 770824.892309142625891, 303364.991703409876209 ], [ 770915.686055769911036, 305155.500213872408494 ], [ 769804.891657110420056, 305153.230117915780284 ], [ 769850.49128512328025, 306048.482274416950531 ], [ 772072.083288963418454, 306053.045940404292196 ], [ 772117.811347635346465, 306948.315537848393433 ], [ 773228.617237854166888, 306950.618543654505629 ], [ 773137.299651285633445, 305160.068455169559456 ], [ 772026.488709184806794, 305157.779659506864846 ], [ 771981.02760859252885, 304262.516685190901626 ], [ 773091.841065600980073, 304264.798380932188593 ], [ 773046.51595203904435, 303369.531606733333319 ] ] ], [ [ [ 774202.662843994563445, 304267.089399616234004 ], [ 773091.841065600980073, 304264.798380932188593 ], [ 773137.299651285633445, 305160.068455169559456 ], [ 774248.118916001403704, 305162.366601211891975 ], [ 774202.662843994563445, 304267.089399616234004 ] ] ], [ [ [ 803640.550889911712147, 315075.82201694813557 ], [ 803687.541312132147141, 315971.335673011257313 ], [ 804798.567783477250487, 315973.981111248431262 ], [ 804751.579929002793506, 315078.459544721525162 ], [ 803640.550889911712147, 315075.82201694813557 ] ] ], [ [ [ 806973.665901388856582, 315083.763589618669357 ], [ 807020.648624132503755, 315979.301059487625025 ], [ 808131.703061367734335, 315981.975570307346061 ], [ 808084.722902609035373, 315086.43010755762225 ], [ 806973.665901388856582, 315083.763589618669357 ] ] ], [ [ [ 780405.248873471049592, 316813.376589002204128 ], [ 780452.560357442009263, 317708.737381476094015 ], [ 781563.394412650726736, 317711.19409017811995 ], [ 781516.085537581704557, 316815.825956744723953 ], [ 780405.248873471049592, 316813.376589002204128 ] ] ], [ [ [ 782721.676721955067478, 318609.039516306831501 ], [ 782674.237045561429113, 317713.660536002775189 ], [ 781563.394412650726736, 317711.19409017811995 ], [ 781610.836703991284594, 318606.565698503109161 ], [ 782721.676721955067478, 318609.039516306831501 ] ] ], [ [ [ 747111.131533284322359, 374929.100049125496298 ], [ 748221.516389748081565, 374931.655389706895221 ], [ 748165.567176522687078, 374036.280413438274991 ], [ 749275.962708039674908, 374038.840522230602801 ], [ 749331.908795565366745, 374934.222210426349193 ], [ 750442.308784579159692, 374936.800511677807663 ], [ 750219.338674368802458, 371355.270669404126238 ], [ 751329.758726501953788, 371357.833409673767164 ], [ 751385.29771748452913, 372253.216667386761401 ], [ 752495.722315527847968, 372255.797560898005031 ], [ 752551.391817157971673, 373151.191573338932358 ], [ 753661.820990581647493, 373153.790679522266146 ], [ 753495.222606752882712, 370467.600124457618222 ], [ 751274.353352826205082, 370462.454110951977782 ], [ 751219.081596823176369, 369567.078761287324596 ], [ 753439.957017363281921, 369572.211200813937467 ], [ 753274.961869926191866, 366886.068074698792771 ], [ 754385.420326181920245, 366888.630811114271637 ], [ 754330.692203239887021, 365993.250805957242846 ], [ 756551.638464448042214, 365998.396280804066919 ], [ 756606.36048901733011, 366893.78999138448853 ], [ 757716.842263304628432, 366896.386436030908953 ], [ 757498.767804568749852, 363314.807523071591277 ], [ 756388.273886854061857, 363312.238629195140675 ], [ 756280.032085446175188, 361521.486328592523932 ], [ 757390.532030498259701, 361524.041471629112493 ], [ 757282.830563736264594, 359733.290917207137682 ], [ 758393.344335110625252, 359735.843343098589685 ], [ 758339.696954166749492, 358840.466963713464793 ], [ 760560.754086342873052, 358845.591009793046396 ], [ 760453.871928441338241, 357054.822091281239409 ], [ 761564.418312386143953, 357057.38667111605173 ], [ 761511.180527657736093, 356162.001012741297018 ], [ 759290.089764551492408, 356156.896679703437258 ], [ 759236.979622943792492, 355261.528734156920109 ], [ 758126.443138762377203, 355258.999830592656508 ], [ 757915.326473431894556, 351677.593634507036768 ], [ 759025.874704853980802, 351680.094977888278663 ], [ 758973.432389140594751, 350784.745995499019045 ], [ 760083.991420757956803, 350787.251202669693157 ], [ 759979.513299926649779, 348996.550712906755507 ], [ 761090.086056071217172, 348999.052806215360761 ], [ 761038.050228048232384, 348103.70126329199411 ], [ 763259.225396922673099, 348108.723591116722673 ], [ 763311.255442565772682, 349004.089062727347482 ], [ 764421.852140674833208, 349006.623226703959517 ], [ 764369.824984102742746, 348111.250749601109419 ], [ 766591.048333355807699, 348116.337057653989177 ], [ 766643.069716028054245, 349011.723628043546341 ], [ 765532.456887201871723, 349009.168081679032184 ], [ 765584.614678718149662, 349904.551358109049033 ], [ 766695.224613930797204, 349907.113968758145347 ], [ 766958.001820034813136, 354384.122577961883508 ], [ 765847.406463420251384, 354381.524586676910985 ], [ 765900.365383392665535, 355276.930671791895293 ], [ 768121.558347140206024, 355282.151714280480519 ], [ 768068.605301377130672, 354386.731425647623837 ], [ 769179.216941324528307, 354389.351130134717096 ], [ 769338.467767777736299, 357075.644980349461548 ], [ 766006.68378362711519, 357067.754361607250758 ], [ 766113.536261943518184, 358858.593477735295892 ], [ 768334.705581550952047, 358863.871414392371662 ], [ 768388.326151263900101, 359759.311026076262351 ], [ 770609.522192103089765, 359764.647292134934105 ], [ 770717.151914204936475, 361555.566941035329364 ], [ 771827.756310484372079, 361558.266055132145993 ], [ 771935.91399680194445, 363349.215860332478769 ], [ 773046.520678679924458, 363351.94057102384977 ], [ 773100.796738319564611, 364247.428655169671401 ], [ 774211.408726159483194, 364250.171791806526016 ], [ 774320.355235517490655, 366041.174453195533715 ], [ 773209.749275032430887, 366038.416718074993696 ], [ 773155.206270554568619, 365142.920700814574957 ], [ 767602.285377319902182, 365129.336339446541388 ], [ 767656.843490674393252, 366024.796261878858786 ], [ 766546.286900308565237, 366022.105811593704857 ], [ 766491.725760747212917, 365126.653025805018842 ], [ 764270.63081870903261, 365121.31995384854963 ], [ 764434.73299987486098, 367807.647594747308176 ], [ 765545.267324046697468, 367810.329795970581472 ], [ 765655.330319036846049, 369601.248910053400323 ], [ 766765.866615176666528, 369603.956625736667775 ], [ 766821.09533126745373, 370499.429297347494867 ], [ 769042.186180145363323, 370504.893038534733932 ], [ 769097.542271202197298, 371400.38406793953618 ], [ 767986.995840087300166, 371397.639333266764879 ], [ 768042.488506542518735, 372293.127195363340434 ], [ 765821.426225307863206, 372287.657554907491431 ], [ 765877.058569635963067, 373183.135136445867829 ], [ 764766.542663674801588, 373180.410307954938617 ], [ 764822.311624013353139, 374075.884803729481064 ], [ 765932.824434484355152, 374078.616751394059975 ], [ 765988.723819488892332, 374974.102409825893119 ], [ 768209.767541384557262, 374979.615012294438202 ], [ 768265.794230287778191, 375875.119061799661722 ], [ 766044.756724285427481, 375869.592121818917803 ], [ 766157.223091802792624, 377660.583746810327284 ], [ 767267.731542143272236, 377663.355782307102345 ], [ 767380.725715506006964, 379454.378082292503677 ], [ 768491.236029318650253, 379457.176081818819512 ], [ 768378.248121847282164, 377666.139387199073099 ], [ 769488.772864772821777, 377668.934561913192738 ], [ 769320.301623389474116, 374982.38854456419358 ], [ 770430.843897910788655, 374985.173564757860731 ], [ 770543.018346067750826, 376776.214638872479554 ], [ 771653.562634350266308, 376779.025681251310743 ], [ 771485.510505384067073, 374092.448386365838815 ], [ 769264.411537868436426, 374086.881351354240905 ], [ 769208.654950424679555, 373191.378214249154553 ], [ 770319.203411193331704, 373194.148772366228513 ], [ 770208.096888804109767, 371403.140180769260041 ], [ 771318.659726759186015, 371405.907672178873327 ], [ 771208.093295995262451, 369614.900717030162923 ], [ 770097.524333618814126, 369612.147709084500093 ], [ 770042.438294622115791, 368716.657492946367711 ], [ 771153.010308183031157, 368719.403265400673263 ], [ 771043.244789478136227, 366928.420363479177468 ], [ 773264.425751398550346, 366933.916717070445884 ], [ 773319.235699301818386, 367829.420707922487054 ], [ 772208.64411153527908, 367826.659627927525435 ], [ 772263.590571481036022, 368722.160334529529791 ], [ 773374.179118389845826, 368724.928700756223407 ], [ 773429.256008306518197, 369620.440705699147657 ], [ 774539.849825983634219, 369623.227687272825278 ], [ 774484.775982780847698, 368727.708364505553618 ], [ 775595.381198527873494, 368730.499326204415411 ], [ 775540.443856701022014, 367834.976678570557851 ], [ 776651.060494082863443, 367837.771570076583885 ], [ 776596.259637832874432, 366942.245568266196642 ], [ 777706.887720430735499, 366945.044339250191115 ], [ 777761.685549089219421, 367840.577732942125294 ], [ 778872.319055599393323, 367843.395167598093394 ], [ 778927.247292657615617, 368738.940003291121684 ], [ 777816.616819589282386, 368736.115145166113507 ], [ 777926.879684685729444, 370527.202065885532647 ], [ 782369.428296054247767, 370538.629065166111104 ], [ 782424.747677210252732, 371434.20850249537034 ], [ 783535.403174581471831, 371437.101186707441229 ], [ 783590.852910103974864, 372332.692249909625389 ], [ 784701.513979046139866, 372335.603895307285711 ], [ 784868.654395312070847, 375022.424425283272285 ], [ 783758.002536054118536, 375019.490022531710565 ], [ 783813.985883309738711, 375915.097508531063795 ], [ 781592.714202961884439, 375909.24807738524396 ], [ 781705.093494181754068, 377700.445216015039477 ], [ 782815.718837138498202, 377703.379262570466381 ], [ 782928.625565891619772, 379494.608082655526232 ], [ 781818.006449174368754, 379491.658927804382984 ], [ 781931.453065038542263, 381282.889294608205091 ], [ 783042.065926265669987, 381285.853574835753534 ], [ 783098.986217402503826, 382181.482598579372279 ], [ 784209.604551026364788, 382184.466160748153925 ], [ 784266.655104489414953, 383080.106984139885753 ], [ 785377.278940140153281, 383083.109887924569193 ], [ 785263.31751132872887, 381291.817191843758337 ], [ 784152.687397071160376, 381288.829540428589098 ], [ 784095.903642983874306, 380393.197112918482162 ], [ 788538.488803705666214, 380405.187194374331739 ], [ 788481.850924886995926, 379509.528322804020718 ], [ 789592.522188905626535, 379512.547267219342757 ], [ 789423.418083367985673, 376825.572597266233061 ], [ 790534.107453753706068, 376828.579942166397814 ], [ 790478.009232741198502, 375932.922322325292043 ], [ 789367.31677807494998, 375929.922713169478811 ], [ 789311.348838321166113, 375034.276981521688867 ], [ 790422.044369979994372, 375037.268859164090827 ], [ 790366.212865823647007, 374141.619542380445637 ], [ 791476.920301822014153, 374144.615161615714896 ], [ 791365.663485305616632, 372353.313429094327148 ], [ 792476.385901393834502, 372356.304965855611954 ], [ 792420.960566392634064, 371460.652514645305928 ], [ 790199.518508556997404, 371454.696367310651112 ], [ 790144.220442378777079, 370559.063533068227116 ], [ 789033.509635114576668, 370556.110249881981872 ], [ 788923.307525041978806, 368764.872264354547951 ], [ 790034.024391511222348, 368767.810139021079522 ], [ 789706.636916000861675, 363394.147412203776184 ], [ 788595.902046934235841, 363391.255663819960319 ], [ 788650.136202487279661, 364286.848349196719937 ], [ 784207.29616105533205, 364275.362305017013568 ], [ 784098.937362873693928, 362484.241796793183312 ], [ 782988.243087893235497, 362481.413274508609902 ], [ 782934.260813790839165, 361585.866530551167671 ], [ 785155.663958044722676, 361591.519593391334638 ], [ 785209.640283865621313, 362487.081428753735963 ], [ 786320.351884761359543, 362489.932170826185029 ], [ 786266.378530903020874, 361594.36274857702665 ], [ 787377.101816107868217, 361597.216986854793504 ], [ 787269.561185104888864, 359806.074855567247141 ], [ 786158.831980781396851, 359803.235833782353438 ], [ 786051.818976411479525, 358012.12475709640421 ], [ 787162.554070645244792, 358014.948578582028858 ], [ 787109.250582974287681, 357119.39135987701593 ], [ 790441.517237551510334, 357127.905721199174877 ], [ 790494.811931810458191, 358023.485886963258963 ], [ 791605.582191360415891, 358026.353605855081696 ], [ 791659.007307986961678, 358921.945434790221043 ], [ 792769.783509491593577, 358924.831864563107956 ], [ 792877.027903199195862, 360716.042924194247462 ], [ 793987.807128886459395, 360718.95589524297975 ], [ 794095.578975576790981, 362510.198485453496687 ], [ 798538.762062823050655, 362522.023727430845611 ], [ 798484.821304968791083, 361626.369036964373663 ], [ 800706.473141035065055, 361632.332488616404589 ], [ 800652.671582053066231, 360736.665970649104565 ], [ 801763.514157243305817, 360739.656362300273031 ], [ 801817.312771759345196, 361635.330847597972024 ], [ 802928.161589494207874, 361638.340295963454992 ], [ 803144.677037983434275, 365221.110730460030027 ], [ 804255.523237776244059, 365224.163398607401177 ], [ 803985.226898267865181, 360745.670331792847719 ], [ 805096.097131933900528, 360748.693910557951313 ], [ 805149.886921661905944, 361644.392462696705479 ], [ 806260.763503929134458, 361647.435181994223967 ], [ 806206.976652928628027, 360751.728552621148992 ], [ 807317.865495170583017, 360754.774258448334876 ], [ 807264.21482942556031, 359859.063571255886927 ], [ 806153.32305712858215, 359856.025966080196667 ], [ 805993.161804289091378, 357168.942359406035393 ], [ 808214.972191817476414, 357174.979968701198231 ], [ 808161.857420960790478, 356279.277252968167886 ], [ 810383.711137214093469, 356285.342374961881433 ], [ 810277.892869896371849, 354493.916340868745465 ], [ 809166.955531791318208, 354490.894637859601062 ], [ 808904.727066329214722, 350012.439860443992075 ], [ 810015.678707943763584, 350015.420828457630705 ], [ 809963.635564991622232, 349119.733569366857409 ], [ 811074.59948428417556, 349122.717110615281854 ], [ 811022.69240230449941, 348227.025616330909543 ], [ 813244.654349299729802, 348233.008425952924881 ], [ 813192.886133191874251, 347337.304456692188978 ], [ 814303.884217418730259, 347340.303647454769816 ], [ 814355.649614488938823, 348236.015853931894526 ], [ 815466.654452729271725, 348239.033964638656471 ], [ 815622.741358414292336, 350926.219016157207079 ], [ 816733.747311516664922, 350929.272710197546985 ], [ 816891.02440451446455, 353616.518374170002062 ], [ 815780.027008442208171, 353613.43974441755563 ], [ 815832.721944555640221, 354509.187964199867565 ], [ 818054.720653821481392, 354515.372739499842282 ], [ 817897.052577449590899, 351828.090078440902289 ], [ 820119.107161503750831, 351834.268052357248962 ], [ 820066.823177089216188, 350938.498390949098393 ], [ 821177.867914188187569, 350941.595152318361215 ], [ 821125.719927159370854, 350045.821056849847082 ], [ 818903.634533713804558, 350039.6551020622137 ], [ 818955.788186908699572, 350935.41239712171955 ], [ 817844.762909700861201, 350932.337170362006873 ], [ 817792.60642134770751, 350036.588234268478118 ], [ 816681.587986625381745, 350033.532105579390191 ], [ 816474.282559626968578, 346450.609157938277349 ], [ 815363.26248902711086, 346447.596944508783054 ], [ 815311.766300174524076, 345551.884307332569733 ], [ 816422.789172638440505, 345554.888236385188065 ], [ 816371.428974198526703, 344659.171220044372603 ], [ 817482.464276781305671, 344662.177442314568907 ], [ 817585.312268425128423, 346453.632000047306065 ], [ 818696.351649369578809, 346456.665471300424542 ], [ 818542.287810015724972, 343769.464481486880686 ], [ 815209.173510077409446, 343760.47072649205802 ], [ 815158.076909471768886, 342864.769761929346714 ], [ 814047.055273499223404, 342861.801180968643166 ], [ 813793.556428047362715, 338383.395367524411995 ], [ 812682.530550545314327, 338380.478335474967025 ], [ 812532.021509897662327, 335693.505271448404528 ], [ 813643.055584569578059, 335696.397730640834197 ], [ 813493.753599319607019, 333009.434138355602045 ], [ 814604.80535631312523, 333012.312274195603095 ], [ 814505.9421186898835, 331221.005592117260676 ], [ 815617.008839873480611, 331223.877493489650078 ], [ 815567.779701326740906, 330328.221539701859001 ], [ 816678.858715860173106, 330331.095355392317288 ], [ 816629.765441900817677, 329435.434885979979299 ], [ 817740.856773924548179, 329438.310565178282559 ], [ 817839.171162536600605, 331229.651780885877088 ], [ 818950.266831942950375, 331232.554167797206901 ], [ 819049.108565006870776, 333023.926981301454362 ], [ 821271.318353232811205, 333029.795639355026651 ], [ 821074.188990426249802, 329446.998248438641895 ], [ 819963.068514220882207, 329444.092245963169262 ], [ 819914.116409886511974, 328548.410613695799839 ], [ 818803.003022793447599, 328545.523041542095598 ], [ 818754.181431754725054, 327649.853449402493425 ], [ 820976.423256798880175, 327655.622010097431485 ], [ 820879.190158276353031, 325864.26063155074371 ], [ 824212.642157576978207, 325872.938504053337965 ], [ 824164.233227985678241, 324977.238191502634436 ], [ 825275.406232314417139, 324980.142370278364979 ], [ 825227.133057990227826, 324084.437311107758433 ], [ 824115.957436493132263, 324081.541573510097805 ], [ 823971.928893614793196, 321394.473782076267526 ], [ 822860.755336800124496, 321391.613208704045974 ], [ 823053.070101796882227, 324974.34398525301367 ], [ 819719.639652318670414, 324965.721197220264003 ], [ 819623.200273634050973, 323174.398610281408764 ], [ 821845.487913245568052, 323180.10379162686877 ], [ 821797.473189460812137, 322284.431316604197491 ], [ 820686.321876220405102, 322281.582119234255515 ], [ 820638.437706416938454, 321385.921647854149342 ], [ 821749.591619059676304, 321388.762497442716267 ], [ 821701.84320234390907, 320493.097323688794859 ], [ 822813.009511023876257, 320495.939663296972867 ], [ 822765.396832034690306, 319600.269756454916205 ], [ 823876.5755610098131, 319603.113535146170761 ], [ 823924.185657515539788, 320498.791837523982394 ], [ 825035.371675796573982, 320501.653846808359958 ], [ 825083.112323481822386, 321397.344217999256216 ], [ 826194.305660383892246, 321400.224516914167907 ], [ 826004.152170732500963, 317817.451070024690125 ], [ 822670.570915586547926, 317808.940816632471979 ], [ 822623.357678721891716, 316913.281762741273269 ], [ 820401.014276566682383, 316907.673708987946156 ], [ 820448.232638993300498, 317803.316075815353543 ], [ 819337.078166806371883, 317800.518332540872507 ], [ 819242.769482204224914, 316009.253789519949351 ], [ 818131.619617504067719, 316006.482343146693893 ], [ 818225.933426719275303, 317797.73034011508571 ], [ 816003.673006944358349, 317792.183606097241864 ], [ 816051.034826418850571, 318687.796514378220309 ], [ 817162.157628600485623, 318690.573229807545431 ], [ 817257.275666172150522, 320481.826302728499286 ], [ 816146.158036891603842, 320479.033129690855276 ], [ 816098.529836502159014, 319583.41301877744263 ], [ 814987.41924985894002, 319580.63788087881403 ], [ 814939.921655669575557, 318685.029576000466477 ], [ 813828.818082384532318, 318682.272414248960558 ], [ 813734.217338705784641, 316891.082905022893101 ], [ 815956.444378369953483, 316896.574283541063778 ], [ 815909.348940996453166, 316000.968536318920087 ], [ 817020.479448426514864, 316003.720592221186962 ], [ 816973.519756530178711, 315108.1101972310571 ], [ 818084.662478348589502, 315110.863707958487794 ], [ 818037.83851655269973, 314215.248634424933698 ], [ 819148.993477035081014, 314218.003548978071194 ], [ 819102.305229970952496, 313322.383766097540502 ], [ 816879.99992674542591, 313316.900071178271901 ], [ 816833.439789438736625, 312421.300319330592174 ], [ 815722.299109347630292, 312418.581093036627863 ], [ 815768.861778996302746, 313314.172642783320043 ], [ 814657.733255187398754, 313311.45482653885847 ], [ 814564.736048614024185, 311520.291596180351917 ], [ 813453.612052358570509, 311517.599682423984632 ], [ 813361.142612953321077, 309726.466766927449498 ], [ 812250.02313423785381, 309723.800631295249332 ], [ 812112.310535881202668, 307037.151678623573389 ], [ 811001.193070815177634, 307034.519268071802799 ], [ 811046.966548501048237, 307930.057383128325455 ], [ 809935.861058010486886, 307927.426346970780287 ], [ 809753.556551069603302, 304345.326683996245265 ], [ 808642.450565291452222, 304342.737137469404843 ], [ 808552.09277144446969, 302551.72382675652625 ], [ 811885.453863696195185, 302559.472302992362529 ], [ 811795.643715241691098, 300768.424419355927967 ], [ 810684.508995268493891, 300765.848411207436584 ], [ 810595.226854130858555, 298974.830126148415729 ], [ 809484.096737906802446, 298972.279373215686064 ], [ 809573.38374630571343, 300763.281628871278372 ], [ 806240.064485690323636, 300755.636632797191851 ], [ 806420.266783331288025, 304337.586048775527161 ], [ 804198.120361013803631, 304332.472296591324266 ], [ 804243.509026663727127, 305227.952312112494837 ], [ 803132.452221135841683, 305225.401567646011245 ], [ 803177.976642062887549, 306120.87711726949783 ], [ 805400.094551625777967, 306126.003738515428267 ], [ 805491.533223210135475, 307916.996650505228899 ], [ 804380.474626448005438, 307914.412836426112335 ], [ 804426.396359691163525, 308809.906537983100861 ], [ 802204.311983376508579, 308804.751501791528426 ], [ 802158.385229479055852, 307909.273537527711596 ], [ 801047.354361342848279, 307906.718051918724086 ], [ 801093.283627409022301, 308802.18818873737473 ], [ 799982.264447616529651, 308799.634345185360871 ], [ 800074.527891897247173, 310590.569328895886429 ], [ 798963.522905380697921, 310588.00939899252262 ], [ 798917.322006615111604, 309692.547964862314984 ], [ 795584.353980692801997, 309684.948489104106557 ], [ 795538.278811036376283, 308789.513658170762938 ], [ 794427.305002752691507, 308787.007156271254644 ], [ 794473.382699239766225, 309682.43432106502587 ], [ 793362.4203914583195, 309679.929647654411383 ], [ 793454.980856044101529, 311470.778977824083995 ], [ 792344.032568460912444, 311468.268565751612186 ], [ 792205.38426954112947, 308782.022553596354555 ], [ 789983.499154463177547, 308777.075816536031198 ], [ 789937.544699050486088, 307881.682443725236226 ], [ 788826.612887721974403, 307879.230799232027493 ], [ 788872.569868850521743, 308774.616646660375409 ], [ 787761.649385928642005, 308772.166942049982026 ], [ 787853.968527905526571, 310562.933836341951974 ], [ 786743.061892028432339, 310560.478645238501485 ], [ 786789.424075449118391, 311455.859729341464117 ], [ 784567.642085578409024, 311450.96302551071858 ], [ 784660.776849303161725, 313241.705689536291175 ], [ 783549.904006985016167, 313239.256849315890577 ], [ 783503.267358570126817, 312343.891210392175708 ], [ 782392.400585727649741, 312341.459348950709682 ], [ 782299.522381969494745, 310550.753071238403209 ], [ 781188.65909311955329, 310548.345473474124447 ], [ 781235.034045828389935, 311443.68956469965633 ], [ 780124.181882179807872, 311441.28416825394379 ], [ 780031.560287549276836, 309650.614009118638933 ], [ 781142.417559087509289, 309653.004776588582899 ], [ 781096.309444029582664, 308757.667463984980714 ], [ 782207.177823620848358, 308760.060384856129531 ], [ 782253.28339697048068, 309655.405034165480174 ], [ 783364.157835134770721, 309657.814782217727043 ], [ 783272.085173984407447, 307867.114136464660987 ], [ 777717.773253739695065, 307855.233372532995418 ], [ 777671.924388921586797, 306959.924622978141997 ], [ 776561.08499476488214, 306957.583994019019883 ], [ 776515.367047137580812, 306062.285804779676255 ], [ 775404.533553958171979, 306059.961771251400933 ], [ 775450.254027489339933, 306955.252771383849904 ], [ 773228.617237854166888, 306950.618543654505629 ], [ 773320.468709387816489, 308741.181952001759782 ], [ 774431.277845886070281, 308743.50864188169362 ], [ 774477.401237341109663, 309638.802510566601995 ], [ 772255.796394035685807, 309634.144329151196871 ], [ 772209.667900468222797, 308738.864722250727937 ], [ 769988.091129646752961, 308734.258641712891404 ], [ 770034.224730325047858, 309629.524096575507428 ], [ 771145.006431692861952, 309631.829469436372165 ], [ 771191.270963251125067, 310527.105339551868383 ], [ 770080.491823423653841, 310524.792900909378659 ], [ 770220.094054257264361, 313210.619510321470443 ], [ 769109.330875305458903, 313208.295449589961208 ], [ 769156.13452734099701, 314103.570699034724385 ], [ 770266.895114040933549, 314105.901812135183718 ], [ 770313.829664741759188, 315001.187513229844626 ], [ 769203.071677654399537, 314998.849344229791313 ], [ 769250.142325944500044, 315894.131395133852493 ], [ 770360.897706055548042, 315896.476623574388213 ], [ 770408.099237672751769, 316791.769153140427079 ], [ 771518.860240631969646, 316794.131150552886538 ], [ 771613.658525375067256, 318584.740698796056677 ], [ 770502.902770610991865, 318582.364509836072102 ], [ 770646.109239656245336, 321268.283438472310081 ], [ 769535.369656006107107, 321265.895778466772754 ], [ 769776.730235626338981, 325742.461582630930934 ], [ 768666.012234383495525, 325740.048443737439811 ], [ 768714.687530966824852, 326635.365065571269952 ], [ 769825.402835583779961, 326637.785279746283777 ], [ 769874.20892948214896, 327533.112512262887321 ], [ 770984.929749021306634, 327535.549840237188619 ], [ 771033.866626525530592, 328430.887728220957797 ], [ 767701.736924791242927, 328423.584600554953795 ], [ 767652.791913231834769, 327528.267960478784516 ], [ 766542.095648710615933, 327525.860735924972687 ], [ 766444.600745073985308, 325735.252104389015585 ], [ 765333.907189192716032, 325732.868903197522741 ], [ 765236.940971931326203, 323942.288304348476231 ], [ 764126.250115000177175, 323939.929001778305974 ], [ 764029.812643006443977, 322149.376271966553759 ], [ 762919.124475378077477, 322147.040743367164396 ], [ 762967.279119058861397, 323042.3084460926475 ], [ 761856.601634026737884, 323039.975889444642235 ], [ 761904.892499546520412, 323935.240166100033093 ], [ 763015.567302174167708, 323937.579622482357081 ], [ 763112.544285454321653, 325728.132435950101353 ], [ 762001.874869791674428, 325725.779169166868087 ], [ 761953.316911574685946, 324830.507922702236101 ], [ 760842.652776351897046, 324828.171512927627191 ], [ 760794.225673217675649, 323932.910632272076327 ], [ 759683.566789284814149, 323930.591020640626084 ], [ 759635.270555012044497, 323035.340461170009803 ], [ 758524.616893225465901, 323033.03758883161936 ], [ 758476.451541600283235, 322137.797305956482887 ], [ 757365.803072829963639, 322135.511114076187368 ], [ 757317.768617650959641, 321240.281063241127413 ], [ 756207.125312773743644, 321238.011492999212351 ], [ 756111.45180767250713, 319447.575188677234109 ], [ 755000.81097690644674, 319445.328901991306338 ], [ 755048.583597757271491, 320340.538622275169473 ], [ 752827.330526642501354, 320336.062039345852099 ], [ 752971.466005560825579, 323021.671631030447315 ], [ 754082.080639914143831, 323023.925036571163218 ], [ 754227.410472052288242, 325709.58564915927127 ], [ 755338.024747017072514, 325711.869081565469969 ], [ 755435.573855524417013, 327502.340285425889306 ], [ 756546.190473605762236, 327504.647189037932549 ], [ 756644.268478518351912, 329295.145893714681733 ], [ 757754.887449323316105, 329297.476393300166819 ], [ 757853.494291521143168, 331088.002762175048701 ], [ 761185.38198070472572, 331095.09584646683652 ], [ 761234.877503556432202, 331990.384894380462356 ], [ 762345.51984397135675, 331992.776443999959156 ], [ 762395.146160254487768, 332888.075966625881847 ], [ 761284.506577429594472, 332885.677507840446196 ], [ 761585.085573954856955, 338257.508621236600447 ], [ 762695.70845615467988, 338259.948613944405224 ], [ 762645.280884871026501, 337364.627466855512466 ], [ 763755.914565403596498, 337367.070861793472432 ], [ 763806.33933615963906, 338262.398968080000486 ], [ 764916.978247861727141, 338264.859684019524138 ], [ 765018.222770526772365, 340055.540819344634656 ], [ 763907.589479269227013, 340053.066118728660513 ], [ 763958.414850963978097, 340948.405183027032763 ], [ 762847.792416822048835, 340945.933928444457706 ], [ 762796.964222458656877, 340050.601834780944046 ], [ 760575.737676625954919, 340045.704515377932694 ], [ 760626.571520467987284, 340941.022750064381398 ], [ 761737.17798461811617, 340943.473117582849227 ], [ 761788.142550778691657, 341838.801932988455519 ], [ 760677.538919446640648, 341836.344645864446647 ], [ 760831.242443860741332, 344522.332399400766008 ], [ 758610.076052053482272, 344517.407919005141594 ], [ 758558.702275526593439, 343622.088760226906743 ], [ 757448.128045351826586, 343619.649196988379117 ], [ 757396.884985966491513, 342724.340566454513464 ], [ 756286.315739316050895, 342721.918344931502361 ], [ 756440.454227782553062, 345407.83482019539224 ], [ 758661.583397163194604, 345412.730770944908727 ], [ 758713.22431051870808, 346308.057325980684254 ], [ 757602.658680040505715, 346305.597204484045506 ], [ 757810.569578948663548, 349886.913188821461517 ], [ 756700.023364831344225, 349884.436317889427301 ], [ 756752.337937631178647, 350779.767812556470744 ], [ 755641.802449992857873, 350777.294836020446382 ], [ 755694.253524976200424, 351672.623260278895032 ], [ 756804.786091428948566, 351675.103062097972725 ], [ 756857.367825884371996, 352570.442076447186992 ], [ 755746.838188017718494, 352567.955445392231923 ], [ 755958.512713861418888, 356149.321992953133304 ], [ 754848.002653215196915, 356146.818912566232029 ], [ 754901.258218398899771, 357042.163229172583669 ], [ 756011.765312009723857, 357044.673131283721887 ], [ 756172.32462093513459, 359730.749508754641283 ], [ 755061.826472840504721, 359728.219117350934539 ], [ 755169.539938035421073, 361518.942257459741086 ], [ 754059.055554407066666, 361516.409257840423379 ], [ 754221.636749459663406, 364202.502521010406781 ], [ 752000.709273339482024, 364197.429045955883339 ], [ 752109.776891354704276, 365988.150164131366182 ], [ 750999.330756774055772, 365985.616654621786438 ], [ 751054.068038468714803, 366880.976307340315543 ], [ 749943.632595566567034, 366878.447275615937542 ], [ 749998.506559701869264, 367773.804104262613691 ], [ 748888.081785036367364, 367771.279600657813717 ], [ 748998.236743371468037, 369561.991588873963337 ], [ 747887.825694685336202, 369559.464976857940201 ], [ 747998.521369098336436, 371350.179302172211464 ], [ 746888.124048274126835, 371347.6506744287326 ], [ 746999.360498268157244, 373138.367437592358328 ], [ 745888.976907234406099, 373135.836886722128838 ], [ 746056.843314492958598, 375821.921800654323306 ], [ 747167.217519255704246, 375824.472322788031306 ], [ 747111.131533284322359, 374929.100049125496298 ] ], [ [ 781823.572174611967057, 361583.056622028758284 ], [ 781769.720339179737493, 360687.521346295950934 ], [ 782880.411947363987565, 360690.323754365730565 ], [ 782934.260813790839165, 361585.866530551167671 ], [ 781823.572174611967057, 361583.056622028758284 ] ], [ [ 822717.917300121625885, 318704.603477718948852 ], [ 821606.745831147069111, 318701.777870599471498 ], [ 821559.396877260645851, 317806.123570368741639 ], [ 822670.570915586547926, 317808.940816632471979 ], [ 822717.917300121625885, 318704.603477718948852 ] ], [ [ 805354.575105375610292, 305230.512417389254551 ], [ 806465.65049123566132, 305233.081883869599551 ], [ 806511.167451969580725, 306128.581131952232681 ], [ 805400.094551625777967, 306126.003738515428267 ], [ 805354.575105375610292, 305230.512417389254551 ] ], [ [ 796787.879507824312896, 311478.367510552168824 ], [ 796741.540230571292341, 310582.918109733844176 ], [ 797852.527029590448365, 310585.458992735890206 ], [ 797945.333815150428563, 312376.376707400253508 ], [ 796834.352101231925189, 312373.820364814251661 ], [ 796880.958010500529781, 313269.276682724652346 ], [ 797991.937170956516638, 313271.840760369319469 ], [ 798038.673835052642971, 314167.308290717890486 ], [ 796927.697235333849676, 314164.736474490142427 ], [ 796974.569775436306372, 315060.199750319996383 ], [ 794752.648825252428651, 315055.069613759522326 ], [ 794659.02679529262241, 313264.177342793729622 ], [ 793548.074672639835626, 313261.642079724057112 ], [ 793454.980856044101529, 311470.778977824083995 ], [ 796787.879507824312896, 311478.367510552168824 ] ], [ [ 749108.926233183010481, 371352.719300367461983 ], [ 749164.471426482778043, 372248.089077121985611 ], [ 748054.069665833143517, 372245.54237958160229 ], [ 747998.521369098336436, 371350.179302172211464 ], [ 749108.926233183010481, 371352.719300367461983 ] ], [ [ 777652.223333962028846, 366049.514953924692236 ], [ 776541.59223110426683, 366046.723570694390219 ], [ 776487.05827424954623, 365151.205567209399305 ], [ 777597.692390035605058, 365153.989566803560592 ], [ 777652.223333962028846, 366049.514953924692236 ] ], [ [ 775376.432571660494432, 365148.432756630005315 ], [ 775322.029057966545224, 364252.926089162880089 ], [ 776432.657767619704828, 364255.691547661379445 ], [ 776487.05827424954623, 365151.205567209399305 ], [ 775376.432571660494432, 365148.432756630005315 ] ], [ [ 781931.676090104039758, 363374.139074795122724 ], [ 782040.313662788132206, 365165.237463902099989 ], [ 780929.645555391907692, 365162.408703957451507 ], [ 780821.00199056789279, 363371.325289415428415 ], [ 781931.676090104039758, 363374.139074795122724 ] ], [ [ 777273.30903947504703, 359780.920637619798072 ], [ 777166.248812107136473, 357989.92918661609292 ], [ 778276.915202779928222, 357992.665233995881863 ], [ 778330.375640979269519, 358888.166379502159543 ], [ 779441.047549594193697, 358890.920803113258444 ], [ 779494.638467084150761, 359786.433279655175284 ], [ 778383.969517174758948, 359783.671446050982922 ], [ 778437.696831020060927, 360679.180443792545702 ], [ 779548.362814897438511, 360681.949691437243018 ], [ 779602.220592690631747, 361577.470048621878959 ], [ 775159.61926575563848, 361566.429864387027919 ], [ 775213.62240466370713, 362461.924653173598927 ], [ 772992.378091983380727, 362456.456438263820019 ], [ 772938.36897858325392, 361560.976246778736822 ], [ 774048.989952380186878, 361563.697516391112003 ], [ 773995.117293252144009, 360668.213975211372599 ], [ 775105.749585804063827, 360670.939014900650363 ], [ 775052.013365160208195, 359775.45209458906902 ], [ 777273.30903947504703, 359780.920637619798072 ] ], [ [ 773887.772375286091119, 358877.25865809438983 ], [ 773780.961326676886529, 357086.318960565142334 ], [ 774891.605462524108589, 357089.014807492203545 ], [ 774998.410604168660939, 358879.969093329913449 ], [ 773887.772375286091119, 358877.25865809438983 ] ], [ [ 774838.403082561562769, 356193.543502682587132 ], [ 775949.058525657164864, 356196.242975613975432 ], [ 776002.257964588236064, 357091.721595993905794 ], [ 774891.605462524108589, 357089.014807492203545 ], [ 774838.403082561562769, 356193.543502682587132 ] ], [ [ 759343.333470300072804, 357052.268447771726642 ], [ 759396.71073984366376, 357947.644048331771046 ], [ 758286.18314371095039, 357945.09443273418583 ], [ 758232.802904092473909, 357049.72574019554304 ], [ 759343.333470300072804, 357052.268447771726642 ] ], [ [ 769073.717215429758653, 352598.507772329787258 ], [ 769126.400328975985758, 353493.92753703444032 ], [ 768015.785761437844485, 353491.314971478073858 ], [ 767963.09972766158171, 352595.902341729670297 ], [ 769073.717215429758653, 352598.507772329787258 ] ], [ [ 774521.991496367030777, 350820.796770505199675 ], [ 774469.723350773565471, 349925.352403638826218 ], [ 776691.083389136590995, 349930.659877155092545 ], [ 776743.34575683134608, 350826.118846945639234 ], [ 777854.035506136715412, 350828.796010379912332 ], [ 777906.428428057348356, 351724.266152617288753 ], [ 779017.123742520809174, 351726.96144076588098 ], [ 779069.647205084562302, 352622.442800924764015 ], [ 777958.954790702671744, 352619.740134795894846 ], [ 778011.614593734033406, 353515.217967043688986 ], [ 771347.654071110067889, 353499.185157842584886 ], [ 771137.745869610691443, 349917.471607491141185 ], [ 772248.396731669316068, 349920.087818196217995 ], [ 772196.256280624540523, 349024.661744494747836 ], [ 773306.918314850889146, 349027.281447491724975 ], [ 773411.326917423401028, 350818.151856681914069 ], [ 774521.991496367030777, 350820.796770505199675 ] ], [ [ 764566.828523547621444, 331997.590051854785997 ], [ 763456.170172669459134, 331995.178163035074249 ], [ 763406.680148881394416, 331099.875276822596788 ], [ 762296.02707132534124, 331097.480490651621949 ], [ 762148.350018419791013, 328411.613946927885991 ], [ 763259.011298254365101, 328413.987956794560887 ], [ 763210.055422692559659, 327518.699263185495511 ], [ 764320.727437342051417, 327521.07638764573494 ], [ 764418.767282632295974, 329311.671202733879909 ], [ 765529.441905965446495, 329314.072309683309868 ], [ 765578.65939210774377, 330209.382012867485173 ], [ 764467.987500193296, 330206.973925624799449 ], [ 764566.828523547621444, 331997.590051854785997 ] ], [ [ 760988.7354059581412, 327513.97511179902358 ], [ 760939.90764303994365, 326618.703742781945039 ], [ 763161.233084987383336, 326623.414092881896067 ], [ 763210.055422692559659, 327518.699263185495511 ], [ 760988.7354059581412, 327513.97511179902358 ] ], [ [ 778614.255240928381681, 324866.748271810531151 ], [ 778662.772879830328748, 325762.126004264224321 ], [ 779773.566048350883648, 325764.628976441861596 ], [ 779822.214437958784401, 326660.017585853172932 ], [ 778711.423954214667901, 326657.507291428395547 ], [ 778760.208463770104572, 327552.892143374949228 ], [ 777649.429162347689271, 327550.384560913138557 ], [ 777698.349807522026822, 328445.765685558319092 ], [ 776587.581664476543665, 328443.260865880467463 ], [ 776538.658317221095785, 327547.887015949818306 ], [ 775427.895894476328976, 327545.399508101167157 ], [ 775379.103300691116601, 326650.036469249404036 ], [ 776489.868419498205185, 326652.516733509779442 ], [ 776392.688973891199566, 324861.786830886499956 ], [ 778614.255240928381681, 324866.748271810531151 ] ], [ [ 783154.637161762802862, 326667.60853562084958 ], [ 783057.489881640998647, 324876.790623316424899 ], [ 784168.320011916919611, 324879.326102952240035 ], [ 784216.824276674073189, 325774.74070279696025 ], [ 785327.660391931654885, 325777.293595738359727 ], [ 785425.063753974274732, 327568.148447288258467 ], [ 784314.233002468943596, 327565.580631693941541 ], [ 784265.461940294597298, 326670.158875669992995 ], [ 783154.637161762802862, 326667.60853562084958 ] ], [ [ 784119.949146336293779, 323983.915066015848424 ], [ 780787.476588872727007, 323976.360689809371252 ], [ 780835.855453054187819, 324871.749534929578658 ], [ 779725.051086895633489, 324869.243925404269248 ], [ 779532.325528829707764, 321287.739103434258141 ], [ 782864.796201785560697, 321295.197428918501828 ], [ 782816.956300372490659, 320399.80795267096255 ], [ 785038.651712941238657, 320404.814557635341771 ], [ 784943.382630545645952, 318614.016447144618724 ], [ 782721.676721955067478, 318609.039516306831501 ], [ 782769.249806995037943, 319504.421985165390652 ], [ 781658.41241130256094, 319501.940791799686849 ], [ 781610.836703991284594, 318606.565698503109161 ], [ 780500.005265009123832, 318604.101645268965513 ], [ 780452.560357442009263, 317708.737381476094015 ], [ 779341.734846007544547, 317706.290409519220702 ], [ 779294.420751859550364, 316810.936930559109896 ], [ 780405.248873471049592, 316813.376589002204128 ], [ 780311.02617754181847, 315022.665377744240686 ], [ 781421.868037474341691, 315025.100074245419819 ], [ 781374.959413040429354, 314129.742305031628348 ], [ 785818.423265976598486, 314139.548046941170469 ], [ 785865.321555376984179, 315034.935411838348955 ], [ 786976.206624066922814, 315037.418386022385675 ], [ 786929.310915266862139, 314142.023553579929285 ], [ 793594.821587202139199, 314157.078820509486832 ], [ 793688.715427368180826, 315947.962732646032237 ], [ 792577.779968536342494, 315945.41417681920575 ], [ 792672.212337283766828, 317736.296781953482423 ], [ 793783.142613598145545, 317738.860620090796147 ], [ 793735.862352374009788, 316843.409924362029415 ], [ 794846.804173333686776, 316845.975833475473337 ], [ 794989.037161693791859, 319532.361495381221175 ], [ 793878.103143490501679, 319529.77256434323499 ], [ 793925.783411554642953, 320425.233833251870237 ], [ 790593.042796645895578, 320417.502937611716334 ], [ 790640.864275723928586, 321312.944861790922005 ], [ 791751.766289143473841, 321315.519606292189565 ], [ 791799.718490885337815, 322210.972680601640604 ], [ 790688.819111378630623, 322208.390330106893089 ], [ 790736.907303301733918, 323103.839352730079554 ], [ 789626.019421877455898, 323101.259297552343924 ], [ 789674.243619555374607, 323996.704298860393465 ], [ 787452.499595075845718, 323991.558812501374632 ], [ 787404.2700939233182, 323096.128900417941622 ], [ 786293.40857952972874, 323093.578557673317846 ], [ 786390.00627406174317, 324884.426935055991635 ], [ 784168.320011916919611, 324879.326102952240035 ], [ 784119.949146336293779, 323983.915066015848424 ] ], [ [ 794799.659834678284824, 315950.520974927174393 ], [ 795910.613224410219118, 315953.088904055533931 ], [ 795957.754977977834642, 316848.551456896821037 ], [ 794846.804173333686776, 316845.975833475473337 ], [ 794799.659834678284824, 315950.520974927174393 ] ], [ [ 811797.460322623839602, 322259.144497935369145 ], [ 811845.498551697470248, 323154.742799792846199 ], [ 810734.436585077783093, 323151.974481324723456 ], [ 810686.395737925777212, 322256.384283514227718 ], [ 811797.460322623839602, 322259.144497935369145 ] ], [ [ 772819.749491634080186, 320377.764268895960413 ], [ 772867.613171788863838, 321273.088288334663957 ], [ 771756.857066946104169, 321270.680941638944205 ], [ 771708.990738239721395, 320375.364057971455622 ], [ 772819.749491634080186, 320377.764268895960413 ] ], [ [ 802861.280876813456416, 321341.808890255750157 ], [ 801750.288453585933894, 321339.135623533918988 ], [ 801702.493183004087768, 320443.616439823235851 ], [ 802813.488220042665489, 320446.281829535029829 ], [ 802861.280876813456416, 321341.808890255750157 ] ], [ [ 800591.507338428287767, 320440.960876688477583 ], [ 800543.842744121327996, 319545.453108933230396 ], [ 801654.831196523620747, 319548.100826132460497 ], [ 801702.493183004087768, 320443.616439823235851 ], [ 800591.507338428287767, 320440.960876688477583 ] ], [ [ 798321.893277082592249, 319540.187070235260762 ], [ 798226.953568403725512, 317749.213390332064591 ], [ 799337.928939226316288, 317751.825939303846098 ], [ 799385.329544475884177, 318647.318793711136095 ], [ 800496.311441475525498, 318649.948897335503716 ], [ 800543.842744121327996, 319545.453108933230396 ], [ 798321.893277082592249, 319540.187070235260762 ] ], [ [ 800307.519153539091349, 315067.967407469754107 ], [ 801418.520536138210446, 315070.575948725396302 ], [ 801371.658260556287132, 314175.081539637234528 ], [ 802482.671391025185585, 314177.691890682734083 ], [ 802529.53110361052677, 315073.194151750707533 ], [ 803640.550889911712147, 315075.82201694813557 ], [ 803593.693739072186872, 314180.311876431806013 ], [ 804704.725338654592633, 314182.941497287072707 ], [ 804751.579929002793506, 315078.459544721525162 ], [ 805862.618254841770977, 315081.106735476001631 ], [ 805815.766223735874519, 314185.58075365278637 ], [ 808037.875986236496828, 314190.888174538849853 ], [ 808084.722902609035373, 315086.43010755762225 ], [ 809195.789292463567108, 315089.106289702816866 ], [ 809242.766888490878046, 315984.659772807965055 ], [ 810353.840139465173706, 315987.353667402116116 ], [ 810448.189891107613221, 317778.487381091108546 ], [ 809337.121784801827744, 317775.777380153886043 ], [ 809384.499084494542331, 318671.341525052732322 ], [ 808273.442989002913237, 318668.633240106049925 ], [ 808226.063104860601015, 317773.077126262593083 ], [ 807115.013817323604599, 317770.38661900232546 ], [ 807162.396287178155035, 318665.934729265689384 ], [ 806051.358945057727396, 318663.245992116746493 ], [ 806194.313648469280452, 321349.887818809656892 ], [ 803972.282527732662857, 321344.492011433874723 ], [ 803924.492483497830108, 320448.957046233350411 ], [ 805035.506007325137034, 320451.642090329434723 ], [ 804892.943283613305539, 317765.034842722176109 ], [ 803781.921969519229606, 317762.373572879761923 ], [ 803734.665005432674661, 316866.852854896045756 ], [ 802623.650364388246089, 316864.209220155200455 ], [ 802718.30273733031936, 318655.238418694585562 ], [ 800496.311441475525498, 318649.948897335503716 ], [ 800307.519153539091349, 315067.967407469754107 ] ], [ [ 813876.318261940497905, 319577.872547089296859 ], [ 813923.951646239031106, 320473.476279247901402 ], [ 812812.862816931214184, 320470.71260098851053 ], [ 812765.22683877882082, 319575.117016983916983 ], [ 813876.318261940497905, 319577.872547089296859 ] ], [ [ 775961.987302716821432, 316803.676207286887802 ], [ 776009.30923506594263, 317699.007910368731245 ], [ 774898.51755945791956, 317696.599881649017334 ], [ 774945.975567382993177, 318591.927834446774796 ], [ 772724.422553814249113, 318587.126648973266128 ], [ 772676.959296764573082, 317691.813028483651578 ], [ 773787.73425799747929, 317694.201587810064666 ], [ 773693.213397506740876, 315903.570381614146754 ], [ 774804.001924763899297, 315905.954326410719659 ], [ 774851.193011816008948, 316801.275382309278939 ], [ 775961.987302716821432, 316803.676207286887802 ] ], [ [ 771377.663934100884944, 314108.242548909853213 ], [ 771330.865465298877098, 313212.953167292056605 ], [ 774663.2294301756192, 313220.011719229689334 ], [ 774616.572188513586298, 312324.704336975759361 ], [ 776838.195103339850903, 312329.443626564461738 ], [ 776884.847189129213803, 313224.765408327511977 ], [ 777995.668705094372854, 313227.156650311255362 ], [ 778042.451654614182189, 314122.489086953108199 ], [ 779153.279058023821563, 314124.897199596860446 ], [ 779247.240088945021853, 315915.586909288249444 ], [ 778136.417871776502579, 315913.164242276863661 ], [ 778183.601138812722638, 316808.506981040816754 ], [ 777072.790000406792387, 316806.086740073980764 ], [ 777025.604127975646406, 315910.75125637371093 ], [ 775914.798823612509295, 315908.347951208066661 ], [ 775867.743798054754734, 315013.023132107511628 ], [ 774756.944298602873459, 315010.636703938886058 ], [ 774710.020133639802225, 314115.322504881653003 ], [ 771377.663934100884944, 314108.242548909853213 ] ], [ [ 815815.557641014456749, 314209.767726324731484 ], [ 815862.386695111403242, 315105.366354042140301 ], [ 814751.263260116800666, 315102.632177969906479 ], [ 814704.431658003013581, 314207.041731935110874 ], [ 815815.557641014456749, 314209.767726324731484 ] ], [ [ 800213.922767335083336, 313276.997732987336349 ], [ 800260.654313709121197, 314172.480822894023731 ], [ 799149.659516526153311, 314169.889740053738933 ], [ 799102.925411917036399, 313274.414443658373784 ], [ 800213.922767335083336, 313276.997732987336349 ] ], [ [ 804658.004012728808448, 313287.426958663272671 ], [ 804564.961155315395445, 311496.408366728574038 ], [ 805676.009674621513113, 311499.023841101734433 ], [ 805722.461933331331238, 312394.539316754613537 ], [ 806833.517232113983482, 312397.172295911645051 ], [ 806880.100205085938796, 313292.699218132125679 ], [ 804658.004012728808448, 313287.426958663272671 ] ], [ [ 791233.093189131934196, 311465.767702453536913 ], [ 791279.578532168874517, 312361.182310901582241 ], [ 787946.821169005939737, 312353.714391813206021 ], [ 787900.328161214478314, 311458.322401370038278 ], [ 791233.093189131934196, 311465.767702453536913 ] ], [ [ 774523.65809179621283, 310534.099742645164952 ], [ 774570.048408954171464, 311429.400348115013912 ], [ 773459.246945801191032, 311427.052213949500583 ], [ 773412.854063511826098, 310531.758760062337387 ], [ 774523.65809179621283, 310534.099742645164952 ] ] ], [ [ [ 791820.082758327713236, 361608.744779677363113 ], [ 792930.850113730411977, 361611.654440023703501 ], [ 792877.027903199195862, 360716.042924194247462 ], [ 791766.257591812405735, 360713.141011428378988 ], [ 791820.082758327713236, 361608.744779677363113 ] ] ], [ [ [ 790925.970342758460902, 365188.270462395099457 ], [ 793147.472372361109592, 365194.140650171029847 ], [ 793201.961289425380528, 366089.772290886496194 ], [ 794312.722678655642085, 366092.731973454996478 ], [ 794095.578975576790981, 362510.198485453496687 ], [ 792984.805666255415417, 362507.269960244710092 ], [ 793038.894560432527214, 363402.889495147217531 ], [ 790817.380602007266134, 363397.050299922120757 ], [ 790925.970342758460902, 365188.270462395099457 ] ] ], [ [ [ 793476.40597182919737, 370567.991538642090745 ], [ 792365.668576844385825, 370565.004176992166322 ], [ 792420.960566392634064, 371460.652514645305928 ], [ 793531.694925284828059, 371463.647669198107906 ], [ 793476.40597182919737, 370567.991538642090745 ] ] ], [ [ [ 779259.618819903233089, 374112.294063705368899 ], [ 781480.868578395457007, 374118.067430106922984 ], [ 781536.724682166823186, 375013.655697438167408 ], [ 782647.359309632214718, 375016.567113399563823 ], [ 782480.20046950224787, 372329.792015761777293 ], [ 780258.921337791718543, 372324.025779435760342 ], [ 780314.513673516456038, 373219.598352973582223 ], [ 779203.889983223984018, 373216.724878147360869 ], [ 779259.618819903233089, 374112.294063705368899 ] ] ], [ [ [ 779315.48108860431239, 375007.867343241523486 ], [ 779371.476788966916502, 375903.444726954796351 ], [ 781592.714202961884439, 375909.24807738524396 ], [ 781536.724682166823186, 375013.655697438167408 ], [ 779315.48108860431239, 375007.867343241523486 ] ] ], [ [ [ 810753.564565193839371, 380467.936656567268074 ], [ 810696.988697764812969, 379572.118059381959029 ], [ 811807.842596758622676, 379575.369758371380158 ], [ 811695.096688713179901, 377783.728841221309267 ], [ 809473.386045931605622, 377777.270104239403736 ], [ 809642.723206217284314, 380464.688352606783155 ], [ 810753.564565193839371, 380467.936656567268074 ] ] ], [ [ [ 792444.139248291030526, 389371.356878870516084 ], [ 794665.474537111236714, 389377.648750286141876 ], [ 794319.740620378172025, 384003.270559709926601 ], [ 797651.867741460679099, 384012.655292573734187 ], [ 797310.989920168998651, 378638.288414555368945 ], [ 796200.253178970422596, 378635.195941169513389 ], [ 796143.903714169515297, 377739.490843871317338 ], [ 797254.643545170547441, 377742.575408214819618 ], [ 797142.350737157510594, 375951.16199358238373 ], [ 796031.60474835569039, 375948.093234576401301 ], [ 796087.687570513691753, 376843.78994512668578 ], [ 794976.95366555871442, 376840.724839186063036 ], [ 795089.525449363514781, 378632.115076337533537 ], [ 792868.096889374079183, 378625.988170444907155 ], [ 792587.636606344836764, 374147.622250196349341 ], [ 791476.920301822014153, 374144.615161615714896 ], [ 791701.034152122680098, 377727.268392620841041 ], [ 790590.339032658725046, 377724.241728993190918 ], [ 790759.833913141395897, 380411.252194486849476 ], [ 791870.519718708237633, 380414.302186014072504 ], [ 792098.367360842996277, 383997.072934048075695 ], [ 790987.694075785926543, 383993.991778661205899 ], [ 791044.992504863417707, 384889.687272725626826 ], [ 789934.33122098131571, 384886.610114057199098 ], [ 790222.839537245919928, 389365.112752564833499 ], [ 791333.484962483868003, 389368.228847819205839 ], [ 791275.519763885065913, 388472.51195103226928 ], [ 792386.177234439412132, 388475.632158573833294 ], [ 792444.139248291030526, 389371.356878870516084 ] ], [ [ 792155.662641585455276, 384892.776229858107399 ], [ 792213.091269680997357, 385788.483789869060274 ], [ 791102.424288577749394, 385785.387026658456307 ], [ 791044.992504863417707, 384889.687272725626826 ], [ 792155.662641585455276, 384892.776229858107399 ] ] ], [ [ [ 798172.182965198531747, 392074.494906530191656 ], [ 797061.493442968698218, 392071.283280321222264 ], [ 797119.975996855413541, 392967.05696573574096 ], [ 798230.662313041626476, 392970.276570405054372 ], [ 798172.182965198531747, 392074.494906530191656 ] ] ], [ [ [ 795950.812955356668681, 392068.08367474883562 ], [ 797061.493442968698218, 392071.283280321222264 ], [ 797003.144204399897717, 391175.513959610427264 ], [ 795892.460516446386464, 391172.322300609957892 ], [ 795834.241400497267023, 390276.565276363980956 ], [ 794723.5635170948226, 390273.393524731975049 ], [ 794898.630439155036584, 392960.653900236007757 ], [ 792677.32075519009959, 392954.29902324732393 ], [ 792735.949492932413705, 393850.045426963595673 ], [ 793846.59664805745706, 393853.224715134885628 ], [ 793905.355502605903894, 394748.983364070882089 ], [ 792794.711574335466139, 394745.796198469179217 ], [ 792853.606999028474092, 395641.551348139648326 ], [ 796185.555933150695637, 395651.172878211771604 ], [ 796126.670206122100353, 394755.394000503933057 ], [ 797237.341049111797474, 394758.617472319456283 ], [ 797178.59186569461599, 393862.835026264132466 ], [ 796067.917800565715879, 393859.619514294259716 ], [ 795950.812955356668681, 392068.08367474883562 ] ] ], [ [ [ 789580.776714900974184, 396527.775019158027135 ], [ 787359.581430479651317, 396521.478548002953175 ], [ 787418.759807803435251, 397417.203443200385664 ], [ 788529.349807640304789, 397420.353355192753952 ], [ 788588.658299651579, 398316.090395259147044 ], [ 789699.253810295602307, 398319.260274192783982 ], [ 789758.692403622204438, 399215.009505898517091 ], [ 790869.29345483018551, 399218.199411676265299 ], [ 790750.556160525651649, 397426.689724302967079 ], [ 791861.172581299440935, 397429.876182393578347 ], [ 791742.975210297387093, 395638.368429223191924 ], [ 789521.738213591976091, 395632.03897511708783 ], [ 789580.776714900974184, 396527.775019158027135 ] ] ], [ [ [ 812293.070877272519283, 288233.935553161718417 ], [ 813404.258055050857365, 288236.416934122389648 ], [ 813361.422555644414388, 287340.928205547563266 ], [ 812250.233045374974608, 287338.454877072072122 ], [ 812293.070877272519283, 288233.935553161718417 ] ] ], [ [ [ 817935.15456949477084, 290037.483083285216708 ], [ 820157.625549721997231, 290042.57595419883728 ], [ 820028.761472481768578, 287355.953301261819433 ], [ 818917.514119303668849, 287353.42707804706879 ], [ 818874.823436886770651, 286457.900921575492248 ], [ 817763.583489603013732, 286455.391701762215234 ], [ 817721.023666689754464, 285559.876965073111933 ], [ 813276.151180224027485, 285549.960429712955374 ], [ 813361.422555644414388, 287340.928205547563266 ], [ 815583.830276657943614, 287345.901307374006137 ], [ 815541.132632077205926, 286450.399628403130919 ], [ 816652.353232666384429, 286452.891270832915325 ], [ 816780.838758693775162, 289139.430433859757613 ], [ 817892.062031820998527, 289141.9553520019399 ], [ 817935.15456949477084, 290037.483083285216708 ] ] ], [ [ [ 827979.787918172543868, 290956.287152574106585 ], [ 828023.125652174232528, 291851.896259066881612 ], [ 829134.440378643455915, 291854.535249360662419 ], [ 828961.897459728410468, 288272.0848860181286 ], [ 830073.231557058636099, 288274.69894242688315 ], [ 829945.228911047568545, 285587.870327753655147 ], [ 827722.55689598293975, 285582.70174948987551 ], [ 827893.511789357988164, 289165.078872182057239 ], [ 826782.200048296013847, 289162.474097927217372 ], [ 826868.480848477687687, 290953.665542478265706 ], [ 827979.787918172543868, 290956.287152574106585 ] ] ], [ [ [ 830073.231557058636099, 288274.69894242688315 ], [ 830116.16530491807498, 289170.315045751747675 ], [ 831227.507147442433052, 289172.946445871784817 ], [ 831184.575721087516285, 288277.321847030660138 ], [ 830073.231557058636099, 288274.69894242688315 ] ] ], [ [ [ 844521.503275834023952, 288309.487009682692587 ], [ 844393.590346025535837, 285622.320887080335524 ], [ 842170.651819152757525, 285616.924342621234246 ], [ 842213.161029775859788, 286512.625465186778456 ], [ 839990.268832042114809, 286507.246507266478147 ], [ 839947.755042728735134, 285611.562878867262043 ], [ 838836.322225850191899, 285608.895301222859416 ], [ 838921.487429171800613, 287400.248440806113649 ], [ 840032.915656861616299, 287402.933433319907635 ], [ 840075.695516928564757, 288298.623667571227998 ], [ 838964.269594552693889, 288295.929962771304417 ], [ 839136.728674709796906, 291878.689310987479985 ], [ 841359.572311487980187, 291884.155445943819359 ], [ 841273.086007225327194, 290092.734148871910293 ], [ 842384.528081904049031, 290095.46310219867155 ], [ 842471.00973006663844, 291886.901956705842167 ], [ 843582.45759414404165, 291889.657430219929665 ], [ 843410.035657635191455, 288306.757894883921836 ], [ 844521.503275834023952, 288309.487009682692587 ] ] ], [ [ [ 806737.277148178662173, 288221.661269680073019 ], [ 805626.14659639983438, 288219.232934606319759 ], [ 805669.131705333129503, 289114.6690908735618 ], [ 806780.259910517372191, 289117.105316838715225 ], [ 806866.625186715042219, 290908.003116280247923 ], [ 807977.758033111458644, 290910.464056247496046 ], [ 807848.417052655480802, 288224.0984447937808 ], [ 808959.566343816113658, 288226.544460322125815 ], [ 808916.721507597249001, 287331.087776837463025 ], [ 806694.42763670370914, 287326.220443902537227 ], [ 806737.277148178662173, 288221.661269680073019 ] ] ], [ [ [ 832425.116557954112068, 290966.862895748461597 ], [ 831313.76927583059296, 290964.205563724448439 ], [ 831357.099977326812223, 291859.840103677182924 ], [ 832468.44491756928619, 291862.505968515819404 ], [ 832425.116557954112068, 290966.862895748461597 ] ] ], [ [ [ 824289.627518768655136, 306171.096614317502826 ], [ 827623.366336101898924, 306179.335990894061979 ], [ 827577.896370210568421, 305283.680909604590852 ], [ 828689.165034746751189, 305286.437685017648619 ], [ 828734.632539281854406, 306182.101242934062611 ], [ 829845.908764492720366, 306184.875892272044439 ], [ 829891.506909993942827, 307080.551449962309562 ], [ 831002.790725107770413, 307083.344032095745206 ], [ 830957.195045733824372, 306187.659939334669616 ], [ 834291.114565677242354, 306196.068471159029286 ], [ 834245.659349929424934, 305300.362117627635598 ], [ 833134.340241213794798, 305297.558488941169344 ], [ 833089.015650005545467, 304401.864245009666774 ], [ 834200.337206916883588, 304404.659263010544237 ], [ 834110.092140216380358, 302613.264008405152708 ], [ 836332.775599708547816, 302618.847490945656318 ], [ 836287.857526446925476, 301723.137786538514774 ], [ 837399.217045302735642, 301725.934780089766718 ], [ 837265.268410392454825, 299038.800377899664454 ], [ 835042.54517014301382, 299033.267628007510211 ], [ 834953.901779549196362, 297241.896503518510144 ], [ 836065.263058654265478, 297244.641007885686122 ], [ 835933.303106643026695, 294557.583956173679326 ], [ 837044.681753272423521, 294560.311607712123077 ], [ 837000.963584457174875, 293664.624043838062789 ], [ 834778.211817277828231, 293659.19506143394392 ], [ 834734.621998897520825, 292763.528141009795945 ], [ 833623.259092822787352, 292760.835766658419743 ], [ 833579.799997100024484, 291865.180792353989091 ], [ 832468.44491756928619, 291862.505968515819404 ], [ 832511.906361196422949, 292758.152379219012801 ], [ 831400.563770004780963, 292755.477978278882802 ], [ 831487.890627819811925, 294546.763773336831946 ], [ 829265.24517680471763, 294541.407930089044385 ], [ 829309.112985987449065, 295437.038861952605657 ], [ 825975.227155257249251, 295429.047589910042007 ], [ 825931.352220506872982, 294533.441966156940907 ], [ 827042.639888586476445, 294536.088247888255864 ], [ 826998.900449263630435, 293640.477568408998195 ], [ 828110.200458034174517, 293643.124456864083186 ], [ 828066.596498885308392, 292747.508690348127857 ], [ 823621.446706721559167, 292737.008759303658735 ], [ 823577.966438544914126, 291841.429867534548976 ], [ 822466.701388162677176, 291838.835660050390288 ], [ 822597.548712309566326, 294525.557353560521733 ], [ 823708.806666371528991, 294528.176519397879019 ], [ 823752.686357303056866, 295423.765408540843055 ], [ 821530.185046672588214, 295418.519490038917866 ], [ 821398.931156796170399, 292731.812694879306946 ], [ 819176.454808278940618, 292726.652560251823161 ], [ 819220.077686340548098, 293622.201661203172989 ], [ 816997.645008530234918, 293617.061061676009558 ], [ 817041.40581203205511, 294512.597083728003781 ], [ 815930.206368003156967, 294510.032138842681888 ], [ 815886.443184902425855, 293614.504274633654859 ], [ 814775.250992800109088, 293611.956495547725353 ], [ 814819.016556664020754, 294507.476229394203983 ], [ 813707.836344024864957, 294504.929354989842977 ], [ 813751.737495352048427, 295400.444298981397878 ], [ 814862.915318842511624, 295402.999279583629686 ], [ 814951.112437036121264, 297194.055370318877976 ], [ 813839.939413519925438, 297191.484167336137034 ], [ 813928.674150524078868, 298982.537411688710563 ], [ 815039.842345174401999, 298985.124850432621315 ], [ 815084.407094779307954, 299880.664637353969738 ], [ 816195.582469915389083, 299883.269398945616558 ], [ 816151.020144393900409, 298987.721461620181799 ], [ 817262.207582169910893, 298990.327245650580153 ], [ 817306.767484793439507, 299885.883360861742403 ], [ 820640.380707760690711, 299893.780452583276201 ], [ 820729.885471302783117, 301684.952276258729398 ], [ 819618.676193583523855, 301682.294180136406794 ], [ 819663.630756511585787, 302577.876940337941051 ], [ 821886.054209287278354, 302583.218957979173865 ], [ 821931.137044028146192, 303478.821716510632541 ], [ 820819.922874981537461, 303476.137764097540639 ], [ 820865.141316171269864, 304371.735658081190195 ], [ 824198.805941738653928, 304379.84044953295961 ], [ 824289.627518768655136, 306171.096614317502826 ] ], [ [ 835176.508261712267995, 301720.350055773335043 ], [ 835131.720830798847601, 300824.652467012929264 ], [ 836243.072512721875682, 300827.431545741041191 ], [ 836287.857526446925476, 301723.137786538514774 ], [ 835176.508261712267995, 301720.350055773335043 ] ], [ [ 821618.353414221899584, 297209.674069298780523 ], [ 820507.122267575818114, 297207.048155437456444 ], [ 820418.949114103103057, 295415.910128354036715 ], [ 821530.185046672588214, 295418.519490038917866 ], [ 821618.353414221899584, 297209.674069298780523 ] ], [ [ 818152.614922741660848, 294515.171064444759395 ], [ 818196.506524467258714, 295410.71859811025206 ], [ 817085.299799408297986, 295408.136428753146902 ], [ 817041.40581203205511, 294512.597083728003781 ], [ 818152.614922741660848, 294515.171064444759395 ] ], [ [ 816062.295062762452289, 297196.635690784954932 ], [ 816106.59100858354941, 298092.176895683689509 ], [ 814995.410792500479147, 298089.588431534531992 ], [ 814951.112437036121264, 297194.055370318877976 ], [ 816062.295062762452289, 297196.635690784954932 ] ], [ [ 819484.61150934942998, 298995.566333844035398 ], [ 818373.404692491982132, 298992.94220292463433 ], [ 818328.980386868817732, 298097.381260465306696 ], [ 819440.189617049647495, 298099.99716189794708 ], [ 819484.61150934942998, 298995.566333844035398 ] ], [ [ 817217.780862043146044, 298094.774505194160156 ], [ 817173.487324689514935, 297199.225129130994901 ], [ 818284.6892568054609, 297201.823685755254701 ], [ 818328.980386868817732, 298097.381260465306696 ], [ 817217.780862043146044, 298094.774505194160156 ] ] ], [ [ [ 818597.523844289360568, 303470.797794527316 ], [ 819708.718486398691311, 303473.463123573572375 ], [ 819663.630756511585787, 302577.876940337941051 ], [ 817441.246284848777577, 302572.572058665042277 ], [ 817486.338914664229378, 303468.141776549280621 ], [ 815263.998056917451322, 303462.857672165497206 ], [ 815309.228786978521384, 304358.414454394311178 ], [ 818642.747197426855564, 304366.379161355202086 ], [ 818597.523844289360568, 303470.797794527316 ] ] ], [ [ [ 813132.300159005564637, 305248.695290245814249 ], [ 812021.168216816731729, 305246.06964819948189 ], [ 812066.672768172691576, 306141.608943164290395 ], [ 814288.941242256434634, 306146.885802344884723 ], [ 814243.4416461691726, 305251.330296290863771 ], [ 815354.592712283600122, 305253.97466673940653 ], [ 815309.228786978521384, 304358.414454394311178 ], [ 813086.931295296293683, 304353.151337077142671 ], [ 813132.300159005564637, 305248.695290245814249 ] ] ], [ [ [ 814334.574040242587216, 307042.444755785283633 ], [ 813223.437514363089576, 307039.793507725931704 ], [ 813361.142612953321077, 309726.466766927449498 ], [ 814472.271642728592269, 309729.142403955338523 ], [ 814334.574040242587216, 307042.444755785283633 ] ] ], [ [ [ 825584.094724316848442, 309756.421442202758044 ], [ 824472.868314990657382, 309753.650768355641048 ], [ 824519.011354503105395, 310649.298081229790114 ], [ 825630.235262920381501, 310652.077166561386548 ], [ 825584.094724316848442, 309756.421442202758044 ] ] ], [ [ [ 823407.797338198288344, 310646.528528965543956 ], [ 823454.076022644294426, 311542.170984997006599 ], [ 824565.287529626511969, 311544.948924751312006 ], [ 824519.011354503105395, 310649.298081229790114 ], [ 823407.797338198288344, 310646.528528965543956 ] ] ], [ [ [ 819009.328248340636492, 311531.154823059390765 ], [ 819102.305229970952496, 313322.383766097540502 ], [ 820213.472453405964188, 313325.140033464878798 ], [ 820260.158164628315717, 314220.768104430520907 ], [ 823593.710929910768755, 314229.119620442157611 ], [ 823454.076022644294426, 311542.170984997006599 ], [ 819009.328248340636492, 311531.154823059390765 ] ] ], [ [ [ 824751.723580466350541, 315127.587814438797068 ], [ 824798.665429316461086, 316023.256468065548688 ], [ 825909.874181337887421, 316026.0860961243161 ], [ 825862.934876521816477, 315130.409009870840237 ], [ 824751.723580466350541, 315127.587814438797068 ] ] ], [ [ [ 828226.589297479717061, 317823.173338818480261 ], [ 828132.321519866818562, 316031.774448062409647 ], [ 825909.874181337887421, 316026.0860961243161 ], [ 826004.152170732500963, 317817.451070024690125 ], [ 828226.589297479717061, 317823.173338818480261 ] ] ], [ [ [ 840688.573618439491838, 322334.381077269325033 ], [ 839577.250975050614215, 322331.363703301991336 ], [ 839673.33039458701387, 324122.987102438928559 ], [ 840784.647860669298097, 324126.022117926506326 ], [ 840688.573618439491838, 322334.381077269325033 ] ] ], [ [ [ 845375.099786840029992, 326825.85811647423543 ], [ 844263.748374184942804, 326822.756470791588072 ], [ 844312.37627822603099, 327718.620551279513165 ], [ 845423.725075203226879, 327721.731144281453453 ], [ 845375.099786840029992, 326825.85811647423543 ] ] ], [ [ [ 840929.756955349352211, 326813.511746854463127 ], [ 844263.748374184942804, 326822.756470791588072 ], [ 844215.253478798200376, 325926.896172109642066 ], [ 843103.909948841435835, 325923.813478379219305 ], [ 843007.313986964058131, 324132.122004982782528 ], [ 840784.647860669298097, 324126.022117926506326 ], [ 840832.884528347407468, 325021.848241209750995 ], [ 839721.569661629153416, 325018.804399488086347 ], [ 839769.941966457874514, 325914.625442355172709 ], [ 836436.067181305494159, 325905.527464207960293 ], [ 836484.580372196389362, 326801.325927882222459 ], [ 839818.447308775736019, 326810.450241666112561 ], [ 839867.085688285529613, 327706.278808049391955 ], [ 838755.789020292693749, 327703.218527064134832 ], [ 838804.563065896043554, 328599.042057718499564 ], [ 839915.85710468958132, 328602.111152136523742 ], [ 839964.761557687073946, 329497.947284560941625 ], [ 838853.470155237009749, 329494.869373007153627 ], [ 839000.989682651706971, 332182.374132953060325 ], [ 841223.566948041087016, 332188.593102541286498 ], [ 841273.000880790059455, 333084.453354268276598 ], [ 843495.614415776683018, 333090.730923550552689 ], [ 843396.890210917685181, 331298.978658872947562 ], [ 842285.572911762981676, 331295.852585930842906 ], [ 842187.375477676279843, 329504.133457592513878 ], [ 841076.063320501474664, 329501.035312597814482 ], [ 840929.756955349352211, 326813.511746854463127 ] ] ], [ [ [ 817839.171162536600605, 331229.651780885877088 ], [ 816728.08517650142312, 331226.75955626484938 ], [ 816777.444823516765609, 332122.427499026875012 ], [ 817888.528125743381679, 332125.328001948888414 ], [ 817839.171162536600605, 331229.651780885877088 ] ] ], [ [ [ 819049.108565006870776, 333023.926981301454362 ], [ 817938.018267807317898, 333021.007979072164744 ], [ 817987.641588417929597, 333916.691722699906677 ], [ 819098.729188706027344, 333919.619038208446 ], [ 819049.108565006870776, 333023.926981301454362 ] ] ], [ [ [ 821073.705098252510652, 349150.050934707687702 ], [ 821125.719927159370854, 350045.821056849847082 ], [ 822236.77727613679599, 350048.920144791365601 ], [ 822184.765271049225703, 349153.141585146775469 ], [ 821073.705098252510652, 349150.050934707687702 ] ] ], [ [ [ 818054.720653821481392, 354515.372739499842282 ], [ 818107.543035888811573, 355411.141640444577206 ], [ 820329.574742570752278, 355417.386707137862686 ], [ 820276.758101449580863, 354521.601021039532498 ], [ 818054.720653821481392, 354515.372739499842282 ] ] ] ] } }
]
}
