{
"type": "FeatureCollection",
"name": "urban-2000",
"crs": { "type": "name", "properties": { "name": "urn:ogc:def:crs:EPSG::32647" } },
"features": [
{ "type": "Feature", "properties": { "year": 2000 }, "geometry": { "type": "MultiPolygon", "coordinates": [ [ [ [ 769062.660721852676943, 312313.023585938499309 ], [ 767951.903154917643405, 312310.716142503486481 ], [ 767998.57589452364482, 313205.980984740483109 ], [ 769109.330875305458903, 313208.295449589961208 ], [ 769062.660721852676943, 312313.023585938499309 ] ] ], [ [ [ 771471.6613220727304, 315898.831530559924431 ], [ 770360.897706055548042, 315896.476623574388213 ], [ 770408.099237672751769, 316791.769153140427079 ], [ 771518.860240631969646, 316794.131150552886538 ], [ 771471.6613220727304, 315898.831530559924431 ] ] ], [ [ [ 760988.7354059581412, 327513.97511179902358 ], [ 759878.087336076772772, 327511.628084147174377 ], [ 759829.256858558394015, 326616.363574631221127 ], [ 758718.613986540469341, 326614.033410600328352 ], [ 758669.914360821712762, 325718.779231847380288 ], [ 757559.276657508104108, 325716.46587255661143 ], [ 757510.707897376152687, 324821.22197992017027 ], [ 756400.07533361914102, 324818.925366504234262 ], [ 756351.637452865019441, 323923.691715371736791 ], [ 755241.009999527595937, 323921.41178898018552 ], [ 755192.703011960838921, 323026.188334773469251 ], [ 756303.3331555982586, 323028.461525984690525 ], [ 756207.125312773743644, 321238.011492999212351 ], [ 755096.489810759318061, 321235.751761269639246 ], [ 755048.583597757271491, 320340.538622275169473 ], [ 753937.953195320209488, 320338.295425610791426 ], [ 754178.833596584037878, 324814.361983933951706 ], [ 755289.450577986193821, 324816.638701292511541 ], [ 755435.573855524417013, 327502.340285425889306 ], [ 756546.190473605762236, 327504.647189037932549 ], [ 756644.268478518351912, 329295.145893714681733 ], [ 757754.887449323316105, 329297.476393300166819 ], [ 757804.124083498725668, 330192.737810455437284 ], [ 758914.748163524782285, 330195.085211441677529 ], [ 758964.115624698461033, 331090.35698259237688 ], [ 760074.744843128602952, 331092.721343901997898 ], [ 760025.380127460579388, 330197.442725893808529 ], [ 762246.667842637281865, 330202.188096645462792 ], [ 762197.442158228950575, 329306.899252047645859 ], [ 761086.791589359985664, 329304.528407578181941 ], [ 760988.7354059581412, 327513.97511179902358 ] ] ], [ [ [ 772945.692562722600996, 342759.353993463737424 ], [ 771835.010538312373683, 342756.784783559502102 ], [ 771886.216633269679733, 343652.184538936417084 ], [ 772996.895823986502364, 343654.760950496420264 ], [ 772945.692562722600996, 342759.353993463737424 ] ] ], [ [ [ 773048.232558340765536, 344550.171640980988741 ], [ 771937.556208665017039, 344547.588023901102133 ], [ 771886.216633269679733, 343652.184538936417084 ], [ 768554.22858891368378, 343644.518477415316738 ], [ 768708.673415715340525, 346330.675770628731698 ], [ 767598.035692461533472, 346328.12017427617684 ], [ 767649.787173559656367, 347223.506314039987046 ], [ 766539.160466250963509, 347220.954247573448811 ], [ 766643.069716028054245, 349011.723628043546341 ], [ 767753.69066103734076, 349014.289866189588793 ], [ 767910.547200393397361, 351700.493526362115517 ], [ 770131.79618987464346, 351705.700900466414168 ], [ 770079.382979051442817, 350810.28160793078132 ], [ 771190.022692654863931, 350812.894275798229501 ], [ 771033.592680217232555, 348126.637649062671699 ], [ 773254.914220030070283, 348131.851938744424842 ], [ 773048.232558340765536, 344550.171640980988741 ] ] ], [ [ [ 771347.654071110067889, 353499.185157842584886 ], [ 770237.023087572539225, 353496.550932354934048 ], [ 770395.864619116182439, 356182.854748131125234 ], [ 771506.486806406523101, 356185.510567015095148 ], [ 771347.654071110067889, 353499.185157842584886 ] ] ], [ [ [ 768388.326151263900101, 359759.311026076262351 ], [ 770609.522192103089765, 359764.647292134934105 ], [ 770395.864619116182439, 356182.854748131125234 ], [ 769285.250661069760099, 356180.209841735428199 ], [ 769338.467767777736299, 357075.644980349461548 ], [ 768227.864954764256254, 357073.003835120180156 ], [ 768388.326151263900101, 359759.311026076262351 ] ] ], [ [ [ 764107.73041752667632, 362435.027761863602791 ], [ 762997.185976625303738, 362432.39914113614941 ], [ 762943.149905614438467, 361536.983279157138895 ], [ 764053.697347666369751, 361539.604861912725028 ], [ 763999.797810326097533, 360644.185860603465699 ], [ 759557.643927752040327, 360633.793944703298621 ], [ 759611.555448982981034, 361529.184974984673318 ], [ 758501.039807056775317, 361526.607686962001026 ], [ 758555.087897356133908, 362421.995671384502202 ], [ 759665.600532255251892, 362424.579887648869772 ], [ 759719.779177220305428, 363319.978692682343535 ], [ 760830.296699878643267, 363322.580969210248441 ], [ 760776.121067856904119, 362427.175204429659061 ], [ 761886.649538025259972, 362429.781622125476133 ], [ 761940.822158576920629, 363325.194374085287564 ], [ 764161.897019555559382, 363330.454570482834242 ], [ 764107.73041752667632, 362435.027761863602791 ] ] ], [ [ [ 772938.36897858325392, 361560.976246778736822 ], [ 771827.756310484372079, 361558.266055132145993 ], [ 771881.768413321347907, 362453.73898913298035 ], [ 772992.378091983380727, 362456.456438263820019 ], [ 772938.36897858325392, 361560.976246778736822 ] ] ], [ [ [ 754276.097677545971237, 365097.87471257179277 ], [ 753165.633125847904012, 365095.325595184927806 ], [ 753220.23069555987604, 365990.69488111307146 ], [ 754330.692203239887021, 365993.250805957242846 ], [ 754276.097677545971237, 365097.87471257179277 ] ] ], [ [ [ 773155.206270554568619, 365142.920700814574957 ], [ 769823.429070922895335, 365134.736524115607608 ], [ 769877.981136296410114, 366030.21080215391703 ], [ 773209.749275032430887, 366038.416718074993696 ], [ 773155.206270554568619, 365142.920700814574957 ] ] ], [ [ [ 765490.436110383365303, 366914.876203495776281 ], [ 767711.535112681332976, 366920.260145463515073 ], [ 767821.318881238345057, 368711.199836377229076 ], [ 766710.7714136778377, 368708.487951424496714 ], [ 766821.09533126745373, 370499.429297347494867 ], [ 767931.636680145515129, 370502.155492793419398 ], [ 767876.411027077469043, 369606.675663857779 ], [ 768986.963588602142408, 369609.40602483402472 ], [ 768876.918905487982556, 367818.444004177639727 ], [ 769987.485748497536406, 367821.171276476350613 ], [ 769877.981136296410114, 366030.21080215391703 ], [ 768767.40822471329011, 366027.497925260744523 ], [ 768712.853136089630425, 365132.030838745471556 ], [ 767602.285377319902182, 365129.336339446541388 ], [ 767656.843490674393252, 366024.796261878858786 ], [ 765435.738419750006869, 366019.426573992241174 ], [ 765490.436110383365303, 366914.876203495776281 ] ] ], [ [ [ 752164.511118639609776, 366883.516573571250774 ], [ 753274.961869926191866, 366886.068074698792771 ], [ 753220.23069555987604, 365990.69488111307146 ], [ 750999.330756774055772, 365985.616654621786438 ], [ 751054.068038468714803, 366880.976307340315543 ], [ 749943.632595566567034, 366878.447275615937542 ], [ 749998.506559701869264, 367773.804104262613691 ], [ 748888.081785036367364, 367771.279600657813717 ], [ 749164.471426482778043, 372248.089077121985611 ], [ 750274.880765751702711, 372250.647172926168423 ], [ 750219.338674368802458, 371355.270669404126238 ], [ 751329.758726501953788, 371357.833409673767164 ], [ 751163.94345885515213, 368671.707350748998579 ], [ 752274.380407962715253, 368674.261142803996336 ], [ 752164.511118639609776, 366883.516573571250774 ] ] ], [ [ [ 770097.524333618814126, 369612.147709084500093 ], [ 768986.963588602142408, 369609.40602483402472 ], [ 769042.186180145363323, 370504.893038534733932 ], [ 770152.743865130003542, 370507.641934991290327 ], [ 770097.524333618814126, 369612.147709084500093 ] ] ], [ [ [ 771263.309768972219899, 370510.402182585326955 ], [ 770152.743865130003542, 370507.641934991290327 ], [ 770208.096888804109767, 371403.140180769260041 ], [ 771318.659726759186015, 371405.907672178873327 ], [ 771263.309768972219899, 370510.402182585326955 ] ] ], [ [ [ 765988.723819488892332, 374974.102409825893119 ], [ 767099.241618037456647, 374976.85296752298018 ], [ 767043.345334375975654, 374081.360158272087574 ], [ 768153.874357551336288, 374084.115024784463458 ], [ 768265.794230287778191, 375875.119061799661722 ], [ 769376.325206621550024, 375877.899803986714687 ], [ 769320.301623389474116, 374982.38854456419358 ], [ 771541.394398816861212, 374987.970073303033132 ], [ 771485.510505384067073, 374092.448386365838815 ], [ 769264.411537868436426, 374086.881351354240905 ], [ 769208.654950424679555, 373191.378214249154553 ], [ 770319.203411193331704, 373194.148772366228513 ], [ 770208.096888804109767, 371403.140180769260041 ], [ 767986.995840087300166, 371397.639333266764879 ], [ 768098.114679149352014, 373188.619089172047097 ], [ 764766.542663674801588, 373180.410307954938617 ], [ 764822.311624013353139, 374075.884803729481064 ], [ 765932.824434484355152, 374078.616751394059975 ], [ 765988.723819488892332, 374974.102409825893119 ] ] ], [ [ [ 743780.021921642590314, 374921.502904297842178 ], [ 741559.319306972320192, 374916.495534628687892 ], [ 741615.420989223872311, 375811.834775989351328 ], [ 743836.117320774588734, 375816.855276324437 ], [ 743780.021921642590314, 374921.502904297842178 ] ] ], [ [ [ 740561.322378065437078, 376704.678467473713681 ], [ 741671.656353797880001, 376707.177988038747571 ], [ 741615.420989223872311, 375811.834775989351328 ], [ 740505.083862179890275, 375809.341783855983522 ], [ 740561.322378065437078, 376704.678467473713681 ] ] ], [ [ [ 745002.702512828633189, 376714.745747141365428 ], [ 743892.346387348021381, 376712.211627486511134 ], [ 743948.709120993036777, 377607.571967664582189 ], [ 745059.062092349631712, 377610.112702236161567 ], [ 745002.702512828633189, 376714.745747141365428 ] ] ], [ [ [ 743948.709120993036777, 377607.571967664582189 ], [ 740617.694583346717991, 377600.01912740728585 ], [ 740561.322378065437078, 376704.678467473713681 ], [ 739450.995717920362949, 376702.190479169308674 ], [ 739620.522903710370883, 379388.204898844705895 ], [ 744061.835588006535545, 379398.304654605861288 ], [ 743948.709120993036777, 377607.571967664582189 ] ] ], [ [ [ 734527.129355212906376, 386538.465400585148018 ], [ 732306.640049972571433, 386533.499659215623979 ], [ 732422.511286433436908, 388324.170515355770476 ], [ 731312.283761443453841, 388321.692720270366408 ], [ 731487.103528151870705, 391007.710513135010842 ], [ 732597.321221104240976, 391010.207347036805004 ], [ 732480.647521047736518, 389219.512043109338265 ], [ 733590.878843215061352, 389222.008093065815046 ], [ 733532.745876876171678, 388326.66019600717118 ], [ 734642.987566579598933, 388329.161762606585398 ], [ 734527.129355212906376, 386538.465400585148018 ] ] ], [ [ [ 728748.018682033289224, 399953.762501383083872 ], [ 727637.862256266991608, 399951.250881356187165 ], [ 727697.753980371169746, 400846.614485823258292 ], [ 728807.907032556948252, 400849.132395749329589 ], [ 728748.018682033289224, 399953.762501383083872 ] ] ], [ [ [ 786954.784953281283379, 292655.86630390805658 ], [ 785843.82885004626587, 292653.560011259804014 ], [ 785887.52333652600646, 293548.874777266988531 ], [ 783665.642046684166417, 293544.274359245668165 ], [ 783797.540352253708988, 296230.193747794313822 ], [ 784908.469394299434498, 296232.51155217125779 ], [ 784864.372318947454914, 295337.194491010857746 ], [ 785975.312471881043166, 295339.513979772222228 ], [ 785931.351210563909262, 294444.192763415630907 ], [ 787042.302498653531075, 294446.513885342341382 ], [ 786954.784953281283379, 292655.86630390805658 ] ] ], [ [ [ 774385.287917727837339, 307848.218126595253125 ], [ 773274.476238149334677, 307845.898577855492476 ], [ 773320.468709387816489, 308741.181952001759782 ], [ 774431.277845886070281, 308743.50864188169362 ], [ 774385.287917727837339, 307848.218126595253125 ] ] ], [ [ [ 795538.278811036376283, 308789.513658170762938 ], [ 794427.305002752691507, 308787.007156271254644 ], [ 794473.382699239766225, 309682.43432106502587 ], [ 793362.4203914583195, 309679.929647654411383 ], [ 793408.633954601711594, 310575.35259635897819 ], [ 794519.593727029743604, 310577.86491193366237 ], [ 794565.938085832982324, 311473.2989390566363 ], [ 795676.904291775892489, 311475.828449836408254 ], [ 795630.562474369071424, 310580.386749596160371 ], [ 796741.540230571292341, 310582.918109733844176 ], [ 796695.334269770421088, 309687.472152157919481 ], [ 795584.353980692801997, 309684.948489104106557 ], [ 795538.278811036376283, 308789.513658170762938 ] ] ], [ [ [ 778920.711548423394561, 309648.232731388125103 ], [ 780031.560287549276836, 309650.614009118638933 ], [ 779985.449629540089518, 308755.284005775116384 ], [ 781096.309444029582664, 308757.667463984980714 ], [ 781050.334748242748901, 307862.33352560736239 ], [ 777717.773253739695065, 307855.233372532995418 ], [ 777671.924388921586797, 306959.924622978141997 ], [ 774339.431453162804246, 306952.93095471453853 ], [ 774385.287917727837339, 307848.218126595253125 ], [ 775496.107957564177923, 307850.547108382626902 ], [ 775542.095343886874616, 308745.844792247982696 ], [ 774431.277845886070281, 308743.50864188169362 ], [ 774477.401237341109663, 309638.802510566601995 ], [ 775588.216186159523204, 309641.145832982670981 ], [ 775680.858237366774119, 311431.758025083632674 ], [ 776791.676464966731146, 311434.125245217466727 ], [ 776884.847189129213803, 313224.765408327511977 ], [ 781328.184206088772044, 313234.387970414187293 ], [ 781374.959413040429354, 314129.742305031628348 ], [ 782485.812432511011139, 314132.179298566828948 ], [ 782392.400585727649741, 312341.459348950709682 ], [ 781281.542416918207891, 312339.037060325325001 ], [ 781235.034045828389935, 311443.68956469965633 ], [ 779013.338253443827853, 311438.888316436787136 ], [ 778920.711548423394561, 309648.232731388125103 ] ] ], [ [ [ 791094.437276710290462, 308779.544452055008151 ], [ 789983.499154463177547, 308777.075816536031198 ], [ 790029.586970639182255, 309672.472591351601295 ], [ 787807.742269379319623, 309667.548686608206481 ], [ 787900.328161214478314, 311458.322401370038278 ], [ 791233.093189131934196, 311465.767702453536913 ], [ 791372.94927481317427, 314152.021876189857721 ], [ 793594.821587202139199, 314157.078820509486832 ], [ 793454.980856044101529, 311470.778977824083995 ], [ 792344.032568460912444, 311468.268565751612186 ], [ 792251.467023398610763, 309677.434468487277627 ], [ 791140.522561107994989, 309674.948783180327155 ], [ 791094.437276710290462, 308779.544452055008151 ] ] ], [ [ [ 771284.200480354949832, 312317.667178509000223 ], [ 770173.426485691568814, 312315.340597821748815 ], [ 770220.094054257264361, 313210.619510321470443 ], [ 769109.330875305458903, 313208.295449589961208 ], [ 769156.13452734099701, 314103.570699034724385 ], [ 771377.663934100884944, 314108.242548909853213 ], [ 771330.865465298877098, 313212.953167292056605 ], [ 773552.433119335095398, 313217.649271385511383 ], [ 773459.246945801191032, 311427.052213949500583 ], [ 771237.668979572248645, 311422.384572586335707 ], [ 771284.200480354949832, 312317.667178509000223 ] ] ], [ [ [ 773599.226409976952709, 314112.952894921298139 ], [ 771377.663934100884944, 314108.242548909853213 ], [ 771471.6613220727304, 315898.831530559924431 ], [ 772582.433207917376421, 315901.196116452047136 ], [ 772676.959296764573082, 317691.813028483651578 ], [ 773787.73425799747929, 317694.201587810064666 ], [ 773693.213397506740876, 315903.570381614146754 ], [ 775914.798823612509295, 315908.347951208066661 ], [ 775867.743798054754734, 315013.023132107511628 ], [ 773646.153169468278065, 315008.259928331128322 ], [ 773599.226409976952709, 314112.952894921298139 ] ] ], [ [ [ 779484.477712801541202, 320392.371693119988777 ], [ 781706.121534271398559, 320397.319380150234792 ], [ 781658.41241130256094, 319501.940791799686849 ], [ 780547.583595874835737, 319499.469390450569335 ], [ 780500.005265009123832, 318604.101645268965513 ], [ 779389.182371083181351, 318601.647356225876138 ], [ 779484.477712801541202, 320392.371693119988777 ] ] ], [ [ [ 778469.502940244972706, 322180.636302028491627 ], [ 777358.707588290912099, 322178.172455522697419 ], [ 777310.721045022597536, 321282.816117827373091 ], [ 775089.150349795119837, 321277.932513794337865 ], [ 775041.291962859220803, 320382.594140496454202 ], [ 777262.867946126032621, 320387.463280907308217 ], [ 777215.148291910765693, 319492.113934715103824 ], [ 778325.9515701046912, 319494.5559622857254 ], [ 778278.367988281999715, 318599.202830996830016 ], [ 779389.182371083181351, 318601.647356225876138 ], [ 779294.420751859550364, 316810.936930559109896 ], [ 780405.248873471049592, 316813.376589002204128 ], [ 780358.070813404279761, 315918.019257779989857 ], [ 778136.417871776502579, 315913.164242276863661 ], [ 778183.601138812722638, 316808.506981040816754 ], [ 775961.987302716821432, 316803.676207286887802 ], [ 776056.764620354166254, 318594.343070480565075 ], [ 774945.975567382993177, 318591.927834446774796 ], [ 774993.567035287851468, 319487.25925072201062 ], [ 773882.788989014923573, 319484.846593553898856 ], [ 773835.194889841717668, 318589.522360734234098 ], [ 772724.422553814249113, 318587.126648973266128 ], [ 772819.749491634080186, 320377.764268895960413 ], [ 773930.516555201495066, 320380.174296281009447 ], [ 773978.377588097704574, 321275.505478929437231 ], [ 772867.613171788863838, 321273.088288334663957 ], [ 772963.740953041240573, 323063.746796199993696 ], [ 770742.247661845060065, 323058.913436437258497 ], [ 770936.126357787754387, 326640.215501330676489 ], [ 775379.103300691116601, 326650.036469249404036 ], [ 775281.918484985246323, 324859.321042794152163 ], [ 777503.467881233198568, 324864.262573765241541 ], [ 777455.081006705993786, 323968.895673438382801 ], [ 778565.871037823148072, 323971.374083997681737 ], [ 778469.502940244972706, 322180.636302028491627 ] ] ], [ [ [ 798755.720587942516431, 327599.745486481871922 ], [ 799866.66700475756079, 327602.4438563567237 ], [ 799769.333133412990719, 325811.390013224096037 ], [ 800880.294012292986736, 325814.082737075805198 ], [ 800928.891639763955027, 326709.615685261029284 ], [ 802039.859026223653927, 326712.32627147733001 ], [ 801894.473966913530603, 324025.714697492541745 ], [ 800783.498626266140491, 324023.027714454859961 ], [ 800735.300868323771283, 323127.505619477888104 ], [ 801846.278845844790339, 323130.184742095530964 ], [ 801702.493183004087768, 320443.616439823235851 ], [ 800591.507338428287767, 320440.960876688477583 ], [ 800687.23640083312057, 322231.987121700251009 ], [ 796243.405243547866121, 322221.400865319359582 ], [ 796195.463564584963024, 321325.917092444666196 ], [ 795084.525794578017667, 321323.302943887247238 ], [ 795132.470102305756882, 322218.779000929498579 ], [ 794021.543952409410849, 322216.167015613929834 ], [ 794069.624224590370432, 323111.638949467102066 ], [ 792958.709670721553266, 323109.029178288765252 ], [ 793006.925922905327752, 324004.497019356640521 ], [ 796339.688560681184754, 324012.379138588847127 ], [ 796436.505154725164175, 325803.371783389768098 ], [ 795325.580601338646375, 325800.719019316369668 ], [ 795374.191541593405418, 326696.213022554700729 ], [ 793152.374724672641605, 326690.922075033362489 ], [ 793250.007293772650883, 328481.890157895104494 ], [ 794360.905862905317917, 328484.545992976985872 ], [ 794312.025590769946575, 327589.052453670825344 ], [ 797644.783272076863796, 327597.057161688164342 ], [ 797693.655505068716593, 328492.573925260803662 ], [ 798804.590143836569041, 328495.270046405203175 ], [ 798755.720587942516431, 327599.745486481871922 ] ] ], [ [ [ 780712.8921122077154, 361580.257794862205628 ], [ 780659.037306320038624, 360684.729992129432503 ], [ 781769.720339179737493, 360687.521346295950934 ], [ 781716.001919087022543, 359791.99002408090746 ], [ 782826.69648895948194, 359794.784935755771585 ], [ 782880.411947363987565, 360690.323754365730565 ], [ 786212.53856279340107, 360698.797306304681115 ], [ 786051.818976411479525, 358012.12475709640421 ], [ 787162.554070645244792, 358014.948578582028858 ], [ 787109.250582974287681, 357119.39135987701593 ], [ 789330.752890478004701, 357125.05665379477432 ], [ 789277.588632077910006, 356229.488105436961632 ], [ 790388.355901565635577, 356232.329500380437821 ], [ 790441.517237551510334, 357127.905721199174877 ], [ 791552.290425375918858, 357130.765736150147859 ], [ 791605.582191360415891, 358026.353605855081696 ], [ 792716.361326995538548, 358029.232300195319112 ], [ 792877.027903199195862, 360716.042924194247462 ], [ 793987.807128886459395, 360718.95589524297975 ], [ 794041.626384874805808, 361614.575186117552221 ], [ 795152.411605664994568, 361617.507018407457508 ], [ 795098.595302777597681, 360721.879925021959934 ], [ 796209.392458777641878, 360724.815013980434742 ], [ 796317.152481395634823, 362516.088877308124211 ], [ 798538.762062823050655, 362522.023727430845611 ], [ 798484.821304968791083, 361626.369036964373663 ], [ 800706.473141035065055, 361632.332488616404589 ], [ 800652.671582053066231, 360736.665970649104565 ], [ 805096.097131933900528, 360748.693910557951313 ], [ 804935.527338751126081, 358061.622445184679236 ], [ 806046.415632471558638, 358064.632879874436185 ], [ 805940.04123265389353, 356273.255840162688401 ], [ 809272.779571129125543, 356282.304350084217731 ], [ 809009.218742366647348, 351803.809908656112384 ], [ 807898.282209364348091, 351800.823448893323075 ], [ 807845.966897905105725, 350905.144570148608182 ], [ 808956.906285770703107, 350908.122914364445023 ], [ 808904.727066329214722, 350012.439860443992075 ], [ 810015.678707943763584, 350015.420828457630705 ], [ 809963.635564991622232, 349119.733569366857409 ], [ 811074.59948428417556, 349122.717110615281854 ], [ 810919.277909690514207, 346435.654368353250902 ], [ 809808.305520904250443, 346432.69529141113162 ], [ 809705.418315401533619, 344641.355918131768703 ], [ 808594.449748233426362, 344638.423702172702178 ], [ 808543.203198012895882, 343742.767939635319635 ], [ 807432.241231732186861, 343739.854378414805979 ], [ 807330.14227864111308, 341948.570571400749031 ], [ 808441.109817156102508, 341951.467975773906801 ], [ 808390.262987161520869, 341055.823753683594987 ], [ 809501.24269336159341, 341058.723546011722647 ], [ 809603.064038697164506, 342850.032030721020419 ], [ 810714.047618925571442, 342852.958543149521574 ], [ 810765.15535400249064, 343748.626691633078735 ], [ 811876.145611594314687, 343751.571883310447447 ], [ 812030.25976695434656, 346438.624071676924359 ], [ 814252.252022680593655, 346444.595359295897651 ], [ 814200.753030596068129, 345548.890979009564035 ], [ 815311.766300174524076, 345551.884307332569733 ], [ 815209.173510077409446, 343760.47072649205802 ], [ 812987.145367506192997, 343754.527619376371149 ], [ 812936.043202380882576, 342858.843117821263149 ], [ 811825.04066217248328, 342855.895572032546625 ], [ 811774.068931136513129, 341960.223119149624836 ], [ 810663.073109461693093, 341957.294249200727791 ], [ 810561.523768645711243, 340165.97718330216594 ], [ 811672.52512549306266, 340168.889746923290659 ], [ 811621.95305152470246, 339273.228806763887405 ], [ 812732.966656679986045, 339276.143629947851878 ], [ 812532.021509897662327, 335693.505271448404528 ], [ 811420.99695539532695, 335690.623109749285504 ], [ 811371.090982871828601, 334794.981149413739331 ], [ 813593.15504926466383, 334800.739431028661784 ], [ 813543.38772074598819, 333905.084903736365959 ], [ 812432.348217405495234, 333902.208807533432264 ], [ 812382.711392478668131, 333006.566218003048562 ], [ 814604.80535631312523, 333012.312274195603095 ], [ 814555.307137254159898, 332116.657060735858977 ], [ 813444.252685298561119, 332113.787124480004422 ], [ 813394.884978995425627, 331218.143851706350688 ], [ 814505.9421186898835, 331221.005592117260676 ], [ 814407.61168428696692, 329429.713847762148362 ], [ 816629.765441900817677, 329435.434885979979299 ], [ 816531.978455251315609, 327644.1250998347532 ], [ 817643.075104418909177, 327646.984248448454309 ], [ 817545.826156470691785, 325855.672747237083968 ], [ 818656.937769526382908, 325858.525377389916684 ], [ 818608.515698943403549, 324962.866876641986892 ], [ 819719.639652318670414, 324965.721197220264003 ], [ 819623.200273634050973, 323174.398610281408764 ], [ 820734.339206608943641, 323177.246242846245877 ], [ 820590.686697493889369, 320490.264818262425251 ], [ 819479.539962501032278, 320487.442146582703572 ], [ 819384.432263161754236, 318696.15599352971185 ], [ 818273.290096190525219, 318693.359722715220414 ], [ 818320.779941846150905, 319588.992708609963302 ], [ 817209.650055840611458, 319586.197961211844813 ], [ 817400.951592771802098, 323168.733092049602419 ], [ 816289.841776941204444, 323165.915205511730164 ], [ 816386.296883038245142, 324957.188145999563858 ], [ 815275.201952572679147, 324954.363735062652268 ], [ 815226.905177713604644, 324058.73365681420546 ], [ 813004.738843271974474, 324053.131101609498728 ], [ 813101.476120465435088, 325844.362195930094458 ], [ 814212.549234964419156, 325847.174839231884107 ], [ 814261.115044094389305, 326742.804057345550973 ], [ 810927.932222934090532, 326734.371675474627409 ], [ 810830.917954762931913, 324943.165777098794933 ], [ 811941.974663535598665, 324945.950314584246371 ], [ 811893.669998768018559, 324050.344735219900031 ], [ 810782.610657456796616, 324047.568309067049995 ], [ 810734.436585077783093, 323151.974481324723456 ], [ 806290.283058510161936, 323141.000326535315253 ], [ 806338.467644952936098, 324036.561998314165976 ], [ 805227.455310222110711, 324033.835266976209823 ], [ 805275.775789520004764, 324929.392590504256077 ], [ 804164.775394501164556, 324926.667850388621446 ], [ 804261.821437527891248, 326717.777500907715876 ], [ 803150.8356141615659, 326715.046876553504262 ], [ 803248.420060902135447, 328506.155260622268543 ], [ 802137.448809449910186, 328503.418846787360962 ], [ 802235.571718086488545, 330294.52607223787345 ], [ 800013.667532385326922, 330289.051983271492645 ], [ 800062.934299183310941, 331184.595363251690287 ], [ 798951.998629126464948, 331181.865675889072008 ], [ 798902.729164739372209, 330286.330130845948588 ], [ 797791.799901974620298, 330283.618405900720973 ], [ 797742.661048472626135, 329388.09433658112539 ], [ 794409.91946728550829, 329380.043168942502234 ], [ 794459.06640359503217, 330275.543991788639687 ], [ 793348.17322098580189, 330272.872772614122368 ], [ 793299.023587773088366, 329377.379643667198252 ], [ 791077.258596458937973, 329372.082886565534864 ], [ 790979.348596201278269, 327581.138136606954504 ], [ 792090.23201909114141, 327583.766199533711188 ], [ 791944.375188743695617, 324897.353291857405566 ], [ 789722.601180186960846, 324892.152871180034708 ], [ 789674.243619555374607, 323996.704298860393465 ], [ 788563.367212163517252, 323994.126589881605469 ], [ 788806.50200358685106, 328471.367518427665345 ], [ 787695.647757969098166, 328468.762031755177304 ], [ 787549.358729738043621, 325782.429337984183803 ], [ 786438.505198310827836, 325779.856474002881441 ], [ 786487.137506800936535, 326675.289593306544703 ], [ 785376.295377332950011, 326672.719228100788314 ], [ 785425.063753974274732, 327568.148447288258467 ], [ 786535.903199221938848, 327570.726303109549917 ], [ 786633.834734614938498, 329361.610534798295703 ], [ 783301.358625185443088, 329353.862275448336732 ], [ 783203.410910782404244, 327563.022855932067614 ], [ 778760.208463770104572, 327552.892143374949228 ], [ 778809.126408184878528, 328448.280570178700145 ], [ 777698.349807522026822, 328445.765685558319092 ], [ 777845.912393039790913, 331131.930587219481822 ], [ 776735.152400256250985, 331129.403921198623721 ], [ 776587.581664476543665, 328443.260865880467463 ], [ 775476.821945132105611, 328440.766110760683659 ], [ 775525.881452344940044, 329336.136287274595816 ], [ 773304.39257458015345, 329331.162549574510194 ], [ 773353.590978186577559, 330226.521882983273827 ], [ 775575.07441579317674, 330231.510047692456283 ], [ 775624.400835164356977, 331126.887402066087816 ], [ 772292.196366920135915, 331119.398722141515464 ], [ 772242.861763273482211, 330224.042978259734809 ], [ 771132.140839075902477, 330221.574191448802594 ], [ 771033.866626525530592, 328430.887728220957797 ], [ 769923.148517011897638, 328428.443290174589492 ], [ 769972.221597853349522, 329323.777623477741145 ], [ 767750.815444390289485, 329318.904788638290484 ], [ 767652.791913231834769, 327528.267960478784516 ], [ 766542.095648710615933, 327525.860735924972687 ], [ 766493.281438871752471, 326630.554657964035869 ], [ 765382.590583578916267, 326628.164463793276809 ], [ 765333.907189192716032, 325732.868903197522741 ], [ 764223.221713953884318, 325730.495680506050121 ], [ 764126.250115000177175, 323939.929001778305974 ], [ 763015.567302174167708, 323937.579622482357081 ], [ 763210.055422692559659, 327518.699263185495511 ], [ 764320.727437342051417, 327521.07638764573494 ], [ 764369.680594908073545, 328416.372026723693125 ], [ 765480.357942282455042, 328418.766157081467099 ], [ 765628.010400393628515, 331104.695276594778989 ], [ 764517.341247272561304, 331102.280205347226001 ], [ 764566.828523547621444, 331997.590051854785997 ], [ 762345.51984397135675, 331992.776443999959156 ], [ 762395.146160254487768, 332888.075966625881847 ], [ 761284.506577429594472, 332885.677507840446196 ], [ 761534.655200772453099, 337362.19440591451712 ], [ 763755.914565403596498, 337367.070861793472432 ], [ 763806.33933615963906, 338262.398968080000486 ], [ 766027.625225150026381, 338267.330762140918523 ], [ 766179.683860623743385, 340953.37902487476822 ], [ 762847.792416822048835, 340945.933928444457706 ], [ 762949.849426312721334, 342736.609132070501801 ], [ 761839.240664354641922, 342734.134423294221051 ], [ 762096.734431807766668, 347210.852346912841313 ], [ 760986.147952478728257, 347208.353461110498756 ], [ 761038.050228048232384, 348103.70126329199411 ], [ 765480.432618286460638, 348113.788571650336962 ], [ 765428.541872307774611, 347218.412818016891833 ], [ 766539.160466250963509, 347220.954247573448811 ], [ 766487.406115053105168, 346325.57518778857775 ], [ 764266.171262228628621, 346320.51704284735024 ], [ 764214.5446976008825, 345425.155793212470599 ], [ 763103.936487475410104, 345422.649627764243633 ], [ 763001.078240777715109, 343631.952261964732315 ], [ 765222.314124504569918, 343636.947167409642134 ], [ 765273.670775367761962, 344532.307995468319859 ], [ 767494.933257221244276, 344537.359117266198155 ], [ 767392.364860154222697, 342746.612956839322578 ], [ 768503.013984559453093, 342749.140162367373705 ], [ 768451.932883050525561, 341853.76555529498728 ], [ 769562.593012109748088, 341856.296145846834406 ], [ 769511.648236906155944, 340960.918125091702677 ], [ 776175.799447498167865, 340976.278378689545207 ], [ 776226.727312881266698, 341871.699645521875937 ], [ 777337.445600462844595, 341874.303558541112579 ], [ 777388.50409674574621, 342769.735857813269831 ], [ 779609.960400193696842, 342774.989810412924271 ], [ 779712.466405614977702, 344565.895053608051967 ], [ 780823.201654762262478, 344568.552577826427296 ], [ 780874.651962083065882, 345464.018246019899379 ], [ 779763.919551595812663, 345461.353320291091222 ], [ 779815.506125981570221, 346356.815363865462132 ], [ 777594.072519151261076, 346351.502544020186178 ], [ 777542.480248620500788, 345456.055228893121239 ], [ 776431.773288329713978, 345453.422062410507351 ], [ 776586.959000278962776, 348139.753374736930709 ], [ 778808.364229570608586, 348145.074337763246149 ], [ 778860.353956540115178, 349040.540383134502918 ], [ 779971.066416257061064, 349043.224257244844921 ], [ 780023.186700944323093, 349938.701509705744684 ], [ 777801.776025275001302, 349933.329697958484758 ], [ 777854.035506136715412, 350828.796010379912332 ], [ 778964.733713352121413, 350831.483924504427705 ], [ 779017.123742520809174, 351726.96144076588098 ], [ 780127.827550202840939, 351729.667507466219831 ], [ 780233.002103733830154, 353520.648896643717308 ], [ 779122.304100706009194, 353517.928015118988696 ], [ 779175.094429044052958, 354413.417093489784747 ], [ 778064.407836810918525, 354410.699659491656348 ], [ 778117.334519594791345, 355306.18522227316862 ], [ 777006.659314443590119, 355303.471286295331083 ], [ 777059.722367423586547, 356198.953363089298364 ], [ 780391.764623622875661, 356207.150016948231496 ], [ 780551.727962863515131, 358893.686224871256854 ], [ 779441.047549594193697, 358890.920803113258444 ], [ 779602.220592690631747, 361577.470048621878959 ], [ 780712.8921122077154, 361580.257794862205628 ] ], [ [ 815372.195089163258672, 326745.634897812095005 ], [ 815420.891450286144391, 327641.276003122038674 ], [ 814309.814055559108965, 327638.436957872589119 ], [ 814261.115044094389305, 326742.804057345550973 ], [ 815372.195089163258672, 326745.634897812095005 ] ], [ [ 781133.904808269115165, 349941.40350147447316 ], [ 781186.155637093703263, 350836.892006476817187 ], [ 780075.440412370953709, 350834.18258973187767 ], [ 780023.186700944323093, 349938.701509705744684 ], [ 781133.904808269115165, 349941.40350147447316 ] ], [ [ 783830.374873780412599, 358006.510033482685685 ], [ 783883.820569494040683, 358902.048483281570952 ], [ 782773.114438919583336, 358899.250064528197981 ], [ 782719.66579758876469, 358003.719130492536351 ], [ 783830.374873780412599, 358006.510033482685685 ] ], [ [ 782666.350565310334787, 357108.192123460758012 ], [ 782613.16874242562335, 356212.669033247977495 ], [ 781502.462398963049054, 356209.904066777380649 ], [ 781449.411060706945136, 355314.392359458899591 ], [ 783670.838198435958475, 355319.918229497794528 ], [ 783777.062579805729911, 357110.975514715421014 ], [ 782666.350565310334787, 357108.192123460758012 ] ], [ [ 797028.603395554120652, 336549.634040261153132 ], [ 796978.52863624994643, 335654.091880202991888 ], [ 798089.432517628418282, 335656.840214214229491 ], [ 798139.5045330747962, 336552.390176788438112 ], [ 797028.603395554120652, 336549.634040261153132 ] ], [ [ 797989.688410763861611, 333865.75146829301957 ], [ 799100.606834285194054, 333868.494445520511363 ], [ 799200.345477916067466, 335659.598840085032862 ], [ 798089.432517628418282, 335656.840214214229491 ], [ 797989.688410763861611, 333865.75146829301957 ] ], [ [ 795668.657009496586397, 332069.253417899191845 ], [ 795718.201222301926464, 332964.772975280357059 ], [ 796829.10425065131858, 332967.48771532374667 ], [ 796928.587192119564861, 334758.553446200094186 ], [ 795817.68961779284291, 334755.823174899909645 ], [ 795867.633799847098999, 335651.353837629256304 ], [ 793645.87112624431029, 335645.908625113021117 ], [ 793595.921464326209389, 334750.393422539986204 ], [ 792485.050817325245589, 334747.693940646131523 ], [ 792385.546043769223616, 332956.690005240845494 ], [ 794607.307200993411243, 332962.06844386208104 ], [ 794557.76027076295577, 332066.556619020819198 ], [ 795668.657009496586397, 332069.253417899191845 ] ], [ [ 786683.000576956197619, 330257.058076982444618 ], [ 786732.2998019780498, 331152.50925026263576 ], [ 785621.471166696632281, 331149.901395033521112 ], [ 785572.169228221056983, 330254.457727167347912 ], [ 786683.000576956197619, 330257.058076982444618 ] ] ], [ [ [ 777006.659314443590119, 355303.471286295331083 ], [ 776900.9335489240475, 353512.518752001575194 ], [ 774679.596710222540423, 353507.152819361072034 ], [ 774838.403082561562769, 356193.543502682587132 ], [ 775949.058525657164864, 356196.242975613975432 ], [ 775895.992540417937562, 355300.768237830197904 ], [ 777006.659314443590119, 355303.471286295331083 ] ] ], [ [ [ 779602.220592690631747, 361577.470048621878959 ], [ 778491.557582172681578, 361574.69338287966093 ], [ 778545.551770284073427, 362470.210273467993829 ], [ 777434.900217019952834, 362467.437293082184624 ], [ 777543.294889003969729, 364258.468167726881802 ], [ 780875.257062345161103, 364266.865001596102957 ], [ 780821.00199056789279, 363371.325289415428415 ], [ 781931.676090104039758, 363374.139074795122724 ], [ 781877.557425034232438, 362478.595861465553753 ], [ 779656.21180011681281, 362472.994361375283916 ], [ 779602.220592690631747, 361577.470048621878959 ] ] ], [ [ [ 776324.257106440607458, 362464.67541979206726 ], [ 772992.378091983380727, 362456.456438263820019 ], [ 773100.796738319564611, 364247.428655169671401 ], [ 776432.657767619704828, 364255.691547661379445 ], [ 776324.257106440607458, 362464.67541979206726 ] ] ], [ [ [ 783314.938274277141318, 367854.777632802375592 ], [ 782204.270622948766686, 367851.915106642176397 ], [ 782094.832569707301445, 366060.792660071281716 ], [ 779873.510919207707047, 366055.131371489726007 ], [ 779928.169269581092522, 366950.675614672072697 ], [ 778817.524253052892163, 366947.854354575101752 ], [ 778982.308963874122128, 369634.488871832378209 ], [ 777871.681531572481617, 369631.656586090102792 ], [ 777926.879684685729444, 370527.202065885532647 ], [ 780148.136942938202992, 370532.892855497368146 ], [ 780092.944884525728412, 369637.332484699552879 ], [ 782314.242326391395181, 369643.053693556401413 ], [ 782259.189768571057357, 368747.482377452368382 ], [ 783369.854392380453646, 368750.352436892106198 ], [ 783314.938274277141318, 367854.777632802375592 ] ] ], [ [ [ 793476.40597182919737, 370567.991538642090745 ], [ 792365.668576844385825, 370565.004176992166322 ], [ 792420.960566392634064, 371460.652514645305928 ], [ 793531.694925284828059, 371463.647669198107906 ], [ 793476.40597182919737, 370567.991538642090745 ] ] ], [ [ [ 788923.307525041978806, 368764.872264354547951 ], [ 788759.004623597254977, 366078.045786822156515 ], [ 789869.730524184065871, 366080.960579808917828 ], [ 789815.232625531731173, 365185.352160791051574 ], [ 788704.5037281580735, 365182.445053444709629 ], [ 788650.136202487279661, 364286.848349196719937 ], [ 783096.607857743860222, 364272.518706537841354 ], [ 783150.990352795575745, 365168.077415015897714 ], [ 782040.313662788132206, 365165.237463902099989 ], [ 782094.832569707301445, 366060.792660071281716 ], [ 783205.506254135863855, 366063.64013207872631 ], [ 783260.15556141291745, 366959.20686793664936 ], [ 784370.834852391039021, 366962.073111471254379 ], [ 784535.574128218460828, 369648.82021617423743 ], [ 783424.903915366623551, 369645.931290424545296 ], [ 783590.852910103974864, 372332.692249909625389 ], [ 784701.513979046139866, 372335.603895307285711 ], [ 784924.634658060385846, 375918.039505493768957 ], [ 782703.345742904115468, 375912.167032644851133 ], [ 782872.105497379670851, 378598.991593723301776 ], [ 787314.68082017195411, 378610.874022510193754 ], [ 787427.829432072816417, 380402.172184857947286 ], [ 788538.488803705666214, 380405.187194374331739 ], [ 788425.34641746012494, 378613.873640610778239 ], [ 789536.020789142581634, 378616.884863991348539 ], [ 789367.31677807494998, 375929.922713169478811 ], [ 788256.633127156295814, 375926.934627366252244 ], [ 788312.737518235226162, 376822.576803181553259 ], [ 786091.402668201830238, 376816.619865621207282 ], [ 786035.292101030470803, 375920.993023984599859 ], [ 787145.958246101508848, 375923.95806445699418 ], [ 786922.862137475982308, 372341.461421641521156 ], [ 785812.183710207929835, 372338.526952401502058 ], [ 785756.740083751967177, 371442.92070695804432 ], [ 787978.111771381925792, 371448.785765958367847 ], [ 787922.807622639462352, 370553.168325274367817 ], [ 789033.509635114576668, 370556.110249881981872 ], [ 788978.341896067955531, 369660.48921688698465 ], [ 787867.636848864378408, 369657.554971157631371 ], [ 787812.599450403358787, 368761.945693343412131 ], [ 788923.307525041978806, 368764.872264354547951 ] ], [ [ 786756.940561079187319, 369654.632056094647851 ], [ 786812.114371065748855, 370550.237758793635294 ], [ 785701.429846507264301, 370547.318549989780877 ], [ 785646.252998826792464, 369651.720471249194816 ], [ 786756.940561079187319, 369654.632056094647851 ] ] ], [ [ [ 792476.385901393834502, 372356.304965855611954 ], [ 792420.960566392634064, 371460.652514645305928 ], [ 787978.111771381925792, 371448.785765958367847 ], [ 788089.12019234104082, 373240.032948102802038 ], [ 790310.514720632927492, 373245.974361674161628 ], [ 790366.212865823647007, 374141.619542380445637 ], [ 791476.920301822014153, 374144.615161615714896 ], [ 791365.663485305616632, 372353.313429094327148 ], [ 792476.385901393834502, 372356.304965855611954 ] ] ], [ [ [ 792981.214403349906206, 380417.363839145749807 ], [ 792924.588975238148123, 379521.673901563452091 ], [ 794035.295681720599532, 379524.739381601393688 ], [ 793978.806697461870499, 378629.045819586492144 ], [ 791757.395991214551032, 378622.942128443333786 ], [ 791813.891180197009817, 379518.620056132844184 ], [ 790703.202262713108212, 379515.577844840532634 ], [ 790759.833913141395897, 380411.252194486849476 ], [ 792981.214403349906206, 380417.363839145749807 ] ] ], [ [ [ 793094.86528488388285, 382208.756375054013915 ], [ 793151.890737581416033, 383104.458994064305443 ], [ 792041.205427822307684, 383101.373892096453346 ], [ 792098.367360842996277, 383997.072934048075695 ], [ 793209.0495310802944, 384000.165860906068701 ], [ 793266.341665021143854, 384895.876985928800423 ], [ 794377.029609053162858, 384898.989541413844563 ], [ 794319.740620378172025, 384003.270559709926601 ], [ 796541.149691685801372, 384009.51527506444836 ], [ 796484.000307568581775, 383113.78476873843465 ], [ 797594.721490745898336, 383116.916851477813907 ], [ 797537.70855174830649, 382221.182675465301145 ], [ 796426.984242433914915, 382218.058523182582576 ], [ 796143.903714169515297, 377739.490843871317338 ], [ 795033.172893253155053, 377736.417860611225478 ], [ 795146.011333531001583, 379527.816496717103291 ], [ 794035.295681720599532, 379524.739381601393688 ], [ 794091.918000949779525, 380420.437154352024663 ], [ 795202.630545391933993, 380423.522132104728371 ], [ 795259.3830845952034, 381319.23199285811279 ], [ 791927.281606393167749, 381309.988528414221946 ], [ 791984.176842883462086, 382205.679093663813546 ], [ 793094.86528488388285, 382208.756375054013915 ] ] ], [ [ [ 793266.341665021143854, 384895.876985928800423 ], [ 792155.662641585455276, 384892.776229858107399 ], [ 792213.091269680997357, 385788.483789869060274 ], [ 791102.424288577749394, 385785.387026658456307 ], [ 791217.687918455107138, 387576.799355472030584 ], [ 790107.03612790373154, 387573.698847930063494 ], [ 790164.871152349049225, 388469.403651820437517 ], [ 792386.177234439412132, 388475.632158573833294 ], [ 792328.348566474858671, 387579.911743877106346 ], [ 794549.696570413303562, 387586.172165189578664 ], [ 794492.007584434584714, 386690.440333786595147 ], [ 793381.32595276250504, 386687.312051930464804 ], [ 793266.341665021143854, 384895.876985928800423 ] ] ], [ [ [ 793964.247693168115802, 395644.746395615919027 ], [ 796185.555933150695637, 395651.172878211771604 ], [ 796126.670206122100353, 394755.394000503933057 ], [ 797237.341049111797474, 394758.617472319456283 ], [ 797178.59186569461599, 393862.835026264132466 ], [ 793846.59664805745706, 393853.224715134885628 ], [ 793964.247693168115802, 395644.746395615919027 ] ] ], [ [ [ 816609.79109624796547, 285557.38469008600805 ], [ 815498.568181021371856, 285554.901176118000876 ], [ 815541.132632077205926, 286450.399628403130919 ], [ 816652.353232666384429, 286452.891270832915325 ], [ 816609.79109624796547, 285557.38469008600805 ] ] ], [ [ [ 843410.035657635191455, 288306.757894883921836 ], [ 844521.503275834023952, 288309.487009682692587 ], [ 844393.590346025535837, 285622.320887080335524 ], [ 842170.651819152757525, 285616.924342621234246 ], [ 842213.161029775859788, 286512.625465186778456 ], [ 841101.709728561574593, 286509.931587590661366 ], [ 841187.131812214152887, 288301.326224246004131 ], [ 840075.695516928564757, 288298.623667571227998 ], [ 840248.145304378587753, 291881.417897511390038 ], [ 841359.572311487980187, 291884.155445943819359 ], [ 841230.042395930271596, 289197.028520283754915 ], [ 842341.486787950852886, 289199.748699800635222 ], [ 842255.803261625347659, 287408.329891862114891 ], [ 843367.262706762179732, 287411.041358720511198 ], [ 843410.035657635191455, 288306.757894883921836 ] ] ], [ [ [ 825844.001730069983751, 292742.240756720479112 ], [ 824732.719267214182764, 292739.620266187353991 ], [ 824820.07449110224843, 294530.804723461973481 ], [ 825931.352220506872982, 294533.441966156940907 ], [ 825844.001730069983751, 292742.240756720479112 ] ] ], [ [ [ 819440.189617049647495, 298099.99716189794708 ], [ 821662.637329463032074, 298105.256404857966118 ], [ 821976.353031043079682, 304374.427915302861948 ], [ 824198.805941738653928, 304379.84044953295961 ], [ 824244.150161594385281, 305275.466797940898687 ], [ 825355.388967630453408, 305278.195466487959493 ], [ 825400.863859840552323, 306173.833677008748055 ], [ 826512.110120953992009, 306176.580135726835579 ], [ 826421.298386998008937, 304385.290346255293116 ], [ 828643.830638793646358, 304390.777608821808826 ], [ 828689.165034746751189, 305286.437685017648619 ], [ 830911.732460311846808, 305291.979345672181807 ], [ 830821.206572446040809, 303500.628613641078118 ], [ 834155.148136920062825, 303508.959896778571419 ], [ 834110.092140216380358, 302613.264008405152708 ], [ 835221.428759317146614, 302616.051104744605254 ], [ 835042.54517014301382, 299033.267628007510211 ], [ 833931.19889189559035, 299030.51502304332098 ], [ 833842.550714687560685, 297239.161123991070781 ], [ 836065.263058654265478, 297244.641007885686122 ], [ 835977.156695955898613, 295453.266246689774562 ], [ 834865.790661201812327, 295450.539009372587316 ], [ 834821.934704801766202, 294554.865347384416964 ], [ 835933.303106643026695, 294557.583956173679326 ], [ 835889.582579049048945, 293661.905045013409108 ], [ 833666.851265121717006, 293656.494092682900373 ], [ 833623.259092822787352, 292760.835766658419743 ], [ 832511.906361196422949, 292758.152379219012801 ], [ 832555.500888564507477, 293653.802138344850391 ], [ 831444.160653591854498, 293651.119198005937506 ], [ 831487.890627819811925, 294546.763773336831946 ], [ 830376.562864957144484, 294544.081331376743037 ], [ 830420.428301269421354, 295439.720754267647862 ], [ 824863.9518033626955, 295426.40196616447065 ], [ 824820.07449110224843, 294530.804723461973481 ], [ 823708.806666371528991, 294528.176519397879019 ], [ 823796.699188607279211, 296319.357650963414926 ], [ 821574.202653199783526, 296314.095101157901809 ], [ 821618.353414221899584, 297209.674069298780523 ], [ 819395.900893101934344, 297204.431361057038885 ], [ 819440.189617049647495, 298099.99716189794708 ] ], [ [ 824108.516915109474212, 302588.598114874039311 ], [ 824153.594859482953325, 303484.21755865594605 ], [ 823042.361027531558648, 303481.514981225423981 ], [ 822997.280638570780866, 302585.903893813665491 ], [ 824108.516915109474212, 302588.598114874039311 ] ] ], [ [ [ 801885.623616767348722, 302536.477422933268826 ], [ 800774.577828141627833, 302533.968829592922702 ], [ 800864.97018239623867, 304324.871667399653234 ], [ 801976.011026576627046, 304327.395877772883978 ], [ 801930.750680462922901, 303431.934960962564219 ], [ 803041.803203323390335, 303434.460666206607129 ], [ 802906.82924100139644, 300748.074654914438725 ], [ 801795.769337769597769, 300745.572442295902874 ], [ 801885.623616767348722, 302536.477422933268826 ] ] ], [ [ [ 799799.337103978265077, 305217.805495194625109 ], [ 800910.366293757455423, 305220.328159576922189 ], [ 800864.97018239623867, 304324.871667399653234 ], [ 799753.938508284743875, 304322.356789199402556 ], [ 799799.337103978265077, 305217.805495194625109 ] ] ], [ [ [ 807531.353987369453534, 304340.156925861316267 ], [ 806420.266783331288025, 304337.586048775527161 ], [ 806556.81766524608247, 307024.083803301851731 ], [ 807667.897416380932555, 307026.678543682268355 ], [ 807531.353987369453534, 304340.156925861316267 ] ] ], [ [ [ 809935.861058010486886, 307927.426346970780287 ], [ 808824.765014207456261, 307924.80475603195373 ], [ 808870.676720854942687, 308820.330261822498869 ], [ 809981.770261068595573, 308822.959872503241058 ], [ 809935.861058010486886, 307927.426346970780287 ] ] ], [ [ [ 809148.944931586505845, 314193.556339875038248 ], [ 810260.023298289859667, 314196.234142352885101 ], [ 810213.314719863701612, 313300.679674731334671 ], [ 809102.233806152362376, 313298.009913001791574 ], [ 809148.944931586505845, 314193.556339875038248 ] ] ], [ [ [ 807209.912005475838669, 319561.486406948766671 ], [ 807257.560971912927926, 320457.041662366595119 ], [ 806146.528825477464125, 320454.336962235742249 ], [ 806194.313648469280452, 321349.887818809656892 ], [ 810638.488116301479749, 321360.797705280070659 ], [ 810590.713720509782434, 320465.214736269903369 ], [ 811701.783519675256684, 320467.958753470215015 ], [ 811654.144946403568611, 319572.37129013921367 ], [ 812765.22683877882082, 319575.117016983916983 ], [ 812717.724072592332959, 318679.525028700008988 ], [ 813828.818082384532318, 318682.272414248960558 ], [ 813687.116775174159557, 315995.493507893348578 ], [ 815909.348940996453166, 316000.968536318920087 ], [ 815862.386695111403242, 315105.366354042140301 ], [ 814751.263260116800666, 315102.632177969906479 ], [ 814564.736048614024185, 311520.291596180351917 ], [ 813453.612052358570509, 311517.599682423984632 ], [ 813361.142612953321077, 309726.466766927449498 ], [ 811138.913172604050487, 309721.14399664872326 ], [ 811092.873249192489311, 308825.598955878522247 ], [ 809981.770261068595573, 308822.959872503241058 ], [ 810027.812694079475477, 309718.496862579660956 ], [ 808916.72166469169315, 309715.859228681249078 ], [ 808870.676720854942687, 308820.330261822498869 ], [ 805537.452447967021726, 308812.498261912958696 ], [ 805583.504931648494676, 309708.003323962446302 ], [ 804472.451359111932106, 309705.40368670684984 ], [ 804518.639624416013248, 310600.904292865190655 ], [ 802296.565332947182469, 310595.71776121732546 ], [ 802342.891928038676269, 311491.206076877599116 ], [ 803453.921917775296606, 311493.802445454057306 ], [ 803500.379252708517015, 312389.302100953587797 ], [ 799056.324608325725421, 312378.942628167336807 ], [ 799102.925411917036399, 313274.414443658373784 ], [ 802435.944957371801138, 313282.193131354055367 ], [ 802482.671391025185585, 314177.691890682734083 ], [ 805815.766223735874519, 314185.58075365278637 ], [ 805769.047449801699258, 313290.058284175756853 ], [ 804658.004012728808448, 313287.426958663272671 ], [ 804564.961155315395445, 311496.408366728574038 ], [ 806787.067509656306356, 311501.648868975404184 ], [ 806926.816428275080398, 314188.229645934363361 ], [ 808037.875986236496828, 314190.888174538849853 ], [ 807898.134694387903437, 311504.283450753020588 ], [ 809009.211262781405821, 311506.927586839417927 ], [ 809055.655916452407837, 312402.466998762567528 ], [ 810166.73936993861571, 312405.128723270085175 ], [ 810213.314719863701612, 313300.679674731334671 ], [ 812435.504943489911966, 313306.048028831311967 ], [ 812482.208431625971571, 314201.61866038152948 ], [ 810260.023298289859667, 314196.234142352885101 ], [ 810448.189891107613221, 317778.487381091108546 ], [ 811559.267457744339481, 317781.207129490794614 ], [ 811606.639592324499972, 318676.787418931198772 ], [ 808273.442989002913237, 318668.633240106049925 ], [ 808320.956114347791299, 319564.192924956034403 ], [ 807209.912005475838669, 319561.486406948766671 ] ], [ [ 808962.899845430627465, 310611.391666916548274 ], [ 810073.988356753485277, 310614.037327518628445 ], [ 810120.297248805291019, 311509.581277641118504 ], [ 809009.211262781405821, 311506.927586839417927 ], [ 808962.899845430627465, 310611.391666916548274 ] ] ], [ [ [ 799243.527627620846033, 315960.850816477730405 ], [ 797021.575630510225892, 315955.666520425816998 ], [ 797068.714800256537274, 316851.136795021651778 ], [ 795957.754977977834642, 316848.551456896821037 ], [ 796099.98016739776358, 319534.960223109403159 ], [ 797210.932194544700906, 319537.568747927143704 ], [ 797163.393082572845742, 318642.087898552068509 ], [ 798274.3567694920348, 318644.698460917512421 ], [ 798179.683674116851762, 316853.731848247232847 ], [ 799290.661633507115766, 316856.336616972403135 ], [ 799243.527627620846033, 315960.850816477730405 ] ] ], [ [ [ 820448.232638993300498, 317803.316075815353543 ], [ 819337.078166806371883, 317800.518332540872507 ], [ 819384.432263161754236, 318696.15599352971185 ], [ 820495.584163486724719, 318698.962042680650484 ], [ 820448.232638993300498, 317803.316075815353543 ] ] ], [ [ [ 806242.231726246420294, 322245.442270138708409 ], [ 805131.214135310379788, 322242.73147577024065 ], [ 805179.26809205301106, 323138.281565500539728 ], [ 806290.283058510161936, 323141.000326535315253 ], [ 806242.231726246420294, 322245.442270138708409 ] ] ], [ [ [ 840688.573618439491838, 322334.381077269325033 ], [ 839577.250975050614215, 322331.363703301991336 ], [ 839673.33039458701387, 324122.987102438928559 ], [ 840784.647860669298097, 324126.022117926506326 ], [ 840688.573618439491838, 322334.381077269325033 ] ] ], [ [ [ 838707.148018725449219, 326807.398770420462824 ], [ 842041.07699244201649, 326816.583286456356291 ], [ 841895.975713459774852, 324129.067085285030771 ], [ 840784.647860669298097, 324126.022117926506326 ], [ 840881.25422667292878, 325917.678113973641302 ], [ 838658.640061490936205, 325911.582777166331653 ], [ 838707.148018725449219, 326807.398770420462824 ] ] ], [ [ [ 819768.059092138661072, 325861.388005347864237 ], [ 818656.937769526382908, 325858.525377389916684 ], [ 818705.493013898725621, 326754.187564831401687 ], [ 819816.611698543070816, 326757.058503838314209 ], [ 819768.059092138661072, 325861.388005347864237 ] ] ], [ [ [ 841027.161502561764792, 328605.190335523919202 ], [ 839915.85710468958132, 328602.111152136523742 ], [ 840013.799046975327656, 330393.787215959222522 ], [ 841125.098167594056576, 330396.88409235898871 ], [ 841027.161502561764792, 328605.190335523919202 ] ] ], [ [ [ 817839.171162536600605, 331229.651780885877088 ], [ 821172.48735671909526, 331238.38943027658388 ], [ 821074.188990426249802, 329446.998248438641895 ], [ 818851.957786708837375, 329441.196351691440213 ], [ 818803.003022793447599, 328545.523041542095598 ], [ 817691.899349128711037, 328542.645549658220261 ], [ 817839.171162536600605, 331229.651780885877088 ] ] ], [ [ [ 840112.273133227834478, 332185.478518234565854 ], [ 842334.871161084156483, 332191.717886351805646 ], [ 842236.407683859812096, 330399.991113231691997 ], [ 841125.098167594056576, 330396.88409235898871 ], [ 841174.266043542185798, 331292.736685456184205 ], [ 840062.969572256319225, 331289.630956969805993 ], [ 840112.273133227834478, 332185.478518234565854 ] ] ], [ [ [ 811672.52512549306266, 340168.889746923290659 ], [ 811774.068931136513129, 341960.223119149624836 ], [ 813996.089095255476423, 341966.112327768758405 ], [ 813894.556351859588176, 340174.746177990862634 ], [ 811672.52512549306266, 340168.889746923290659 ] ] ], [ [ [ 814252.252022680593655, 346444.595359295897651 ], [ 814355.649614488938823, 348236.015853931894526 ], [ 815466.654452729271725, 348239.033964638656471 ], [ 815363.26248902711086, 346447.596944508783054 ], [ 814252.252022680593655, 346444.595359295897651 ] ] ] ] } }
]
}
