{
"type": "FeatureCollection",
"name": "urban-1975",
"crs": { "type": "name", "properties": { "name": "urn:ogc:def:crs:EPSG::32647" } },
"features": [
{ "type": "Feature", "properties": { "year": 1975 }, "geometry": { "type": "MultiPolygon", "coordinates": [ [ [ [ 783665.642046684166417, 293544.274359245668165 ], [ 783753.440848673111759, 295334.884054659341928 ], [ 784864.372318947454914, 295337.194491010857746 ], [ 784820.408637906424701, 294441.880666806304362 ], [ 785931.351210563909262, 294444.192763415630907 ], [ 785887.52333652600646, 293548.874777266988531 ], [ 783665.642046684166417, 293544.274359245668165 ] ] ], [ [ [ 774431.277845886070281, 308743.50864188169362 ], [ 774385.287917727837339, 307848.218126595253125 ], [ 773274.476238149334677, 307845.898577855492476 ], [ 773320.468709387816489, 308741.181952001759782 ], [ 774431.277845886070281, 308743.50864188169362 ] ] ], [ [ [ 779013.338253443827853, 311438.888316436787136 ], [ 778874.598346216604114, 308752.910009860468563 ], [ 777763.755560121499002, 308750.545475876308046 ], [ 777809.871307769790292, 309645.860943031264469 ], [ 776699.039531658985652, 309643.498643683735281 ], [ 776561.08499476488214, 306957.583994019019883 ], [ 774339.431453162804246, 306952.93095471453853 ], [ 774385.287917727837339, 307848.218126595253125 ], [ 775496.107957564177923, 307850.547108382626902 ], [ 775680.858237366774119, 311431.758025083632674 ], [ 777902.503125682356767, 311436.502008880139329 ], [ 777949.019195349421352, 312331.827627631893847 ], [ 781281.542416918207891, 312339.037060325325001 ], [ 781235.034045828389935, 311443.68956469965633 ], [ 779013.338253443827853, 311438.888316436787136 ] ] ], [ [ [ 774570.048408954171464, 311429.400348115013912 ], [ 774616.572188513586298, 312324.704336975759361 ], [ 775727.379445704049431, 312327.069196467404254 ], [ 775680.858237366774119, 311431.758025083632674 ], [ 774570.048408954171464, 311429.400348115013912 ] ] ], [ [ [ 779341.734846007544547, 317706.290409519220702 ], [ 779294.420751859550364, 316810.936930559109896 ], [ 778183.601138812722638, 316808.506981040816754 ], [ 778230.917844417039305, 317703.853173931769561 ], [ 779341.734846007544547, 317706.290409519220702 ] ] ], [ [ [ 778373.668589575681835, 320389.91257785045309 ], [ 778230.917844417039305, 317703.853173931769561 ], [ 776009.30923506594263, 317699.007910368731245 ], [ 776056.764620354166254, 318594.343070480565075 ], [ 777167.562082680058666, 318596.768069206387736 ], [ 777262.867946126032621, 320387.463280907308217 ], [ 778373.668589575681835, 320389.91257785045309 ] ] ], [ [ [ 775137.142195786349475, 322173.274380642687902 ], [ 775041.291962859220803, 320382.594140496454202 ], [ 773930.516555201495066, 320380.174296281009447 ], [ 773978.377588097704574, 321275.505478929437231 ], [ 772867.613171788863838, 321273.088288334663957 ], [ 772915.610325693851337, 322168.415794099739287 ], [ 774026.372087397729047, 322170.840151516196784 ], [ 774268.346569028915837, 326647.566214279970154 ], [ 775379.103300691116601, 326650.036469249404036 ], [ 775233.526263691252097, 323963.968635109544266 ], [ 776344.299426636076532, 323966.427190602058545 ], [ 776247.920684778713621, 322175.71848185302224 ], [ 775137.142195786349475, 322173.274380642687902 ] ] ], [ [ [ 788660.221020145341754, 325785.012188077438623 ], [ 788708.847978740697727, 326680.460363623627927 ], [ 792041.479728101985529, 326688.291624832374509 ], [ 791944.375188743695617, 324897.353291857405566 ], [ 789722.601180186960846, 324892.152871180034708 ], [ 789771.092103461618535, 325787.605024679447524 ], [ 788660.221020145341754, 325785.012188077438623 ] ] ], [ [ [ 771132.140839075902477, 330221.574191448802594 ], [ 771082.936989983776584, 329326.229175288521219 ], [ 769972.221597853349522, 329323.777623477741145 ], [ 770021.428171686362475, 330219.11552217125427 ], [ 771132.140839075902477, 330221.574191448802594 ] ] ], [ [ [ 792335.993674703640863, 332061.193563093431294 ], [ 792286.574651200789958, 331165.700791033392306 ], [ 790064.83824124163948, 331160.39372018375434 ], [ 789966.389416794991121, 329369.449653925432358 ], [ 791077.258596458937973, 329372.082886565534864 ], [ 790979.348596201278269, 327581.138136606954504 ], [ 788757.608306656591594, 327575.912137018458452 ], [ 789003.410475172218867, 332053.22532760805916 ], [ 787892.567058162298054, 332050.589607054193038 ], [ 788091.620354244951159, 335632.475664727098774 ], [ 789202.452825833577663, 335635.141678927873727 ], [ 789302.774199475068599, 337426.122011560422834 ], [ 790413.609964731615037, 337428.813538639748003 ], [ 790163.820507533149794, 332951.352396154892631 ], [ 791274.678839992266148, 332954.016097211570013 ], [ 791225.123749514692463, 332058.527305220428389 ], [ 792335.993674703640863, 332061.193563093431294 ] ] ], [ [ [ 775723.45404039695859, 332917.652932901575696 ], [ 775773.180825621355325, 333813.041129480116069 ], [ 776883.924170403159223, 333815.579446136078332 ], [ 776834.200132621917874, 332920.183979976165574 ], [ 775723.45404039695859, 332917.652932901575696 ] ] ], [ [ [ 779205.273580454988405, 335611.517889260081574 ], [ 779255.392424331046641, 336506.938943556859158 ], [ 777033.896966291824356, 336501.787712575402111 ], [ 777084.154791363282129, 337397.197790966834873 ], [ 774862.698631324572489, 337392.073264331091195 ], [ 774762.305332297924906, 335601.285851896274835 ], [ 776983.772587560350075, 335606.381302359397523 ], [ 776933.781655488535762, 334710.978550238942262 ], [ 774712.308874633628875, 334705.897626530262642 ], [ 774662.445878638885915, 333810.513041654485278 ], [ 773551.719295550487004, 333807.995182271115482 ], [ 773501.987011407269165, 332912.621442527452018 ], [ 774612.716344628366642, 332915.132087214384228 ], [ 774513.657663851045072, 331124.381029435433447 ], [ 773402.922852406045422, 331121.884802921675146 ], [ 773452.388196919928305, 332017.251319424132816 ], [ 770120.24179705849383, 332009.802055737236515 ], [ 770021.428171686362475, 330219.11552217125427 ], [ 765578.65939210774377, 330209.382012867485173 ], [ 765628.010400393628515, 331104.695276594778989 ], [ 764517.341247272561304, 331102.280205347226001 ], [ 764566.828523547621444, 331997.590051854785997 ], [ 762345.51984397135675, 331992.776443999959156 ], [ 762395.146160254487768, 332888.075966625881847 ], [ 761284.506577429594472, 332885.677507840446196 ], [ 761534.655200772453099, 337362.19440591451712 ], [ 763755.914565403596498, 337367.070861793472432 ], [ 763705.623328952351585, 336471.746388246014249 ], [ 764816.267831591772847, 336474.193134719098452 ], [ 764716.091524334973656, 334683.541091660852544 ], [ 766937.415866760304198, 334688.437433660612442 ], [ 767087.863924527540803, 337374.463054348889273 ], [ 769309.204100820468739, 337379.442859624396078 ], [ 769359.614889476681128, 338274.806173397868406 ], [ 770470.294468060252257, 338277.318704056553543 ], [ 770520.835954167530872, 339172.692807155079208 ], [ 767188.830191165790893, 339165.165005408984143 ], [ 767290.330503920791671, 340955.881612903438509 ], [ 766179.683860623743385, 340953.37902487476822 ], [ 766230.637109366478398, 341848.735793017258402 ], [ 769562.593012109748088, 341856.296145846834406 ], [ 769511.648236906155944, 340960.918125091702677 ], [ 768400.985284715192392, 340958.394646180444397 ], [ 768350.171189886284992, 340063.027425008884165 ], [ 773903.582407773705199, 340075.71347025729483 ], [ 773852.915845091920346, 339180.314132710918784 ], [ 777185.070779230445623, 339188.028992609353736 ], [ 777235.728941376786679, 340083.450136033527087 ], [ 778346.461289801402017, 340086.049866763351019 ], [ 778499.22800884838216, 342772.35758207651088 ], [ 779609.960400193696842, 342774.989810412924271 ], [ 779507.98811235325411, 340984.09955329837976 ], [ 783951.025635950965807, 340994.674082153243944 ], [ 783900.250836861203425, 340099.20485444762744 ], [ 782789.475773760583252, 340096.553011028561741 ], [ 782688.32080527744256, 338305.640657584939618 ], [ 783799.101442283135839, 338308.277583302697167 ], [ 783748.726847442798316, 337412.819519563345239 ], [ 782637.943434458342381, 337410.190046983130742 ], [ 782537.588921284303069, 335619.299907340668142 ], [ 783648.377864276058972, 335621.914485020737629 ], [ 783698.485654666321352, 336517.36515685042832 ], [ 785920.083969572558999, 336522.640145567944273 ], [ 785670.906494845403358, 332045.34870042669354 ], [ 783449.280732970451936, 332040.14850375871174 ], [ 783548.562491932185367, 333831.024173451005481 ], [ 781326.982205749023706, 333825.835008884139825 ], [ 781277.269144309335388, 332930.41018994624028 ], [ 780166.489127145148814, 332927.838333419174887 ], [ 780116.906749262474477, 332032.424532948527485 ], [ 777895.366803822107613, 332027.326097255863715 ], [ 777845.912393039790913, 331131.930587219481822 ], [ 776735.152400256250985, 331129.403921198623721 ], [ 776834.200132621917874, 332920.183979976165574 ], [ 779055.717642084695399, 332925.276679843955208 ], [ 779105.436189010506496, 333820.686767500184942 ], [ 780216.20493065728806, 333823.255772992502898 ], [ 780316.036813288345002, 335614.101609859499149 ], [ 779205.273580454988405, 335611.517889260081574 ] ], [ [ 784659.365570856723934, 333833.634102923213504 ], [ 784709.203810146194883, 334729.084888874785975 ], [ 783598.403476590290666, 334726.467493933800142 ], [ 783548.562491932185367, 333831.024173451005481 ], [ 784659.365570856723934, 333833.634102923213504 ] ] ], [ [ [ 784623.237374463118613, 352636.118229933956172 ], [ 784570.728391065262258, 351740.599568119156174 ], [ 783459.990271529648453, 351737.850383040378802 ], [ 783565.147428108844906, 353528.876546100713313 ], [ 782454.423733537318185, 353526.1231617142912 ], [ 782507.20532619964797, 354421.634562552848365 ], [ 784728.655530312564224, 354427.167185362428427 ], [ 784781.564702086849138, 355322.69749936205335 ], [ 783670.838198435958475, 355319.918229497794528 ], [ 783723.883687910391018, 356215.444916784646921 ], [ 785945.339520531706512, 356221.029436762852129 ], [ 785892.29987412749324, 355325.487659691367298 ], [ 787003.043748455122113, 355328.288710914202966 ], [ 786844.73385381209664, 352641.664055289002135 ], [ 784623.237374463118613, 352636.118229933956172 ] ] ], [ [ [ 768876.918905487982556, 367818.444004177639727 ], [ 768767.40822471329011, 366027.497925260744523 ], [ 767656.843490674393252, 366024.796261878858786 ], [ 767766.360242986585945, 367815.728000271483324 ], [ 768876.918905487982556, 367818.444004177639727 ] ] ], [ [ [ 787702.92478083667811, 366970.739325576345436 ], [ 787648.28751043160446, 366075.142215107509401 ], [ 788759.004623597254977, 366078.045786822156515 ], [ 788704.5037281580735, 365182.445053444709629 ], [ 785372.36961620755028, 365173.790892496996094 ], [ 785481.522796694654971, 366964.950601961347274 ], [ 784370.834852391039021, 366962.073111471254379 ], [ 784425.614546522498131, 367857.651432933053002 ], [ 785536.299473566701636, 367860.536507475539111 ], [ 785646.252998826792464, 369651.720471249194816 ], [ 786756.940561079187319, 369654.632056094647851 ], [ 786812.114371065748855, 370550.237758793635294 ], [ 787922.807622639462352, 370553.168325274367817 ], [ 787812.599450403358787, 368761.945693343412131 ], [ 786701.900133706629276, 368759.030425538425334 ], [ 786592.219428213313222, 366967.839339848549571 ], [ 787702.92478083667811, 366970.739325576345436 ] ] ], [ [ [ 788033.549294732976705, 372344.407303477521054 ], [ 789144.245215865550563, 372347.364598361949902 ], [ 789199.813056859886274, 373242.997934406099375 ], [ 790310.514720632927492, 373245.974361674161628 ], [ 790366.212865823647007, 374141.619542380445637 ], [ 791476.920301822014153, 374144.615161615714896 ], [ 791365.663485305616632, 372353.313429094327148 ], [ 790254.949934759060852, 372350.333306748885661 ], [ 790199.518508556997404, 371454.696367310651112 ], [ 787978.111771381925792, 371448.785765958367847 ], [ 788033.549294732976705, 372344.407303477521054 ] ] ], [ [ [ 732480.647521047736518, 389219.512043109338265 ], [ 733590.878843215061352, 389222.008093065815046 ], [ 733532.745876876171678, 388326.66019600717118 ], [ 734642.987566579598933, 388329.161762606585398 ], [ 734527.129355212906376, 386538.465400585148018 ], [ 732306.640049972571433, 386533.499659215623979 ], [ 732480.647521047736518, 389219.512043109338265 ] ] ], [ [ [ 842170.651819152757525, 285616.924342621234246 ], [ 842213.161029775859788, 286512.625465186778456 ], [ 843324.622769720037468, 286515.328140469093341 ], [ 843410.035657635191455, 288306.757894883921836 ], [ 844521.503275834023952, 288309.487009682692587 ], [ 844393.590346025535837, 285622.320887080335524 ], [ 842170.651819152757525, 285616.924342621234246 ] ] ], [ [ [ 841101.709728561574593, 286509.931587590661366 ], [ 841230.042395930271596, 289197.028520283754915 ], [ 842341.486787950852886, 289199.748699800635222 ], [ 842213.161029775859788, 286512.625465186778456 ], [ 841101.709728561574593, 286509.931587590661366 ] ] ], [ [ [ 825931.352220506872982, 294533.441966156940907 ], [ 825844.001730069983751, 292742.240756720479112 ], [ 824732.719267214182764, 292739.620266187353991 ], [ 824820.07449110224843, 294530.804723461973481 ], [ 825931.352220506872982, 294533.441966156940907 ] ] ], [ [ [ 834821.934704801766202, 294554.865347384416964 ], [ 834778.211817277828231, 293659.19506143394392 ], [ 833666.851265121717006, 293656.494092682900373 ], [ 833710.576513727544807, 294552.155780926055741 ], [ 834821.934704801766202, 294554.865347384416964 ] ] ], [ [ [ 817173.487324689514935, 297199.225129130994901 ], [ 817041.40581203205511, 294512.597083728003781 ], [ 815930.206368003156967, 294510.032138842681888 ], [ 816062.295062762452289, 297196.635690784954932 ], [ 817173.487324689514935, 297199.225129130994901 ] ] ], [ [ [ 834020.379367805668153, 300821.882623138371855 ], [ 833975.722592650679871, 299926.197105203405954 ], [ 832864.388902188511565, 299923.44508939847583 ], [ 832819.862796214059927, 299027.771597501996439 ], [ 833931.19889189559035, 299030.51502304332098 ], [ 833710.576513727544807, 294552.155780926055741 ], [ 832599.22849940485321, 294549.455256381945219 ], [ 832643.089193448424339, 295445.111743821355049 ], [ 831531.753692418336868, 295442.41171475261217 ], [ 831575.74984711734578, 296338.063032736303285 ], [ 828241.811007401789539, 296329.991872313548811 ], [ 828197.807712563313544, 295434.366037395142484 ], [ 827086.512446988956071, 295431.702280184079427 ], [ 827130.51812419842463, 296327.31967573921429 ], [ 826019.235215999768116, 296324.656573595537338 ], [ 825975.227155257249251, 295429.047589910042007 ], [ 824863.9518033626955, 295426.40196616447065 ], [ 824820.07449110224843, 294530.804723461973481 ], [ 823708.806666371528991, 294528.176519397879019 ], [ 823796.699188607279211, 296319.357650963414926 ], [ 824907.962248803814873, 296322.002565472968854 ], [ 825085.335356901050545, 299904.438737297838088 ], [ 822862.838344941381365, 299899.091189425729681 ], [ 822907.519296997459605, 300794.692008333455306 ], [ 821796.287997744395398, 300792.023720048600808 ], [ 821841.104527099058032, 301687.619629295368213 ], [ 824063.57210889691487, 301692.982107753981836 ], [ 824198.805941738653928, 304379.84044953295961 ], [ 828643.830638793646358, 304390.777608821808826 ], [ 828689.165034746751189, 305286.437685017648619 ], [ 830911.732460311846808, 305291.979345672181807 ], [ 830776.14327056100592, 302604.9584542773664 ], [ 835221.428759317146614, 302616.051104744605254 ], [ 835131.720830798847601, 300824.652467012929264 ], [ 834020.379367805668153, 300821.882623138371855 ] ], [ [ 827397.347667049732991, 301701.095262599294074 ], [ 828508.626105218776502, 301703.818165784934536 ], [ 828553.561173750320449, 302599.467859680415131 ], [ 827442.285168219357729, 302596.736493559845258 ], [ 827397.347667049732991, 301701.095262599294074 ] ], [ [ 826196.598713418468833, 299907.126316396926995 ], [ 827307.87201562942937, 299909.823099488567095 ], [ 827352.543282761471346, 300805.457468061824329 ], [ 826241.272400009911507, 300802.752256315201521 ], [ 826196.598713418468833, 299907.126316396926995 ] ] ], [ [ [ 811185.0863184442278, 310616.692515767528675 ], [ 811231.392686428735033, 311512.244523566041607 ], [ 812342.497609623475, 311514.917325023328885 ], [ 812250.02313423785381, 309723.800631295249332 ], [ 810027.812694079475477, 309718.496862579660956 ], [ 810073.988356753485277, 310614.037327518628445 ], [ 811185.0863184442278, 310616.692515767528675 ] ] ], [ [ [ 821231.682552738115191, 311536.643785461143125 ], [ 821278.099416407989338, 312432.27307956275763 ], [ 820166.919905713060871, 312429.515510404307861 ], [ 820213.472453405964188, 313325.140033464878798 ], [ 822435.836213832255453, 313330.681410133605823 ], [ 822389.288719710661098, 312435.040235493448563 ], [ 823500.48784960329067, 312437.816978621704038 ], [ 823454.076022644294426, 311542.170984997006599 ], [ 821231.682552738115191, 311536.643785461143125 ] ] ], [ [ [ 813546.614321342669427, 313308.746622026897967 ], [ 813593.315266198478639, 314204.325376759748906 ], [ 814704.431658003013581, 314207.041731935110874 ], [ 814611.168051959830336, 312415.871451410057489 ], [ 812388.934669391484931, 312410.480920494650491 ], [ 812435.504943489911966, 313306.048028831311967 ], [ 813546.614321342669427, 313308.746622026897967 ] ] ], [ [ [ 819527.293564893421717, 321383.090659501671325 ], [ 819431.91952849260997, 319591.797261401487049 ], [ 817209.650055840611458, 319586.197961211844813 ], [ 817305.03445930511225, 321377.45826476579532 ], [ 819527.293564893421717, 321383.090659501671325 ] ] ], [ [ [ 816434.724219002760947, 325852.830114450771362 ], [ 816386.296883038245142, 324957.188145999563858 ], [ 815275.201952572679147, 324954.363735062652268 ], [ 815323.631923155859113, 325849.997478594188578 ], [ 814212.549234964419156, 325847.174839231884107 ], [ 814261.115044094389305, 326742.804057345550973 ], [ 815372.195089163258672, 326745.634897812095005 ], [ 815420.891450286144391, 327641.276003122038674 ], [ 814309.814055559108965, 327638.436957872589119 ], [ 814358.646269058808684, 328534.073551211098675 ], [ 816580.805354928597808, 328539.778137602028437 ], [ 816483.284743175958283, 326748.475762257236056 ], [ 817594.384040099801496, 326751.326651117647998 ], [ 817545.826156470691785, 325855.672747237083968 ], [ 816434.724219002760947, 325852.830114450771362 ] ] ], [ [ [ 798804.590143836569041, 328495.270046405203175 ], [ 798755.720587942516431, 327599.745486481871922 ], [ 797644.783272076863796, 327597.057161688164342 ], [ 797693.655505068716593, 328492.573925260803662 ], [ 798804.590143836569041, 328495.270046405203175 ] ] ], [ [ [ 810160.655493445694447, 333000.861021999444347 ], [ 811271.678701839060523, 333003.70851269736886 ], [ 811321.318231584620662, 333899.342953859246336 ], [ 812432.348217405495234, 333902.208807533432264 ], [ 812382.711392478668131, 333006.566218003048562 ], [ 813493.753599319607019, 333009.434138355602045 ], [ 813345.650480717187747, 330322.504309633630328 ], [ 814456.710300932172686, 330325.357857928902376 ], [ 814407.61168428696692, 329429.713847762148362 ], [ 812185.496242170222104, 329424.033233520865906 ], [ 812234.600206719944254, 330319.6608943772153 ], [ 811123.559444983256981, 330316.827611722750589 ], [ 810976.639193191193044, 327629.980126546812244 ], [ 809865.599899805150926, 327627.181282801786438 ], [ 809623.384086408652365, 323149.216075188072864 ], [ 808512.341021729749627, 323146.467580959026236 ], [ 808608.832914814003743, 324937.626603569020517 ], [ 805275.775789520004764, 324929.392590504256077 ], [ 805421.536791109247133, 327616.086396513215732 ], [ 806532.538526464486495, 327618.845045635651331 ], [ 806483.820926337968558, 326723.268809129658621 ], [ 808705.857764261774719, 326728.800199518620502 ], [ 808754.570046858396381, 327624.392488353711087 ], [ 807643.549600395839661, 327621.613742773944978 ], [ 807692.397786523681134, 328517.201662388339173 ], [ 808803.415567632182501, 328519.988451558339875 ], [ 808852.394326273701154, 329415.588099482818507 ], [ 807741.379217760288157, 329412.793263024534099 ], [ 807790.493893792736344, 330308.388555025157984 ], [ 806679.490841558435932, 330305.595798440102953 ], [ 806728.741450462955981, 331201.186764911923092 ], [ 807839.741814314387739, 331203.987548735109158 ], [ 807889.122979016508907, 332099.590254502661992 ], [ 810111.146486647659913, 332105.23844198329607 ], [ 810160.655493445694447, 333000.861021999444347 ] ] ], [ [ [ 806679.490841558435932, 330305.595798440102953 ], [ 806630.373484385432675, 329410.00852995965397 ], [ 805519.377092194976285, 329407.233899860293604 ], [ 805421.536791109247133, 327616.086396513215732 ], [ 803199.561200329568237, 327610.59924062184291 ], [ 803297.412195573211648, 329401.714946854161099 ], [ 804408.390007239300758, 329404.469372300023679 ], [ 804457.512730623129755, 330300.040676164324395 ], [ 806679.490841558435932, 330305.595798440102953 ] ] ], [ [ [ 841027.161502561764792, 328605.190335523919202 ], [ 839915.85710468958132, 328602.111152136523742 ], [ 840013.799046975327656, 330393.787215959222522 ], [ 841125.098167594056576, 330396.88409235898871 ], [ 841027.161502561764792, 328605.190335523919202 ] ] ], [ [ [ 840112.273133227834478, 332185.478518234565854 ], [ 842334.871161084156483, 332191.717886351805646 ], [ 842236.407683859812096, 330399.991113231691997 ], [ 841125.098167594056576, 330396.88409235898871 ], [ 841174.266043542185798, 331292.736685456184205 ], [ 840062.969572256319225, 331289.630956969805993 ], [ 840112.273133227834478, 332185.478518234565854 ] ] ], [ [ [ 790229.672046627150849, 353545.624405078589916 ], [ 790441.517237551510334, 357127.905721199174877 ], [ 792663.072487859171815, 357133.636699086870067 ], [ 792823.339035006705672, 359820.435402468778193 ], [ 793934.121207955526188, 359823.340602531970944 ], [ 793987.807128886459395, 360718.95589524297975 ], [ 796209.392458777641878, 360724.815013980434742 ], [ 796263.205810004845262, 361620.44993734365562 ], [ 797374.009031803812832, 361623.403943378070835 ], [ 797320.19863079523202, 360727.761162568989675 ], [ 798431.013852740637958, 360730.718371240131091 ], [ 798377.339706482598558, 359835.071719919971656 ], [ 801709.848826918983832, 359843.985903588938527 ], [ 801602.918020189739764, 358052.657024467072915 ], [ 802713.778566529741511, 358055.634517940809019 ], [ 802660.516004820121452, 357159.968098187004216 ], [ 804882.270600812393241, 357165.939985764329322 ], [ 804935.527338751126081, 358061.622445184679236 ], [ 806046.415632471558638, 358064.632879874436185 ], [ 805940.04123265389353, 356273.255840162688401 ], [ 807050.944652776583098, 356276.261083148769103 ], [ 806945.109060950228013, 354484.883849774196278 ], [ 808056.027606786694378, 354487.883807648846414 ], [ 808003.312564136460423, 353592.19305724062724 ], [ 809114.243365707807243, 353595.195759990892839 ], [ 809061.664435787941329, 352699.500853727862705 ], [ 807950.730764884036034, 352696.506274456856772 ], [ 807898.282209364348091, 351800.823448893323075 ], [ 806787.355051329825073, 351797.847779026953503 ], [ 806735.036883615655825, 350902.176988349878229 ], [ 807845.966897905105725, 350905.144570148608182 ], [ 807741.736008484032936, 349113.798611524747685 ], [ 808852.681084369774908, 349116.760736488911789 ], [ 808800.768340220442042, 348221.085532095748931 ], [ 809911.725652617635205, 348224.050233768823091 ], [ 809859.948971146252006, 347328.370811252854764 ], [ 810970.918543997569941, 347331.338039049587678 ], [ 810919.277909690514207, 346435.654368353250902 ], [ 809808.305520904250443, 346432.69529141113162 ], [ 809756.795302213868126, 345537.023663838277571 ], [ 808645.829537890385836, 345534.083332296286244 ], [ 808543.203198012895882, 343742.767939635319635 ], [ 806321.288628008100204, 343736.951359782251529 ], [ 806219.184099961072206, 341945.683654660359025 ], [ 808441.109817156102508, 341951.467975773906801 ], [ 808339.549397885799408, 340160.183357646979857 ], [ 809450.531870757811703, 340163.075053691980429 ], [ 809399.954281953629106, 339267.430380879552104 ], [ 808288.969049646053463, 339264.546777288138401 ], [ 808188.208077546209097, 337473.285022110154387 ], [ 809299.198807020671666, 337476.152452242618892 ], [ 809249.020921524148434, 336580.519175658177119 ], [ 810360.02380837907549, 336583.3888484131312 ], [ 810260.073193988180719, 334792.117413181113079 ], [ 809149.064856044016778, 334789.263946077786386 ], [ 809049.641733345924877, 332998.023745471495204 ], [ 807938.637387587339617, 332995.196682677720673 ], [ 807988.285039716283791, 333890.806843613449018 ], [ 802433.416901653981768, 333876.784802986832801 ], [ 802334.227749651996419, 332085.648030175070744 ], [ 801223.276467585237697, 332082.89013805706054 ], [ 801124.615038852673024, 330291.78396359551698 ], [ 800013.667532385326922, 330289.051983271492645 ], [ 800112.334360923152417, 332080.142429195926525 ], [ 799001.40139572089538, 332077.404903169313911 ], [ 799050.937464211834595, 332972.947822955786251 ], [ 797940.016319977119565, 332970.212664409249555 ], [ 797989.688410763861611, 333865.75146829301957 ], [ 799100.606834285194054, 333868.494445520511363 ], [ 799200.345477916067466, 335659.598840085032862 ], [ 800311.267551047494635, 335662.367758239328396 ], [ 800361.334082795539871, 336557.933408246666659 ], [ 799250.414750843076035, 336555.15663264185423 ], [ 799300.617324088700116, 337450.718169090803713 ], [ 798189.709856106084771, 337447.943879467085935 ], [ 798290.520423655980267, 339239.062546239932999 ], [ 796068.743749377899803, 339233.513813860772643 ], [ 796018.266279436065815, 338337.968200496630743 ], [ 793796.520132782752626, 338332.476562109543011 ], [ 793746.170460790512152, 337436.950184664689004 ], [ 791524.454574088216759, 337431.515409573272336 ], [ 791574.809775021625683, 338327.026413989369757 ], [ 789353.134934757836163, 338321.617752787191421 ], [ 789302.774199475068599, 337426.122011560422834 ], [ 785970.319629083271138, 337418.109489321650472 ], [ 786172.596138310851529, 341000.024052185588516 ], [ 789505.017330585746095, 341008.127398475480732 ], [ 789555.911524781258777, 341903.638121713476721 ], [ 788445.098488698946312, 341900.91894787340425 ], [ 788496.128852505353279, 342796.425832585664466 ], [ 787385.327406547847204, 342793.709556975518353 ], [ 787539.227187001029961, 345480.230146698304452 ], [ 788650.020167961716652, 345482.96919173526112 ], [ 788701.584013368352316, 346378.491247139230836 ], [ 789812.382948014652357, 346381.24850734550273 ], [ 789967.866151973139495, 349067.860522067989223 ], [ 791078.665366241475567, 349070.651381181029137 ], [ 791130.756961254170164, 349966.204079453775194 ], [ 792241.562176206381992, 349969.013334994728211 ], [ 792189.473442460526712, 349073.452941124734934 ], [ 794411.116316405357793, 349079.088165226741694 ], [ 794515.415679029771127, 350870.243778880743776 ], [ 795626.244823154760525, 350873.093003817542922 ], [ 795678.591630224953406, 351768.684424918261357 ], [ 793456.948053131345659, 351762.981187816360034 ], [ 793509.433943301206455, 352658.560959975817241 ], [ 791287.831866973894648, 352652.885416863195132 ], [ 791340.45687466301024, 353548.45364435238298 ], [ 790229.672046627150849, 353545.624405078589916 ] ], [ [ 805108.235247178003192, 341942.807225109136198 ], [ 805006.658189940731972, 340151.570866467605811 ], [ 806117.612591419601813, 340154.431264476734214 ], [ 806219.184099961072206, 341945.683654660359025 ], [ 805108.235247178003192, 341942.807225109136198 ] ], [ [ 808138.027454319293611, 336577.659826551389415 ], [ 808087.980073397047818, 335682.038405190920457 ], [ 809198.976271094521508, 335684.889677061059047 ], [ 809249.020921524148434, 336580.519175658177119 ], [ 808138.027454319293611, 336577.659826551389415 ] ], [ [ 792685.660497253993526, 338329.746301975974347 ], [ 792736.146276377607137, 339225.268720796797425 ], [ 791625.298326579853892, 339222.541156219667755 ], [ 791574.809775021625683, 338327.026413989369757 ], [ 792685.660497253993526, 338329.746301975974347 ] ], [ [ 795574.031340288696811, 349977.505475689773448 ], [ 796684.872347777476534, 349980.357648728298955 ], [ 796737.082967685884796, 350875.952986247662921 ], [ 795626.244823154760525, 350873.093003817542922 ], [ 795574.031340288696811, 349977.505475689773448 ] ], [ [ 796632.795045134611428, 349084.766197836201172 ], [ 797743.647939839400351, 349087.621268420421984 ], [ 797639.898974431445822, 347296.434331289259717 ], [ 798750.7666185782291, 347299.284396311617456 ], [ 798958.786393642192706, 350881.70522534660995 ], [ 797847.930146542610601, 350878.823726610396989 ], [ 797795.722388192778453, 349983.220552232349291 ], [ 796684.872347777476534, 349980.357648728298955 ], [ 796632.795045134611428, 349084.766197836201172 ] ], [ [ 799381.224437454366125, 358046.734975528961513 ], [ 799434.629045206354931, 358942.381529277423397 ], [ 798323.798866531578824, 358939.429072669066954 ], [ 798270.391333228209987, 358043.790419154975098 ], [ 799381.224437454366125, 358046.734975528961513 ] ], [ [ 795995.472262323834002, 357142.315280229260679 ], [ 796048.752329488983378, 358037.934240335773211 ], [ 794937.946362153394148, 358035.022616991016548 ], [ 794884.663372425129637, 357139.411470682942308 ], [ 795995.472262323834002, 357142.315280229260679 ] ], [ [ 798163.976187917636707, 356252.52505202224711 ], [ 798217.117106910329312, 357148.155749048339203 ], [ 797106.290162515826523, 357145.230039535090327 ], [ 797053.146331077674404, 356249.607207223481964 ], [ 798163.976187917636707, 356252.52505202224711 ] ], [ [ 803454.62948774243705, 351788.985504243231844 ], [ 803507.089505628682673, 352684.636126558645628 ], [ 802396.202377265319228, 352681.695629600959364 ], [ 802343.739490291220136, 351786.052989407791756 ], [ 803454.62948774243705, 351788.985504243231844 ] ], [ [ 794307.350282365223393, 347287.948025488294661 ], [ 794359.166633147047833, 348183.516166252898984 ], [ 793248.337880093138665, 348180.700949949969072 ], [ 793144.832830796018243, 346389.583997808571439 ], [ 794255.667264390503988, 346392.383732666901778 ], [ 794204.117579548154026, 345496.823277524847072 ], [ 795314.963800635654479, 345499.625869782874361 ], [ 795418.190840244875289, 347290.766146312933415 ], [ 794307.350282365223393, 347287.948025488294661 ] ], [ [ 799809.974503736244515, 346406.541711626865435 ], [ 799758.438944921828806, 345510.942170151800383 ], [ 798647.556552015361376, 345508.097204491496086 ], [ 798596.151475120801479, 344612.50937818933744 ], [ 800817.931017694063485, 344618.194139853992965 ], [ 800920.863203341141343, 346409.405171397374943 ], [ 799809.974503736244515, 346406.541711626865435 ] ], [ [ 796220.976084965281188, 341920.17327481607208 ], [ 796271.986837670905516, 342815.73400297248736 ], [ 795161.123188409488648, 342812.944164123211522 ], [ 795110.109638222376816, 341917.391210274246987 ], [ 796220.976084965281188, 341920.17327481607208 ] ], [ [ 801724.580802944954485, 341038.644656817545183 ], [ 801673.850585251115263, 340143.052261475473642 ], [ 802784.777220792253502, 340145.881365404056851 ], [ 802835.504663700936362, 341041.481692176952492 ], [ 801724.580802944954485, 341038.644656817545183 ] ], [ [ 802683.722167087369598, 338354.692091132455971 ], [ 800461.867025136598386, 338349.075961595168337 ], [ 800411.533907596603967, 337453.502805933589116 ], [ 801522.45964056334924, 337456.297790423501283 ], [ 801422.19877095753327, 335665.146969102555886 ], [ 806976.993260072544217, 335679.197429051855579 ], [ 807127.543346634833142, 338366.048865440068766 ], [ 806016.57410494540818, 338363.194106371491216 ], [ 805966.254745778394863, 337467.581213465949986 ], [ 803744.338690626551397, 337461.918804063752759 ], [ 803895.713077710475773, 340148.720900256070308 ], [ 802784.777220792253502, 340145.881365404056851 ], [ 802683.722167087369598, 338354.692091132455971 ] ] ] ] } }
]
}
