{
"type": "FeatureCollection",
"name": "urban-1990",
"crs": { "type": "name", "properties": { "name": "urn:ogc:def:crs:EPSG::32647" } },
"features": [
{ "type": "Feature", "properties": { "year": 1990 }, "geometry": { "type": "MultiPolygon", "coordinates": [ [ [ [ 773274.476238149334677, 307845.898577855492476 ], [ 773320.468709387816489, 308741.181952001759782 ], [ 774431.277845886070281, 308743.50864188169362 ], [ 774385.287917727837339, 307848.218126595253125 ], [ 773274.476238149334677, 307845.898577855492476 ] ] ], [ [ [ 779985.449629540089518, 308755.284005775116384 ], [ 778874.598346216604114, 308752.910009860468563 ], [ 778828.618577941553667, 307857.59065561578609 ], [ 776606.93639159144368, 307852.885523575474508 ], [ 776561.08499476488214, 306957.583994019019883 ], [ 774339.431453162804246, 306952.93095471453853 ], [ 774385.287917727837339, 307848.218126595253125 ], [ 775496.107957564177923, 307850.547108382626902 ], [ 775542.095343886874616, 308745.844792247982696 ], [ 774431.277845886070281, 308743.50864188169362 ], [ 774477.401237341109663, 309638.802510566601995 ], [ 775588.216186159523204, 309641.145832982670981 ], [ 775680.858237366774119, 311431.758025083632674 ], [ 776791.676464966731146, 311434.125245217466727 ], [ 776838.195103339850903, 312329.443626564461738 ], [ 781281.542416918207891, 312339.037060325325001 ], [ 781235.034045828389935, 311443.68956469965633 ], [ 779013.338253443827853, 311438.888316436787136 ], [ 778920.711548423394561, 309648.232731388125103 ], [ 780031.560287549276836, 309650.614009118638933 ], [ 779985.449629540089518, 308755.284005775116384 ] ] ], [ [ [ 773882.788989014923573, 319484.846593553898856 ], [ 772772.019285542424768, 319482.443725776858628 ], [ 772819.749491634080186, 320377.764268895960413 ], [ 773930.516555201495066, 320380.174296281009447 ], [ 773882.788989014923573, 319484.846593553898856 ] ] ], [ [ [ 777310.721045022597536, 321282.816117827373091 ], [ 776199.93149079696741, 321280.369393302244134 ], [ 776247.920684778713621, 322175.71848185302224 ], [ 775137.142195786349475, 322173.274380642687902 ], [ 775041.291962859220803, 320382.594140496454202 ], [ 773930.516555201495066, 320380.174296281009447 ], [ 773978.377588097704574, 321275.505478929437231 ], [ 772867.613171788863838, 321273.088288334663957 ], [ 772915.610325693851337, 322168.415794099739287 ], [ 774026.372087397729047, 322170.840151516196784 ], [ 774074.50005278782919, 323066.178324060223531 ], [ 770742.247661845060065, 323058.913436437258497 ], [ 770936.126357787754387, 326640.215501330676489 ], [ 775379.103300691116601, 326650.036469249404036 ], [ 775233.526263691252097, 323963.968635109544266 ], [ 778565.871037823148072, 323971.374083997681737 ], [ 778469.502940244972706, 322180.636302028491627 ], [ 777358.707588290912099, 322178.172455522697419 ], [ 777310.721045022597536, 321282.816117827373091 ] ] ], [ [ [ 755192.703011960838921, 323026.188334773469251 ], [ 754082.080639914143831, 323023.925036571163218 ], [ 754178.833596584037878, 324814.361983933951706 ], [ 755289.450577986193821, 324816.638701292511541 ], [ 755192.703011960838921, 323026.188334773469251 ] ] ], [ [ [ 756400.07533361914102, 324818.925366504234262 ], [ 755289.450577986193821, 324816.638701292511541 ], [ 755435.573855524417013, 327502.340285425889306 ], [ 756546.190473605762236, 327504.647189037932549 ], [ 756497.351844307617284, 326609.403093468514271 ], [ 757607.978993087657727, 326611.713250331522431 ], [ 757559.276657508104108, 325716.46587255661143 ], [ 756448.646797538269311, 325714.162489247275516 ], [ 756400.07533361914102, 324818.925366504234262 ] ] ], [ [ [ 765333.907189192716032, 325732.868903197522741 ], [ 764223.221713953884318, 325730.495680506050121 ], [ 764369.680594908073545, 328416.372026723693125 ], [ 766591.043374276021495, 328421.170348235464189 ], [ 766640.124615250853822, 329316.483504861360416 ], [ 767750.815444390289485, 329318.904788638290484 ], [ 767652.791913231834769, 327528.267960478784516 ], [ 766542.095648710615933, 327525.860735924972687 ], [ 766493.281438871752471, 326630.554657964035869 ], [ 765382.590583578916267, 326628.164463793276809 ], [ 765333.907189192716032, 325732.868903197522741 ] ] ], [ [ [ 756644.268478518351912, 329295.145893714681733 ], [ 757754.887449323316105, 329297.476393300166819 ], [ 757804.124083498725668, 330192.737810455437284 ], [ 760025.380127460579388, 330197.442725893808529 ], [ 759976.148970849462785, 329302.167649871786125 ], [ 758865.514268802129664, 329299.81697856617393 ], [ 758767.447179987211712, 327509.291088042024057 ], [ 756546.190473605762236, 327504.647189037932549 ], [ 756644.268478518351912, 329295.145893714681733 ] ] ], [ [ [ 772945.692562722600996, 342759.353993463737424 ], [ 771835.010538312373683, 342756.784783559502102 ], [ 771886.216633269679733, 343652.184538936417084 ], [ 772996.895823986502364, 343654.760950496420264 ], [ 772945.692562722600996, 342759.353993463737424 ] ] ], [ [ [ 761941.837532425299287, 344524.81046843691729 ], [ 761993.336286252713762, 345420.154043195710983 ], [ 763103.936487475410104, 345422.649627764243633 ], [ 763052.440594609128311, 344527.299090538464952 ], [ 761941.837532425299287, 344524.81046843691729 ] ] ], [ [ [ 765428.541872307774611, 347218.412818016891833 ], [ 765376.784649604232982, 346323.040810775302816 ], [ 764266.171262228628621, 346320.51704284735024 ], [ 764214.5446976008825, 345425.155793212470599 ], [ 763103.936487475410104, 345422.649627764243633 ], [ 763207.328888969030231, 347213.361868074338418 ], [ 762096.734431807766668, 347210.852346912841313 ], [ 762148.633822865318507, 348106.207095809164457 ], [ 764369.824984102742746, 348111.250749601109419 ], [ 764317.931357841240242, 347215.88202497997554 ], [ 765428.541872307774611, 347218.412818016891833 ] ] ], [ [ [ 771886.216633269679733, 343652.184538936417084 ], [ 769664.883049627533183, 343647.063302789116278 ], [ 769767.70706774899736, 345437.845347172464244 ], [ 770878.364042901434004, 345440.415006035938859 ], [ 770929.973435322754085, 346335.818794500257354 ], [ 767598.035692461533472, 346328.12017427617684 ], [ 767649.787173559656367, 347223.506314039987046 ], [ 769871.065063814632595, 347228.642359271703754 ], [ 769974.957035145256668, 349019.454419404210057 ], [ 767753.69066103734076, 349014.289866189588793 ], [ 767805.84266674274113, 349909.687298625067342 ], [ 768916.468871034216136, 349912.271348104812205 ], [ 768968.75148611923214, 350807.679687910771463 ], [ 771190.022692654863931, 350812.894275798229501 ], [ 771033.592680217232555, 348126.637649062671699 ], [ 773254.914220030070283, 348131.851938744424842 ], [ 773151.306444998481311, 346341.004262561735231 ], [ 772040.635799455922097, 346338.406222808756866 ], [ 771886.216633269679733, 343652.184538936417084 ] ] ], [ [ [ 779602.220592690631747, 361577.470048621878959 ], [ 778491.557582172681578, 361574.69338287966093 ], [ 778599.679395009065047, 363365.73112571623642 ], [ 779710.336436830693856, 363368.522639865928795 ], [ 779602.220592690631747, 361577.470048621878959 ] ] ], [ [ [ 774375.028687193989754, 366936.681757603364531 ], [ 773264.425751398550346, 366933.916717070445884 ], [ 773374.179118389845826, 368724.928700756223407 ], [ 774484.775982780847698, 368727.708364505553618 ], [ 774429.835603066487238, 367832.193057994998526 ], [ 775540.443856701022014, 367834.976678570557851 ], [ 775430.969542917096987, 366043.94340392696904 ], [ 774320.355235517490655, 366041.174453195533715 ], [ 774375.028687193989754, 366936.681757603364531 ] ] ], [ [ [ 752164.511118639609776, 366883.516573571250774 ], [ 749943.632595566567034, 366878.447275615937542 ], [ 750053.51415001321584, 368669.164848047948908 ], [ 752274.380407962715253, 368674.261142803996336 ], [ 752164.511118639609776, 366883.516573571250774 ] ] ], [ [ [ 767931.636680145515129, 370502.155492793419398 ], [ 767876.411027077469043, 369606.675663857779 ], [ 768986.963588602142408, 369609.40602483402472 ], [ 768876.918905487982556, 367818.444004177639727 ], [ 769987.485748497536406, 367821.171276476350613 ], [ 769877.981136296410114, 366030.21080215391703 ], [ 768767.40822471329011, 366027.497925260744523 ], [ 768712.853136089630425, 365132.030838745471556 ], [ 767602.285377319902182, 365129.336339446541388 ], [ 767656.843490674393252, 366024.796261878858786 ], [ 764325.198015129659325, 366016.758548663230613 ], [ 764379.898742302088067, 366912.201092282426544 ], [ 766600.981555888545699, 366917.562554418691434 ], [ 766655.809727129410021, 367813.023264340823516 ], [ 765545.267324046697468, 367810.329795970581472 ], [ 765655.330319036846049, 369601.248910053400323 ], [ 766765.866615176666528, 369603.956625736667775 ], [ 766821.09533126745373, 370499.429297347494867 ], [ 767931.636680145515129, 370502.155492793419398 ] ], [ [ 767766.360242986585945, 367815.728000271483324 ], [ 767821.318881238345057, 368711.199836377229076 ], [ 766710.7714136778377, 368708.487951424496714 ], [ 766655.809727129410021, 367813.023264340823516 ], [ 767766.360242986585945, 367815.728000271483324 ] ] ], [ [ [ 782094.832569707301445, 366060.792660071281716 ], [ 780984.167469359701499, 366057.956406686862465 ], [ 781038.822803894407116, 366953.508119974518195 ], [ 778817.524253052892163, 366947.854354575101752 ], [ 779037.504068892914802, 370530.041783403314184 ], [ 780148.136942938202992, 370532.892855497368146 ], [ 780037.886252591153607, 368741.776161089888774 ], [ 781148.533733268501237, 368744.623618997982703 ], [ 781093.611558646894991, 367849.063854012929369 ], [ 782204.270622948766686, 367851.915106642176397 ], [ 782094.832569707301445, 366060.792660071281716 ] ] ], [ [ [ 749108.926233183010481, 371352.719300367461983 ], [ 751329.758726501953788, 371357.833409673767164 ], [ 751274.353352826205082, 370462.454110951977782 ], [ 750163.930207708617672, 370459.898120699159335 ], [ 750053.51415001321584, 368669.164848047948908 ], [ 748943.092447587987408, 368666.633634310681373 ], [ 749108.926233183010481, 371352.719300367461983 ] ] ], [ [ [ 739620.522903710370883, 379388.204898844705895 ], [ 742951.496368921245448, 379395.762293130799662 ], [ 742838.363568260683678, 377605.042793927539606 ], [ 740617.694583346717991, 377600.01912740728585 ], [ 740674.200477649923414, 378495.363773510034662 ], [ 739563.880145560135134, 378492.862770463165361 ], [ 739620.522903710370883, 379388.204898844705895 ] ] ], [ [ [ 732480.647521047736518, 389219.512043109338265 ], [ 733590.878843215061352, 389222.008093065815046 ], [ 733532.745876876171678, 388326.66019600717118 ], [ 734642.987566579598933, 388329.161762606585398 ], [ 734527.129355212906376, 386538.465400585148018 ], [ 732306.640049972571433, 386533.499659215623979 ], [ 732480.647521047736518, 389219.512043109338265 ] ] ], [ [ [ 785887.52333652600646, 293548.874777266988531 ], [ 783665.642046684166417, 293544.274359245668165 ], [ 783753.440848673111759, 295334.884054659341928 ], [ 784864.372318947454914, 295337.194491010857746 ], [ 784820.408637906424701, 294441.880666806304362 ], [ 787042.302498653531075, 294446.513885342341382 ], [ 786954.784953281283379, 292655.86630390805658 ], [ 785843.82885004626587, 292653.560011259804014 ], [ 785887.52333652600646, 293548.874777266988531 ] ] ], [ [ [ 781050.334748242748901, 307862.33352560736239 ], [ 779939.472398129757494, 307859.9573731860728 ], [ 779985.449629540089518, 308755.284005775116384 ], [ 781096.309444029582664, 308757.667463984980714 ], [ 781050.334748242748901, 307862.33352560736239 ] ] ], [ [ [ 791233.093189131934196, 311465.767702453536913 ], [ 791186.741198679315858, 310570.356529930140823 ], [ 792297.683123135589994, 310572.849802485958207 ], [ 792251.467023398610763, 309677.434468487277627 ], [ 790029.586970639182255, 309672.472591351601295 ], [ 790122.162684112670831, 311463.276387545512989 ], [ 791233.093189131934196, 311465.767702453536913 ] ] ], [ [ [ 790262.026452686870471, 314149.507850362570025 ], [ 790215.271837109234184, 313254.093913427670486 ], [ 791326.197227496071719, 313256.600365428312216 ], [ 791372.94927481317427, 314152.021876189857721 ], [ 793594.821587202139199, 314157.078820509486832 ], [ 793501.461095487815328, 312366.208802221051883 ], [ 792390.515359077253379, 312363.69076844555093 ], [ 792344.032568460912444, 311468.268565751612186 ], [ 791233.093189131934196, 311465.767702453536913 ], [ 791279.578532168874517, 312361.182310901582241 ], [ 789057.731471077539027, 312356.194122968707234 ], [ 789104.355289587052539, 313251.597064344445243 ], [ 786882.548587365308776, 313246.632173397520091 ], [ 786929.310915266862139, 314142.023553579929285 ], [ 790262.026452686870471, 314149.507850362570025 ] ] ], [ [ [ 782392.400585727649741, 312341.459348950709682 ], [ 781281.542416918207891, 312339.037060325325001 ], [ 781374.959413040429354, 314129.742305031628348 ], [ 782485.812432511011139, 314132.179298566828948 ], [ 782392.400585727649741, 312341.459348950709682 ] ] ], [ [ [ 799243.527627620846033, 315960.850816477730405 ], [ 797021.575630510225892, 315955.666520425816998 ], [ 797068.714800256537274, 316851.136795021651778 ], [ 795957.754977977834642, 316848.551456896821037 ], [ 796052.43844977254048, 318639.48710621369537 ], [ 794941.492837141267955, 318636.896083502564579 ], [ 794989.037161693791859, 319532.361495381221175 ], [ 797210.932194544700906, 319537.568747927143704 ], [ 797115.9872843780322, 317746.61058432405116 ], [ 798226.953568403725512, 317749.213390332064591 ], [ 798179.683674116851762, 316853.731848247232847 ], [ 799290.661633507115766, 316856.336616972403135 ], [ 799243.527627620846033, 315960.850816477730405 ] ] ], [ [ [ 781658.41241130256094, 319501.940791799686849 ], [ 780547.583595874835737, 319499.469390450569335 ], [ 780500.005265009123832, 318604.101645268965513 ], [ 779389.182371083181351, 318601.647356225876138 ], [ 779294.420751859550364, 316810.936930559109896 ], [ 780405.248873471049592, 316813.376589002204128 ], [ 780358.070813404279761, 315918.019257779989857 ], [ 778136.417871776502579, 315913.164242276863661 ], [ 778183.601138812722638, 316808.506981040816754 ], [ 775961.987302716821432, 316803.676207286887802 ], [ 776152.075748526956886, 320385.023801914183423 ], [ 778373.668589575681835, 320389.91257785045309 ], [ 778325.9515701046912, 319494.5559622857254 ], [ 779436.763326785643585, 319497.007780738698784 ], [ 779484.477712801541202, 320392.371693119988777 ], [ 781706.121534271398559, 320397.319380150234792 ], [ 781658.41241130256094, 319501.940791799686849 ] ] ], [ [ [ 779919.911500383168459, 328450.805520127993077 ], [ 778809.126408184878528, 328448.280570178700145 ], [ 778858.177787144319154, 329343.672581916616764 ], [ 779968.960172572988085, 329346.204865163599607 ], [ 780018.142271659802645, 330241.607808916945942 ], [ 781128.930471091531217, 330244.157549775438383 ], [ 781030.705118030426092, 328453.340535794035532 ], [ 782141.507295049959794, 328455.88561756623676 ], [ 782092.597444990999065, 327560.475119609793182 ], [ 779870.996255405945703, 327555.409763720293995 ], [ 779919.911500383168459, 328450.805520127993077 ] ] ], [ [ [ 785163.750732262386009, 342788.308527396933641 ], [ 785112.711943146307021, 341892.824306564987637 ], [ 784001.933835810981691, 341890.147051484731492 ], [ 784052.975436109583825, 342785.623772598919459 ], [ 785163.750732262386009, 342788.308527396933641 ] ] ], [ [ [ 787487.793882536469027, 344584.719492958276533 ], [ 787539.227187001029961, 345480.230146698304452 ], [ 788650.020167961716652, 345482.96919173526112 ], [ 788753.281228353036568, 347274.017120735079516 ], [ 789864.077320823213086, 347276.782009865681175 ], [ 789915.905055586830713, 348172.319344697811175 ], [ 788805.111812588758767, 348169.546822735690512 ], [ 788857.075765743386, 349065.080363356915768 ], [ 789967.866151973139495, 349067.860522067989223 ], [ 790072.188428288558498, 350858.954445338458754 ], [ 792293.784256334532984, 350864.577599738142453 ], [ 792398.628454400692135, 352655.7177828643471 ], [ 790177.044147110311314, 352650.063861537724733 ], [ 790229.672046627150849, 353545.624405078589916 ], [ 788008.128861849196255, 353539.998439206159674 ], [ 788113.796358972787857, 355331.100653460773174 ], [ 790335.327924190438353, 355336.757214253826533 ], [ 790441.517237551510334, 357127.905721199174877 ], [ 791552.290425375918858, 357130.765736150147859 ], [ 791605.582191360415891, 358026.353605855081696 ], [ 792716.361326995538548, 358029.232300195319112 ], [ 792877.027903199195862, 360716.042924194247462 ], [ 793987.807128886459395, 360718.95589524297975 ], [ 794041.626384874805808, 361614.575186117552221 ], [ 795152.411605664994568, 361617.507018407457508 ], [ 795098.595302777597681, 360721.879925021959934 ], [ 796209.392458777641878, 360724.815013980434742 ], [ 796263.205810004845262, 361620.44993734365562 ], [ 797374.009031803812832, 361623.403943378070835 ], [ 797427.952745705028065, 362519.050744858803228 ], [ 798538.762062823050655, 362522.023727430845611 ], [ 798431.013852740637958, 360730.718371240131091 ], [ 801763.514157243305817, 360739.656362300273031 ], [ 801709.848826918983832, 359843.985903588938527 ], [ 802820.703523462638259, 359846.979366406507324 ], [ 802660.516004820121452, 357159.968098187004216 ], [ 804882.270600812393241, 357165.939985764329322 ], [ 804935.527338751126081, 358061.622445184679236 ], [ 806046.415632471558638, 358064.632879874436185 ], [ 805940.04123265389353, 356273.255840162688401 ], [ 808161.857420960790478, 356279.277252968167886 ], [ 808056.027606786694378, 354487.883807648846414 ], [ 809166.955531791318208, 354490.894637859601062 ], [ 809009.218742366647348, 351803.809908656112384 ], [ 807898.282209364348091, 351800.823448893323075 ], [ 807845.966897905105725, 350905.144570148608182 ], [ 808956.906285770703107, 350908.122914364445023 ], [ 808852.681084369774908, 349116.760736488911789 ], [ 811074.59948428417556, 349122.717110615281854 ], [ 810919.277909690514207, 346435.654368353250902 ], [ 809808.305520904250443, 346432.69529141113162 ], [ 809756.795302213868126, 345537.023663838277571 ], [ 808645.829537890385836, 345534.083332296286244 ], [ 808543.203198012895882, 343742.767939635319635 ], [ 807432.241231732186861, 343739.854378414805979 ], [ 807330.14227864111308, 341948.570571400749031 ], [ 808441.109817156102508, 341951.467975773906801 ], [ 808339.549397885799408, 340160.183357646979857 ], [ 809450.531870757811703, 340163.075053691980429 ], [ 809249.020921524148434, 336580.519175658177119 ], [ 810360.02380837907549, 336583.3888484131312 ], [ 810210.297729330370203, 333896.48734227346722 ], [ 811321.318231584620662, 333899.342953859246336 ], [ 811371.090982871828601, 334794.981149413739331 ], [ 812482.118256647372618, 334797.85515521565685 ], [ 812382.711392478668131, 333006.566218003048562 ], [ 813493.753599319607019, 333009.434138355602045 ], [ 813394.884978995425627, 331218.143851706350688 ], [ 814505.9421186898835, 331221.005592117260676 ], [ 814358.646269058808684, 328534.073551211098675 ], [ 816580.805354928597808, 328539.778137602028437 ], [ 816531.978455251315609, 327644.1250998347532 ], [ 817643.075104418909177, 327646.984248448454309 ], [ 817545.826156470691785, 325855.672747237083968 ], [ 816434.724219002760947, 325852.830114450771362 ], [ 816386.296883038245142, 324957.188145999563858 ], [ 815275.201952572679147, 324954.363735062652268 ], [ 815226.905177713604644, 324058.73365681420546 ], [ 814115.817224932252429, 324055.927408664429095 ], [ 814261.115044094389305, 326742.804057345550973 ], [ 815372.195089163258672, 326745.634897812095005 ], [ 815420.891450286144391, 327641.276003122038674 ], [ 813198.746237110579386, 327635.607963649730664 ], [ 813150.044574008556083, 326739.98324042261811 ], [ 812038.983644942403771, 326737.172446609591134 ], [ 812136.525493485387415, 328528.409278862527572 ], [ 811025.479387156199664, 328525.592259364842903 ], [ 810830.917954762931913, 324943.165777098794933 ], [ 809719.870716508710757, 324940.391206902568229 ], [ 809623.384086408652365, 323149.216075188072864 ], [ 808512.341021729749627, 323146.467580959026236 ], [ 808560.52034857403487, 324042.04527576698456 ], [ 807449.489313083118759, 324039.298667770926841 ], [ 807401.30735708179418, 323143.728998214995954 ], [ 806290.283058510161936, 323141.000326535315253 ], [ 806338.467644952936098, 324036.561998314165976 ], [ 805227.455310222110711, 324033.835266976209823 ], [ 805275.775789520004764, 324929.392590504256077 ], [ 804164.775394501164556, 324926.667850388621446 ], [ 804213.231782131362706, 325822.220856144500431 ], [ 805324.229529636446387, 325824.953546394535806 ], [ 805372.816530268872157, 326720.51814495929284 ], [ 803150.8356141615659, 326715.046876553504262 ], [ 803346.53760402824264, 330297.27830961975269 ], [ 804457.512730623129755, 330300.040676164324395 ], [ 804506.768720232881606, 331195.615670584316831 ], [ 803395.796285961987451, 331192.845359223720152 ], [ 803445.188241060706787, 332088.416105973534286 ], [ 802334.227749651996419, 332085.648030175070744 ], [ 802284.833093659253791, 331190.085204497270752 ], [ 801173.879109379136935, 331187.33520598069299 ], [ 801124.615038852673024, 330291.78396359551698 ], [ 800013.667532385326922, 330289.051983271492645 ], [ 800062.934299183310941, 331184.595363251690287 ], [ 798951.998629126464948, 331181.865675889072008 ], [ 799001.40139572089538, 332077.404903169313911 ], [ 797890.477538040606305, 332074.677559556788765 ], [ 797989.688410763861611, 333865.75146829301957 ], [ 799100.606834285194054, 333868.494445520511363 ], [ 799300.617324088700116, 337450.718169090803713 ], [ 798189.709856106084771, 337447.943879467085935 ], [ 798240.048486407846212, 338343.501332525105681 ], [ 794907.388715533539653, 338335.217194809461944 ], [ 794857.041805987246335, 337439.683089657628443 ], [ 791524.454574088216759, 337431.515409573272336 ], [ 791324.36728300654795, 333849.508565755560994 ], [ 790213.511680582072586, 333846.837238255597185 ], [ 790163.820507533149794, 332951.352396154892631 ], [ 792385.546043769223616, 332956.690005240845494 ], [ 792286.574651200789958, 331165.700791033392306 ], [ 793397.456193103455007, 331168.369554949516896 ], [ 793348.17322098580189, 330272.872772614122368 ], [ 791126.413627434405498, 330267.560710094752721 ], [ 790979.348596201278269, 327581.138136606954504 ], [ 792090.23201909114141, 327583.766199533711188 ], [ 791944.375188743695617, 324897.353291857405566 ], [ 788611.727431182516739, 324889.567600216949359 ], [ 788855.529069217387587, 329366.826518019195646 ], [ 787744.677519799908623, 329364.213478444027714 ], [ 787646.751372139668092, 327573.314199553802609 ], [ 786535.903199221938848, 327570.726303109549917 ], [ 787030.896170666906983, 336525.293111858132761 ], [ 785920.083969572558999, 336522.640145567944273 ], [ 785670.906494845403358, 332045.34870042669354 ], [ 783449.280732970451936, 332040.14850375871174 ], [ 783548.562491932185367, 333831.024173451005481 ], [ 781326.982205749023706, 333825.835008884139825 ], [ 781277.269144309335388, 332930.41018994624028 ], [ 780166.489127145148814, 332927.838333419174887 ], [ 780116.906749262474477, 332032.424532948527485 ], [ 779006.132528116228059, 332029.870227546140086 ], [ 778858.177787144319154, 329343.672581916616764 ], [ 777747.40389457391575, 329341.15039144421462 ], [ 777845.912393039790913, 331131.930587219481822 ], [ 776735.152400256250985, 331129.403921198623721 ], [ 776784.609542467282154, 332024.792141687008552 ], [ 775673.860710137523711, 332022.268360450165346 ], [ 775773.180825621355325, 333813.041129480116069 ], [ 774662.445878638885915, 333810.513041654485278 ], [ 774513.657663851045072, 331124.381029435433447 ], [ 773402.922852406045422, 331121.884802921675146 ], [ 773452.388196919928305, 332017.251319424132816 ], [ 772341.664448211202398, 332014.758058864506893 ], [ 772292.196366920135915, 331119.398722141515464 ], [ 770070.768238193937577, 331114.456996256252751 ], [ 770021.428171686362475, 330219.11552217125427 ], [ 771132.140839075902477, 330221.574191448802594 ], [ 771082.936989983776584, 329326.229175288521219 ], [ 768861.514427289599553, 329321.336161386047024 ], [ 768910.723727197619155, 330216.666970049613155 ], [ 765578.65939210774377, 330209.382012867485173 ], [ 765628.010400393628515, 331104.695276594778989 ], [ 764517.341247272561304, 331102.280205347226001 ], [ 764566.828523547621444, 331997.590051854785997 ], [ 762345.51984397135675, 331992.776443999959156 ], [ 762395.146160254487768, 332888.075966625881847 ], [ 761284.506577429594472, 332885.677507840446196 ], [ 761534.655200772453099, 337362.19440591451712 ], [ 763755.914565403596498, 337367.070861793472432 ], [ 763705.623328952351585, 336471.746388246014249 ], [ 764816.267831591772847, 336474.193134719098452 ], [ 764766.112914175027981, 335578.865304894396104 ], [ 765876.768262706696987, 335581.31535219628131 ], [ 765926.920397081994452, 336476.650188508268911 ], [ 767037.581059320364147, 336479.117549990885891 ], [ 767087.863924527540803, 337374.463054348889273 ], [ 765977.206051339395344, 337371.988655162567738 ], [ 766027.625225150026381, 338267.330762140918523 ], [ 767138.280301919090562, 338269.812202823464759 ], [ 767290.330503920791671, 340955.881612903438509 ], [ 766179.683860623743385, 340953.37902487476822 ], [ 766332.944160244194791, 343639.460410113853868 ], [ 765222.314124504569918, 343636.947167409642134 ], [ 765273.670775367761962, 344532.307995468319859 ], [ 767494.933257221244276, 344537.359117266198155 ], [ 767392.364860154222697, 342746.612956839322578 ], [ 768503.013984559453093, 342749.140162367373705 ], [ 768451.932883050525561, 341853.76555529498728 ], [ 769562.593012109748088, 341856.296145846834406 ], [ 769511.648236906155944, 340960.918125091702677 ], [ 773954.382437515421771, 340971.116504852718208 ], [ 773903.582407773705199, 340075.71347025729483 ], [ 775014.289534265641123, 340078.281938177300617 ], [ 774963.625773132545874, 339182.87535944848787 ], [ 777185.070779230445623, 339188.028992609353736 ], [ 777286.520548562868498, 340978.874987979885191 ], [ 776175.799447498167865, 340976.278378689545207 ], [ 776226.727312881266698, 341871.699645521875937 ], [ 777337.445600462844595, 341874.303558541112579 ], [ 777388.50409674574621, 342769.735857813269831 ], [ 780720.701304686255753, 342777.632543226704001 ], [ 780669.651262589497492, 341882.178156554757152 ], [ 784001.933835810981691, 341890.147051484731492 ], [ 783951.025635950965807, 340994.674082153243944 ], [ 787283.394443323137239, 341002.714715036854614 ], [ 787436.493955610319972, 343689.212633115646895 ], [ 786325.704075908754021, 343686.499306375335436 ], [ 786377.006825879914686, 344581.998603868705686 ], [ 787487.793882536469027, 344584.719492958276533 ] ], [ [ 809099.286676691030152, 333893.641972337325569 ], [ 809049.641733345924877, 332998.023745471495204 ], [ 810160.655493445694447, 333000.861021999444347 ], [ 810210.297729330370203, 333896.48734227346722 ], [ 809099.286676691030152, 333893.641972337325569 ] ], [ [ 813247.581109466496855, 328531.236375999753363 ], [ 813296.549190771533176, 329426.868487863335758 ], [ 812185.496242170222104, 329424.033233520865906 ], [ 812136.525493485387415, 328528.409278862527572 ], [ 813247.581109466496855, 328531.236375999753363 ] ], [ [ 791574.809775021625683, 338327.026413989369757 ], [ 790463.967932164436206, 338324.316897731798235 ], [ 790413.609964731615037, 337428.813538639748003 ], [ 791524.454574088216759, 337431.515409573272336 ], [ 791574.809775021625683, 338327.026413989369757 ] ], [ [ 769309.204100820468739, 337379.442859624396078 ], [ 769359.614889476681128, 338274.806173397868406 ], [ 768248.943512061843649, 338272.304006448248401 ], [ 768198.529929721611552, 337376.94778904231498 ], [ 769309.204100820468739, 337379.442859624396078 ] ], [ [ 785970.319629083271138, 337418.109489321650472 ], [ 786020.688676036894321, 338313.582541692827363 ], [ 784909.890721230884083, 338310.924877869780175 ], [ 784859.518901012605056, 337415.459333540988155 ], [ 785970.319629083271138, 337418.109489321650472 ] ], [ [ 807889.122979016508907, 332099.590254502661992 ], [ 807938.637387587339617, 332995.196682677720673 ], [ 805716.656803305260837, 332989.573196556302719 ], [ 805766.309876969316974, 333885.167308061849326 ], [ 804655.336283300770447, 333882.362900367297698 ], [ 804556.157975756097585, 332091.194365877890959 ], [ 805667.136987684410997, 332093.982810314919334 ], [ 805617.75043041841127, 331198.396139004733413 ], [ 806728.741450462955981, 331201.186764911923092 ], [ 806778.125310788629577, 332096.781439713144209 ], [ 807889.122979016508907, 332099.590254502661992 ] ], [ [ 788953.983305323054083, 331157.755412434926257 ], [ 789003.410475172218867, 332053.22532760805916 ], [ 787892.567058162298054, 332050.589607054193038 ], [ 787843.13717021048069, 331155.127255929110106 ], [ 788953.983305323054083, 331157.755412434926257 ] ], [ [ 808803.415567632182501, 328519.988451558339875 ], [ 808852.394326273701154, 329415.588099482818507 ], [ 807741.379217760288157, 329412.793263024534099 ], [ 807692.397786523681134, 328517.201662388339173 ], [ 808803.415567632182501, 328519.988451558339875 ] ] ], [ [ [ 786531.715383522328921, 347268.519277225597762 ], [ 786480.01248001656495, 346373.008579105255194 ], [ 787590.79386867384892, 346375.744604533130769 ], [ 787539.227187001029961, 345480.230146698304452 ], [ 786428.442960691638291, 345477.501691382960416 ], [ 786377.006825879914686, 344581.998603868705686 ], [ 783044.697836410487071, 344573.899306019069627 ], [ 782993.386609023436904, 343678.422530846437439 ], [ 781882.631397768040188, 343675.751339189300779 ], [ 781933.94545372389257, 344571.220661826839205 ], [ 780823.201654762262478, 344568.552577826427296 ], [ 780926.235690484056249, 346359.487694990588352 ], [ 779815.506125981570221, 346356.815363865462132 ], [ 780023.186700944323093, 349938.701509705744684 ], [ 782244.63147378526628, 349944.116217726026662 ], [ 782192.516938253073022, 349048.624095734616276 ], [ 784414.001823010854423, 349054.066724016563967 ], [ 784310.184432763373479, 347263.064010573143605 ], [ 786531.715383522328921, 347268.519277225597762 ] ] ], [ [ [ 782349.260780807118863, 351735.111978185363114 ], [ 782401.775551627739333, 352630.615636982256547 ], [ 781291.057551651960239, 352627.880551600421313 ], [ 781343.708636712632142, 353523.38061203568941 ], [ 779122.304100706009194, 353517.928015118988696 ], [ 779228.018189759692177, 355308.910046180535574 ], [ 778117.334519594791345, 355306.18522227316862 ], [ 778170.394641745369881, 356201.674665524624288 ], [ 780391.764623622875661, 356207.150016948231496 ], [ 780444.952312785200775, 357102.65817408321891 ], [ 781555.647154269274324, 357105.41967672528699 ], [ 781662.416914674802683, 358896.462645200837869 ], [ 782773.114438919583336, 358899.250064528197981 ], [ 782613.16874242562335, 356212.669033247977495 ], [ 781502.462398963049054, 356209.904066777380649 ], [ 781449.411060706945136, 355314.392359458899591 ], [ 783670.838198435958475, 355319.918229497794528 ], [ 783883.820569494040683, 358902.048483281570952 ], [ 786105.258785205194727, 358907.678320786624681 ], [ 786051.818976411479525, 358012.12475709640421 ], [ 787162.554070645244792, 358014.948578582028858 ], [ 787109.250582974287681, 357119.39135987701593 ], [ 785998.512554739136249, 357116.575132493628189 ], [ 785945.339520531706512, 356221.029436762852129 ], [ 787056.080475465627387, 356223.838074062019587 ], [ 786739.860832743579522, 350850.600377582653891 ], [ 785629.102471000514925, 350847.837196976644918 ], [ 785733.981265122303739, 352638.885738348704763 ], [ 784623.237374463118613, 352636.118229933956172 ], [ 784570.728391065262258, 351740.599568119156174 ], [ 782349.260780807118863, 351735.111978185363114 ] ], [ [ 780338.710358832031488, 355311.645758435712196 ], [ 780285.789518756791949, 354416.145388386386912 ], [ 781396.493139844154939, 354418.884544600558002 ], [ 781449.411060706945136, 355314.392359458899591 ], [ 780338.710358832031488, 355311.645758435712196 ] ] ], [ [ [ 788219.99735025386326, 357122.218533499340992 ], [ 788166.830168013693765, 356226.657630142348353 ], [ 787056.080475465627387, 356223.838074062019587 ], [ 787109.250582974287681, 357119.39135987701593 ], [ 788219.99735025386326, 357122.218533499340992 ] ] ], [ [ [ 780551.727962863515131, 358893.686224871256854 ], [ 779441.047549594193697, 358890.920803113258444 ], [ 779602.220592690631747, 361577.470048621878959 ], [ 780712.8921122077154, 361580.257794862205628 ], [ 780659.037306320038624, 360684.729992129432503 ], [ 781769.720339179737493, 360687.521346295950934 ], [ 781716.001919087022543, 359791.99002408090746 ], [ 780605.315923091722652, 359789.206138856650796 ], [ 780551.727962863515131, 358893.686224871256854 ] ] ], [ [ [ 783150.990352795575745, 365168.077415015897714 ], [ 782040.313662788132206, 365165.237463902099989 ], [ 782094.832569707301445, 366060.792660071281716 ], [ 783205.506254135863855, 366063.64013207872631 ], [ 783150.990352795575745, 365168.077415015897714 ] ] ], [ [ [ 788978.341896067955531, 369660.48921688698465 ], [ 787867.636848864378408, 369657.554971157631371 ], [ 787702.92478083667811, 366970.739325576345436 ], [ 788813.638888457091525, 366973.6505595901981 ], [ 788650.136202487279661, 364286.848349196719937 ], [ 785317.993113294010982, 364278.21706808329327 ], [ 785426.879510791390203, 366069.36873371276306 ], [ 784316.188556535867974, 366066.498823146219365 ], [ 784425.614546522498131, 367857.651432933053002 ], [ 785536.299473566701636, 367860.536507475539111 ], [ 785591.209541062125936, 368756.126460491854232 ], [ 784480.527638581814244, 368753.233797757828142 ], [ 784535.574128218460828, 369648.82021617423743 ], [ 783424.903915366623551, 369645.931290424545296 ], [ 783590.852910103974864, 372332.692249909625389 ], [ 784701.513979046139866, 372335.603895307285711 ], [ 784757.094055446796119, 373231.206630437693093 ], [ 785867.760725519037805, 373234.137296571279876 ], [ 785756.740083751967177, 371442.92070695804432 ], [ 787978.111771381925792, 371448.785765958367847 ], [ 787922.807622639462352, 370553.168325274367817 ], [ 789033.509635114576668, 370556.110249881981872 ], [ 788978.341896067955531, 369660.48921688698465 ] ], [ [ 786756.940561079187319, 369654.632056094647851 ], [ 786812.114371065748855, 370550.237758793635294 ], [ 785701.429846507264301, 370547.318549989780877 ], [ 785646.252998826792464, 369651.720471249194816 ], [ 786756.940561079187319, 369654.632056094647851 ] ] ], [ [ [ 793476.40597182919737, 370567.991538642090745 ], [ 792365.668576844385825, 370565.004176992166322 ], [ 792420.960566392634064, 371460.652514645305928 ], [ 793531.694925284828059, 371463.647669198107906 ], [ 793476.40597182919737, 370567.991538642090745 ] ] ], [ [ [ 788089.12019234104082, 373240.032948102802038 ], [ 790310.514720632927492, 373245.974361674161628 ], [ 790366.212865823647007, 374141.619542380445637 ], [ 791476.920301822014153, 374144.615161615714896 ], [ 791365.663485305616632, 372353.313429094327148 ], [ 792476.385901393834502, 372356.304965855611954 ], [ 792420.960566392634064, 371460.652514645305928 ], [ 787978.111771381925792, 371448.785765958367847 ], [ 788089.12019234104082, 373240.032948102802038 ] ] ], [ [ [ 794148.673654792364687, 381316.139148185960948 ], [ 791927.281606393167749, 381309.988528414221946 ], [ 791984.176842883462086, 382205.679093663813546 ], [ 793094.86528488388285, 382208.756375054013915 ], [ 793266.341665021143854, 384895.876985928800423 ], [ 794377.029609053162858, 384898.989541413844563 ], [ 794319.740620378172025, 384003.270559709926601 ], [ 796541.149691685801372, 384009.51527506444836 ], [ 796484.000307568581775, 383113.78476873843465 ], [ 794262.584964870242402, 383107.555840509827249 ], [ 794148.673654792364687, 381316.139148185960948 ] ] ], [ [ [ 792213.091269680997357, 385788.483789869060274 ], [ 791102.424288577749394, 385785.387026658456307 ], [ 791275.519763885065913, 388472.51195103226928 ], [ 792386.177234439412132, 388475.632158573833294 ], [ 792328.348566474858671, 387579.911743877106346 ], [ 793439.018105834838934, 387583.036013623059262 ], [ 793266.341665021143854, 384895.876985928800423 ], [ 792155.662641585455276, 384892.776229858107399 ], [ 792213.091269680997357, 385788.483789869060274 ] ] ], [ [ [ 844393.590346025535837, 285622.320887080335524 ], [ 842170.651819152757525, 285616.924342621234246 ], [ 842213.161029775859788, 286512.625465186778456 ], [ 841101.709728561574593, 286509.931587590661366 ], [ 841230.042395930271596, 289197.028520283754915 ], [ 842341.486787950852886, 289199.748699800635222 ], [ 842255.803261625347659, 287408.329891862114891 ], [ 843367.262706762179732, 287411.041358720511198 ], [ 843410.035657635191455, 288306.757894883921836 ], [ 844521.503275834023952, 288309.487009682692587 ], [ 844393.590346025535837, 285622.320887080335524 ] ] ], [ [ [ 839093.414342404226772, 290982.994463799404912 ], [ 840204.833305968204513, 290985.714324985223357 ], [ 840248.145304378587753, 291881.417897511390038 ], [ 841359.572311487980187, 291884.155445943819359 ], [ 841230.042395930271596, 289197.028520283754915 ], [ 840118.608411976136267, 289194.317220566852484 ], [ 840161.654341745073907, 290090.014102854649536 ], [ 839050.233051431132481, 290087.30296372884186 ], [ 839093.414342404226772, 290982.994463799404912 ] ] ], [ [ [ 823621.446706721559167, 292737.008759303658735 ], [ 822510.184014581609517, 292734.406235667644069 ], [ 822553.799789388547651, 293629.980130038515199 ], [ 823665.060116088250652, 293632.590973122220021 ], [ 823621.446706721559167, 292737.008759303658735 ] ] ], [ [ [ 817041.40581203205511, 294512.597083728003781 ], [ 815930.206368003156967, 294510.032138842681888 ], [ 816062.295062762452289, 297196.635690784954932 ], [ 817173.487324689514935, 297199.225129130994901 ], [ 817041.40581203205511, 294512.597083728003781 ] ] ], [ [ [ 835131.720830798847601, 300824.652467012929264 ], [ 834020.379367805668153, 300821.882623138371855 ], [ 833754.434838371351361, 295447.820841889129952 ], [ 834865.790661201812327, 295450.539009372587316 ], [ 834778.211817277828231, 293659.19506143394392 ], [ 833666.851265121717006, 293656.494092682900373 ], [ 833710.576513727544807, 294552.155780926055741 ], [ 831487.890627819811925, 294546.763773336831946 ], [ 831575.74984711734578, 296338.063032736303285 ], [ 828241.811007401789539, 296329.991872313548811 ], [ 828197.807712563313544, 295434.366037395142484 ], [ 827086.512446988956071, 295431.702280184079427 ], [ 827130.51812419842463, 296327.31967573921429 ], [ 826019.235215999768116, 296324.656573595537338 ], [ 825975.227155257249251, 295429.047589910042007 ], [ 824863.9518033626955, 295426.40196616447065 ], [ 824820.07449110224843, 294530.804723461973481 ], [ 825931.352220506872982, 294533.441966156940907 ], [ 825844.001730069983751, 292742.240756720479112 ], [ 824732.719267214182764, 292739.620266187353991 ], [ 824776.330312295816839, 293635.210826943046413 ], [ 823665.060116088250652, 293632.590973122220021 ], [ 823796.699188607279211, 296319.357650963414926 ], [ 824907.962248803814873, 296322.002565472968854 ], [ 825040.792381476378068, 299008.824607294169255 ], [ 823929.536522020818666, 299006.154602067079395 ], [ 823974.081912076449953, 299901.760361778084189 ], [ 822862.838344941381365, 299899.091189425729681 ], [ 822907.519296997459605, 300794.692008333455306 ], [ 821796.287997744395398, 300792.023720048600808 ], [ 821931.137044028146192, 303478.821716510632541 ], [ 823042.361027531558648, 303481.514981225423981 ], [ 822997.280638570780866, 302585.903893813665491 ], [ 824108.516915109474212, 302588.598114874039311 ], [ 824198.805941738653928, 304379.84044953295961 ], [ 828643.830638793646358, 304390.777608821808826 ], [ 828689.165034746751189, 305286.437685017648619 ], [ 830911.732460311846808, 305291.979345672181807 ], [ 830821.206572446040809, 303500.628613641078118 ], [ 831932.510295482468791, 303503.396391797519755 ], [ 831887.449429845553823, 302607.717683597991709 ], [ 835221.428759317146614, 302616.051104744605254 ], [ 835131.720830798847601, 300824.652467012929264 ] ] ], [ [ [ 810774.324037536396645, 302556.880196948884986 ], [ 810684.508995268493891, 300765.848411207436584 ], [ 808462.267934371950105, 300760.724071952572558 ], [ 808552.09277144446969, 302551.72382675652625 ], [ 810774.324037536396645, 302556.880196948884986 ] ] ], [ [ [ 812112.310535881202668, 307037.151678623573389 ], [ 811001.193070815177634, 307034.519268071802799 ], [ 811092.873249192489311, 308825.598955878522247 ], [ 812203.985719201504253, 308828.247512353991624 ], [ 812112.310535881202668, 307037.151678623573389 ] ] ], [ [ [ 812482.208431625971571, 314201.61866038152948 ], [ 814704.431658003013581, 314207.041731935110874 ], [ 814611.168051959830336, 312415.871451410057489 ], [ 813500.046583298943006, 312413.171394034463447 ], [ 813407.310728812590241, 310622.031476839445531 ], [ 812296.193764473311603, 310619.357232071226463 ], [ 812250.02313423785381, 309723.800631295249332 ], [ 811138.913172604050487, 309721.14399664872326 ], [ 811092.873249192489311, 308825.598955878522247 ], [ 809981.770261068595573, 308822.959872503241058 ], [ 810073.988356753485277, 310614.037327518628445 ], [ 811185.0863184442278, 310616.692515767528675 ], [ 811277.832276261411607, 312407.800030377286021 ], [ 812388.934669391484931, 312410.480920494650491 ], [ 812482.208431625971571, 314201.61866038152948 ] ] ], [ [ [ 821278.099416407989338, 312432.27307956275763 ], [ 820166.919905713060871, 312429.515510404307861 ], [ 820213.472453405964188, 313325.140033464878798 ], [ 822435.836213832255453, 313330.681410133605823 ], [ 822389.288719710661098, 312435.040235493448563 ], [ 823500.48784960329067, 312437.816978621704038 ], [ 823454.076022644294426, 311542.170984997006599 ], [ 821231.682552738115191, 311536.643785461143125 ], [ 821278.099416407989338, 312432.27307956275763 ] ] ], [ [ [ 819289.857239721342921, 316904.884268011315726 ], [ 818178.709933724952862, 316902.104550395975821 ], [ 818320.779941846150905, 319588.992708609963302 ], [ 817209.650055840611458, 319586.197961211844813 ], [ 817305.03445930511225, 321377.45826476579532 ], [ 819527.293564893421717, 321383.090659501671325 ], [ 819479.539962501032278, 320487.442146582703572 ], [ 820590.686697493889369, 320490.264818262425251 ], [ 820448.232638993300498, 317803.316075815353543 ], [ 819337.078166806371883, 317800.518332540872507 ], [ 819289.857239721342921, 316904.884268011315726 ] ] ], [ [ [ 798561.575401966227219, 324017.683556085277814 ], [ 799672.532449267921038, 324020.350667456223164 ], [ 799720.866142787504941, 324915.868533300701529 ], [ 800831.829674358014017, 324918.55341689765919 ], [ 800735.300868323771283, 323127.505619477888104 ], [ 799624.332053161575459, 323124.836405431502499 ], [ 799480.530652368208393, 320438.315139722661115 ], [ 798369.563090868294239, 320435.679228519205935 ], [ 798561.575401966227219, 324017.683556085277814 ] ] ], [ [ [ 817449.109932504827157, 324064.375978125375696 ], [ 818560.226802447461523, 324067.212052153947297 ], [ 818512.071080344729125, 323171.56089349463582 ], [ 819623.200273634050973, 323174.398610281408764 ], [ 819575.180335370940156, 322278.742810590134468 ], [ 817352.926434937049635, 322273.093857735046186 ], [ 817449.109932504827157, 324064.375978125375696 ] ] ], [ [ [ 817449.109932504827157, 324064.375978125375696 ], [ 816338.002735582413152, 324061.549846490263008 ], [ 816386.296883038245142, 324957.188145999563858 ], [ 817497.401453839382157, 324960.022526380780619 ], [ 817449.109932504827157, 324064.375978125375696 ] ] ], [ [ [ 798755.720587942516431, 327599.745486481871922 ], [ 797644.783272076863796, 327597.057161688164342 ], [ 797693.655505068716593, 328492.573925260803662 ], [ 798804.590143836569041, 328495.270046405203175 ], [ 798755.720587942516431, 327599.745486481871922 ] ] ], [ [ [ 799915.53388486104086, 328497.976240097021218 ], [ 798804.590143836569041, 328495.270046405203175 ], [ 798853.593002873240039, 329390.798257772636134 ], [ 799964.534060841542669, 329393.512278977956157 ], [ 799915.53388486104086, 328497.976240097021218 ] ] ], [ [ [ 841027.161502561764792, 328605.190335523919202 ], [ 839915.85710468958132, 328602.111152136523742 ], [ 840013.799046975327656, 330393.787215959222522 ], [ 841125.098167594056576, 330396.88409235898871 ], [ 841027.161502561764792, 328605.190335523919202 ] ] ], [ [ [ 840112.273133227834478, 332185.478518234565854 ], [ 842334.871161084156483, 332191.717886351805646 ], [ 842236.407683859812096, 330399.991113231691997 ], [ 841125.098167594056576, 330396.88409235898871 ], [ 841174.266043542185798, 331292.736685456184205 ], [ 840062.969572256319225, 331289.630956969805993 ], [ 840112.273133227834478, 332185.478518234565854 ] ] ], [ [ [ 810612.23182592750527, 341061.63379938469734 ], [ 809501.24269336159341, 341058.723546011722647 ], [ 809552.086749449372292, 341954.375868224946316 ], [ 810663.073109461693093, 341957.294249200727791 ], [ 810612.23182592750527, 341061.63379938469734 ] ] ], [ [ [ 811774.068931136513129, 341960.223119149624836 ], [ 810663.073109461693093, 341957.294249200727791 ], [ 810765.15535400249064, 343748.626691633078735 ], [ 811876.145611594314687, 343751.571883310447447 ], [ 811978.755164305912331, 345542.936122713959776 ], [ 815311.766300174524076, 345551.884307332569733 ], [ 815209.173510077409446, 343760.47072649205802 ], [ 812987.145367506192997, 343754.527619376371149 ], [ 812936.043202380882576, 342858.843117821263149 ], [ 811825.04066217248328, 342855.895572032546625 ], [ 811774.068931136513129, 341960.223119149624836 ] ] ], [ [ [ 803931.56743806716986, 359849.983864119567443 ], [ 802820.703523462638259, 359846.979366406507324 ], [ 802874.365918009309098, 360742.657815861166455 ], [ 803985.226898267865181, 360745.670331792847719 ], [ 803931.56743806716986, 359849.983864119567443 ] ] ] ] } }
]
}
