{
"type": "FeatureCollection",
"name": "urban-2095",
"crs": { "type": "name", "properties": { "name": "urn:ogc:def:crs:EPSG::32636" } },
"features": [
{ "type": "Feature", "properties": { "year": 2095 }, "geometry": { "type": "MultiPolygon", "coordinates": [ [ [ [ 202404.246173824882135, 3408385.446697069797665 ], [ 203453.88445989676984, 3408356.328486904501915 ], [ 203269.003697077510878, 3407410.504613217897713 ], [ 202219.329351679771207, 3407439.632068843580782 ], [ 202034.460538085841108, 3406493.849309796001762 ], [ 199935.024023812846281, 3406552.432076478842646 ], [ 200304.95390871289419, 3408443.992676339577883 ], [ 199255.299892888229806, 3408473.420452875085175 ], [ 199810.663224021962378, 3411310.972740932367742 ], [ 200860.208947423379868, 3411281.572541071102023 ], [ 200489.990894811751787, 3409389.820752661209553 ], [ 202589.211003140721004, 3409331.293211068492383 ], [ 202404.246173824882135, 3408385.446697069797665 ] ] ], [ [ [ 191414.106415016809478, 3411549.892692579887807 ], [ 192463.694759108184371, 3411519.666156800463796 ], [ 192092.898747846134938, 3409628.060020483564585 ], [ 191043.238108379358891, 3409658.304515179712325 ], [ 191414.106415016809478, 3411549.892692579887807 ] ] ], [ [ [ 201045.390011177980341, 3412227.496286375913769 ], [ 199995.880406725627836, 3412256.887264670804143 ], [ 199810.663224021962378, 3411310.972740932367742 ], [ 197711.555968925647903, 3411370.082980787847191 ], [ 197526.314588314678986, 3410424.218679877463728 ], [ 195427.113877539115492, 3410483.760286099743098 ], [ 195241.848320965189487, 3409537.946022677235305 ], [ 193142.55398417863762, 3409597.918776048813015 ], [ 193513.277711338887457, 3411489.542926296591759 ], [ 192463.694759108184371, 3411519.666156800463796 ], [ 192649.164930995320901, 3412465.516900010872632 ], [ 195797.789227989385836, 3412375.484278483781964 ], [ 195983.199019125371706, 3413321.394040623214096 ], [ 198082.182898929517251, 3413261.907185958232731 ], [ 198267.56844557315344, 3414207.867123437579721 ], [ 199317.016291430743877, 3414178.287905873265117 ], [ 199131.666896368958987, 3413232.318772500846535 ], [ 201230.619098060589749, 3413173.451954570133239 ], [ 201045.390011177980341, 3412227.496286375913769 ] ] ], [ [ [ 189314.913477796013467, 3411610.65569531545043 ], [ 189686.118979344959371, 3413502.335099444724619 ], [ 190735.645801365782972, 3413471.919849173165858 ], [ 190550.055165792873595, 3412526.055305263027549 ], [ 191599.612750684958883, 3412495.734434329438955 ], [ 191414.106415016809478, 3411549.892692579887807 ], [ 189314.913477796013467, 3411610.65569531545043 ] ] ], [ [ [ 174128.772694253711961, 3414916.72668793099001 ], [ 173942.554100949666463, 3413970.970664639957249 ], [ 172892.938107648049481, 3414003.040336076635867 ], [ 173079.192989092203788, 3414948.787823432125151 ], [ 174128.772694253711961, 3414916.72668793099001 ] ] ], [ [ [ 199687.859205732180271, 3416070.321969588287175 ], [ 200737.229462423652876, 3416040.864608019590378 ], [ 200366.458872356684878, 3414148.812053404282779 ], [ 199317.016291430743877, 3414178.287905873265117 ], [ 199687.859205732180271, 3416070.321969588287175 ] ] ], [ [ [ 196047.384554543939885, 3419027.365931443404406 ], [ 195861.65010924852686, 3418081.273910225834697 ], [ 194812.325823623861652, 3418111.230135531164706 ], [ 194998.096496612415649, 3419057.312997417990118 ], [ 196047.384554543939885, 3419027.365931443404406 ] ] ], [ [ [ 188025.123207691358402, 3421161.975827381014824 ], [ 188211.292119908845052, 3422108.090894473716617 ], [ 186112.842031705309637, 3422169.691408582031727 ], [ 186299.131741099059582, 3423115.820390209089965 ], [ 189446.689757426735014, 3423023.602061924058944 ], [ 189260.508995578216854, 3422077.446085854433477 ], [ 190309.720449978951365, 3422046.904904344119132 ], [ 190123.62413094524527, 3421100.77178790140897 ], [ 188025.123207691358402, 3421161.975827381014824 ] ] ], [ [ [ 190191.894268094212748, 3426808.545279710087925 ], [ 187044.77236433327198, 3426900.655188067816198 ], [ 187231.302959749184083, 3427846.943688604980707 ], [ 185133.267250507080462, 3427908.851163021754473 ], [ 185319.918808141839691, 3428855.153581580147147 ], [ 182172.933337654394563, 3428948.766543123871088 ], [ 181986.172553563315887, 3428002.490971912629902 ], [ 180937.129946254368406, 3428033.911883275490254 ], [ 181310.772591228305828, 3429926.477119302842766 ], [ 180261.797295503260102, 3429957.98411013931036 ], [ 180074.915418134711217, 3429011.694432591553777 ], [ 179025.898122014361434, 3429043.314163790550083 ], [ 178839.028059890086297, 3428097.065192459151149 ], [ 179888.081787766597699, 3428065.436622127424926 ], [ 179514.559273439110257, 3426173.016535913571715 ], [ 178465.432714277878404, 3426204.662740250118077 ], [ 178652.206256861507427, 3427150.848056822549552 ], [ 177603.110514617408626, 3427182.589259525761008 ], [ 177416.300556002533995, 3426236.41272509098053 ], [ 176367.162780386686791, 3426268.26649445714429 ], [ 176180.364683242165484, 3425322.130487636197358 ], [ 175131.184855219675228, 3425354.096757983323187 ], [ 174757.660714636323974, 3423461.937377489637583 ], [ 175806.913344137370586, 3423429.953726512845606 ], [ 175993.61487071152078, 3424376.026237183250487 ], [ 177042.825457715196535, 3424344.155002743471414 ], [ 176482.974877811444458, 3421506.006536640692502 ], [ 177532.288955197145697, 3421474.21286216378212 ], [ 176600.351909148215782, 3416744.555972063913941 ], [ 175550.856180899019819, 3416776.392968267202377 ], [ 175364.577294020797126, 3415830.565186948515475 ], [ 173265.496180597576313, 3415894.56687048682943 ], [ 173079.192989092203788, 3414948.787823432125151 ], [ 172029.607560622214805, 3414980.952421761117876 ], [ 172588.771006098599173, 3417818.358694567345083 ], [ 171539.28879952133866, 3417850.601228787563741 ], [ 172472.376013335888274, 3422580.200948730576783 ], [ 171423.069913572457153, 3422612.50432816427201 ], [ 172357.547265484288801, 3427342.852534127421677 ], [ 173406.671247753256466, 3427310.592230885289609 ], [ 173780.727549846691545, 3429202.970844965893775 ], [ 174829.772937151778024, 3429170.83175858296454 ], [ 175016.837084680737462, 3430117.077441560104489 ], [ 176065.84035177185433, 3430085.050978238228709 ], [ 176252.916322352015413, 3431031.337229819502681 ], [ 178350.833047455176711, 3430967.613606663886458 ], [ 178537.884348518331535, 3431913.949328954797238 ], [ 179586.797849463182501, 3431882.252258293796331 ], [ 179773.860934466472827, 3432828.628738798201084 ], [ 181871.598317056254018, 3432765.564253757242113 ], [ 182058.636689141218085, 3433711.990506688598543 ], [ 181009.807247932709288, 3433743.461824242025614 ], [ 181196.930340007063933, 3434689.911087084095925 ], [ 184343.292677164252382, 3434595.836056184023619 ], [ 184530.354521489527542, 3435542.344278847333044 ], [ 183481.609064513118938, 3435573.589580087922513 ], [ 183668.755614652996883, 3436520.120791068300605 ], [ 181571.321239424054511, 3436582.905530746094882 ], [ 181384.10167095635552, 3435636.392317019868642 ], [ 180335.339698099473026, 3435667.949760656338185 ], [ 180148.131860138615593, 3434721.477473299950361 ], [ 179099.327832952956669, 3434753.147887450177222 ], [ 178912.131742618046701, 3433806.716452685184777 ], [ 176814.433952408027835, 3433870.387098942417651 ], [ 176440.040580215514638, 3431977.655322703067213 ], [ 174342.174335549992975, 3432041.777146582491696 ], [ 174154.977097762806807, 3431095.47657315665856 ], [ 173105.999002709344495, 3431127.702150033786893 ], [ 172918.813585781026632, 3430181.442092099227011 ], [ 171869.793317594740074, 3430213.780287464614958 ], [ 172618.97093636309728, 3433998.976574032567441 ], [ 173667.845165210950654, 3433966.673172292299569 ], [ 174042.650853221362922, 3435859.479727197438478 ], [ 176140.236209612514358, 3435795.220129639841616 ], [ 176515.088929329998791, 3437688.189459650311619 ], [ 177563.800084897724446, 3437656.233479817863554 ], [ 177751.262316000531428, 3438602.774928239639848 ], [ 178799.931330583174713, 3438570.931975387502462 ], [ 178987.405270860122982, 3439517.514317808207124 ], [ 180036.032163342693821, 3439485.784457711968571 ], [ 180223.51779567921767, 3440432.407767975237221 ], [ 181272.102584916166961, 3440400.791066437028348 ], [ 181459.599892179656308, 3441347.455418420024216 ], [ 182508.142596993595362, 3441315.951941264793277 ], [ 182695.651562031940557, 3442262.657408870756626 ], [ 183744.152201212476939, 3442231.267221947666258 ], [ 183931.672806856280658, 3443178.013879111036658 ], [ 184980.131399164325558, 3443146.737048297654837 ], [ 185167.663628223584965, 3444093.524968979414552 ], [ 186216.080192386172712, 3444062.361560178920627 ], [ 186403.62402765423758, 3445009.190818368457258 ], [ 187451.998582366446499, 3444978.140897506847978 ], [ 187639.554006617108826, 3445925.011567225214094 ], [ 188687.886570544214919, 3445894.07520025735721 ], [ 188875.453566532814875, 3446840.987355551682413 ], [ 189923.744158306799363, 3446810.164608454797417 ], [ 190111.322708769468591, 3447757.118323402479291 ], [ 191159.571346991113387, 3447726.409262182191014 ], [ 191347.161434644600376, 3448673.404610887635499 ], [ 192395.368137883429881, 3448642.809301573317498 ], [ 192958.317351369478274, 3451484.017551418859512 ], [ 196102.576135917217471, 3451392.943135922309011 ], [ 195914.988168271374889, 3450445.812943398952484 ], [ 198011.207759135169908, 3450385.599976196419448 ], [ 198198.722488240164239, 3451332.749246522318572 ], [ 199246.787867159524467, 3451302.809006683528423 ], [ 199621.888291740615387, 3453197.224157367367297 ], [ 198573.896166955935769, 3453227.145192101597786 ], [ 198949.262130369548686, 3455121.671123804990202 ], [ 199997.180957781616598, 3455091.76935383444652 ], [ 200372.665854089718778, 3456986.444731715135276 ], [ 201420.506200255593285, 3456956.666916274465621 ], [ 201608.284050308691803, 3457904.063177841715515 ], [ 206847.225978398520965, 3457756.792394492775202 ], [ 207034.868495634524152, 3458704.270315954927355 ], [ 208082.6050687233801, 3458675.139972247183323 ], [ 208457.960713443753775, 3460570.213770737405866 ], [ 209505.618944208545145, 3460541.207970862742513 ], [ 209693.33204188477248, 3461488.803954406175762 ], [ 210740.948617695830762, 3461459.912857454735786 ], [ 210928.672985723300371, 3462407.551632365211844 ], [ 211976.247924650378991, 3462378.775304770562798 ], [ 212351.76710277015809, 3464274.171434661839157 ], [ 214446.755440662265755, 3464216.973445795476437 ], [ 214822.31949947233079, 3466112.541551410220563 ], [ 215869.732923670089804, 3466084.120108244009316 ], [ 216057.550096626160666, 3467031.963739243336022 ], [ 217104.921950505115092, 3467003.65737399738282 ], [ 217292.750293322780635, 3467951.544201724231243 ], [ 218340.080594778410159, 3467923.35298097319901 ], [ 218527.920089754275978, 3468871.283080173656344 ], [ 219575.208856649463996, 3468843.207070516422391 ], [ 219763.05948605760932, 3469791.180515971966088 ], [ 220810.306736223748885, 3469763.219784033950418 ], [ 220998.168482321780175, 3470711.236650553066283 ], [ 223092.575248365523294, 3470655.650853451807052 ], [ 222154.11218599404674, 3465915.793340045493096 ], [ 223201.492015868483577, 3465888.105827500578016 ], [ 223013.979575492907315, 3464940.223126729484648 ], [ 225108.79840187903028, 3464885.141774041112512 ], [ 224921.40709705511108, 3463937.271311990451068 ], [ 233300.788961045152973, 3463721.053295758552849 ], [ 233487.88723886362277, 3464669.008035669568926 ], [ 235582.61354558513267, 3464616.022383060771972 ], [ 235769.686314679274801, 3465564.031680766027421 ], [ 236817.00607625261182, 3465537.706732355989516 ], [ 237004.089923075865954, 3466485.760003841482103 ], [ 238051.368578738445649, 3466459.550616174004972 ], [ 237677.321777161152568, 3464563.455789541359991 ], [ 239772.012076531391358, 3464511.308228629175574 ], [ 239958.938458580232691, 3465459.360608234070241 ], [ 238911.632130344165489, 3465485.371199386194348 ], [ 239098.642761892668204, 3466433.446041853167117 ], [ 240145.91249038890237, 3466407.446277594659477 ], [ 240707.12046955502592, 3469251.903197042644024 ], [ 241754.275912459241226, 3469226.040893234312534 ], [ 241941.403890441695694, 3470174.27080911397934 ], [ 242988.518297309987247, 3470148.524333890993148 ], [ 243362.843847840529634, 3472045.106286436785012 ], [ 244409.880586690298514, 3472019.486706778407097 ], [ 244971.616027038224274, 3474864.643576733302325 ], [ 247065.456486625538673, 3474813.785731370095164 ], [ 247252.723469439166365, 3475762.26055114204064 ], [ 249346.473376516049029, 3475711.845176233910024 ], [ 249721.003312640881632, 3477608.94021838484332 ], [ 248674.203875115432311, 3477634.072987366933376 ], [ 249048.997448157839244, 3479531.280065338592976 ], [ 250095.723464887589216, 3479506.16974341403693 ], [ 249908.339612502895761, 3478557.538161824457347 ], [ 250955.098100595845608, 3478532.521752140019089 ], [ 251329.839924080704805, 3480429.841103432700038 ], [ 249236.46557833784027, 3480479.934056328143924 ], [ 249799.155325420433655, 3483326.098046684637666 ], [ 248752.572045026550768, 3483351.268577747512609 ], [ 249128.009887366322801, 3485248.857187217567116 ], [ 250174.519605497946031, 3485223.709229401312768 ], [ 249986.813688264082884, 3484274.886774144601077 ], [ 253126.427886147255776, 3484200.040878959000111 ], [ 252938.879819297464564, 3483251.218148559797555 ], [ 256078.566663742181845, 3483177.285727324895561 ], [ 255891.176336866425117, 3482228.462546403054148 ], [ 256937.767063073988538, 3482204.017484581563622 ], [ 256563.202310891705565, 3480306.449586756061763 ], [ 257609.862333855911857, 3480282.086835540365428 ], [ 257422.687873675022274, 3479333.342101376503706 ], [ 259516.068973218498286, 3479284.90916433930397 ], [ 259890.318612195929745, 3481182.478366085328162 ], [ 260936.929671537014656, 3481158.442673998884857 ], [ 260749.817812915774994, 3480209.629630908835679 ], [ 264936.36840362905059, 3480114.49235950736329 ], [ 264749.450636427325662, 3479165.66677400842309 ], [ 265796.114924802444875, 3479142.133692328352481 ], [ 265609.281194782292005, 3478193.330328356008977 ], [ 266655.978143970714882, 3478169.890698552597314 ], [ 266282.526086667669006, 3476272.362246143631637 ], [ 267329.292300682689529, 3476249.004354329314083 ], [ 267515.958032482478302, 3477197.763320095371455 ], [ 269609.40541982545983, 3477151.38606707053259 ], [ 269422.812887533567846, 3476202.603676836006343 ], [ 270469.567295887274668, 3476179.560885323677212 ], [ 270656.123235935112461, 3477128.355029282625765 ], [ 271702.837157337809913, 3477105.429046778008342 ], [ 271516.31780453940155, 3476156.623121435754001 ], [ 273609.807193777756765, 3476111.062665007077157 ], [ 273423.408304596086964, 3475162.267044507432729 ], [ 272376.628975730447564, 3475185.006583389826119 ], [ 272190.240836777898949, 3474236.256702446844429 ], [ 275330.676938242511824, 3474168.317554491106421 ], [ 275516.955425926716998, 3475117.102937935385853 ], [ 276563.723253931093495, 3475094.678364568855613 ], [ 276377.48130675154971, 3474145.881091621238738 ], [ 277424.281872236053459, 3474123.549583930056542 ], [ 276493.963795993942767, 3469380.012921161483973 ], [ 277540.943065120954998, 3469357.726868007332087 ], [ 276426.339964803890325, 3463666.530092822387815 ], [ 277473.534037790843286, 3463644.277784791775048 ], [ 276546.179881999269128, 3458902.484613361302763 ], [ 277593.551989132072777, 3458880.278001273050904 ], [ 276482.504654883581679, 3453191.168728072196245 ], [ 277530.090766992070712, 3453168.996210813056678 ], [ 276420.962386286817491, 3447481.027994932141155 ], [ 277468.762069334625266, 3447458.889776928815991 ], [ 276545.969001015473623, 3442719.781032377388328 ], [ 277593.945686783757992, 3442697.688889783341438 ], [ 276856.706374330969993, 3438906.958363790530711 ], [ 274760.460178056848235, 3438951.338968101888895 ], [ 274391.979694162728265, 3437056.220273009035736 ], [ 277536.559703177481424, 3436989.736200895160437 ], [ 276432.901778970554005, 3431304.97411080962047 ], [ 277481.30358093068935, 3431282.951455077156425 ], [ 276379.562695046479348, 3425599.319648282602429 ], [ 277428.176406443468295, 3425577.332036482635885 ], [ 276511.538008337840438, 3420841.828853700309992 ], [ 277560.327332409331575, 3420819.887826594989747 ], [ 276462.135602348076645, 3415138.309601694345474 ], [ 277511.13604261376895, 3415116.403953953646123 ], [ 276414.859917003079318, 3409435.948137063998729 ], [ 277464.071042456198484, 3409414.078065340407193 ], [ 275823.167345559224486, 3400895.517843973822892 ], [ 272674.558645048469771, 3400961.737797381356359 ], [ 272856.799224394140765, 3401908.079731984995306 ], [ 271807.290662259852979, 3401930.34762196848169 ], [ 271625.014429595437832, 3400984.016707134898752 ], [ 268476.357578916591592, 3401051.470251838676631 ], [ 268658.740801394102164, 3401997.768273137975484 ], [ 267609.216061440180056, 3402020.447493443731219 ], [ 267426.797165710944682, 3401074.160381400492042 ], [ 252732.512944048386998, 3401402.61880211904645 ], [ 252915.431794835109031, 3402348.756084321066737 ], [ 251865.843758660572348, 3402372.978210343979299 ], [ 252231.895450801617699, 3404265.329319090116769 ], [ 251182.374588395090541, 3404289.633350659627467 ], [ 250633.261000714061083, 3401451.186901207547635 ], [ 249583.628451857017353, 3401475.625239178072661 ], [ 249949.728199166798731, 3403367.869475282728672 ], [ 248900.162781055056257, 3403392.389837105758488 ], [ 249266.52418342983583, 3405284.743148870766163 ], [ 246118.01616192876827, 3405358.859412620775402 ], [ 246301.3756069856463, 3406305.053581346292049 ], [ 243152.934924221219262, 3406380.065720013808459 ], [ 242969.467978079686873, 3405433.902550276834518 ], [ 241919.942905864067143, 3405459.122916257474571 ], [ 241553.080130641028518, 3403566.914344613905996 ], [ 242602.676858733379049, 3403541.673466998152435 ], [ 242419.352688430342823, 3402595.607519865036011 ], [ 243468.980694915924687, 3402570.4593211770989 ], [ 243285.739915248268517, 3401624.415501255076379 ], [ 241186.407772096310509, 3401674.835277300328016 ], [ 241003.143002695200266, 3400728.844265833031386 ], [ 235754.553543643502053, 3400856.744918002281338 ], [ 235937.997342775692232, 3401802.68532055336982 ], [ 232788.895440856926143, 3401880.630175793077797 ], [ 232605.344160730484873, 3400934.719807707704604 ], [ 229456.092387930373661, 3401013.620679919142276 ], [ 229823.457730936643202, 3402905.414024800527841 ], [ 227724.076199200295378, 3402958.489616685081273 ], [ 227356.567409966839477, 3401066.735740607604384 ], [ 224207.243879648274742, 3401147.180117910262197 ], [ 224574.967918341455515, 3403038.875204164069146 ], [ 222475.538193761312868, 3403092.980435275472701 ], [ 223027.698072910367046, 3405930.70544700557366 ], [ 218829.211046375334263, 3406040.035447167232633 ], [ 219013.503742831642739, 3406985.969202745240182 ], [ 217963.905645197548438, 3407013.549731338396668 ], [ 217595.296168387576472, 3405121.733580192551017 ], [ 215495.941215177299455, 3405177.242332004476339 ], [ 215680.29395666444907, 3406123.11519570229575 ], [ 214630.64495810889639, 3406151.014606463257223 ], [ 214261.915413797309157, 3404259.319983886554837 ], [ 215311.636345408798661, 3404231.401494716759771 ], [ 214943.170226631744299, 3402339.815832798369229 ], [ 217042.740833375835791, 3402284.249729699920863 ], [ 216858.651428709737957, 3401338.485813261941075 ], [ 208459.96047346823616, 3401563.297260464169085 ], [ 208644.337375243252609, 3402508.985603615641594 ], [ 206544.685589105240069, 3402566.199443213175982 ], [ 206729.182381748862099, 3403511.901027817744762 ], [ 208828.762217355484609, 3403454.705835474655032 ], [ 209013.234998415922746, 3404400.457972639240324 ], [ 207963.483634860138409, 3404428.994704057928175 ], [ 208148.040347463684157, 3405374.769396458286792 ], [ 209197.755717035499401, 3405346.242031707428396 ], [ 209751.605484341329429, 3408183.78590651974082 ], [ 212900.396950878843199, 3408098.907318490091711 ], [ 213085.001327883044723, 3409044.847672459669411 ], [ 214134.552361994981766, 3409016.770647414959967 ], [ 214319.168611563043669, 3409962.752600550185889 ], [ 213269.653603244572878, 3409990.820075493305922 ], [ 213454.353775563591626, 3410936.824544256087393 ], [ 211355.380740052147303, 3410993.250062145292759 ], [ 211170.608478255278897, 3410047.264640322886407 ], [ 212220.133564935007598, 3410018.990754225291312 ], [ 212035.445258319086861, 3409073.02787375729531 ], [ 208886.746653043082915, 3409158.187570977024734 ], [ 208701.998161153576802, 3408212.285083364695311 ], [ 207652.385723470186349, 3408240.887423310428858 ], [ 208206.883181341399904, 3411078.662636668421328 ], [ 209256.387459462101106, 3411050.088533999398351 ], [ 209441.279771205154248, 3411996.087042714934796 ], [ 208391.8115677642636, 3412024.651703606825322 ], [ 208576.78790210117586, 3412970.672796211205423 ], [ 207527.350678719463758, 3412999.331305030733347 ], [ 207342.338253451802302, 3412053.319641355890781 ], [ 206292.859809907851741, 3412082.090859595686197 ], [ 205922.906676104001235, 3410190.182307290378958 ], [ 201724.652489277767017, 3410306.374542830511928 ], [ 201909.74942588142585, 3411252.275616276543587 ], [ 205058.339575258316472, 3411165.004455184563994 ], [ 205428.460842444270384, 3413056.958250386640429 ], [ 203329.550364489492495, 3413114.998457083944231 ], [ 203514.755208933202084, 3414061.004649233072996 ], [ 202465.328312767553143, 3414090.170428801793605 ], [ 202650.617296147160232, 3415036.199285823851824 ], [ 203700.008052250661422, 3415007.042826924938709 ], [ 203885.308893057052046, 3415953.113006819505244 ], [ 200737.229462423652876, 3416040.864608019590378 ], [ 200922.68680066865636, 3416986.938839141279459 ], [ 199873.352722213545348, 3417016.386933208443224 ], [ 199687.859205732180271, 3416070.321969588287175 ], [ 197589.102912701491732, 3416129.546956870239228 ], [ 197960.282751291349996, 3418021.671926525887102 ], [ 196910.969079036614858, 3418051.421175151597708 ], [ 197096.667302248708438, 3418997.522383213974535 ], [ 196047.384554543939885, 3419027.365931443404406 ], [ 196233.167077786871232, 3419973.489903830457479 ], [ 190986.854568443144672, 3420124.214892182033509 ], [ 190800.89079674630193, 3419178.136514900717884 ], [ 189751.575913281762041, 3419208.601226811297238 ], [ 190123.62413094524527, 3421100.77178790140897 ], [ 191172.866470442328136, 3421070.325163695029914 ], [ 191358.926501376437955, 3422016.467346073593944 ], [ 190309.720449978951365, 3422046.904904344119132 ], [ 190495.864907324663363, 3422993.069933570921421 ], [ 189446.689757426735014, 3423023.602061924058944 ], [ 190191.894268094212748, 3426808.545279710087925 ] ], [ [ 265235.755901913391426, 3476295.825177248101681 ], [ 265049.064342140336521, 3475347.123355082701892 ], [ 264002.253562474797945, 3475370.702928766142577 ], [ 263815.572800380759872, 3474422.046504098456353 ], [ 264862.420175524195656, 3474398.455345171038061 ], [ 264675.823403601301834, 3473449.821130024269223 ], [ 265722.703359664883465, 3473426.323360230773687 ], [ 266282.526086667669006, 3476272.362246143631637 ], [ 265235.755901913391426, 3476295.825177248101681 ] ], [ [ 267142.673938624095172, 3475300.279248526785523 ], [ 268189.472790978150442, 3475277.014709763228893 ], [ 268376.054561718483455, 3476225.751498867757618 ], [ 267329.292300682689529, 3476249.004354329314083 ], [ 267142.673938624095172, 3475300.279248526785523 ] ], [ [ 247350.846895424794639, 3406280.255566484294832 ], [ 247534.218063079926651, 3407226.492623242083937 ], [ 246484.78260874026455, 3407251.280235247686505 ], [ 246301.3756069856463, 3406305.053581346292049 ], [ 247350.846895424794639, 3406280.255566484294832 ] ], [ [ 249633.075689026300097, 3407177.226510151755065 ], [ 249816.422726873483043, 3408123.517001465894282 ], [ 248767.031956103310222, 3408148.088067836128175 ], [ 248950.462360703560989, 3409094.400634652469307 ], [ 247901.103030291036703, 3409119.064303677529097 ], [ 247534.218063079926651, 3407226.492623242083937 ], [ 249633.075689026300097, 3407177.226510151755065 ] ], [ [ 249449.776174056896707, 3406230.96856490150094 ], [ 250499.234201076294994, 3406206.479571928735822 ], [ 250682.49789744138252, 3407152.748002818785608 ], [ 249633.075689026300097, 3407177.226510151755065 ], [ 249449.776174056896707, 3406230.96856490150094 ] ], [ [ 242103.445696109673008, 3406405.275808171369135 ], [ 241053.951937049831031, 3406430.588922617491335 ], [ 240870.413297481718473, 3405484.446280941832811 ], [ 241919.942905864067143, 3405459.122916257474571 ], [ 242103.445696109673008, 3406405.275808171369135 ] ], [ [ 239453.873016189580085, 3403617.704933675006032 ], [ 239270.441394877212588, 3402671.669605267699808 ], [ 241369.720148560038069, 3402620.858631304465234 ], [ 241553.080130641028518, 3403566.914344613905996 ], [ 239453.873016189580085, 3403617.704933675006032 ] ], [ [ 239637.352263216016581, 3404563.772608841303736 ], [ 237538.198496557248291, 3404614.954693951644003 ], [ 237354.647567800653633, 3403668.907322688959539 ], [ 239453.873016189580085, 3403617.704933675006032 ], [ 239637.352263216016581, 3404563.772608841303736 ] ], [ [ 238220.795144172327127, 3402697.229474242776632 ], [ 238037.375333312811563, 3401751.236612261738628 ], [ 239087.057400721532758, 3401725.666606857441366 ], [ 239270.441394877212588, 3402671.669605267699808 ], [ 238220.795144172327127, 3402697.229474242776632 ] ], [ [ 232972.49441416177433, 3402826.572769241407514 ], [ 231922.820243744703475, 3402852.750241253059357 ], [ 231739.185422104608733, 3401906.817618801258504 ], [ 232788.895440856926143, 3401880.630175793077797 ], [ 232972.49441416177433, 3402826.572769241407514 ] ], [ [ 220063.096904518490192, 3406958.491774130612612 ], [ 220247.401465936389286, 3407904.467319450806826 ], [ 221296.953743785677943, 3407877.102700902149081 ], [ 221665.634373836102895, 3409769.169684621971101 ], [ 220616.15406085178256, 3409796.514832003507763 ], [ 220431.75385185162304, 3408850.474999839905649 ], [ 219382.232644318894017, 3408877.933041730895638 ], [ 219013.503742831642739, 3406985.969202745240182 ], [ 220063.096904518490192, 3406958.491774130612612 ] ], [ [ 221112.685148665099405, 3406931.11744200438261 ], [ 222162.268493678595405, 3406903.846202894579619 ], [ 222346.501127894211095, 3407849.841202919371426 ], [ 221296.953743785677943, 3407877.102700902149081 ], [ 221112.685148665099405, 3406931.11744200438261 ] ], [ [ 218148.282155425986275, 3407959.505932150874287 ], [ 217098.715085969364736, 3407987.179933286271989 ], [ 216914.302593211410567, 3407041.233363406732678 ], [ 217963.905645197548438, 3407013.549731338396668 ], [ 218148.282155425986275, 3407959.505932150874287 ] ], [ [ 213949.984000034164637, 3408070.82075801352039 ], [ 214999.566026670392603, 3408042.837342686485499 ], [ 215184.098379041068256, 3408988.796795058529824 ], [ 214134.552361994981766, 3409016.770647414959967 ], [ 213949.984000034164637, 3408070.82075801352039 ] ], [ [ 211540.200918907823507, 3411939.267537015955895 ], [ 210490.742882133461535, 3411967.625655054114759 ], [ 210305.886639576696325, 3411021.617677028756589 ], [ 211355.380740052147303, 3410993.250062145292759 ], [ 211540.200918907823507, 3411939.267537015955895 ] ], [ [ 198145.944758020050358, 3418967.782348948996514 ], [ 198517.412939455534797, 3420860.099152279086411 ], [ 197468.20794889703393, 3420889.820713665802032 ], [ 197096.667302248708438, 3418997.522383213974535 ], [ 198145.944758020050358, 3418967.782348948996514 ] ], [ [ 197839.940853327978402, 3422782.247041007503867 ], [ 196790.803101448924281, 3422812.053694638423622 ], [ 196604.876352616643999, 3421865.83376876078546 ], [ 195555.697042247687932, 3421895.753268431406468 ], [ 195369.782107297214679, 3420949.574547212570906 ], [ 197468.20794889703393, 3420889.820713665802032 ], [ 197839.940853327978402, 3422782.247041007503867 ] ], [ [ 196976.777922724140808, 3423758.305638363584876 ], [ 195927.671164486266207, 3423788.206686844117939 ], [ 195741.660061768547166, 3422841.963976083323359 ], [ 196790.803101448924281, 3422812.053694638423622 ], [ 196976.777922724140808, 3423758.305638363584876 ] ], [ [ 192408.127168036124203, 3421986.133407183457166 ], [ 192966.487108928151429, 3424824.778954739682376 ], [ 190868.298231488908641, 3424885.495796967763454 ], [ 190682.057501616887748, 3423939.266892225015908 ], [ 191731.190944576577749, 3423908.847510016988963 ], [ 191358.926501376437955, 3422016.467346073593944 ], [ 192408.127168036124203, 3421986.133407183457166 ] ], [ [ 249084.24172045069281, 3469047.941403716336936 ], [ 248037.116725856816629, 3469073.069570699706674 ], [ 247850.256033986748662, 3468124.807051429059356 ], [ 246803.090147265727865, 3468150.051150770392269 ], [ 246616.240439503482776, 3467201.833128600846976 ], [ 248710.641076180589153, 3467151.427641338668764 ], [ 248897.41761923811282, 3468099.667791566811502 ], [ 250991.727956672111759, 3468049.703777631279081 ], [ 251178.478892092185561, 3468997.999658400192857 ], [ 252225.5911047932168, 3468973.186073783319443 ], [ 252599.16239564755233, 3470869.900777436327189 ], [ 253646.197210644488223, 3470845.214499240275472 ], [ 253833.017535487218993, 3471793.63342967024073 ], [ 252786.019323219225043, 3471818.308459330350161 ], [ 253346.875216395768803, 3474663.733034038450569 ], [ 251253.08593912809738, 3474713.330485289916396 ], [ 251440.206243524356978, 3475661.850043119397014 ], [ 250393.341931146831485, 3475686.795081029180437 ], [ 250206.184964907064568, 3474738.286749150138348 ], [ 249159.279743264487479, 3474763.348042679484934 ], [ 248972.13366856018547, 3473814.884477601386607 ], [ 251066.013171450700611, 3473764.844526097178459 ], [ 250692.010252282198053, 3471867.973333987407386 ], [ 249644.999358012864832, 3471892.963185232132673 ], [ 249832.013676834118087, 3472841.370818650815636 ], [ 247738.052355430496391, 3472891.64308611722663 ], [ 247550.964762875228189, 3471943.257731276098639 ], [ 248597.984200810140464, 3471918.057983276434243 ], [ 248224.024985283758724, 3470021.365554195828736 ], [ 249271.113378318143077, 3469996.248495136853307 ], [ 249084.24172045069281, 3469047.941403716336936 ] ], [ [ 247925.187520448234864, 3473840.06195957493037 ], [ 246878.237084182910621, 3473865.344449914526194 ], [ 246691.065263610827969, 3472916.936689383350313 ], [ 247738.052355430496391, 3472891.64308611722663 ], [ 247925.187520448234864, 3473840.06195957493037 ] ], [ [ 246503.941026409185724, 3471968.562432401813567 ], [ 246316.864374073978979, 3471020.221661605406553 ], [ 245269.799682336015394, 3471045.642374221235514 ], [ 244895.715893073967891, 3469149.083286944776773 ], [ 246989.987434980313992, 3469098.30260478053242 ], [ 247550.964762875228189, 3471943.257731276098639 ], [ 246503.941026409185724, 3471968.562432401813567 ] ], [ [ 254319.80287308813422, 3468923.873465017881244 ], [ 254133.161647682456532, 3467975.543974133674055 ], [ 256227.429773015261162, 3467926.62821377441287 ], [ 256413.997884090640582, 3468874.980249544139951 ], [ 254319.80287308813422, 3468923.873465017881244 ] ], [ [ 252899.391026526776841, 3467051.874346013646573 ], [ 252712.808266854146495, 3466103.623112948611379 ], [ 253760.021709289081628, 3466078.98558640666306 ], [ 253946.56792591244448, 3467027.248020386323333 ], [ 252899.391026526776841, 3467051.874346013646573 ] ], [ [ 246055.976810882042628, 3464357.379479899071157 ], [ 246429.438313189370092, 3466253.648520943708718 ], [ 245382.194937772874255, 3466279.019493115134537 ], [ 245008.660309645172674, 3464382.772422133479267 ], [ 246055.976810882042628, 3464357.379479899071157 ] ], [ [ 245869.317437874327879, 3463409.295011896640062 ], [ 249011.350581020233221, 3463333.711512446403503 ], [ 249197.900345477391966, 3464281.829033645335585 ], [ 246055.976810882042628, 3464357.379479899071157 ], [ 245869.317437874327879, 3463409.295011896640062 ] ], [ [ 241048.467012959590647, 3454954.852324082981795 ], [ 243143.843216019275133, 3454903.535157987847924 ], [ 243330.11069733730983, 3455851.309312289115041 ], [ 245425.3963677099091, 3455800.431666283868253 ], [ 245611.638545351015637, 3456748.260725639294833 ], [ 246659.238368914462626, 3456722.989522784017026 ], [ 246845.491673518437892, 3457670.862734358757734 ], [ 247893.050696407910436, 3457645.706976806744933 ], [ 247706.833846606867155, 3456697.822824855800718 ], [ 248754.424996370653389, 3456672.760628680232912 ], [ 249126.833349571854342, 3458568.584170194342732 ], [ 247031.792552718688967, 3458618.769217603839934 ], [ 247218.141005023295293, 3459566.708989771548659 ], [ 246170.650594085949706, 3459591.947409390937537 ], [ 246730.090885282901581, 3462435.933713918551803 ], [ 243587.922116889007157, 3462512.178273814264685 ], [ 244148.119529514253372, 3465356.366002914030105 ], [ 243100.830862362374319, 3465381.957496849354357 ], [ 242914.0142153945053, 3464433.872515994589776 ], [ 240819.350546309229685, 3464485.391577184665948 ], [ 240632.508388221322093, 3463537.361645605415106 ], [ 238537.753850652312394, 3463589.321321405936033 ], [ 238350.886205463903025, 3462641.346251378301531 ], [ 236256.040636099409312, 3462693.746317136567086 ], [ 236069.147527731605805, 3461745.825921005103737 ], [ 230831.771427049243357, 3461878.711647655349225 ], [ 230644.7431480322266, 3460930.877496710978448 ], [ 229597.217593005800154, 3460957.779245918150991 ], [ 229410.200481199019123, 3460009.988694720435888 ], [ 228362.633714474504814, 3460037.005603690166026 ], [ 228175.627787716512103, 3459089.258577519096434 ], [ 229223.231125809135847, 3459062.231194974854589 ], [ 229036.309528290759772, 3458114.506729518994689 ], [ 230083.944781393569428, 3458087.573476833291352 ], [ 229710.317943564616144, 3456192.202652709558606 ], [ 230758.021636188495904, 3456165.353002446703613 ], [ 230571.316360889934003, 3455217.706626787781715 ], [ 231619.051945150597021, 3455190.951006571296602 ], [ 231805.720708513690624, 3456138.607878698501736 ], [ 234948.790383162442595, 3456058.999632873106748 ], [ 234575.71956283331383, 3454163.655634212307632 ], [ 235623.473303981765639, 3454137.307384240441024 ], [ 235809.948385014664382, 3455084.973447717260569 ], [ 236857.661110469372943, 3455058.740271801128983 ], [ 237417.262985136301722, 3457901.968901378102601 ], [ 238464.861719686712604, 3457875.872235254850239 ], [ 238091.81912122038193, 3455980.332005054689944 ], [ 239139.486353978107218, 3455954.31847321242094 ], [ 239512.455970102833817, 3457849.880127510987222 ], [ 240560.045754316844977, 3457823.992574868258089 ], [ 240187.149110018915962, 3455928.409441275522113 ], [ 241234.80740729306126, 3455902.604905975516886 ], [ 241048.467012959590647, 3454954.852324082981795 ] ], [ [ 251479.018822431215085, 3465180.158820596057922 ], [ 251292.494572985393461, 3464231.985688170418143 ], [ 252339.785301687050378, 3464207.221091605722904 ], [ 252526.273024739377433, 3465155.405367262661457 ], [ 251479.018822431215085, 3465180.158820596057922 ] ], [ [ 253573.522999320470262, 3465130.756654839962721 ], [ 253387.071797515207436, 3464182.561208327766508 ], [ 254434.354078342206776, 3464158.006035231053829 ], [ 254620.768764039559755, 3465106.212680223397911 ], [ 253573.522999320470262, 3465130.756654839962721 ] ], [ [ 251106.017855003941804, 3463283.845993416383862 ], [ 250919.58866998742451, 3462335.739719014149159 ], [ 253014.311924416600959, 3462286.27070111874491 ], [ 253200.668105378688779, 3463234.39922953164205 ], [ 251106.017855003941804, 3463283.845993416383862 ] ], [ [ 251780.607261948141968, 3461362.868911500088871 ], [ 251594.309630183706759, 3460414.818342692684382 ], [ 252641.742102036019787, 3460390.113926155492663 ], [ 252828.003256134601543, 3461338.175605765543878 ], [ 251780.607261948141968, 3461362.868911500088871 ] ], [ [ 211523.951990826812107, 3454769.75101319886744 ], [ 211336.68445626378525, 3453822.354294965043664 ], [ 212384.579234784294385, 3453793.697209362871945 ], [ 212571.810181762382854, 3454741.103897944558412 ], [ 211523.951990826812107, 3454769.75101319886744 ] ], [ [ 247148.468694414594211, 3453854.369916453957558 ], [ 246962.442114384117303, 3452906.618738703429699 ], [ 248010.178953862399794, 3452881.512820248026401 ], [ 248196.169127774803201, 3453829.274906127247959 ], [ 247148.468694414594211, 3453854.369916453957558 ] ], [ [ 249057.911462637770455, 3452856.511289933696389 ], [ 248872.005239085177891, 3451908.771498711779714 ], [ 249919.769820027868263, 3451883.863404981326312 ], [ 250105.63965868804371, 3452831.614144606515765 ], [ 249057.911462637770455, 3452856.511289933696389 ] ], [ [ 200968.141336792905349, 3449348.918221287894994 ], [ 200780.83251077355817, 3448401.805091755930334 ], [ 201828.992171014542691, 3448372.149291555397213 ], [ 201641.767952420224901, 3447425.059000524226576 ], [ 200593.571730499621481, 3447454.72441882872954 ], [ 200406.358997367322445, 3446507.676185596734285 ], [ 202502.819394906575326, 3446448.430458478163928 ], [ 202877.146694343653508, 3448342.59786235820502 ], [ 204973.440402345149778, 3448283.808102060575038 ], [ 205160.602971825632267, 3449230.95992878312245 ], [ 208304.895823329105042, 3449143.587290051858872 ], [ 208491.996727343590464, 3450090.801006614696234 ], [ 206395.879651824536268, 3450148.925451260525733 ], [ 206583.101650258991867, 3451096.152134073432535 ], [ 203438.997821012570057, 3451184.092658388894051 ], [ 203251.666090324986726, 3450236.89521177764982 ], [ 202203.584711625124328, 3450266.427305023185909 ], [ 202016.264424549823161, 3449319.272054082714021 ], [ 200968.141336792905349, 3449348.918221287894994 ] ], [ [ 209352.983369932509959, 3449114.671834745444357 ], [ 209165.966968267748598, 3448167.480870206840336 ], [ 212310.309216533845756, 3448081.331083406228572 ], [ 212497.21605021803407, 3449028.55169053375721 ], [ 209352.983369932509959, 3449114.671834745444357 ] ], [ [ 200332.543518063845113, 3440796.334745401982218 ], [ 200145.703629312163685, 3439849.503618134185672 ], [ 205388.067817908304278, 3439702.356252625584602 ], [ 205761.431001496850513, 3441596.146735708694905 ], [ 204713.041335190064274, 3441625.34869618806988 ], [ 204899.831382898148149, 3442572.282904034014791 ], [ 205948.184580119443126, 3442543.090610108803958 ], [ 206134.98614808806451, 3443490.066928934305906 ], [ 207183.297790956508834, 3443460.988531199283898 ], [ 207556.97190820943797, 3445355.058032229542732 ], [ 205460.489521278301254, 3445413.280172541737556 ], [ 205647.471561145212036, 3446360.344200041145086 ], [ 204599.259272359311581, 3446389.601980178616941 ], [ 204786.325835387979168, 3447336.68879150506109 ], [ 203738.144986836414319, 3447366.041190588381141 ], [ 202803.109676152991597, 3442630.980068357661366 ], [ 201754.741130482812878, 3442660.484946174547076 ], [ 201380.990187874063849, 3440766.706567525397986 ], [ 200332.543518063845113, 3440796.334745401982218 ] ], [ [ 209840.270137575571425, 3446244.35605350881815 ], [ 209653.434113718627486, 3445297.25295666558668 ], [ 210701.657693559187464, 3445268.506809032056481 ], [ 210888.457227196719032, 3446215.619742069859058 ], [ 209840.270137575571425, 3446244.35605350881815 ] ], [ [ 211936.639331100566778, 3446186.98771343100816 ], [ 211749.876282187120523, 3445239.864916649181396 ], [ 212798.089897652214859, 3445211.32727590110153 ], [ 212984.816467328113504, 3446158.4599639759399 ], [ 211936.639331100566778, 3446186.98771343100816 ] ], [ [ 213846.298558002628852, 3445182.893883184529841 ], [ 213659.656371554301586, 3444235.783875555265695 ], [ 214707.896552316087764, 3444207.444795761723071 ], [ 214894.502281286811922, 3445154.564734908286482 ], [ 213846.298558002628852, 3445182.893883184529841 ] ], [ [ 216617.877206525881775, 3443203.972014653962106 ], [ 216804.362158467178233, 3444151.079272533301264 ], [ 215756.13180860131979, 3444179.209929277189076 ], [ 215383.13692390412325, 3442285.047952139750123 ], [ 217479.738445760856848, 3442228.850932472385466 ], [ 217666.139098337618634, 3443175.93556479178369 ], [ 216617.877206525881775, 3443203.972014653962106 ] ], [ [ 274081.073070592887234, 3440868.91444776719436 ], [ 273896.678514339146204, 3439921.283099355641752 ], [ 274944.771336161415093, 3439898.948395029176027 ], [ 275129.129769662569743, 3440846.591231215745211 ], [ 276177.182582226465456, 3440824.371987603604794 ], [ 276361.552160900668241, 3441772.059780640061945 ], [ 275313.535477024386637, 3441794.267493921332061 ], [ 275497.988456714083441, 3442741.97720041917637 ], [ 273402.015720212366432, 3442786.681624062359333 ], [ 273217.490446520736441, 3441838.994925081729889 ], [ 272169.462063727027271, 3441861.514648608397692 ], [ 271984.947940571117215, 3440913.872810978908092 ], [ 274081.073070592887234, 3440868.91444776719436 ] ], [ [ 195651.587643069622573, 3443786.583331597037613 ], [ 195464.421025734976865, 3442839.702587948180735 ], [ 196512.820756256347522, 3442809.57244132924825 ], [ 196699.950843495375011, 3443756.462618619203568 ], [ 195651.587643069622573, 3443786.583331597037613 ] ], [ [ 271800.481123923556879, 3439966.26435516262427 ], [ 271616.061615312821232, 3439018.689263915177435 ], [ 272664.19839615089586, 3438996.13524296367541 ], [ 272848.581782959867269, 3439943.72175178816542 ], [ 271800.481123923556879, 3439966.26435516262427 ] ], [ [ 217783.05353279056726, 3438412.856126643251628 ], [ 217969.22632406570483, 3439359.820381579454988 ], [ 215872.416211725736503, 3439415.868913578335196 ], [ 215686.170673380140215, 3438468.924536212813109 ], [ 217783.05353279056726, 3438412.856126643251628 ] ], [ [ 217596.928606890374795, 3437465.924426699057221 ], [ 219693.864630745025352, 3437410.252194121479988 ], [ 219879.916852920607198, 3438357.203852175734937 ], [ 217783.05353279056726, 3438412.856126643251628 ], [ 217596.928606890374795, 3437465.924426699057221 ] ], [ [ 271431.689416264998727, 3438071.147519997786731 ], [ 271247.36452830536291, 3437123.639106182847172 ], [ 273343.778569362708367, 3437078.589351295959204 ], [ 273528.031262193806469, 3438026.120568364858627 ], [ 271431.689416264998727, 3438071.147519997786731 ] ], [ [ 208836.299394829839002, 3435799.165192533750087 ], [ 209208.987451601598877, 3437692.773890465963632 ], [ 208160.472338964114897, 3437721.598192547913641 ], [ 207787.711506967491005, 3435828.008884787093848 ], [ 208836.299394829839002, 3435799.165192533750087 ] ], [ [ 208463.803162077791058, 3433905.686037237755954 ], [ 210561.109248332155403, 3433848.271761510986835 ], [ 210747.260681247047614, 3434795.01455345004797 ], [ 209698.646507295721676, 3434823.660017648246139 ], [ 209884.882236458943225, 3435770.425480091013014 ], [ 208836.299394829839002, 3435799.165192533750087 ], [ 208463.803162077791058, 3433905.686037237755954 ] ], [ [ 210375.00575265660882, 3432901.561351160053164 ], [ 211423.687588638684247, 3432873.000365464016795 ], [ 211609.754750968597364, 3433819.720501664094627 ], [ 210561.109248332155403, 3433848.271761510986835 ], [ 210375.00575265660882, 3432901.561351160053164 ] ], [ [ 208277.626983222784474, 3432958.994995957240462 ], [ 207905.418507573951501, 3431065.709901947062463 ], [ 210002.942578654387034, 3431008.23760783020407 ], [ 210375.00575265660882, 3432901.561351160053164 ], [ 208277.626983222784474, 3432958.994995957240462 ] ], [ [ 224750.297295995347667, 3436325.922143603209406 ], [ 225798.770325609657448, 3436298.751828134059906 ], [ 225984.556785997992847, 3437245.731365198735148 ], [ 224936.120062354020774, 3437272.8915372970514 ], [ 224750.297295995347667, 3436325.922143603209406 ] ], [ [ 223701.819497612130363, 3436353.196413320489228 ], [ 223516.008223294978961, 3435406.269745596218854 ], [ 224564.522322211938445, 3435378.985374910291284 ], [ 224750.297295995347667, 3436325.922143603209406 ], [ 223701.819497612130363, 3436353.196413320489228 ] ], [ [ 224378.795142439135816, 3434432.081214271951467 ], [ 225427.340751563082449, 3434404.890656563453376 ], [ 225613.031646985851694, 3435351.80493090627715 ], [ 224564.522322211938445, 3435378.985374910291284 ], [ 224378.795142439135816, 3434432.081214271951467 ] ], [ [ 227032.988764371606521, 3437218.675171483773738 ], [ 226847.238604589598253, 3436271.68546347739175 ], [ 227895.702151068253443, 3436244.723046210128814 ], [ 228081.41601559962146, 3437191.722952728159726 ], [ 227032.988764371606521, 3437218.675171483773738 ] ], [ [ 230178.25640911544906, 3437138.130426485557109 ], [ 229992.61511905270163, 3436191.110040224157274 ], [ 231041.064576827979181, 3436164.459444727748632 ], [ 231226.669587653654162, 3437111.490112224593759 ], [ 230178.25640911544906, 3437138.130426485557109 ] ], [ [ 202358.205332790792454, 3435027.089033376425505 ], [ 202171.762948329444043, 3434080.423175305128098 ], [ 203220.449126831255853, 3434051.040473477449268 ], [ 203406.85512297146488, 3434997.715851909480989 ], [ 202358.205332790792454, 3435027.089033376425505 ] ], [ [ 207228.930013443168718, 3432987.867662323638797 ], [ 207601.403040459903423, 3434881.262795589398593 ], [ 204455.499770684051327, 3434968.446641093119979 ], [ 204269.13015731080668, 3434021.761714768130332 ], [ 206366.476846816018224, 3433963.516011903993785 ], [ 206180.227962736156769, 3433016.844229535665363 ], [ 207228.930013443168718, 3432987.867662323638797 ] ], [ [ 229065.124775208008941, 3431456.49825745401904 ], [ 229250.52735830435995, 3432403.355317404028028 ], [ 228201.928192311141174, 3432430.150716397445649 ], [ 228016.489378712023608, 3431483.303835962899029 ], [ 229065.124775208008941, 3431456.49825745401904 ] ], [ [ 228879.769937832839787, 3430509.673811917658895 ], [ 229928.436843924107961, 3430482.961840465664864 ], [ 230113.755466939939652, 3431429.796478278469294 ], [ 229065.124775208008941, 3431456.49825745401904 ], [ 228879.769937832839787, 3430509.673811917658895 ] ], [ [ 231347.711610172176734, 3432350.075996762607247 ], [ 231162.38147208513692, 3431403.198495060671121 ], [ 232211.002808822900988, 3431376.704304433893412 ], [ 232396.296732386632357, 3432323.592068374622613 ], [ 231347.711610172176734, 3432350.075996762607247 ] ], [ [ 201612.723941604956053, 3431240.619112557265908 ], [ 201799.022251344227698, 3432187.188231691718102 ], [ 200750.258151233487297, 3432216.693821601569653 ], [ 200563.923479941789992, 3431270.134150894358754 ], [ 201612.723941604956053, 3431240.619112557265908 ] ], [ [ 201426.473659556359053, 3430294.082206153776497 ], [ 203524.131737311254255, 3430235.344768640585244 ], [ 203710.309334495861549, 3431181.900624905247241 ], [ 201612.723941604956053, 3431240.619112557265908 ], [ 201426.473659556359053, 3430294.082206153776497 ] ], [ [ 204759.094302082085051, 3431152.697168160695583 ], [ 204945.283560527954251, 3432099.294797755312175 ], [ 203896.534937820630148, 3432128.488723482005298 ], [ 203710.309334495861549, 3431181.900624905247241 ], [ 204759.094302082085051, 3431152.697168160695583 ] ], [ [ 204572.953039000101853, 3430206.131795670837164 ], [ 205621.769206815166399, 3430177.022648290731013 ], [ 205807.874141337058973, 3431123.597564538475126 ], [ 204759.094302082085051, 3431152.697168160695583 ], [ 204572.953039000101853, 3430206.131795670837164 ] ], [ [ 205435.712258276995271, 3429230.479987141210586 ], [ 206484.559622659930028, 3429201.465105161536485 ], [ 206670.580258947680704, 3430148.017322816420346 ], [ 205621.769206815166399, 3430177.022648290731013 ], [ 205435.712258276995271, 3429230.479987141210586 ] ], [ [ 193711.640601594408508, 3428610.087654192000628 ], [ 193898.049246225273237, 3429556.494934875052422 ], [ 192849.139226208091713, 3429586.755595478229225 ], [ 193222.173600840382278, 3431479.647933629807085 ], [ 192173.331021765363403, 3431509.994021527003497 ], [ 191427.309220890223514, 3427724.37435440486297 ], [ 192476.297317962977104, 3427693.991501250769943 ], [ 192662.694213100010529, 3428640.357526232954115 ], [ 193711.640601594408508, 3428610.087654192000628 ] ], [ [ 198466.306935280095786, 3431329.475835271179676 ], [ 198279.947584154782817, 3430382.967147207818925 ], [ 199328.794828042271547, 3430353.234990565106273 ], [ 199515.117817225749604, 3431299.753057216759771 ], [ 198466.306935280095786, 3431329.475835271179676 ] ], [ [ 211728.720263278519269, 3429057.947482778690755 ], [ 212100.446500033023767, 3430951.180653098970652 ], [ 211051.697048965725116, 3430979.657214850652963 ], [ 210865.773674438998569, 3430033.034166764002293 ], [ 209816.982903140713461, 3430061.624241188634187 ], [ 209631.07117049273802, 3429115.043188800103962 ], [ 211728.720263278519269, 3429057.947482778690755 ] ], [ [ 187604.508668569091242, 3429739.616567617747933 ], [ 187791.183779244078323, 3430686.000979454722255 ], [ 186742.277862059418112, 3430716.87567364377901 ], [ 186555.566338172648102, 3429770.500322960782796 ], [ 187604.508668569091242, 3429739.616567617747933 ] ], [ [ 187417.881728282372933, 3428793.264142896980047 ], [ 188466.855024902091827, 3428762.475172485224903 ], [ 188280.312642385892104, 3427816.145659069996327 ], [ 190378.315754744864535, 3427754.860995850060135 ], [ 190751.303149246086832, 3429647.588438936974853 ], [ 187604.508668569091242, 3429739.616567617747933 ], [ 187417.881728282372933, 3428793.264142896980047 ] ], [ [ 226597.04246381559642, 3429616.637497674673796 ], [ 226411.71072067465866, 3428669.898472810629755 ], [ 227460.459482829843182, 3428642.958724584430456 ], [ 227645.755022533820011, 3429589.707856976892799 ], [ 226597.04246381559642, 3429616.637497674673796 ] ], [ [ 230791.864369664283004, 3429509.541406832169741 ], [ 230606.67740821687039, 3428562.761786431074142 ], [ 231655.407323669875041, 3428536.236897946801037 ], [ 231840.558103019546252, 3429483.026736163068563 ], [ 230791.864369664283004, 3429509.541406832169741 ] ], [ [ 175878.812669823004398, 3429138.796551324427128 ], [ 175691.833277849247679, 3428192.573932452592999 ], [ 177789.968744417652488, 3428128.797598275355995 ], [ 177976.875244055467192, 3429075.03775796527043 ], [ 175878.812669823004398, 3429138.796551324427128 ] ], [ [ 207347.465520290075801, 3428226.024480063933879 ], [ 207161.577123784343712, 3427279.527197326999158 ], [ 208210.4868704166729, 3427250.700714276172221 ], [ 208396.338987266935874, 3428197.207579030655324 ], [ 207347.465520290075801, 3428226.024480063933879 ] ], [ [ 212406.075262741534971, 3427136.43202897021547 ], [ 212220.416124252020381, 3426189.918868922162801 ], [ 213269.336906286713202, 3426161.601286290679127 ], [ 213454.959803359233774, 3427108.124151285737753 ], [ 212406.075262741534971, 3427136.43202897021547 ] ], [ [ 231285.248919298290275, 3426642.755028709769249 ], [ 231100.241297161439434, 3425696.062963856849819 ], [ 232149.075011980021372, 3425669.611134472768754 ], [ 232334.046489743923303, 3426616.313400342129171 ], [ 231285.248919298290275, 3426642.755028709769249 ] ], [ [ 252076.050243856967427, 3425186.710521111264825 ], [ 253124.794145690626465, 3425162.330481789540499 ], [ 253309.04383882205002, 3426109.242561111226678 ], [ 252260.335976889648009, 3426133.611847579013556 ], [ 252076.050243856967427, 3425186.710521111264825 ] ], [ [ 251027.302024614677066, 3425211.194119747728109 ], [ 250843.027763078338467, 3424264.336356766056269 ], [ 251891.812016536830924, 3424239.842047677375376 ], [ 252076.050243856967427, 3425186.710521111264825 ], [ 251027.302024614677066, 3425211.194119747728109 ] ], [ [ 192289.948542170342989, 3426747.657503832597286 ], [ 192103.647887093480676, 3425801.35551727656275 ], [ 194201.753401922993362, 3425740.864407334942371 ], [ 194387.981390228611417, 3426687.184755699243397 ], [ 192289.948542170342989, 3426747.657503832597286 ] ], [ [ 235295.548246117657982, 3425590.877355631440878 ], [ 235110.732848409912549, 3424644.176937683019787 ], [ 236159.584129517024849, 3424618.129273551981896 ], [ 236344.363414833613206, 3425564.839988045394421 ], [ 235295.548246117657982, 3425590.877355631440878 ] ], [ [ 198397.900669180671684, 3425621.126818174496293 ], [ 198211.866004509327468, 3424674.801498700864613 ], [ 199260.925935601640958, 3424645.117059849202633 ], [ 199446.924308511952404, 3425591.451696818228811 ], [ 198397.900669180671684, 3425621.126818174496293 ] ], [ [ 204691.964351880247705, 3425444.631557899992913 ], [ 204506.147354194254149, 3424498.249920589849353 ], [ 205555.176118234696332, 3424469.187477694358677 ], [ 205740.956857528653927, 3425415.578597658779472 ], [ 204691.964351880247705, 3425444.631557899992913 ] ], [ [ 209009.176425529760309, 3420568.579011250287294 ], [ 209380.112351256597321, 3422461.212216044776142 ], [ 208331.031560065690428, 3422489.879210081882775 ], [ 208145.503420833847485, 3421543.556067225523293 ], [ 207096.381333179422654, 3421572.336169265210629 ], [ 207281.945681933197193, 3422518.649791116360575 ], [ 203085.550934763159603, 3422634.768058316316456 ], [ 202899.841692670364864, 3421688.492245165631175 ], [ 206047.254134805931244, 3421601.219834412448108 ], [ 205861.701548017619643, 3420654.947839816566557 ], [ 209009.176425529760309, 3420568.579011250287294 ] ], [ [ 221968.691711677762214, 3422125.286764718126506 ], [ 221783.633798240043689, 3421178.837342470418662 ], [ 222832.686254333297256, 3421151.506747074890882 ], [ 223017.708034553856123, 3422097.966075974516571 ], [ 221968.691711677762214, 3422125.286764718126506 ] ], [ [ 210243.732337064575404, 3421486.306537899188697 ], [ 210058.324534304556437, 3420539.996463163290173 ], [ 211107.467581680219155, 3420511.517439748160541 ], [ 211292.839202182833105, 3421457.837103359401226 ], [ 210243.732337064575404, 3421486.306537899188697 ] ], [ [ 214440.129644805041607, 3421373.050076990853995 ], [ 213884.484003260440659, 3418534.100978592410684 ], [ 215982.869568433612585, 3418478.035801125690341 ], [ 216353.107537383097224, 3420370.675066898111254 ], [ 215303.989522796997335, 3420398.636520822532475 ], [ 215489.216469006903935, 3421344.994815350044519 ], [ 214440.129644805041607, 3421373.050076990853995 ] ], [ [ 215797.822393580398057, 3417531.764522939454764 ], [ 216847.043840307160281, 3417503.877398224547505 ], [ 217032.054897978552617, 3418450.158386350609362 ], [ 215982.869568433612585, 3418478.035801125690341 ], [ 215797.822393580398057, 3417531.764522939454764 ] ], [ [ 246959.594823897874448, 3420551.464915460906923 ], [ 246775.450195840676315, 3419604.802832959219813 ], [ 247824.427612648549257, 3419579.944993568118662 ], [ 248008.536245086259441, 3420526.617629836313426 ], [ 246959.594823897874448, 3420551.464915460906923 ] ], [ [ 248873.400626312271925, 3419555.190557223279029 ], [ 248689.375520519184647, 3418608.540061193052679 ], [ 249738.380123797047418, 3418583.878430552780628 ], [ 249922.369255120487651, 3419530.539520791266114 ], [ 248873.400626312271925, 3419555.190557223279029 ] ], [ [ 232769.251773994823452, 3418044.408568434417248 ], [ 232584.781827019527555, 3417097.978624529670924 ], [ 233633.926275258185342, 3417071.745757284108549 ], [ 233818.360190922860056, 3418018.185852095019072 ], [ 232769.251773994823452, 3418044.408568434417248 ] ], [ [ 206354.603614512539934, 3417787.402999824378639 ], [ 206169.279110902338289, 3416841.249953373335302 ], [ 207218.582084735506214, 3416812.422467276453972 ], [ 207403.870432627853006, 3417758.584961094893515 ], [ 206354.603614512539934, 3417787.402999824378639 ] ], [ [ 225055.964224782248493, 3416338.175807031337172 ], [ 224871.337467163102701, 3415391.880824023392051 ], [ 225920.587130330968648, 3415364.904455338604748 ], [ 226105.177840903343167, 3416311.209366828668863 ], [ 225055.964224782248493, 3416338.175807031337172 ] ], [ [ 228883.872555449663196, 3414338.292829490732402 ], [ 229252.790020760963671, 3416230.930182178504765 ], [ 228203.59072057279991, 3416257.586557800415903 ], [ 228019.072088035114575, 3415311.261706662364304 ], [ 226969.831997845962178, 3415338.031417354941368 ], [ 226785.325088273966685, 3414391.748892319854349 ], [ 228883.872555449663196, 3414338.292829490732402 ] ], [ [ 209811.208204788039438, 3413888.18019787594676 ], [ 209996.244323836523108, 3414834.274877682328224 ], [ 208946.88440893945517, 3414862.811125114094466 ], [ 208761.812182957539335, 3413916.725931155029684 ], [ 209811.208204788039438, 3413888.18019787594676 ] ], [ [ 209626.220020112523343, 3412942.117591780610383 ], [ 210675.647051103995182, 3412913.665688115637749 ], [ 210860.599145090207458, 3413859.737792897969484 ], [ 209811.208204788039438, 3413888.18019787594676 ], [ 209626.220020112523343, 3412942.117591780610383 ] ], [ [ 215058.112457860494033, 3413747.001384062226862 ], [ 215242.968124421371613, 3414693.143906174693257 ], [ 213144.293685632874258, 3414749.28625600412488 ], [ 212589.65389988955576, 3411911.01268500322476 ], [ 213639.101843438053038, 3411882.861095431260765 ], [ 214008.741660248721018, 3413775.03051177226007 ], [ 215058.112457860494033, 3413747.001384062226862 ] ], [ [ 219440.257336248119827, 3414582.09923359612003 ], [ 219070.882368468155619, 3412689.768856132403016 ], [ 220120.264442099083681, 3412662.246498559601605 ], [ 220489.567315794003662, 3414554.596383876167238 ], [ 219440.257336248119827, 3414582.09923359612003 ] ], [ [ 221538.872402646054979, 3414527.196854531299323 ], [ 221354.23309943213826, 3413580.996012690942734 ], [ 223452.900746272120159, 3413526.487240925896913 ], [ 223637.467971614329144, 3414472.707743087317795 ], [ 221538.872402646054979, 3414527.196854531299323 ] ], [ [ 250917.502852287492715, 3413801.94436137471348 ], [ 250733.870707970869262, 3412855.458239350933582 ], [ 251783.077778107253835, 3412831.042954500764608 ], [ 251966.674028250767151, 3413777.53966509597376 ], [ 250917.502852287492715, 3413801.94436137471348 ] ], [ [ 229748.788040400017053, 3413365.439594648312777 ], [ 229564.484649768273812, 3412419.191803150810301 ], [ 231663.147658967645839, 3412366.315314745530486 ], [ 231847.379078877158463, 3413312.583178140688688 ], [ 229748.788040400017053, 3413365.439594648312777 ] ], [ [ 234811.106956688745413, 3412287.77478192653507 ], [ 235860.417405069398228, 3412261.801044305320829 ], [ 236044.504947150184307, 3413208.109382347669452 ], [ 234995.23046029714169, 3413234.072959946468472 ], [ 234811.106956688745413, 3412287.77478192653507 ] ], [ [ 233761.791861783654895, 3412313.851737333927304 ], [ 233577.680079532903619, 3411367.596086839213967 ], [ 234627.031130466551986, 3411341.509013690054417 ], [ 234811.106956688745413, 3412287.77478192653507 ], [ 233761.791861783654895, 3412313.851737333927304 ] ], [ [ 253881.478893817256903, 3412782.521964516490698 ], [ 253698.001898278307635, 3411836.036685471888632 ], [ 254747.231848533992888, 3411811.920317524578422 ], [ 254930.672976094821934, 3412758.416253231931478 ], [ 253881.478893817256903, 3412782.521964516490698 ] ], [ [ 220985.097942454449367, 3411688.691018490120769 ], [ 222034.506247534998693, 3411661.365401002578437 ], [ 222219.013897213735618, 3412607.51157575333491 ], [ 221169.641612229228485, 3412634.82740625878796 ], [ 220985.097942454449367, 3411688.691018490120769 ] ], [ [ 219935.684746832237579, 3411716.119870221242309 ], [ 219751.152881172019988, 3410770.025429114233702 ], [ 220800.602091524284333, 3410742.586832646280527 ], [ 220985.097942454449367, 3411688.691018490120769 ], [ 219935.684746832237579, 3411716.119870221242309 ] ], [ [ 251599.529031236335868, 3411884.578905967064202 ], [ 251416.027789108920842, 3410938.14750259090215 ], [ 252465.302257270755945, 3410913.814223816618323 ], [ 252648.767631966882618, 3411860.256213928572834 ], [ 251599.529031236335868, 3411884.578905967064202 ] ], [ [ 228146.610506504017394, 3410553.406251456588507 ], [ 227962.41435295320116, 3409607.265368921216577 ], [ 229011.860871232114732, 3409580.642379119526595 ], [ 229196.021063754684292, 3410526.793212161865085 ], [ 228146.610506504017394, 3410553.406251456588507 ] ], [ [ 235492.385322166257538, 3410369.281624871306121 ], [ 235308.440784225997049, 3409423.070509860292077 ], [ 236357.85440851963358, 3409397.169512150343508 ], [ 236541.763022544502746, 3410343.390770657453686 ], [ 235492.385322166257538, 3410369.281624871306121 ] ], [ [ 225495.11410175729543, 3407768.675397843588144 ], [ 225679.286656237149145, 3408714.731994999572635 ], [ 224629.789798499259632, 3408741.674313521943986 ], [ 224814.046088563976809, 3409687.753282693680376 ], [ 222715.109803862578701, 3409741.927712912205607 ], [ 222530.781565094075631, 3408795.868367353454232 ], [ 223580.28810758178588, 3408768.719769829884171 ], [ 223396.043636660266202, 3407822.68282204400748 ], [ 225495.11410175729543, 3407768.675397843588144 ] ], [ [ 239322.314355263137259, 3408373.865855207201093 ], [ 239138.608738496113801, 3407427.678849609103054 ], [ 240188.075744125584606, 3407402.169882690533996 ], [ 240371.745479552133474, 3408348.367112720850855 ], [ 239322.314355263137259, 3408373.865855207201093 ] ], [ [ 224942.883068233379163, 3404930.698790055233985 ], [ 225126.912306335405447, 3405876.658812086563557 ], [ 226176.512167543231044, 3405849.790073878597468 ], [ 225808.573291350097861, 3403957.88255872298032 ], [ 226858.240154451632407, 3403931.097184299491346 ], [ 227042.149808651942294, 3404877.044690324924886 ], [ 228091.775970588380005, 3404850.372168149333447 ], [ 227907.90221283613937, 3403904.414799643214792 ], [ 233156.141079212888144, 3403772.547604775987566 ], [ 233339.835434578417335, 3404718.55469912616536 ], [ 232290.232993117126171, 3404744.712185192853212 ], [ 232657.836541073513217, 3406636.803172724787146 ], [ 227410.112375982571393, 3406769.036281899549067 ], [ 227594.165286266827025, 3407715.080400889273733 ], [ 226544.64209488639608, 3407741.826347665395588 ], [ 226360.553250531549565, 3406795.792107585351914 ], [ 224261.420559930149466, 3406849.612989888992161 ], [ 223893.24245289969258, 3404957.680374419782311 ], [ 224942.883068233379163, 3404930.698790055233985 ] ], [ [ 212715.840473630814813, 3407152.998996915761381 ], [ 212531.331897536467295, 3406207.122691088356078 ], [ 213580.990944537566975, 3406179.017103740945458 ], [ 213765.463527081708889, 3407124.90291567472741 ], [ 212715.840473630814813, 3407152.998996915761381 ] ], [ [ 237905.443290063267341, 3406507.14645586675033 ], [ 237721.797071125067305, 3405561.034399420022964 ], [ 238771.34039853172726, 3405535.402019289787859 ], [ 238954.950752437725896, 3406481.524243233725429 ], [ 237905.443290063267341, 3406507.14645586675033 ] ], [ [ 254697.022656831279164, 3406109.553579807747155 ], [ 254513.949653884017607, 3405163.27553299209103 ], [ 255563.421728971879929, 3405139.290905570145696 ], [ 255746.458949760068208, 3406085.579561349470168 ], [ 254697.022656831279164, 3406109.553579807747155 ] ], [ [ 210431.99862959276652, 3406263.643150278367102 ], [ 210247.465974033693783, 3405317.817743845283985 ], [ 211297.171136880177073, 3405289.496529260184616 ], [ 211481.667798693059012, 3406235.331372073851526 ], [ 210431.99862959276652, 3406263.643150278367102 ] ], [ [ 235439.02626948611578, 3404666.548715315293521 ], [ 235255.403637972602155, 3403720.521537653170526 ], [ 236305.027922284847591, 3403694.66295029502362 ], [ 236488.614699786878191, 3404640.700210968963802 ], [ 235439.02626948611578, 3404666.548715315293521 ] ], [ [ 211978.093590153439436, 3403369.68570166034624 ], [ 211793.776632644468918, 3402423.937292439863086 ], [ 212843.579546421242412, 3402395.793827158864588 ], [ 213027.860553345875815, 3403341.55168389948085 ], [ 211978.093590153439436, 3403369.68570166034624 ] ] ], [ [ [ 231992.437201554654166, 3457086.297778547741473 ], [ 231805.720708513690624, 3456138.607878698501736 ], [ 230758.021636188495904, 3456165.353002446703613 ], [ 230944.774652019201312, 3457113.032390872947872 ], [ 231992.437201554654166, 3457086.297778547741473 ] ] ], [ [ [ 239699.012254966248292, 3458797.710696314461529 ], [ 239512.455970102833817, 3457849.880127510987222 ], [ 238464.861719686712604, 3457875.872235254850239 ], [ 238651.454512021533446, 3458823.692069552838802 ], [ 239699.012254966248292, 3458797.710696314461529 ] ] ], [ [ [ 238238.463485334534198, 3467407.647936339490116 ], [ 239285.701052603777498, 3467381.554176333826035 ], [ 239098.642761892668204, 3466433.446041853167117 ], [ 238051.368578738445649, 3466459.550616174004972 ], [ 238238.463485334534198, 3467407.647936339490116 ] ] ], [ [ [ 245201.932338105485542, 3400628.375258074142039 ], [ 243102.546721103572054, 3400678.404053169302642 ], [ 243285.739915248268517, 3401624.415501255076379 ], [ 245385.053977824631147, 3401574.407253114506602 ], [ 245201.932338105485542, 3400628.375258074142039 ] ] ], [ [ [ 244018.988532548362855, 3405408.785179799888283 ], [ 246118.01616192876827, 3405358.859412620775402 ], [ 245934.704275028372649, 3404412.697712247259915 ], [ 246984.247199316014303, 3404387.878935707733035 ], [ 246617.837698536342941, 3402495.632169756107032 ], [ 247667.447755957109621, 3402470.895590276923031 ], [ 247484.350107476580888, 3401524.810507484711707 ], [ 245385.053977824631147, 3401574.407253114506602 ], [ 245568.223181521054357, 3402520.471649295650423 ], [ 244518.604186463315273, 3402545.414032047148794 ], [ 244701.856748845108086, 3403491.500529579352587 ], [ 243652.269058655510889, 3403516.535529716871679 ], [ 244018.988532548362855, 3405408.785179799888283 ] ] ], [ [ [ 245984.265660027420381, 3458644.018579951953143 ], [ 247031.792552718688967, 3458618.769217603839934 ], [ 246845.491673518437892, 3457670.862734358757734 ], [ 245797.928309952549171, 3457696.123024449218065 ], [ 245984.265660027420381, 3458644.018579951953143 ] ] ], [ [ [ 243889.198796493583359, 3458694.830997838173062 ], [ 244262.162227100809105, 3460590.678312687203288 ], [ 245309.624849329644348, 3460565.241610480006784 ], [ 245123.155834939825581, 3459617.290419953875244 ], [ 246170.650594085949706, 3459591.947409390937537 ], [ 245984.265660027420381, 3458644.018579951953143 ], [ 243889.198796493583359, 3458694.830997838173062 ] ] ], [ [ [ 270842.726511344371829, 3478077.183096061926335 ], [ 270656.123235935112461, 3477128.355029282625765 ], [ 269609.40541982545983, 3477151.38606707053259 ], [ 269796.045298425829969, 3478100.202365015167743 ], [ 270842.726511344371829, 3478077.183096061926335 ] ] ], [ [ [ 273982.746882785460912, 3478008.755775376688689 ], [ 275029.412643302464858, 3477986.156820986419916 ], [ 274842.955730814428534, 3477037.281402225140482 ], [ 273796.253387026139535, 3477059.892236111685634 ], [ 273982.746882785460912, 3478008.755775376688689 ] ] ], [ [ [ 267889.43159913434647, 3479095.38290161639452 ], [ 267702.671132480027154, 3478146.55616334779188 ], [ 266655.978143970714882, 3478169.890698552597314 ], [ 266842.775239793816581, 3479118.705735845956951 ], [ 265796.114924802444875, 3479142.133692328352481 ], [ 266169.924544313573278, 3481039.84208474913612 ], [ 268263.094626232050359, 3480993.138133367523551 ], [ 268076.239430899557192, 3480044.243552439380437 ], [ 269122.855217221425846, 3480021.037581288255751 ], [ 269496.539666855707765, 3481918.884223703760654 ], [ 270543.078244958771393, 3481895.806984840426594 ], [ 269796.045298425829969, 3478100.202365015167743 ], [ 268749.360178051749244, 3478123.326719808857888 ], [ 268936.084020555368625, 3479072.165186710190028 ], [ 267889.43159913434647, 3479095.38290161639452 ] ] ], [ [ [ 271216.075062051415443, 3479974.941068279091269 ], [ 272262.679156006721314, 3479952.050520630087703 ], [ 272636.143756487290375, 3481849.968093693722039 ], [ 273682.670725324191153, 3481827.206435652915388 ], [ 273495.951403017388657, 3480878.218760347459465 ], [ 276635.619255619938485, 3480810.529082043562084 ], [ 276449.057088995818049, 3479861.539655445609242 ], [ 275402.4683367239777, 3479884.009678628761321 ], [ 275215.916845792206004, 3478935.066240594256669 ], [ 274169.287679502274841, 3478957.653300369624048 ], [ 273982.746882785460912, 3478008.755775376688689 ], [ 271889.403834549186286, 3478054.268910055980086 ], [ 272076.017834623577073, 3479003.142728818580508 ], [ 271029.377120566787198, 3479026.045103209093213 ], [ 271216.075062051415443, 3479974.941068279091269 ] ], [ [ 274355.87577561836224, 3479906.584828660357744 ], [ 273309.279387953924015, 3479929.265108377672732 ], [ 273122.654681690735742, 3478980.345462160650641 ], [ 274169.287679502274841, 3478957.653300369624048 ], [ 274355.87577561836224, 3479906.584828660357744 ] ] ], [ [ [ 273869.437353316810913, 3482776.228151893708855 ], [ 274915.923844783159439, 3482753.583609210327268 ], [ 274729.19385981769301, 3481804.549965484533459 ], [ 273682.670725324191153, 3481827.206435652915388 ], [ 273869.437353316810913, 3482776.228151893708855 ] ] ], [ [ [ 257312.52173877475434, 3484101.720577385742217 ], [ 257125.120661246444797, 3483152.852122855372727 ], [ 256078.566663742181845, 3483177.285727324895561 ], [ 256266.004480912524741, 3484126.14270936511457 ], [ 257312.52173877475434, 3484101.720577385742217 ] ] ], [ [ [ 255219.483097976160934, 3484150.670134897809476 ], [ 255407.005159619526239, 3485099.549475580919534 ], [ 256453.489786854217527, 3485075.033510040026158 ], [ 256266.004480912524741, 3484126.14270936511457 ], [ 255219.483097976160934, 3484150.670134897809476 ] ] ] ] } }
]
}
