{
"type": "FeatureCollection",
"name": "urban-2035",
"crs": { "type": "name", "properties": { "name": "urn:ogc:def:crs:EPSG::32637" } },
"features": [
{ "type": "Feature", "properties": { "year": 2035 }, "geometry": { "type": "MultiPolygon", "coordinates": [ [ [ [ 214768.812590971996542, 3674690.472587295807898 ], [ 214300.4250634892378, 3672782.777594070415944 ], [ 212221.632429269084241, 3672843.841653289739043 ], [ 212690.177921769907698, 3674751.472294581122696 ], [ 214768.812590971996542, 3674690.472587295807898 ] ] ], [ [ [ 208767.370872699480969, 3675828.610558609012514 ], [ 209001.942109769210219, 3676782.453730095177889 ], [ 211080.453850451449398, 3676720.629782332573086 ], [ 210845.96169898257358, 3675766.754558889660984 ], [ 211885.250485701428261, 3675735.993165188934654 ], [ 211650.854014885786455, 3674782.138698069844395 ], [ 209572.192977481114212, 3674843.804623508825898 ], [ 209337.773625723610166, 3673890.018988944590092 ], [ 207259.015797236585058, 3673952.16101754270494 ], [ 207728.068801527377218, 3675859.705172197893262 ], [ 208767.370872699480969, 3675828.610558609012514 ] ] ], [ [ [ 216979.876600152347237, 3679430.103164561558515 ], [ 216745.413758141105063, 3678476.036501257214695 ], [ 219862.846132076520007, 3678385.897596823517233 ], [ 219394.325825829000678, 3676477.777573277242482 ], [ 218355.106974439462647, 3676507.745325093623251 ], [ 218589.378596603753977, 3677461.770557411946356 ], [ 217550.194957899686415, 3677491.833128563128412 ], [ 216847.429839523683768, 3674629.916988070588559 ], [ 215808.12338492157869, 3674660.139276034664363 ], [ 216276.656368762254715, 3676568.014045349787921 ], [ 214198.188453900569584, 3676628.727079040836543 ], [ 213963.814885315019637, 3675674.803571284748614 ], [ 211885.250485701428261, 3675735.993165188934654 ], [ 212354.211866340774577, 3677643.812591258436441 ], [ 214432.618145720567554, 3677582.687469957862049 ], [ 214667.103958878025878, 3678536.684765168465674 ], [ 215706.261024025152437, 3678506.305064653046429 ], [ 215940.76340831577545, 3679460.35549286659807 ], [ 216979.876600152347237, 3679430.103164561558515 ] ] ], [ [ [ 216409.93649481999455, 3681368.567268051672727 ], [ 215940.76340831577545, 3679460.35549286659807 ], [ 214901.645891474618111, 3679490.718985818792135 ], [ 215370.898107386659831, 3681398.89828808279708 ], [ 216409.93649481999455, 3681368.567268051672727 ] ] ], [ [ [ 213527.597790481522679, 3682414.006677923258394 ], [ 213292.808330656145699, 3681459.894002120010555 ], [ 214331.855391248478554, 3681429.340531530790031 ], [ 214097.161649270390626, 3680475.248615082353354 ], [ 212018.983997343981173, 3680536.499141695909202 ], [ 212488.585968913219403, 3682444.655196595937014 ], [ 213527.597790481522679, 3682414.006677923258394 ] ] ], [ [ [ 214801.411247317213565, 3683337.635294634383172 ], [ 214566.605257898161653, 3682383.469417651649565 ], [ 213527.597790481522679, 3682414.006677923258394 ], [ 213762.443384009471629, 3683368.156325304880738 ], [ 214801.411247317213565, 3683337.635294634383172 ] ] ], [ [ [ 221504.43314390006708, 3685065.484977351967245 ], [ 221269.752544195507653, 3684111.146867677103728 ], [ 220230.850018183526117, 3684140.98384655918926 ], [ 220465.570207818527706, 3685095.305522824637592 ], [ 221504.43314390006708, 3685065.484977351967245 ] ] ], [ [ [ 224386.434793010354042, 3684022.303642354905605 ], [ 223347.544915885664523, 3684051.806769201532006 ], [ 223582.146353645308409, 3685006.177828329149634 ], [ 224620.996658736548852, 3684976.691217533312738 ], [ 224386.434793010354042, 3684022.303642354905605 ] ] ], [ [ [ 219426.703029982047155, 3685125.237387127242982 ], [ 218387.831594678631518, 3685155.280573916155845 ], [ 218622.687066364916973, 3686109.606578409206122 ], [ 219661.518888808437623, 3686079.579789253883064 ], [ 219426.703029982047155, 3685125.237387127242982 ] ] ], [ [ [ 218622.687066364916973, 3686109.606578409206122 ], [ 217583.85097674431745, 3686139.744721261784434 ], [ 217818.802160552586429, 3687094.091470018029213 ], [ 218857.598620361706708, 3687063.969716578256339 ], [ 218622.687066364916973, 3686109.606578409206122 ] ] ], [ [ [ 221739.16979497356806, 3686019.860257373191416 ], [ 219661.518888808437623, 3686079.579789253883064 ], [ 219896.390818993095309, 3687033.959344374015927 ], [ 221973.962495495274197, 3686974.2727290247567 ], [ 222208.811243543983437, 3687928.722413601353765 ], [ 223247.551135966437869, 3687899.062682075425982 ], [ 223012.742004749365151, 3686944.596478586550802 ], [ 224051.517315598845016, 3686915.031594800762832 ], [ 223582.146353645308409, 3685006.177828329149634 ], [ 221504.43314390006708, 3685065.484977351967245 ], [ 221739.16979497356806, 3686019.860257373191416 ] ] ], [ [ [ 225325.018359155161306, 3687840.077398023568094 ], [ 226363.745721290819347, 3687810.751838293392211 ], [ 226129.055404856917448, 3686856.235912755131721 ], [ 227167.818214656435885, 3686827.005107311531901 ], [ 226933.223483974754345, 3685872.509862213395536 ], [ 224855.614542955358047, 3685931.11602099891752 ], [ 225325.018359155161306, 3687840.077398023568094 ] ] ], [ [ [ 217858.995414818229619, 3695745.16752638714388 ], [ 218897.443174557585735, 3695714.970878810156137 ], [ 219132.994931075780187, 3696669.673387300688773 ], [ 221209.798265800403897, 3696609.64813626697287 ], [ 220738.909785632451531, 3694700.214189435355365 ], [ 218661.947503101022448, 3694760.305678486824036 ], [ 218426.50791862711776, 3693805.677764961495996 ], [ 217387.98068894125754, 3693835.907410146202892 ], [ 217858.995414818229619, 3695745.16752638714388 ] ] ], [ [ [ 226776.411180082068313, 3702220.538126532919705 ], [ 227012.116633690835442, 3703175.602952981833369 ], [ 225974.012103362998459, 3703204.995747455395758 ], [ 226445.670637758797966, 3705115.204493994358927 ], [ 230597.745835150475614, 3704998.439510178752244 ], [ 230126.405702279007528, 3703088.095566198695451 ], [ 231164.493936113489326, 3703059.150090964976698 ], [ 230928.94759359076852, 3702104.017672250512987 ], [ 226776.411180082068313, 3702220.538126532919705 ] ] ], [ [ [ 231411.608866401191335, 3725181.514566665980965 ], [ 233485.977423691831063, 3725123.626355342101306 ], [ 233012.12736747978488, 3723211.759819205384701 ], [ 231974.865000027231872, 3723240.682282534427941 ], [ 232211.802082732436247, 3724196.579218053258955 ], [ 231174.575776879151817, 3724225.596836867276579 ], [ 231411.608866401191335, 3725181.514566665980965 ] ] ], [ [ [ 227737.378609699022491, 3727210.452488497830927 ], [ 226700.25249578175135, 3727239.980889474973083 ], [ 226937.653973831853364, 3728195.926636601798236 ], [ 227974.739978842902929, 3728166.415435004513711 ], [ 227737.378609699022491, 3727210.452488497830927 ] ] ], [ [ [ 232510.595799051516224, 3733815.446795825380832 ], [ 231798.033005177392624, 3730946.83017762331292 ], [ 230761.0793564003543, 3730975.951715768314898 ], [ 229811.618773062131368, 3727151.73331009875983 ], [ 228774.500697030278388, 3727181.036629897542298 ], [ 229011.821963176655117, 3728137.016803364269435 ], [ 227974.739978842902929, 3728166.415435004513711 ], [ 228212.157355949864723, 3729122.416443275287747 ], [ 229249.199226225784514, 3729093.035058236215264 ], [ 229486.632484207162634, 3730049.091416337992996 ], [ 228449.630739051732235, 3730078.455535126384348 ], [ 228687.160126180329826, 3731034.532732387073338 ], [ 229724.121735151158646, 3731005.185899505857378 ], [ 230436.925426018948201, 3733873.698317939881235 ], [ 229400.084292018378619, 3733902.993175091221929 ], [ 229637.837675539019983, 3734859.223012521862984 ], [ 228601.032742620329373, 3734888.613268117420375 ], [ 228838.882317740586586, 3735844.863963580690324 ], [ 229875.647053222695831, 3735815.491064695641398 ], [ 230113.512423092557583, 3736771.797353516332805 ], [ 232186.949589372612536, 3736713.424759710673243 ], [ 232424.790527902194299, 3737669.804182106163353 ], [ 233461.462995620095171, 3737640.804582594893873 ], [ 233223.662259064149112, 3736684.407681301236153 ], [ 235297.075847498315852, 3736626.711943873669952 ], [ 234584.250413587607909, 3733757.646173091605306 ], [ 232510.595799051516224, 3733815.446795825380832 ] ] ], [ [ [ 236962.292817110079341, 3743322.542267711833119 ], [ 235925.869541338644922, 3743351.210581274703145 ], [ 236640.493646095099393, 3746221.37629942689091 ], [ 237676.796084529720247, 3746192.761062090285122 ], [ 237438.572411266213749, 3745235.98291602730751 ], [ 238474.911300689564086, 3745207.463015951216221 ], [ 238236.783817511692178, 3744250.70570549601689 ], [ 237200.40465479157865, 3744279.24332525767386 ], [ 236962.292817110079341, 3743322.542267711833119 ] ] ], [ [ [ 233563.689017231110483, 3661674.943968453910202 ], [ 231484.208994689921383, 3661731.712570448406041 ], [ 231949.86798480420839, 3663639.213961786590517 ], [ 234029.191023790917825, 3663582.511180947069079 ], [ 233563.689017231110483, 3661674.943968453910202 ] ] ], [ [ [ 237722.60000205313554, 3661562.733858649618924 ], [ 237490.089712668675929, 3660608.939709086436778 ], [ 235410.563942320761271, 3660664.856664478778839 ], [ 235643.15264381718589, 3661618.617740395013243 ], [ 234603.422872043098323, 3661646.725559414830059 ], [ 235068.846404427429661, 3663554.325765179470181 ], [ 236108.497713734104764, 3663526.250994569156319 ], [ 236341.254078279074747, 3664480.12321508442983 ], [ 237380.862090380978771, 3664452.175666716415435 ], [ 237846.463952491583768, 3666360.064618951175362 ], [ 238885.989426153566455, 3666332.261010192334652 ], [ 238187.788182085059816, 3663470.433375068940222 ], [ 239227.427372995094629, 3663442.690519338473678 ], [ 238762.317620418703882, 3661534.957789072301239 ], [ 237722.60000205313554, 3661562.733858649618924 ] ] ], [ [ [ 230569.672130932915024, 3666557.790261168964207 ], [ 228490.55179223237792, 3666615.279956726357341 ], [ 229190.434941792744212, 3669476.945309109985828 ], [ 231269.319302931020502, 3669419.554316693451256 ], [ 230569.672130932915024, 3666557.790261168964207 ] ] ], [ [ [ 242828.727189083554549, 3673910.43178039137274 ], [ 239711.10600406411686, 3673993.108205324970186 ], [ 240644.767573317978531, 3677810.525044119916856 ], [ 241683.821097166335676, 3677782.922692104708403 ], [ 241450.36132114630891, 3676828.495547736994922 ], [ 242489.450292279856512, 3676800.987339502666146 ], [ 242022.776986263663275, 3674892.211492797825485 ], [ 243061.940753892005887, 3674864.780495163518935 ], [ 242828.727189083554549, 3673910.43178039137274 ] ] ], [ [ [ 230385.418120816233568, 3682893.171641123015434 ], [ 229346.513591396156698, 3682922.023822982795537 ], [ 229580.82172037102282, 3683876.457088203635067 ], [ 228541.95261025079526, 3683905.403866928536445 ], [ 229245.331443071307149, 3686768.877549727447331 ], [ 230284.081893080554437, 3686739.980790486559272 ], [ 230049.60587315284647, 3685785.435550624970347 ], [ 232127.173634276841767, 3685727.942585919983685 ], [ 231892.832665119203739, 3684773.401263253297657 ], [ 230854.011282332998235, 3684802.108818614855409 ], [ 230385.418120816233568, 3682893.171641123015434 ] ] ], [ [ [ 247474.673942725494271, 3684356.139539998024702 ], [ 246435.911942727747373, 3684383.178263662848622 ], [ 246669.699942413630197, 3685337.956678601447493 ], [ 245630.973553796502529, 3685365.089519555214792 ], [ 245864.856810465978924, 3686319.888456203974783 ], [ 247942.226808004023042, 3686265.768329062033445 ], [ 248176.086900827736827, 3687220.63925745524466 ], [ 249214.726688591443235, 3687193.763329568319023 ], [ 248980.906066506868228, 3686238.87519273487851 ], [ 250019.581519105966436, 3686212.093336853198707 ], [ 249785.856112795125227, 3685257.22569907316938 ], [ 247708.422487976233242, 3685310.935097068548203 ], [ 247474.673942725494271, 3684356.139539998024702 ] ] ], [ [ [ 229245.331443071307149, 3686768.877549727447331 ], [ 227167.818214656435885, 3686827.005107311531901 ], [ 227402.468938034726307, 3687781.537661978509277 ], [ 229479.902998092002235, 3687723.443445338867605 ], [ 229245.331443071307149, 3686768.877549727447331 ] ] ], [ [ [ 248176.086900827736827, 3687220.63925745524466 ], [ 247137.443297182966489, 3687247.626496684271842 ], [ 247371.398648304340895, 3688202.517942779697478 ], [ 248410.002764461329207, 3688175.547903737053275 ], [ 248176.086900827736827, 3687220.63925745524466 ] ] ], [ [ [ 242412.529075918224407, 3689293.881820521783084 ], [ 242178.320366206287872, 3688339.038338048849255 ], [ 241139.693059730314417, 3688366.67648045392707 ], [ 241373.941302496677963, 3689321.50290900375694 ], [ 242412.529075918224407, 3689293.881820521783084 ] ] ], [ [ [ 236452.043113541381899, 3699067.113348458893597 ], [ 237490.262272140418645, 3699038.882133242674172 ], [ 237255.217697502113879, 3698083.781391629483551 ], [ 236216.958855052420404, 3698112.029661581385881 ], [ 236452.043113541381899, 3699067.113348458893597 ] ] ], [ [ [ 248098.169205789541593, 3720879.171638404019177 ], [ 248334.354944160440937, 3721835.271761040203273 ], [ 249371.595744381629629, 3721808.129749109502882 ], [ 249844.054718597762985, 3723720.480481659062207 ], [ 251918.365487749077147, 3723666.604480092413723 ], [ 252154.598755505634472, 3724622.873023426160216 ], [ 254228.814962317759637, 3724569.482220939360559 ], [ 253048.605200615245849, 3719788.345688100438565 ], [ 256160.50062038822216, 3719708.834350267425179 ], [ 256396.311501107207732, 3720665.038280282635242 ], [ 257433.562850765971234, 3720638.776897263713181 ], [ 257669.389562826894689, 3721595.037215263117105 ], [ 258706.597447431442561, 3721568.906045183539391 ], [ 258470.810598894633586, 3720612.627789471298456 ], [ 259508.054760853992775, 3720586.59095372678712 ], [ 259743.80175148928538, 3721542.88717480795458 ], [ 260781.002490349113941, 3721516.980600974988192 ], [ 261016.765282681793906, 3722473.333393463399261 ], [ 263091.076416178839281, 3722421.893231149297208 ], [ 263326.815128161921166, 3723378.320771586615592 ], [ 264363.925559122231789, 3723352.787279491778463 ], [ 264599.680029825889505, 3724309.271616530604661 ], [ 266673.810707993805408, 3724258.578000275883824 ], [ 266909.541049722116441, 3725215.137432873249054 ], [ 268983.578180902637541, 3725164.929763119202107 ], [ 269219.284369184402749, 3726121.564502705354244 ], [ 271293.228097865823656, 3726071.843015853781253 ], [ 271057.601631032652222, 3725115.171623261645436 ], [ 270020.591608441085555, 3725139.994503468740731 ], [ 269784.980840277741663, 3724183.380274950060993 ], [ 270822.030709680402651, 3724158.539074067492038 ], [ 270586.515335883945227, 3723201.945346178486943 ], [ 273697.764108543575276, 3723128.040754793677479 ], [ 274168.611422286310699, 3725041.377229223959148 ], [ 273131.611522637773305, 3725065.862989133223891 ], [ 273367.158290034160018, 3726022.571145491208881 ], [ 274404.118348194926511, 3725998.103809007443488 ], [ 274639.68078401661478, 3726954.869313335046172 ], [ 276713.511212122626603, 3726906.308792221359909 ], [ 276242.601205862651113, 3724992.742808851413429 ], [ 277279.591120427008718, 3724968.594142482616007 ], [ 277044.259164668852463, 3724011.851087673567235 ], [ 279118.308727461204398, 3723963.853771093767136 ], [ 278412.884452523023356, 3721093.747219583950937 ], [ 277375.741972962860018, 3721117.745222653262317 ], [ 276670.697637047211174, 3718248.044213608838618 ], [ 274596.164217788551468, 3718296.48737190105021 ], [ 274831.203005711431615, 3719252.978753526229411 ], [ 272756.735691602574661, 3719301.833927715662867 ], [ 272991.909514323808253, 3720258.327424459625036 ], [ 271954.71057463856414, 3720282.90500652929768 ], [ 271719.496977371862158, 3719326.429815277922899 ], [ 270682.254871189361438, 3719351.137907133903354 ], [ 270211.914758918166626, 3717438.340250206645578 ], [ 271249.236391756334342, 3717413.595661618281156 ], [ 270544.262066671974026, 3714544.634672991000116 ], [ 272619.133502206066623, 3714495.372494374867529 ], [ 271445.684067205409519, 3709714.361734277568758 ], [ 272483.313066475326195, 3709689.807716050650924 ], [ 271780.028686901670881, 3706821.609894315712154 ], [ 270742.280797863320913, 3706846.218289942014962 ], [ 270507.924119063536637, 3705890.247512280009687 ], [ 268432.338795583404135, 3705939.83591218246147 ], [ 267963.633669626549818, 3704028.081844926346093 ], [ 270039.377390282810666, 3703978.421381333377212 ], [ 269805.187344412901439, 3703022.565984325949103 ], [ 268767.277636588609312, 3703047.358337415847927 ], [ 268533.103570372972172, 3702091.559337916318327 ], [ 267495.150817977264524, 3702116.481375045143068 ], [ 266792.843340654741041, 3699249.368283511605114 ], [ 265754.768423952686135, 3699274.455686740577221 ], [ 266222.996937641873956, 3701185.790333935525268 ], [ 265184.997612683917396, 3701210.953664779663086 ], [ 265419.23482356563909, 3702166.660570615436882 ], [ 264381.271550451638177, 3702191.917735172901303 ], [ 264146.994759705266915, 3701236.22868016269058 ], [ 263108.988363148760982, 3701261.615383165888488 ], [ 262874.727606044267304, 3700305.982407284434885 ], [ 263912.773576952633448, 3700280.577900597359985 ], [ 263678.608004229958169, 3699324.965374711435288 ], [ 264716.68998367106542, 3699299.654716117307544 ], [ 264482.619569615344517, 3698344.062629757914692 ], [ 265520.73755092790816, 3698318.845780323725194 ], [ 265286.762269834172912, 3697363.274123017210513 ], [ 264248.604758575442247, 3697388.508773045614362 ], [ 264014.645552585367113, 3696432.993124243803322 ], [ 262976.444966577459127, 3696458.357101656496525 ], [ 263210.443697009584866, 3697413.85499697457999 ], [ 261134.110860576707637, 3697464.882178911939263 ], [ 260666.010908707190538, 3695553.99536413885653 ], [ 259627.760031252430053, 3695579.711649980396032 ], [ 260095.939054517453769, 3697490.563143141102046 ], [ 259057.763635770534165, 3697516.355693713761866 ], [ 259291.976180361089064, 3698471.820962269324809 ], [ 257215.693575140699977, 3698523.705593311693519 ], [ 256747.165903082495788, 3696612.883611418772489 ], [ 257785.388152098428691, 3696586.850291111972183 ], [ 257317.162301347911125, 3694676.145392688456923 ], [ 256278.860969296772964, 3694702.213829874992371 ], [ 256044.792034288460854, 3693746.935960097704083 ], [ 255006.447495242318837, 3693773.133411853574216 ], [ 255240.555960833706195, 3694728.393779967911541 ], [ 247972.31664988520788, 3694914.77606198657304 ], [ 248441.254656255274313, 3696825.166897932998836 ], [ 254670.710394103865838, 3696665.284959762822837 ], [ 254905.025522018753691, 3697620.64182255230844 ], [ 253866.831805923662614, 3697646.992352292872965 ], [ 254101.24222464452032, 3698602.369723815936595 ], [ 252024.922847403475316, 3698655.370637408923358 ], [ 252259.468191245134221, 3699610.751039744354784 ], [ 251221.342527030210476, 3699637.401493498124182 ], [ 251455.983229986246442, 3700592.802433523815125 ], [ 248341.7026353708643, 3700673.371555486693978 ], [ 248106.943022362160264, 3699718.02289015520364 ], [ 247068.802298229071312, 3699745.120045093353838 ], [ 244958.119695647881599, 3691148.842217737343162 ], [ 245996.616756109375274, 3691121.589610315393656 ], [ 245762.4150130834023, 3690166.619373390916735 ], [ 246800.947765613964293, 3690139.460994581691921 ], [ 246566.84134151879698, 3689184.511298246216029 ], [ 245528.269067981775152, 3689211.686860758811235 ], [ 245294.17892278401996, 3688256.792050915304571 ], [ 243216.943768418306718, 3688311.511554563418031 ], [ 243685.337955233146204, 3690221.270346601493657 ], [ 241608.245389225281542, 3690276.366962866391987 ], [ 241373.941302496677963, 3689321.50290900375694 ], [ 240335.349614919221494, 3689349.235387373715639 ], [ 240569.693251502263593, 3690304.082395542878658 ], [ 238492.577188296156237, 3690359.847526903264225 ], [ 239196.180691622867016, 3693224.512143479194492 ], [ 238157.735502682335209, 3693252.510843962896615 ], [ 238392.421355958562344, 3694207.457286600489169 ], [ 236315.598341867793351, 3694263.755234485957772 ], [ 236080.833248510491103, 3693308.842789968941361 ], [ 237119.286360188969411, 3693280.621058316435665 ], [ 236650.003094760526437, 3691370.875020232051611 ], [ 237688.531438482692465, 3691342.730838339775801 ], [ 237454.013231487595476, 3690387.897232395131141 ], [ 236415.445303658372723, 3690416.058368989732116 ], [ 236180.943409577535931, 3689461.279267678037286 ], [ 235142.331916125549469, 3689489.568746560718864 ], [ 235376.87338914826978, 3690444.330940124578774 ], [ 233299.71753743593581, 3690501.210399836767465 ], [ 233769.126622431795113, 3692410.779818370006979 ], [ 234807.627343015337829, 3692382.318131065461785 ], [ 235512.041507499816362, 3695247.004613048397005 ], [ 233435.273869792697951, 3695303.937989895697683 ], [ 233200.333939316275064, 3694349.038777451962233 ], [ 230085.03330414625816, 3694435.326349115930498 ], [ 229850.030350152461324, 3693480.515236982610077 ], [ 227773.063588599383365, 3693538.631682101171464 ], [ 228243.284152626118157, 3695448.224253886379302 ], [ 229281.690229690051638, 3695419.143807403277606 ], [ 229987.321858899493236, 3698283.864307483658195 ], [ 231025.604762534203473, 3698254.946012620348483 ], [ 231260.887527988350485, 3699209.944839577656239 ], [ 232299.126669349905569, 3699181.155141091905534 ], [ 232534.425667115370743, 3700136.208511712495238 ], [ 231496.226249882136472, 3700164.981273945886642 ], [ 231731.620926261006389, 3701120.055337235797197 ], [ 232769.780608355766162, 3701091.299530690535903 ], [ 233240.658313432591967, 3703001.594599856995046 ], [ 234278.734487982932478, 3702972.984576966613531 ], [ 234749.756407786626369, 3704883.464600814972073 ], [ 235787.749069677549414, 3704855.000546266324818 ], [ 236023.30413601238979, 3705810.31431896565482 ], [ 237061.253063739393838, 3705781.979262319393456 ], [ 237296.824256009596866, 3706737.3480069427751 ], [ 238334.729465710552176, 3706709.142019414808601 ], [ 238570.316765699215466, 3707664.565824158024043 ], [ 239608.178273471363354, 3707636.488976996857673 ], [ 239843.781662935070926, 3708591.967930099926889 ], [ 238805.9599493209098, 3708620.027527850586921 ], [ 239041.659014597098576, 3709575.527152155060321 ], [ 240079.440923008514801, 3709547.484823321457952 ], [ 240550.927047055651201, 3711458.63251685583964 ], [ 239513.224782194010913, 3711486.640249300282449 ], [ 239749.091480551142013, 3712442.253765529021621 ], [ 238711.425170074013295, 3712470.356246546376497 ], [ 238947.387597367021954, 3713425.990450736135244 ], [ 234796.842686018557288, 3713539.452202303800732 ], [ 233852.69064249919029, 3709717.418763882480562 ], [ 232814.885093803983182, 3709746.133103925269097 ], [ 232578.947074991825502, 3708790.736513623967767 ], [ 230503.24428159405943, 3708848.535363258328289 ], [ 230267.28253470081836, 3707893.210661510936916 ], [ 229229.385252444131766, 3707922.295075897593051 ], [ 229465.38684614218073, 3708877.602776531130075 ], [ 228427.525364223867655, 3708906.782186819240451 ], [ 229135.98564743285533, 3711772.880808040965348 ], [ 228098.239745527913328, 3711802.121263991110027 ], [ 228334.54505078116199, 3712757.545999089255929 ], [ 227296.834997808618937, 3712786.881545470561832 ], [ 227533.236217870435212, 3713742.327057156246156 ], [ 226495.56202124763513, 3713771.757733160629869 ], [ 226968.612356333818752, 3715682.728126763831824 ], [ 228006.206668778031599, 3715653.331486111041158 ], [ 227769.693442178715486, 3714697.810363486874849 ], [ 228807.323644855350722, 3714668.508868534583598 ], [ 228570.906351208977867, 3713713.008526722900569 ], [ 230646.234489727241453, 3713654.707888315431774 ], [ 230882.5719397480716, 3714610.242383820936084 ], [ 231920.190062794368714, 3714581.277386970818043 ], [ 232629.418414951127488, 3717448.159681674558669 ], [ 231591.920097092515789, 3717477.073206582572311 ], [ 231828.481412082212046, 3718432.759331901557744 ], [ 234940.844592853100039, 3718346.407150926068425 ], [ 234704.40313173487084, 3717390.669353534467518 ], [ 235741.889561435964424, 3717362.092543311882764 ], [ 235978.291082966432441, 3718317.847619912121445 ], [ 237015.733646970242262, 3718289.400347752030939 ], [ 237488.624538715055678, 3720201.05931512825191 ], [ 238525.9833029510919, 3720172.759025912731886 ], [ 238999.017869754636195, 3722084.605211824178696 ], [ 241073.563930629228707, 3722028.411328915972263 ], [ 240128.037936118111247, 3718204.732049887999892 ], [ 241165.464949478628114, 3718176.733778699301183 ], [ 241401.722722206846811, 3719132.61380325211212 ], [ 244513.860998490621569, 3719049.344902384094894 ], [ 244277.722955821984215, 3718093.412401773035526 ], [ 246352.542585755378241, 3718038.425980618689209 ], [ 246588.600837177189533, 3718994.393603356089443 ], [ 247625.96509898948716, 3718967.086334265768528 ], [ 247862.039256728981854, 3719923.109836770221591 ], [ 248899.359874974878039, 3719895.932466584723443 ], [ 249135.449920569401002, 3720852.011937540024519 ], [ 248098.169205789541593, 3720879.171638404019177 ] ], [ [ 269506.821227391890716, 3714569.433859597891569 ], [ 269271.901161641522776, 3713613.209000053349882 ], [ 268234.41716871864628, 3713638.13838801253587 ], [ 267999.512954506149981, 3712681.970240075606853 ], [ 270074.556909618200734, 3712632.187251907307655 ], [ 270544.262066671974026, 3714544.634672991000116 ], [ 269506.821227391890716, 3714569.433859597891569 ] ], [ [ 269976.82802809344139, 3716481.999462697189301 ], [ 268939.463224772014655, 3716506.874394471291453 ], [ 269174.58970772929024, 3717463.196990720927715 ], [ 267099.929288720537443, 3717513.246939631178975 ], [ 266629.572867458453402, 3715600.712951923720539 ], [ 267666.984316791058518, 3715575.595646272413433 ], [ 267431.929228688939475, 3714619.368442488834262 ], [ 269506.821227391890716, 3714569.433859597891569 ], [ 269976.82802809344139, 3716481.999462697189301 ] ], [ [ 270976.693016859644558, 3707802.227571566589177 ], [ 269938.981319474696647, 3707826.929727024864405 ], [ 270173.488712039892562, 3708782.959436384495348 ], [ 268098.134261284838431, 3708832.663244408089668 ], [ 267863.547581288963556, 3707876.669648250099272 ], [ 268901.266179448342882, 3707851.743751578498632 ], [ 268666.774706303549465, 3706895.770599431358278 ], [ 270742.280797863320913, 3706846.218289942014962 ], [ 270976.693016859644558, 3707802.227571566589177 ] ], [ [ 263343.304739334736951, 3702217.286615008488297 ], [ 262305.334374667727388, 3702242.767213214188814 ], [ 262070.978407458256697, 3701287.113776881247759 ], [ 263108.988363148760982, 3701261.615383165888488 ], [ 263343.304739334736951, 3702217.286615008488297 ] ], [ [ 257450.040932983829407, 3699479.173713576514274 ], [ 256411.933743304980453, 3699505.265863846056163 ], [ 256177.546799580275547, 3698549.815342437941581 ], [ 257215.693575140699977, 3698523.705593311693519 ], [ 257450.040932983829407, 3699479.173713576514274 ] ], [ [ 246116.540140755707398, 3717082.496593723073602 ], [ 245079.092337960668374, 3717109.951245477423072 ], [ 244843.105830796150258, 3716154.077608302701265 ], [ 246918.077393793326337, 3716099.24540301784873 ], [ 246446.43125041431631, 3714187.542544117197394 ], [ 247483.991056651488179, 3714160.259569413494319 ], [ 247719.746390698652249, 3715116.109455693047494 ], [ 248757.262601277179783, 3715088.95616817381233 ], [ 248993.033883288590005, 3716044.861862989608198 ], [ 250030.506513982632896, 3716017.838334171567112 ], [ 250502.136701104260283, 3717929.799810409545898 ], [ 249464.743776871153386, 3717956.788027228787541 ], [ 249228.860942490195157, 3717000.80580873042345 ], [ 247153.984165514091728, 3717055.15413922816515 ], [ 247389.946734581782948, 3718011.101109032519162 ], [ 246352.542585755378241, 3718038.425980618689209 ], [ 246116.540140755707398, 3717082.496593723073602 ] ], [ [ 251539.525914575526258, 3717902.923805264290422 ], [ 251775.384788092196686, 3718858.979716767556965 ], [ 250738.035438788443571, 3718885.838008897379041 ], [ 250502.136701104260283, 3717929.799810409545898 ], [ 251539.525914575526258, 3717902.923805264290422 ] ], [ [ 238618.099468603992136, 3716321.266483539249748 ], [ 235505.543958999100141, 3716406.375484980642796 ], [ 235269.254277633095626, 3715450.696423185989261 ], [ 238381.929504686151631, 3715365.535535933449864 ], [ 238618.099468603992136, 3716321.266483539249748 ] ], [ [ 234231.688001914764754, 3715479.30773312645033 ], [ 233995.414337160938885, 3714523.683866661507636 ], [ 235033.020519314566627, 3714495.055336196906865 ], [ 235269.254277633095626, 3715450.696423185989261 ], [ 234231.688001914764754, 3715479.30773312645033 ] ], [ [ 260971.931589901243569, 3713815.781513846945018 ], [ 261207.169561018643435, 3714771.86208843300119 ], [ 260169.697252380836289, 3714797.670005195308477 ], [ 259934.419517991016619, 3713841.607341740746051 ], [ 260971.931589901243569, 3713815.781513846945018 ] ], [ [ 262811.842222017294262, 3712808.388053886592388 ], [ 263282.103518874850124, 3714720.582532287575305 ], [ 262244.63831137685338, 3714746.166265172418207 ], [ 261774.297521468775813, 3712834.007700095884502 ], [ 262811.842222017294262, 3712808.388053886592388 ] ], [ [ 266961.985792572260834, 3712707.029757482931018 ], [ 267196.929719931446016, 3713663.179820207413286 ], [ 264084.446484070271254, 3713738.976412732154131 ], [ 263849.38338396186009, 3712782.880439618136734 ], [ 266961.985792572260834, 3712707.029757482931018 ] ], [ [ 269605.073952888371423, 3710719.894216234795749 ], [ 269839.787655181600712, 3711676.021446865983307 ], [ 268802.227709645288996, 3711700.87505517853424 ], [ 268567.474327517324127, 3710744.765925969462842 ], [ 269605.073952888371423, 3710719.894216234795749 ] ], [ [ 266825.825509506976232, 3707901.707420072052628 ], [ 267060.451841520844027, 3708857.683001137338579 ], [ 266022.765938189404551, 3708882.814663737546653 ], [ 265788.099948610179126, 3707926.857070092111826 ], [ 266825.825509506976232, 3707901.707420072052628 ] ], [ [ 262774.213191455346532, 3704154.188882395625114 ], [ 262539.745970011572354, 3703198.458907793276012 ], [ 263577.676732566789724, 3703172.996124587487429 ], [ 264046.587562023778446, 3705084.530064094346017 ], [ 263008.736036964110099, 3705109.957158806733787 ], [ 263477.948592031374574, 3707021.608704283833504 ], [ 262440.172807683818974, 3707047.111892220098525 ], [ 262205.499068085162435, 3706091.284812136553228 ], [ 261167.680069414287573, 3706116.917700654827058 ], [ 260933.022314334986731, 3705161.146764675620943 ], [ 261970.88095957346377, 3705135.496057962998748 ], [ 261736.318484183604596, 3704179.745607894379646 ], [ 262774.213191455346532, 3704154.188882395625114 ] ], [ [ 266925.756596654304303, 3704053.0797173473984 ], [ 267160.120978412043769, 3705008.919575727544725 ], [ 265084.435550273046829, 3705059.214770730119199 ], [ 264849.991947775299195, 3704103.410758659709245 ], [ 266925.756596654304303, 3704053.0797173473984 ] ], [ [ 239900.28701700369129, 3696089.515638052485883 ], [ 243015.242522321408615, 3696006.342621062416583 ], [ 243484.688228874263586, 3697916.636484608985484 ], [ 242446.452886590326671, 3697944.214853667654097 ], [ 242681.299129163933685, 3698899.401282886508852 ], [ 241643.099563970346935, 3698927.074100889265537 ], [ 241878.041307621548185, 3699882.281139134429395 ], [ 240839.87752653460484, 3699910.048445222899318 ], [ 241074.914797130884835, 3700865.276102796196938 ], [ 240036.78680719062686, 3700893.137936112005264 ], [ 240271.919630609540036, 3701848.386223308742046 ], [ 239233.827438881591661, 3701876.342622995842248 ], [ 238998.654910173616372, 3700921.111504051368684 ], [ 237960.519090524263447, 3700949.196810023393482 ], [ 238195.731330329901539, 3701904.410788312554359 ], [ 236119.527300568995997, 3701960.88242953363806 ], [ 235884.235621103900485, 3701005.70264977728948 ], [ 236922.379332685435656, 3700977.393857453018427 ], [ 236452.043113541381899, 3699067.113348458893597 ], [ 235413.81998953584116, 3699095.456253387965262 ], [ 235648.999850104213692, 3700050.560598246287555 ], [ 234610.812451664358377, 3700078.998177350498736 ], [ 234140.429240848519839, 3698168.861191326286644 ], [ 235178.696041361952666, 3698140.389593662228435 ], [ 234708.61589004972484, 3696230.369243505876511 ], [ 235746.958050068817101, 3696201.975315395276994 ], [ 235981.930499906709883, 3697156.983657735865563 ], [ 237020.229015189397614, 3697128.718352471012622 ], [ 237255.217697502113879, 3698083.781391629483551 ], [ 238293.47258429377689, 3698055.644780358299613 ], [ 237823.630436957173515, 3696145.522276583127677 ], [ 236785.296227170445491, 3696173.692994237877429 ], [ 236550.419335408078041, 3695218.705295410007238 ], [ 239665.529042707465123, 3695134.476784244645387 ], [ 239900.28701700369129, 3696089.515638052485883 ] ], [ [ 242077.021086682041641, 3692186.208032439928502 ], [ 242311.492693463776959, 3693141.185091137420386 ], [ 240234.621942643483635, 3693196.624953446444124 ], [ 240000.071164280729135, 3692241.682074823882431 ], [ 242077.021086682041641, 3692186.208032439928502 ] ] ], [ [ [ 237161.137407728296239, 3723097.194038681685925 ], [ 236924.4563204345759, 3722141.248544218484312 ], [ 234849.879159946343862, 3722198.341353629250079 ], [ 234613.174008351634257, 3721242.468673831317574 ], [ 233575.839540066139307, 3721271.200943445786834 ], [ 233812.584687167196535, 3722227.056320879608393 ], [ 232775.286265579052269, 3722255.883667808957398 ], [ 233012.12736747978488, 3723211.759819205384701 ], [ 235086.640242858673446, 3723154.252121365629137 ], [ 235323.457255107699893, 3724110.200998840387911 ], [ 239472.275984748121118, 3723996.604063207749277 ], [ 238999.017869754636195, 3722084.605211824178696 ], [ 237961.739038820320275, 3722112.870695120189339 ], [ 238198.38013704426703, 3723068.833594346884638 ], [ 237161.137407728296239, 3723097.194038681685925 ] ] ], [ [ [ 248479.075638780719601, 3726643.513698656577617 ], [ 249516.120405188004952, 3726616.347955591510981 ], [ 249752.640837111102883, 3727572.678464228287339 ], [ 250789.641916879452765, 3727545.642998152412474 ], [ 250553.161466128309257, 3726589.294682758394629 ], [ 251590.198836898780428, 3726562.353876870591193 ], [ 251117.485153360437835, 3724649.737030744552612 ], [ 248006.122168161877198, 3724731.003516199998558 ], [ 248479.075638780719601, 3726643.513698656577617 ] ] ], [ [ [ 256447.320738009962952, 3729325.144348361063749 ], [ 253336.601272767991759, 3729404.793192474171519 ], [ 253573.168997714587022, 3730361.292870641220361 ], [ 254610.039110843325034, 3730334.648665599059314 ], [ 255083.261737629189156, 3732247.799798857886344 ], [ 258193.610391009773593, 3732168.650778742041439 ], [ 257484.220012568839593, 3729298.819805309176445 ], [ 258521.115705652162433, 3729272.607792745344341 ], [ 258048.547166098083835, 3727359.544401901308447 ], [ 255974.592354354012059, 3727412.153021372389048 ], [ 256447.320738009962952, 3729325.144348361063749 ] ] ], [ [ [ 259794.335657257237472, 3730203.116092673502862 ], [ 259558.007832530944142, 3729246.508307490497828 ], [ 258521.115705652162433, 3729272.607792745344341 ], [ 258757.483499669382581, 3730229.19749095197767 ], [ 259794.335657257237472, 3730203.116092673502862 ] ] ], [ [ [ 260030.719150943361456, 3731159.762595478910953 ], [ 258993.906973784934962, 3731185.825887084938586 ], [ 259230.386125952150906, 3732142.493003220297396 ], [ 260267.158311538805719, 3732116.447837988846004 ], [ 260030.719150943361456, 3731159.762595478910953 ] ] ], [ [ [ 259377.041403962386539, 3736952.477143475785851 ], [ 257303.879615562153049, 3737004.94937433488667 ], [ 257777.802085643925238, 3738918.678854171652347 ], [ 259850.803561748325592, 3738866.279365142807364 ], [ 259377.041403962386539, 3736952.477143475785851 ] ] ], [ [ [ 261424.418249813257717, 3749420.917806220706552 ], [ 259352.293115175009007, 3749473.140618743374944 ], [ 259827.743826924968744, 3751387.846253625117242 ], [ 261899.708045959589072, 3751335.69710190827027 ], [ 261424.418249813257717, 3749420.917806220706552 ] ] ], [ [ [ 244083.557021475833608, 3666194.903662899509072 ], [ 243044.051419125229586, 3666222.153717400040478 ], [ 243276.739868494478287, 3667176.237515061162412 ], [ 244316.20623099221848, 3667149.004264146555215 ], [ 244781.672051794710569, 3669057.31735315034166 ], [ 246860.436039691296173, 3669003.250528282485902 ], [ 246162.556462449865649, 3666140.735652924980968 ], [ 245123.058697281056084, 3666167.764309183228761 ], [ 244890.504514082887908, 3665213.68416314246133 ], [ 243850.963615162414499, 3665240.840328836347908 ], [ 244083.557021475833608, 3666194.903662899509072 ] ] ], [ [ [ 247918.060127761069452, 3677619.640484211500734 ], [ 246879.029985670902533, 3677646.57659455947578 ], [ 247579.153400744427927, 3680510.337651008274406 ], [ 248618.065412088995799, 3680483.452784966211766 ], [ 248851.51203483378049, 3681438.132069348823279 ], [ 250929.245819087489508, 3681384.729991399683058 ], [ 250462.565875622007297, 3679475.340421751607209 ], [ 249423.622121043532388, 3679502.020224033389241 ], [ 248723.902217133436352, 3676638.269344605971128 ], [ 247684.836567550752079, 3676665.111496743280441 ], [ 247918.060127761069452, 3677619.640484211500734 ] ] ], [ [ [ 255680.125771733437432, 3687989.874938443303108 ], [ 254641.547997217450757, 3688016.065673205070198 ], [ 255109.073220389109338, 3689926.204116299282759 ], [ 256147.572066576569341, 3689900.048226725310087 ], [ 255913.821074356907047, 3688944.942634309642017 ], [ 256952.355695548612857, 3688918.880656365770847 ], [ 256485.099676834593993, 3687008.748277917504311 ], [ 255446.48616071138531, 3687034.845117557793856 ], [ 255680.125771733437432, 3687989.874938443303108 ] ] ], [ [ [ 255342.919380927400198, 3690881.330175171140581 ], [ 256044.792034288460854, 3693746.935960097704083 ], [ 257083.132891270157415, 3693720.849993613082916 ], [ 256615.24111177874147, 3691810.373187523335218 ], [ 257653.657307737041265, 3691784.363647504244 ], [ 257419.834428470727289, 3690829.164698545821011 ], [ 255342.919380927400198, 3690881.330175171140581 ] ] ], [ [ [ 271048.323802831931971, 3695302.966030307579786 ], [ 272086.535847766906954, 3695278.476382029708475 ], [ 271853.003676146443468, 3694322.894371318630874 ], [ 272891.251736953097861, 3694298.498253767378628 ], [ 272424.432834732811898, 3692387.413236561231315 ], [ 270347.775517044588923, 3692436.388620655518025 ], [ 271048.323802831931971, 3695302.966030307579786 ] ] ], [ [ [ 267363.066703822463751, 3697313.139532367698848 ], [ 266324.916246384789702, 3697338.151043812278658 ], [ 266558.852003097650595, 3698293.740529375616461 ], [ 267596.96294171072077, 3698268.746873850468546 ], [ 267363.066703822463751, 3697313.139532367698848 ] ] ], [ [ [ 271178.996868767717388, 3700105.872661013156176 ], [ 273255.029471318353899, 3700056.961671591736376 ], [ 272787.465477025660221, 3698145.452421420253813 ], [ 271749.371872365474701, 3698169.888145256787539 ], [ 271515.633654410368763, 3697214.209103414323181 ], [ 270477.497117441205774, 3697238.774374174419791 ], [ 271178.996868767717388, 3700105.872661013156176 ] ] ], [ [ [ 269673.174340619996656, 3698219.094336898531765 ], [ 267596.96294171072077, 3698268.746873850468546 ], [ 268064.92212470958475, 3700180.076442696154118 ], [ 270140.975415015243925, 3700130.495612232945859 ], [ 269673.174340619996656, 3698219.094336898531765 ] ] ], [ [ [ 285477.607069896883331, 3698816.879676340147853 ], [ 283401.575513804564252, 3698863.14853413682431 ], [ 284101.986468123330269, 3701731.131479152012616 ], [ 286177.78125257359352, 3701684.972848634235561 ], [ 285477.607069896883331, 3698816.879676340147853 ] ] ], [ [ [ 271311.450075808330439, 3704909.670667153317481 ], [ 274424.910848742118105, 3704836.407686895225197 ], [ 273488.894734730070923, 3701012.773929272778332 ], [ 271412.941186683718115, 3701061.648840961512178 ], [ 271880.996411404106766, 3702973.316458247601986 ], [ 270843.093597504775971, 3702997.885358939412981 ], [ 271311.450075808330439, 3704909.670667153317481 ] ] ], [ [ [ 278006.444803409161977, 3706676.307960319332778 ], [ 277772.365263129642699, 3705720.209994208998978 ], [ 276734.598069695290178, 3705744.165674669668078 ], [ 276968.71718477352988, 3706700.245387932285666 ], [ 275930.986226498149335, 3706724.294636182952672 ], [ 276399.470068841008469, 3708636.53343925671652 ], [ 275361.814960249350406, 3708660.658057524822652 ], [ 275596.179722226108424, 3709616.817160261329263 ], [ 277671.407362420577556, 3709568.716342568397522 ], [ 277437.121833211742342, 3708612.52069993969053 ], [ 279512.415391234913841, 3708564.830846480093896 ], [ 279044.169097908423282, 3706652.482350429520011 ], [ 278006.444803409161977, 3706676.307960319332778 ] ] ], [ [ [ 272717.852241530781612, 3710645.95080586289987 ], [ 274793.020765699911863, 3710597.214934687130153 ], [ 274324.156491952773649, 3708684.894557682797313 ], [ 273286.494648467632942, 3708709.242942676413804 ], [ 273520.938665086519904, 3709665.365616286639124 ], [ 272483.313066475326195, 3709689.807716050650924 ], [ 272717.852241530781612, 3710645.95080586289987 ] ] ], [ [ [ 288451.371541347412858, 3723753.425607479643077 ], [ 287414.377304572321009, 3723776.3572789253667 ], [ 287179.498558806895744, 3722819.466967484913766 ], [ 286142.461423478031065, 3722842.529685596004128 ], [ 286377.37991793663241, 3723799.401252700015903 ], [ 282229.358566129347309, 3723892.700227252207696 ], [ 282699.679924028459936, 3725806.411096469033509 ], [ 283736.610489475307986, 3725782.955211183521897 ], [ 283971.814496447856072, 3726739.887950251810253 ], [ 287082.467672527884133, 3726670.25074118655175 ], [ 286847.383044577785768, 3725713.261758282780647 ], [ 287884.300900241243653, 3725690.255332234781235 ], [ 287649.311419090256095, 3724733.286726436577737 ], [ 288686.26590132835554, 3724710.37384674185887 ], [ 288451.371541347412858, 3723753.425607479643077 ] ] ], [ [ [ 262761.425254128233064, 3725316.901459837332368 ], [ 260687.34634469638695, 3725368.45786647638306 ], [ 261159.452591065492015, 3727281.475004730280489 ], [ 263233.371857680147514, 3727229.991057782433927 ], [ 262761.425254128233064, 3725316.901459837332368 ] ] ], [ [ [ 260030.719150943361456, 3731159.762595478910953 ], [ 263141.134505127440207, 3731082.248184884432703 ], [ 262668.662968655349687, 3729168.884983964264393 ], [ 260594.89640847480041, 3729220.521346374880522 ], [ 260831.184269520628732, 3730177.147246199194342 ], [ 259794.335657257237472, 3730203.116092673502862 ], [ 260030.719150943361456, 3731159.762595478910953 ] ] ], [ [ [ 264886.937224391498603, 3733927.025810439139605 ], [ 267996.951019313186407, 3733851.027031200472265 ], [ 267760.680471871397458, 3732894.136307550128549 ], [ 266723.972668662492651, 3732919.3749486412853 ], [ 266487.717742212524172, 3731962.541486745234579 ], [ 264414.211865189136006, 3732013.393216994591057 ], [ 264886.937224391498603, 3733927.025810439139605 ] ] ], [ [ [ 289766.20969362987671, 3733347.41654665581882 ], [ 290802.805880709027406, 3733324.673679676838219 ], [ 290567.413398345932364, 3732367.372037158347666 ], [ 288494.138211516081356, 3732413.008261541370302 ], [ 288729.610410077206325, 3733370.27199333300814 ], [ 287693.008014814055059, 3733393.240022477693856 ], [ 287928.575449422409292, 3734350.524159787688404 ], [ 285855.441033503739163, 3734396.760192830115557 ], [ 286091.143629048485309, 3735354.045848405454308 ], [ 282981.538056623423472, 3735424.188017541542649 ], [ 282745.715731176023837, 3734466.958888966124505 ], [ 280672.549566376837902, 3734514.321150535251945 ], [ 280908.451738692005165, 3735471.512733077630401 ], [ 278835.352529718657024, 3735519.28809091122821 ], [ 278599.370488898537587, 3734562.133943522349 ], [ 277562.776069848798215, 3734586.209296534769237 ], [ 277326.809566539537627, 3733629.11296917218715 ], [ 275253.531012991443276, 3733677.638832203578204 ], [ 275489.577395022322889, 3734634.697930194437504 ], [ 274452.973108803562354, 3734659.111216720659286 ], [ 274689.114951855619438, 3735616.190826360136271 ], [ 275725.679279339383356, 3735591.796132708434016 ], [ 275961.836663847207092, 3736548.933461994398385 ], [ 276998.357728040427901, 3736524.670083834789693 ], [ 277234.53063497407129, 3737481.865222258958966 ], [ 278271.008450778899714, 3737457.733231835067272 ], [ 278034.875514070445206, 3736500.519405593629926 ], [ 279071.390037139644846, 3736476.481424347031862 ], [ 279307.483009056712035, 3737433.713966117240489 ], [ 284489.807469265651889, 3737315.308406725060195 ], [ 284725.756104708299972, 3738272.67427147179842 ], [ 290944.201552531856578, 3738134.420741843059659 ], [ 290708.492498548002914, 3737176.941051099449396 ], [ 289672.052770295878872, 3737199.720534161664546 ], [ 289436.359149608586449, 3736242.29931221017614 ], [ 290472.838783529063221, 3736219.5008085812442 ], [ 289766.20969362987671, 3733347.41654665581882 ] ] ] ] } }
]
}
