{
"type": "FeatureCollection",
"name": "urban-2025",
"crs": { "type": "name", "properties": { "name": "urn:ogc:def:crs:EPSG::32637" } },
"features": [
{ "type": "Feature", "properties": { "year": 2025 }, "geometry": { "type": "MultiPolygon", "coordinates": [ [ [ [ 212221.632429269084241, 3672843.841653289739043 ], [ 212690.177921769907698, 3674751.472294581122696 ], [ 213729.497441859566607, 3674720.916925569530576 ], [ 213495.236125428811647, 3673767.067120784893632 ], [ 214534.590768229623791, 3673736.60667115682736 ], [ 214300.4250634892378, 3672782.777594070415944 ], [ 212221.632429269084241, 3672843.841653289739043 ] ] ], [ [ [ 209572.192977481114212, 3674843.804623508825898 ], [ 209337.773625723610166, 3673890.018988944590092 ], [ 207259.015797236585058, 3673952.16101754270494 ], [ 207728.068801527377218, 3675859.705172197893262 ], [ 208767.370872699480969, 3675828.610558609012514 ], [ 209001.942109769210219, 3676782.453730095177889 ], [ 211080.453850451449398, 3676720.629782332573086 ], [ 210845.96169898257358, 3675766.754558889660984 ], [ 211885.250485701428261, 3675735.993165188934654 ], [ 211650.854014885786455, 3674782.138698069844395 ], [ 209572.192977481114212, 3674843.804623508825898 ] ] ], [ [ [ 218355.106974439462647, 3676507.745325093623251 ], [ 218589.378596603753977, 3677461.770557411946356 ], [ 217550.194957899686415, 3677491.833128563128412 ], [ 216847.429839523683768, 3674629.916988070588559 ], [ 215808.12338492157869, 3674660.139276034664363 ], [ 216511.007013710273895, 3677522.006801907438785 ], [ 215471.814748245698866, 3677552.291581137571484 ], [ 215237.424582878069486, 3676598.315021163783967 ], [ 214198.188453900569584, 3676628.727079040836543 ], [ 213963.814885315019637, 3675674.803571284748614 ], [ 211885.250485701428261, 3675735.993165188934654 ], [ 212354.211866340774577, 3677643.812591258436441 ], [ 214432.618145720567554, 3677582.687469957862049 ], [ 214667.103958878025878, 3678536.684765168465674 ], [ 215706.261024025152437, 3678506.305064653046429 ], [ 215940.76340831577545, 3679460.35549286659807 ], [ 216979.876600152347237, 3679430.103164561558515 ], [ 216745.413758141105063, 3678476.036501257214695 ], [ 219862.846132076520007, 3678385.897596823517233 ], [ 219394.325825829000678, 3676477.777573277242482 ], [ 218355.106974439462647, 3676507.745325093623251 ] ] ], [ [ [ 215940.76340831577545, 3679460.35549286659807 ], [ 214901.645891474618111, 3679490.718985818792135 ], [ 215370.898107386659831, 3681398.89828808279708 ], [ 216409.93649481999455, 3681368.567268051672727 ], [ 215940.76340831577545, 3679460.35549286659807 ] ] ], [ [ [ 221269.752544195507653, 3684111.146867677103728 ], [ 220230.850018183526117, 3684140.98384655918926 ], [ 220465.570207818527706, 3685095.305522824637592 ], [ 221504.43314390006708, 3685065.484977351967245 ], [ 221269.752544195507653, 3684111.146867677103728 ] ] ], [ [ [ 224620.996658736548852, 3684976.691217533312738 ], [ 224386.434793010354042, 3684022.303642354905605 ], [ 223347.544915885664523, 3684051.806769201532006 ], [ 223582.146353645308409, 3685006.177828329149634 ], [ 224620.996658736548852, 3684976.691217533312738 ] ] ], [ [ [ 229580.82172037102282, 3683876.457088203635067 ], [ 228541.95261025079526, 3683905.403866928536445 ], [ 229010.815858798800036, 3685814.349002350121737 ], [ 232127.173634276841767, 3685727.942585919983685 ], [ 231892.832665119203739, 3684773.401263253297657 ], [ 230854.011282332998235, 3684802.108818614855409 ], [ 230385.418120816233568, 3682893.171641123015434 ], [ 229346.513591396156698, 3682922.023822982795537 ], [ 229580.82172037102282, 3683876.457088203635067 ] ] ], [ [ [ 221739.16979497356806, 3686019.860257373191416 ], [ 219661.518888808437623, 3686079.579789253883064 ], [ 219896.390818993095309, 3687033.959344374015927 ], [ 221973.962495495274197, 3686974.2727290247567 ], [ 222208.811243543983437, 3687928.722413601353765 ], [ 223247.551135966437869, 3687899.062682075425982 ], [ 223012.742004749365151, 3686944.596478586550802 ], [ 224051.517315598845016, 3686915.031594800762832 ], [ 223582.146353645308409, 3685006.177828329149634 ], [ 221504.43314390006708, 3685065.484977351967245 ], [ 221739.16979497356806, 3686019.860257373191416 ] ] ], [ [ [ 236687.183273407572415, 3700022.234739898703992 ], [ 236452.043113541381899, 3699067.113348458893597 ], [ 235413.81998953584116, 3699095.456253387965262 ], [ 235648.999850104213692, 3700050.560598246287555 ], [ 236687.183273407572415, 3700022.234739898703992 ] ] ], [ [ [ 227012.116633690835442, 3703175.602952981833369 ], [ 225974.012103362998459, 3703204.995747455395758 ], [ 226445.670637758797966, 3705115.204493994358927 ], [ 230597.745835150475614, 3704998.439510178752244 ], [ 230126.405702279007528, 3703088.095566198695451 ], [ 231164.493936113489326, 3703059.150090964976698 ], [ 230928.94759359076852, 3702104.017672250512987 ], [ 226776.411180082068313, 3702220.538126532919705 ], [ 227012.116633690835442, 3703175.602952981833369 ] ] ], [ [ [ 233050.879058524616994, 3710701.56751943891868 ], [ 234088.644755987625103, 3710672.870302264112979 ], [ 233852.69064249919029, 3709717.418763882480562 ], [ 232814.885093803983182, 3709746.133103925269097 ], [ 232578.947074991825502, 3708790.736513623967767 ], [ 231541.097686052322388, 3708819.579943465534598 ], [ 231777.075550929934252, 3709774.95945799164474 ], [ 230739.261998413945548, 3709803.897829592693597 ], [ 230267.28253470081836, 3707893.210661510936916 ], [ 229229.385252444131766, 3707922.295075897593051 ], [ 229465.38684614218073, 3708877.602776531130075 ], [ 228427.525364223867655, 3708906.782186819240451 ], [ 229135.98564743285533, 3711772.880808040965348 ], [ 228098.239745527913328, 3711802.121263991110027 ], [ 228334.54505078116199, 3712757.545999089255929 ], [ 227296.834997808618937, 3712786.881545470561832 ], [ 227533.236217870435212, 3713742.327057156246156 ], [ 226495.56202124763513, 3713771.757733160629869 ], [ 226732.059182130615227, 3714727.224031584337354 ], [ 228807.323644855350722, 3714668.508868534583598 ], [ 228570.906351208977867, 3713713.008526722900569 ], [ 231683.892525755742099, 3713625.725773247424513 ], [ 232865.939772788551636, 3718403.863003428094089 ], [ 234940.844592853100039, 3718346.407150926068425 ], [ 234704.40313173487084, 3717390.669353534467518 ], [ 235741.889561435964424, 3717362.092543311882764 ], [ 235269.254277633095626, 3715450.696423185989261 ], [ 234231.688001914764754, 3715479.30773312645033 ], [ 233995.414337160938885, 3714523.683866661507636 ], [ 236070.622752002964262, 3714466.538954210001975 ], [ 235834.484808251378126, 3713510.918591746129096 ], [ 234796.842686018557288, 3713539.452202303800732 ], [ 234324.654802383331116, 3711628.359707017894834 ], [ 233286.92896718805423, 3711657.039781808853149 ], [ 233050.879058524616994, 3710701.56751943891868 ] ], [ [ 232957.80419012659695, 3714552.424549087882042 ], [ 232721.546560196205974, 3713596.855789562221617 ], [ 233759.196608475642279, 3713568.097933747339994 ], [ 233995.414337160938885, 3714523.683866661507636 ], [ 232957.80419012659695, 3714552.424549087882042 ] ] ], [ [ [ 237961.739038820320275, 3722112.870695120189339 ], [ 238198.38013704426703, 3723068.833594346884638 ], [ 237161.137407728296239, 3723097.194038681685925 ], [ 236924.4563204345759, 3722141.248544218484312 ], [ 234849.879159946343862, 3722198.341353629250079 ], [ 234613.174008351634257, 3721242.468673831317574 ], [ 233575.839540066139307, 3721271.200943445786834 ], [ 233812.584687167196535, 3722227.056320879608393 ], [ 232775.286265579052269, 3722255.883667808957398 ], [ 233012.12736747978488, 3723211.759819205384701 ], [ 235086.640242858673446, 3723154.252121365629137 ], [ 235323.457255107699893, 3724110.200998840387911 ], [ 239472.275984748121118, 3723996.604063207749277 ], [ 238999.017869754636195, 3722084.605211824178696 ], [ 237961.739038820320275, 3722112.870695120189339 ] ] ], [ [ [ 233012.12736747978488, 3723211.759819205384701 ], [ 231974.865000027231872, 3723240.682282534427941 ], [ 232211.802082732436247, 3724196.579218053258955 ], [ 233249.024420842819382, 3724167.674041117541492 ], [ 233012.12736747978488, 3723211.759819205384701 ] ] ], [ [ [ 231411.608866401191335, 3725181.514566665980965 ], [ 232448.795125984121114, 3725152.514226271305233 ], [ 232211.802082732436247, 3724196.579218053258955 ], [ 231174.575776879151817, 3724225.596836867276579 ], [ 231411.608866401191335, 3725181.514566665980965 ] ] ], [ [ [ 232510.595799051516224, 3733815.446795825380832 ], [ 231798.033005177392624, 3730946.83017762331292 ], [ 230761.0793564003543, 3730975.951715768314898 ], [ 230523.630235750460997, 3730019.839919107034802 ], [ 229486.632484207162634, 3730049.091416337992996 ], [ 230436.925426018948201, 3733873.698317939881235 ], [ 229400.084292018378619, 3733902.993175091221929 ], [ 229637.837675539019983, 3734859.223012521862984 ], [ 228601.032742620329373, 3734888.613268117420375 ], [ 228838.882317740586586, 3735844.863963580690324 ], [ 229875.647053222695831, 3735815.491064695641398 ], [ 230113.512423092557583, 3736771.797353516332805 ], [ 232186.949589372612536, 3736713.424759710673243 ], [ 232424.790527902194299, 3737669.804182106163353 ], [ 233461.462995620095171, 3737640.804582594893873 ], [ 233223.662259064149112, 3736684.407681301236153 ], [ 235297.075847498315852, 3736626.711943873669952 ], [ 234584.250413587607909, 3733757.646173091605306 ], [ 232510.595799051516224, 3733815.446795825380832 ] ] ], [ [ [ 236962.292817110079341, 3743322.542267711833119 ], [ 235925.869541338644922, 3743351.210581274703145 ], [ 236640.493646095099393, 3746221.37629942689091 ], [ 237676.796084529720247, 3746192.761062090285122 ], [ 237438.572411266213749, 3745235.98291602730751 ], [ 238474.911300689564086, 3745207.463015951216221 ], [ 238236.783817511692178, 3744250.70570549601689 ], [ 237200.40465479157865, 3744279.24332525767386 ], [ 236962.292817110079341, 3743322.542267711833119 ] ] ], [ [ [ 237490.089712668675929, 3660608.939709086436778 ], [ 235410.563942320761271, 3660664.856664478778839 ], [ 235643.15264381718589, 3661618.617740395013243 ], [ 234603.422872043098323, 3661646.725559414830059 ], [ 235068.846404427429661, 3663554.325765179470181 ], [ 236108.497713734104764, 3663526.250994569156319 ], [ 236341.254078279074747, 3664480.12321508442983 ], [ 237380.862090380978771, 3664452.175666716415435 ], [ 237613.635085978487041, 3665406.101577419787645 ], [ 238653.199817519402131, 3665378.281322196125984 ], [ 238187.788182085059816, 3663470.433375068940222 ], [ 239227.427372995094629, 3663442.690519338473678 ], [ 238762.317620418703882, 3661534.957789072301239 ], [ 237722.60000205313554, 3661562.733858649618924 ], [ 237490.089712668675929, 3660608.939709086436778 ] ] ], [ [ [ 231269.319302931020502, 3669419.554316693451256 ], [ 230569.672130932915024, 3666557.790261168964207 ], [ 228490.55179223237792, 3666615.279956726357341 ], [ 229190.434941792744212, 3669476.945309109985828 ], [ 231269.319302931020502, 3669419.554316693451256 ] ] ], [ [ [ 244548.911241752182832, 3668103.142153813038021 ], [ 245588.334438416204648, 3668076.036481659393758 ], [ 245821.055992427049205, 3669030.228550591506064 ], [ 246860.436039691296173, 3669003.250528282485902 ], [ 246162.556462449865649, 3666140.735652924980968 ], [ 243044.051419125229586, 3666222.153717400040478 ], [ 243276.739868494478287, 3667176.237515061162412 ], [ 244316.20623099221848, 3667149.004264146555215 ], [ 244548.911241752182832, 3668103.142153813038021 ] ] ], [ [ [ 241450.36132114630891, 3676828.495547736994922 ], [ 242489.450292279856512, 3676800.987339502666146 ], [ 241789.524076469708234, 3673937.879652671515942 ], [ 239711.10600406411686, 3673993.108205324970186 ], [ 240177.825089761900017, 3675901.74189572641626 ], [ 241216.957381650980096, 3675874.105808452703059 ], [ 241450.36132114630891, 3676828.495547736994922 ] ] ], [ [ [ 241683.821097166335676, 3677782.922692104708403 ], [ 241450.36132114630891, 3676828.495547736994922 ], [ 240411.268407786410535, 3676856.11477701831609 ], [ 240644.767573317978531, 3677810.525044119916856 ], [ 241683.821097166335676, 3677782.922692104708403 ] ] ], [ [ [ 247579.153400744427927, 3680510.337651008274406 ], [ 248618.065412088995799, 3680483.452784966211766 ], [ 248851.51203483378049, 3681438.132069348823279 ], [ 250929.245819087489508, 3681384.729991399683058 ], [ 250462.565875622007297, 3679475.340421751607209 ], [ 249423.622121043532388, 3679502.020224033389241 ], [ 248957.086428163427627, 3677592.815402531065047 ], [ 246879.029985670902533, 3677646.57659455947578 ], [ 247579.153400744427927, 3680510.337651008274406 ] ] ], [ [ [ 242178.320366206287872, 3688339.038338048849255 ], [ 241139.693059730314417, 3688366.67648045392707 ], [ 241373.941302496677963, 3689321.50290900375694 ], [ 242412.529075918224407, 3689293.881820521783084 ], [ 242178.320366206287872, 3688339.038338048849255 ] ] ], [ [ [ 233534.394115904113278, 3691455.976352476514876 ], [ 233769.126622431795113, 3692410.779818370006979 ], [ 234807.627343015337829, 3692382.318131065461785 ], [ 235042.376152013253886, 3693337.176042363513261 ], [ 237119.286360188969411, 3693280.621058316435665 ], [ 236415.445303658372723, 3690416.058368989732116 ], [ 234338.297472293837927, 3690472.714949251152575 ], [ 234572.934449123335071, 3691427.497773845214397 ], [ 233534.394115904113278, 3691455.976352476514876 ] ] ], [ [ [ 235277.180874160898384, 3694292.071529201697558 ], [ 235746.958050068817101, 3696201.975315395276994 ], [ 236785.296227170445491, 3696173.692994237877429 ], [ 236550.419335408078041, 3695218.705295410007238 ], [ 241742.249190023576375, 3695078.882277375087142 ], [ 241976.927915041917004, 3696033.955372473690659 ], [ 244053.553255916398484, 3695978.84145274059847 ], [ 244522.919709015783155, 3697889.169753848109394 ], [ 242446.452886590326671, 3697944.214853667654097 ], [ 242681.299129163933685, 3698899.401282886508852 ], [ 241643.099563970346935, 3698927.074100889265537 ], [ 242113.038895550271263, 3700837.526000707875937 ], [ 241074.914797130884835, 3700865.276102796196938 ], [ 241310.007921058946522, 3701820.54158584587276 ], [ 240271.919630609540036, 3701848.386223308742046 ], [ 240507.1083164147567, 3702803.672338122036308 ], [ 239469.055841007473646, 3702831.61155009875074 ], [ 239233.827438881591661, 3701876.342622995842248 ], [ 236119.527300568995997, 3701960.88242953363806 ], [ 235648.999850104213692, 3700050.560598246287555 ], [ 234610.812451664358377, 3700078.998177350498736 ], [ 233905.321522515383549, 3697213.849175344221294 ], [ 234943.628007545950823, 3697185.360597539693117 ], [ 234708.61589004972484, 3696230.369243505876511 ], [ 233670.269731511012651, 3696258.874782032798976 ], [ 233200.333939316275064, 3694349.038777451962233 ], [ 232161.904440933547448, 3694377.689737939275801 ], [ 232396.884028769331053, 3695332.572056049946696 ], [ 231358.49015215144027, 3695361.317712013144046 ], [ 231123.470901083666831, 3694406.452260658144951 ], [ 230085.03330414625816, 3694435.326349115930498 ], [ 229850.030350152461324, 3693480.515236982610077 ], [ 227773.063588599383365, 3693538.631682101171464 ], [ 228008.145876526308712, 3694493.409237362910062 ], [ 229046.5916344995494, 3694464.31200683908537 ], [ 229752.055343836429529, 3697328.919936266262084 ], [ 230790.377955472329631, 3697299.984771576244384 ], [ 231260.887527988350485, 3699209.944839577656239 ], [ 232299.126669349905569, 3699181.155141091905534 ], [ 233240.658313432591967, 3703001.594599856995046 ], [ 234278.734487982932478, 3702972.984576966613531 ], [ 234749.756407786626369, 3704883.464600814972073 ], [ 235787.749069677549414, 3704855.000546266324818 ], [ 236023.30413601238979, 3705810.31431896565482 ], [ 237061.253063739393838, 3705781.979262319393456 ], [ 237296.824256009596866, 3706737.3480069427751 ], [ 238334.729465710552176, 3706709.142019414808601 ], [ 238570.316765699215466, 3707664.565824158024043 ], [ 239608.178273471363354, 3707636.488976996857673 ], [ 240079.440923008514801, 3709547.484823321457952 ], [ 242154.993097565195058, 3709491.736131774261594 ], [ 242626.319969265285181, 3711402.953183713369071 ], [ 239513.224782194010913, 3711486.640249300282449 ], [ 239985.014052637998248, 3713397.905289139132947 ], [ 236872.122990602336358, 3713482.497098602354527 ], [ 237108.221050644875504, 3714438.134717230219394 ], [ 236070.622752002964262, 3714466.538954210001975 ], [ 236306.816609728324693, 3715422.197289315517992 ], [ 238381.929504686151631, 3715365.535535933449864 ], [ 238854.325320425705286, 3717277.035486368928105 ], [ 236779.372059191693552, 3717333.627964348066598 ], [ 237252.151140805275645, 3719245.210790755692869 ], [ 238289.549855092249345, 3719216.893127973657101 ], [ 238999.017869754636195, 3722084.605211824178696 ], [ 241073.563930629228707, 3722028.411328915972263 ], [ 240128.037936118111247, 3718204.732049887999892 ], [ 243240.307443948491709, 3718121.073958025313914 ], [ 243476.485390869085677, 3719076.988939003553241 ], [ 244513.860998490621569, 3719049.344902384094894 ], [ 244277.722955821984215, 3718093.412401773035526 ], [ 245315.134664630226325, 3718065.863077087327838 ], [ 244843.105830796150258, 3716154.077608302701265 ], [ 246918.077393793326337, 3716099.24540301784873 ], [ 246446.43125041431631, 3714187.542544117197394 ], [ 247483.991056651488179, 3714160.259569413494319 ], [ 247719.746390698652249, 3715116.109455693047494 ], [ 248757.262601277179783, 3715088.95616817381233 ], [ 248993.033883288590005, 3716044.861862989608198 ], [ 250030.506513982632896, 3716017.838334171567112 ], [ 250502.136701104260283, 3717929.799810409545898 ], [ 251539.525914575526258, 3717902.923805264290422 ], [ 251775.384788092196686, 3718858.979716767556965 ], [ 252812.730447709211148, 3718832.233660680707544 ], [ 253048.605200615245849, 3719788.345688100438565 ], [ 256160.50062038822216, 3719708.834350267425179 ], [ 256396.311501107207732, 3720665.038280282635242 ], [ 257433.562850765971234, 3720638.776897263713181 ], [ 257669.389562826894689, 3721595.037215263117105 ], [ 258706.597447431442561, 3721568.906045183539391 ], [ 258470.810598894633586, 3720612.627789471298456 ], [ 259508.054760853992775, 3720586.59095372678712 ], [ 259743.80175148928538, 3721542.88717480795458 ], [ 261818.19967936174362, 3721491.186320535372943 ], [ 262053.922613882692531, 3722447.557153343688697 ], [ 263091.076416178839281, 3722421.893231149297208 ], [ 263326.815128161921166, 3723378.320771586615592 ], [ 264363.925559122231789, 3723352.787279491778463 ], [ 264599.680029825889505, 3724309.271616530604661 ], [ 267710.870854759705253, 3724233.399735017679632 ], [ 267946.561333101941273, 3725189.977405240293592 ], [ 270020.591608441085555, 3725139.994503468740731 ], [ 269784.980840277741663, 3724183.380274950060993 ], [ 270822.030709680402651, 3724158.539074067492038 ], [ 270351.055511714890599, 3722245.390417514834553 ], [ 272425.304367730801459, 3722195.971728097181767 ], [ 272189.979705449542962, 3721239.418970117811114 ], [ 273227.13885943882633, 3721214.859713177196681 ], [ 272991.909514323808253, 3720258.327424459625036 ], [ 270917.508248500234913, 3720307.594820582307875 ], [ 270447.057040638814215, 3718394.719724349677563 ], [ 269409.771752720291261, 3718419.558253992814571 ], [ 269174.58970772929024, 3717463.196990720927715 ], [ 267099.929288720537443, 3717513.246939631178975 ], [ 266394.478038419270888, 3714644.50384484604001 ], [ 269506.821227391890716, 3714569.433859597891569 ], [ 269271.901161641522776, 3713613.209000053349882 ], [ 263046.945057510980405, 3713764.466052464209497 ], [ 263282.103518874850124, 3714720.582532287575305 ], [ 262244.63831137685338, 3714746.166265172418207 ], [ 262009.440097931801574, 3713790.06775179784745 ], [ 260971.931589901243569, 3713815.781513846945018 ], [ 260736.749266875442117, 3712859.739381359424442 ], [ 264886.921022742113564, 3712757.484854185022414 ], [ 264651.953258133493364, 3711801.409377353265882 ], [ 265689.5271023195819, 3711776.107807368505746 ], [ 265924.455153798102401, 3712732.201294498052448 ], [ 270074.556909618200734, 3712632.187251907307655 ], [ 270544.262066671974026, 3714544.634672991000116 ], [ 271581.699486468918622, 3714519.947552249766886 ], [ 271112.073733683093451, 3712607.463775088079274 ], [ 272149.587142677395605, 3712582.85230576666072 ], [ 271445.684067205409519, 3709714.361734277568758 ], [ 272483.313066475326195, 3709689.807716050650924 ], [ 271780.028686901670881, 3706821.609894315712154 ], [ 270742.280797863320913, 3706846.218289942014962 ], [ 271211.160773993469775, 3708758.275379043538123 ], [ 268098.134261284838431, 3708832.663244408089668 ], [ 267863.547581288963556, 3707876.669648250099272 ], [ 268901.266179448342882, 3707851.743751578498632 ], [ 268666.774706303549465, 3706895.770599431358278 ], [ 269704.529476164956577, 3706870.938523977529258 ], [ 269470.133184166741557, 3705914.985805359203368 ], [ 268432.338795583404135, 3705939.83591218246147 ], [ 266792.843340654741041, 3699249.368283511605114 ], [ 265754.768423952686135, 3699274.455686740577221 ], [ 266222.996937641873956, 3701185.790333935525268 ], [ 265184.997612683917396, 3701210.953664779663086 ], [ 265419.23482356563909, 3702166.660570615436882 ], [ 264381.271550451638177, 3702191.917735172901303 ], [ 264146.994759705266915, 3701236.22868016269058 ], [ 263108.988363148760982, 3701261.615383165888488 ], [ 264046.587562023778446, 3705084.530064094346017 ], [ 263008.736036964110099, 3705109.957158806733787 ], [ 263712.638297513010912, 3707977.49201699020341 ], [ 262674.902176332776435, 3708002.977320033591241 ], [ 262440.172807683818974, 3707047.111892220098525 ], [ 261402.393466674169758, 3707072.726943024899811 ], [ 260933.022314334986731, 3705161.146764675620943 ], [ 261970.88095957346377, 3705135.496057962998748 ], [ 261501.811643948953133, 3703224.033440131228417 ], [ 262539.745970011572354, 3703198.458907793276012 ], [ 261836.678070414200192, 3700331.498577028512955 ], [ 262874.727606044267304, 3700305.982407284434885 ], [ 262640.522470053751022, 3699350.387665607966483 ], [ 264716.68998367106542, 3699299.654716117307544 ], [ 264014.645552585367113, 3696432.993124243803322 ], [ 262976.444966577459127, 3696458.357101656496525 ], [ 263210.443697009584866, 3697413.85499697457999 ], [ 261134.110860576707637, 3697464.882178911939263 ], [ 261368.244294945005095, 3698420.382799775805324 ], [ 257215.693575140699977, 3698523.705593311693519 ], [ 256747.165903082495788, 3696612.883611418772489 ], [ 257785.388152098428691, 3696586.850291111972183 ], [ 257317.162301347911125, 3694676.145392688456923 ], [ 256278.860969296772964, 3694702.213829874992371 ], [ 256044.792034288460854, 3693746.935960097704083 ], [ 255006.447495242318837, 3693773.133411853574216 ], [ 255474.720126073400024, 3695683.692135440185666 ], [ 254436.450972874095896, 3695709.966108180582523 ], [ 254202.247260338044725, 3694754.685246161185205 ], [ 252125.61872075861902, 3694807.602739691734314 ], [ 252594.240099845890654, 3696718.132606407161802 ], [ 254670.710394103865838, 3696665.284959762822837 ], [ 254905.025522018753691, 3697620.64182255230844 ], [ 253866.831805923662614, 3697646.992352292872965 ], [ 254101.24222464452032, 3698602.369723815936595 ], [ 252024.922847403475316, 3698655.370637408923358 ], [ 252259.468191245134221, 3699610.751039744354784 ], [ 251221.342527030210476, 3699637.401493498124182 ], [ 251455.983229986246442, 3700592.802433523815125 ], [ 248341.7026353708643, 3700673.371555486693978 ], [ 248106.943022362160264, 3699718.02289015520364 ], [ 247068.802298229071312, 3699745.120045093353838 ], [ 246834.058826185122598, 3698789.826669991947711 ], [ 245795.874655337858712, 3698817.052831041160971 ], [ 245561.14734260115074, 3697861.814658036455512 ], [ 246599.371145218639867, 3697834.571193839423358 ], [ 244958.119695647881599, 3691148.842217737343162 ], [ 245996.616756109375274, 3691121.589610315393656 ], [ 245762.4150130834023, 3690166.619373390916735 ], [ 246800.947765613964293, 3690139.460994581691921 ], [ 246566.84134151879698, 3689184.511298246216029 ], [ 245528.269067981775152, 3689211.686860758811235 ], [ 245294.17892278401996, 3688256.792050915304571 ], [ 244255.563282049115514, 3688284.096126634627581 ], [ 244489.692942985973787, 3689238.973799751605839 ], [ 243451.112950856739189, 3689266.372118558268994 ], [ 243685.337955233146204, 3690221.270346601493657 ], [ 241608.245389225281542, 3690276.366962866391987 ], [ 241373.941302496677963, 3689321.50290900375694 ], [ 240335.349614919221494, 3689349.235387373715639 ], [ 240804.092741086467868, 3691258.967031126841903 ], [ 238727.055817009124439, 3691314.698115135543048 ], [ 239196.180691622867016, 3693224.512143479194492 ], [ 238157.735502682335209, 3693252.510843962896615 ], [ 238392.421355958562344, 3694207.457286600489169 ], [ 235277.180874160898384, 3694292.071529201697558 ] ], [ [ 269645.009357680566609, 3719375.958206286653876 ], [ 267570.50804718217114, 3719425.935438555199653 ], [ 267335.190876830369234, 3718469.571864200290293 ], [ 269409.771752720291261, 3718419.558253992814571 ], [ 269645.009357680566609, 3719375.958206286653876 ] ], [ [ 268041.309126368141733, 3721338.778624637983739 ], [ 267004.132914041401818, 3721363.899210046045482 ], [ 266768.664772114134394, 3720407.476456811185926 ], [ 265731.445283236331306, 3720432.727476045489311 ], [ 265495.992922884528525, 3719476.361536380369216 ], [ 267570.50804718217114, 3719425.935438555199653 ], [ 268041.309126368141733, 3721338.778624637983739 ] ], [ [ 261442.463178187928861, 3715727.981127013452351 ], [ 259367.594541586295236, 3715779.673223415855318 ], [ 259132.221370044688229, 3714823.590018598828465 ], [ 260169.697252380836289, 3714797.670005195308477 ], [ 259934.419517991016619, 3713841.607341740746051 ], [ 260971.931589901243569, 3713815.781513846945018 ], [ 261442.463178187928861, 3715727.981127013452351 ] ], [ [ 257450.040932983829407, 3699479.173713576514274 ], [ 256411.933743304980453, 3699505.265863846056163 ], [ 256177.546799580275547, 3698549.815342437941581 ], [ 257215.693575140699977, 3698523.705593311693519 ], [ 257450.040932983829407, 3699479.173713576514274 ] ], [ [ 246030.65777019187226, 3699772.328883552458137 ], [ 244992.509422680566786, 3699799.649408848024905 ], [ 244757.68665926984977, 3698844.390651315450668 ], [ 245795.874655337858712, 3698817.052831041160971 ], [ 246030.65777019187226, 3699772.328883552458137 ] ], [ [ 241842.605317944602575, 3691231.268663516733795 ], [ 242311.492693463776959, 3693141.185091137420386 ], [ 241273.059271379432175, 3693168.849270462058485 ], [ 241507.626308144099312, 3694123.846917214803398 ], [ 240469.228579110611463, 3694151.605504565406591 ], [ 240000.071164280729135, 3692241.682074823882431 ], [ 241038.548081703105709, 3692213.889315601903945 ], [ 240804.092741086467868, 3691258.967031126841903 ], [ 241842.605317944602575, 3691231.268663516733795 ] ], [ [ 260640.419690605427604, 3716709.910687256138772 ], [ 261677.81243936647661, 3716684.138651503250003 ], [ 261913.217342513555195, 3717640.334683823399246 ], [ 260875.864390361035476, 3717666.088749682065099 ], [ 260640.419690605427604, 3716709.910687256138772 ] ], [ [ 264789.969464740424883, 3716607.495424706023186 ], [ 265827.348117565677967, 3716582.171965573914349 ], [ 266062.593890114338137, 3717538.4401541124098 ], [ 265025.255011582223233, 3717563.7455326882191 ], [ 264789.969464740424883, 3716607.495424706023186 ] ], [ [ 268567.474327517324127, 3710744.765925969462842 ], [ 269605.073952888371423, 3710719.894216234795749 ], [ 269839.787655181600712, 3711676.021446865983307 ], [ 268802.227709645288996, 3711700.87505517853424 ], [ 268567.474327517324127, 3710744.765925969462842 ] ], [ [ 263144.52779262966942, 3709914.823306189849973 ], [ 264182.184554170584306, 3709889.373831541743129 ], [ 264417.041101260925643, 3710845.372377103194594 ], [ 263379.42403619736433, 3710870.803908235859126 ], [ 263144.52779262966942, 3709914.823306189849973 ] ], [ [ 265788.099948610179126, 3707926.857070092111826 ], [ 266825.825509506976232, 3707901.707420072052628 ], [ 267295.133754079113714, 3709813.697051777038723 ], [ 266257.487519424699713, 3709838.810707412194461 ], [ 265788.099948610179126, 3707926.857070092111826 ] ], [ [ 259326.824052677082364, 3707124.292645731940866 ], [ 260364.610553504928248, 3707098.453859817702323 ], [ 260599.419265265634749, 3708054.283600815106183 ], [ 259561.672444401570829, 3708080.10458480194211 ], [ 259326.824052677082364, 3707124.292645731940866 ] ], [ [ 265318.934752607136033, 3706015.057145438622683 ], [ 266356.739595313905738, 3705989.871579175814986 ], [ 266591.25476008921396, 3706945.770286705344915 ], [ 265553.489552734477911, 3706970.937904610764235 ], [ 265318.934752607136033, 3706015.057145438622683 ] ], [ [ 255743.675027334917104, 3705291.077521388418972 ], [ 256781.551744564203545, 3705264.867729764431715 ], [ 257016.368142048362643, 3706220.567669473588467 ], [ 255978.531099502230063, 3706246.759781143628061 ], [ 255743.675027334917104, 3705291.077521388418972 ] ], [ [ 257819.424816362559795, 3705238.769761454313993 ], [ 258857.294258246867685, 3705212.78361327573657 ], [ 259092.031323282717494, 3706168.518995823338628 ], [ 258054.201544805953745, 3706194.4874087581411 ], [ 257819.424816362559795, 3705238.769761454313993 ] ], [ [ 264849.991947775299195, 3704103.410758659709245 ], [ 266925.756596654304303, 3704053.0797173473984 ], [ 267160.120978412043769, 3705008.919575727544725 ], [ 265084.435550273046829, 3705059.214770730119199 ], [ 264849.991947775299195, 3704103.410758659709245 ] ], [ [ 254804.807755114248721, 3701468.730135584250093 ], [ 255842.843060318642529, 3701442.449819110799581 ], [ 256077.43669148767367, 3702397.997063036542386 ], [ 255039.441016669123201, 3702424.259777526371181 ], [ 254804.807755114248721, 3701468.730135584250093 ] ], [ [ 242881.113992220867658, 3691203.681740991771221 ], [ 243919.618779570737388, 3691176.206260183360428 ], [ 244153.955421893158928, 3692131.179880801588297 ], [ 243115.490194863959914, 3692158.638221961911768 ], [ 242881.113992220867658, 3691203.681740991771221 ] ] ], [ [ [ 253284.535689366224688, 3720744.496112678200006 ], [ 253048.605200615245849, 3719788.345688100438565 ], [ 252011.299410575506045, 3719815.073983934242278 ], [ 251775.384788092196686, 3718858.979716767556965 ], [ 250738.035438788443571, 3718885.838008897379041 ], [ 250502.136701104260283, 3717929.799810409545898 ], [ 249464.743776871153386, 3717956.788027228787541 ], [ 249228.860942490195157, 3717000.80580873042345 ], [ 248191.424427627061959, 3717027.923878667410463 ], [ 248427.347126491571544, 3717983.888459005393088 ], [ 246352.542585755378241, 3718038.425980618689209 ], [ 246588.600837177189533, 3718994.393603356089443 ], [ 247625.96509898948716, 3718967.086334265768528 ], [ 247862.039256728981854, 3719923.109836770221591 ], [ 248899.359874974878039, 3719895.932466584723443 ], [ 249135.449920569401002, 3720852.011937540024519 ], [ 248098.169205789541593, 3720879.171638404019177 ], [ 248334.354944160440937, 3721835.271761040203273 ], [ 249371.595744381629629, 3721808.129749109502882 ], [ 249844.054718597762985, 3723720.480481659062207 ], [ 251918.365487749077147, 3723666.604480092413723 ], [ 251446.066204134083819, 3721754.182708277367055 ], [ 252483.295894355891505, 3721727.377672820352018 ], [ 252247.269780003582127, 3720771.206628651358187 ], [ 253284.535689366224688, 3720744.496112678200006 ] ] ], [ [ [ 248479.075638780719601, 3726643.513698656577617 ], [ 249516.120405188004952, 3726616.347955591510981 ], [ 249752.640837111102883, 3727572.678464228287339 ], [ 250789.641916879452765, 3727545.642998152412474 ], [ 250553.161466128309257, 3726589.294682758394629 ], [ 251590.198836898780428, 3726562.353876870591193 ], [ 251117.485153360437835, 3724649.737030744552612 ], [ 248006.122168161877198, 3724731.003516199998558 ], [ 248479.075638780719601, 3726643.513698656577617 ] ] ], [ [ [ 262761.425254128233064, 3725316.901459837332368 ], [ 260687.34634469638695, 3725368.45786647638306 ], [ 261159.452591065492015, 3727281.475004730280489 ], [ 263233.371857680147514, 3727229.991057782433927 ], [ 262761.425254128233064, 3725316.901459837332368 ] ] ], [ [ [ 254373.511383378994651, 3729378.131038729567081 ], [ 255083.261737629189156, 3732247.799798857886344 ], [ 258193.610391009773593, 3732168.650778742041439 ], [ 257720.627781494869851, 3730255.391444197390229 ], [ 255646.905602343060309, 3730308.117028322070837 ], [ 255410.417866703151958, 3729351.581425098702312 ], [ 254373.511383378994651, 3729378.131038729567081 ] ] ], [ [ [ 266487.717742212524172, 3731962.541486745234579 ], [ 264414.211865189136006, 3732013.393216994591057 ], [ 264886.937224391498603, 3733927.025810439139605 ], [ 266960.283190978108905, 3733876.24731276370585 ], [ 266487.717742212524172, 3731962.541486745234579 ] ] ], [ [ [ 259377.041403962386539, 3736952.477143475785851 ], [ 257303.879615562153049, 3737004.94937433488667 ], [ 257777.802085643925238, 3738918.678854171652347 ], [ 259850.803561748325592, 3738866.279365142807364 ], [ 259377.041403962386539, 3736952.477143475785851 ] ] ], [ [ [ 261899.708045959589072, 3751335.69710190827027 ], [ 261424.418249813257717, 3749420.917806220706552 ], [ 259352.293115175009007, 3749473.140618743374944 ], [ 259827.743826924968744, 3751387.846253625117242 ], [ 261899.708045959589072, 3751335.69710190827027 ] ] ], [ [ [ 271048.323802831931971, 3695302.966030307579786 ], [ 272086.535847766906954, 3695278.476382029708475 ], [ 271853.003676146443468, 3694322.894371318630874 ], [ 272891.251736953097861, 3694298.498253767378628 ], [ 272424.432834732811898, 3692387.413236561231315 ], [ 270347.775517044588923, 3692436.388620655518025 ], [ 271048.323802831931971, 3695302.966030307579786 ] ] ], [ [ [ 260666.010908707190538, 3695553.99536413885653 ], [ 259627.760031252430053, 3695579.711649980396032 ], [ 260095.939054517453769, 3697490.563143141102046 ], [ 261134.110860576707637, 3697464.882178911939263 ], [ 260666.010908707190538, 3695553.99536413885653 ] ] ], [ [ [ 271749.371872365474701, 3698169.888145256787539 ], [ 271515.633654410368763, 3697214.209103414323181 ], [ 270477.497117441205774, 3697238.774374174419791 ], [ 271178.996868767717388, 3700105.872661013156176 ], [ 272217.014882344577927, 3700081.361348461825401 ], [ 271983.16561569517944, 3699125.605553006287664 ], [ 273021.219718064065091, 3699101.187842914834619 ], [ 272787.465477025660221, 3698145.452421420253813 ], [ 271749.371872365474701, 3698169.888145256787539 ] ] ], [ [ [ 284101.986468123330269, 3701731.131479152012616 ], [ 286177.78125257359352, 3701684.972848634235561 ], [ 285477.607069896883331, 3698816.879676340147853 ], [ 284439.592913406668231, 3698839.95831864560023 ], [ 284672.96837975649396, 3699795.932340290397406 ], [ 283634.990433652477805, 3699819.10421792557463 ], [ 284101.986468123330269, 3701731.131479152012616 ] ] ], [ [ [ 272115.107314094551839, 3703929.207939262501895 ], [ 271077.244069028878585, 3703953.758784111589193 ], [ 271311.450075808330439, 3704909.670667153317481 ], [ 274424.910848742118105, 3704836.407686895225197 ], [ 273722.815506240236573, 3701968.624637791421264 ], [ 272684.879977379576303, 3701992.988189755007625 ], [ 272450.919670258066617, 3701037.155553436372429 ], [ 271412.941186683718115, 3701061.648840961512178 ], [ 272115.107314094551839, 3703929.207939262501895 ] ] ], [ [ [ 278006.444803409161977, 3706676.307960319332778 ], [ 277772.365263129642699, 3705720.209994208998978 ], [ 276734.598069695290178, 3705744.165674669668078 ], [ 276968.71718477352988, 3706700.245387932285666 ], [ 275930.986226498149335, 3706724.294636182952672 ], [ 276633.79521170433145, 3709592.71079809172079 ], [ 277671.407362420577556, 3709568.716342568397522 ], [ 277437.121833211742342, 3708612.52069993969053 ], [ 279512.415391234913841, 3708564.830846480093896 ], [ 279044.169097908423282, 3706652.482350429520011 ], [ 278006.444803409161977, 3706676.307960319332778 ] ] ], [ [ [ 272717.852241530781612, 3710645.95080586289987 ], [ 274793.020765699911863, 3710597.214934687130153 ], [ 274324.156491952773649, 3708684.894557682797313 ], [ 273286.494648467632942, 3708709.242942676413804 ], [ 273520.938665086519904, 3709665.365616286639124 ], [ 272483.313066475326195, 3709689.807716050650924 ], [ 272717.852241530781612, 3710645.95080586289987 ] ] ], [ [ [ 269174.58970772929024, 3717463.196990720927715 ], [ 271249.236391756334342, 3717413.595661618281156 ], [ 270779.197965165018104, 3715500.916332954540849 ], [ 269741.796850230544806, 3715525.697339821606874 ], [ 269976.82802809344139, 3716481.999462697189301 ], [ 268939.463224772014655, 3716506.874394471291453 ], [ 269174.58970772929024, 3717463.196990720927715 ] ] ], [ [ [ 279118.308727461204398, 3723963.853771093767136 ], [ 278412.884452523023356, 3721093.747219583950937 ], [ 277375.741972962860018, 3721117.745222653262317 ], [ 276905.656936528626829, 3719204.572360815946013 ], [ 273793.971029256295878, 3719277.350241456180811 ], [ 274264.294647827278823, 3721190.41271292231977 ], [ 273227.13885943882633, 3721214.859713177196681 ], [ 273462.423724871710874, 3722171.430815929546952 ], [ 274499.53972189524211, 3722147.002188142389059 ], [ 274734.840303044416942, 3723103.630519126076251 ], [ 273697.764108543575276, 3723128.040754793677479 ], [ 274168.611422286310699, 3725041.377229223959148 ], [ 273131.611522637773305, 3725065.862989133223891 ], [ 273367.158290034160018, 3726022.571145491208881 ], [ 274404.118348194926511, 3725998.103809007443488 ], [ 274639.68078401661478, 3726954.869313335046172 ], [ 276713.511212122626603, 3726906.308792221359909 ], [ 276242.601205862651113, 3724992.742808851413429 ], [ 277279.591120427008718, 3724968.594142482616007 ], [ 277044.259164668852463, 3724011.851087673567235 ], [ 279118.308727461204398, 3723963.853771093767136 ] ] ], [ [ [ 286377.37991793663241, 3723799.401252700015903 ], [ 283266.368705534841865, 3723869.207016044761986 ], [ 283501.461891801678576, 3724826.061573845800012 ], [ 282464.49153378198389, 3724849.536131934262812 ], [ 282699.679924028459936, 3725806.411096469033509 ], [ 283736.610489475307986, 3725782.955211183521897 ], [ 283971.814496447856072, 3726739.887950251810253 ], [ 287082.467672527884133, 3726670.25074118655175 ], [ 286847.383044577785768, 3725713.261758282780647 ], [ 287884.300900241243653, 3725690.255332234781235 ], [ 287179.498558806895744, 3722819.466967484913766 ], [ 286142.461423478031065, 3722842.529685596004128 ], [ 286377.37991793663241, 3723799.401252700015903 ] ] ], [ [ [ 271057.601631032652222, 3725115.171623261645436 ], [ 270020.591608441085555, 3725139.994503468740731 ], [ 270256.257933242188301, 3726096.647555714473128 ], [ 271293.228097865823656, 3726071.843015853781253 ], [ 271057.601631032652222, 3725115.171623261645436 ] ] ], [ [ [ 275489.577395022322889, 3734634.697930194437504 ], [ 275961.836663847207092, 3736548.933461994398385 ], [ 276998.357728040427901, 3736524.670083834789693 ], [ 277234.53063497407129, 3737481.865222258958966 ], [ 278271.008450778899714, 3737457.733231835067272 ], [ 278034.875514070445206, 3736500.519405593629926 ], [ 279071.390037139644846, 3736476.481424347031862 ], [ 278599.370488898537587, 3734562.133943522349 ], [ 275489.577395022322889, 3734634.697930194437504 ] ] ], [ [ [ 279871.903753192280419, 3735495.344080264680088 ], [ 280343.954324998194352, 3737409.80742219556123 ], [ 282416.887290644692257, 3737362.332488162908703 ], [ 282180.914180601132102, 3736405.04363349173218 ], [ 284253.914240149548277, 3736357.981871495489031 ], [ 284018.076419480261393, 3735400.694643454160541 ], [ 282981.538056623423472, 3735424.188017541542649 ], [ 282745.715731176023837, 3734466.958888966124505 ], [ 280672.549566376837902, 3734514.321150535251945 ], [ 280908.451738692005165, 3735471.512733077630401 ], [ 279871.903753192280419, 3735495.344080264680088 ] ] ], [ [ [ 289907.801741181290708, 3738157.181184552144259 ], [ 289200.720881254528649, 3735284.917496327310801 ], [ 290237.240409612772055, 3735262.099991913419217 ], [ 290001.697378934710287, 3734304.738578722812235 ], [ 285855.441033503739163, 3734396.760192830115557 ], [ 286091.143629048485309, 3735354.045848405454308 ], [ 285054.611605217447504, 3735377.313921353779733 ], [ 285290.409504707437009, 3736334.620011494029313 ], [ 284253.914240149548277, 3736357.981871495489031 ], [ 284725.756104708299972, 3738272.67427147179842 ], [ 285762.171493252855726, 3738249.350194997154176 ], [ 285526.262801427394152, 3737291.965428595431149 ], [ 288635.609951653401367, 3737222.612710660789162 ], [ 288871.398844764335081, 3738180.054348443169147 ], [ 289907.801741181290708, 3738157.181184552144259 ] ] ] ] } }
]
}
