{
"type": "FeatureCollection",
"name": "urban-1995",
"crs": { "type": "name", "properties": { "name": "urn:ogc:def:crs:EPSG::32637" } },
"features": [
{ "type": "Feature", "properties": { "year": 1995 }, "geometry": { "type": "MultiPolygon", "coordinates": [ [ [ [ 228723.790210510429461, 3667569.13140003150329 ], [ 229190.434941792744212, 3669476.945309109985828 ], [ 231269.319302931020502, 3669419.554316693451256 ], [ 230569.672130932915024, 3666557.790261168964207 ], [ 229530.114036179787945, 3666586.47973457025364 ], [ 229763.313132852897979, 3667540.347595425788313 ], [ 228723.790210510429461, 3667569.13140003150329 ] ] ], [ [ [ 212690.177921769907698, 3674751.472294581122696 ], [ 213729.497441859566607, 3674720.916925569530576 ], [ 213495.236125428811647, 3673767.067120784893632 ], [ 214534.590768229623791, 3673736.60667115682736 ], [ 214300.4250634892378, 3672782.777594070415944 ], [ 212221.632429269084241, 3672843.841653289739043 ], [ 212690.177921769907698, 3674751.472294581122696 ] ] ], [ [ [ 208298.396939552156255, 3673921.034492211416364 ], [ 207259.015797236585058, 3673952.16101754270494 ], [ 207493.514203136786819, 3674905.914732077158988 ], [ 208532.855815333139617, 3674874.804153006058186 ], [ 208298.396939552156255, 3673921.034492211416364 ] ] ], [ [ [ 208532.855815333139617, 3674874.804153006058186 ], [ 209001.942109769210219, 3676782.453730095177889 ], [ 211080.453850451449398, 3676720.629782332573086 ], [ 210845.96169898257358, 3675766.754558889660984 ], [ 211885.250485701428261, 3675735.993165188934654 ], [ 211650.854014885786455, 3674782.138698069844395 ], [ 208532.855815333139617, 3674874.804153006058186 ] ] ], [ [ [ 230619.686724266037345, 3683847.621568436268717 ], [ 228541.95261025079526, 3683905.403866928536445 ], [ 229010.815858798800036, 3685814.349002350121737 ], [ 231088.391793076647446, 3685756.633412987459451 ], [ 230619.686724266037345, 3683847.621568436268717 ] ] ], [ [ [ 222208.811243543983437, 3687928.722413601353765 ], [ 223247.551135966437869, 3687899.062682075425982 ], [ 223012.742004749365151, 3686944.596478586550802 ], [ 224051.517315598845016, 3686915.031594800762832 ], [ 223816.803820858942345, 3685960.586096431594342 ], [ 221739.16979497356806, 3686019.860257373191416 ], [ 222208.811243543983437, 3687928.722413601353765 ] ] ], [ [ [ 237119.286360188969411, 3693280.621058316435665 ], [ 236415.445303658372723, 3690416.058368989732116 ], [ 234338.297472293837927, 3690472.714949251152575 ], [ 235042.376152013253886, 3693337.176042363513261 ], [ 237119.286360188969411, 3693280.621058316435665 ] ] ], [ [ [ 240804.092741086467868, 3691258.967031126841903 ], [ 238727.055817009124439, 3691314.698115135543048 ], [ 238961.59031877326197, 3692269.586313501000404 ], [ 241038.548081703105709, 3692213.889315601903945 ], [ 240804.092741086467868, 3691258.967031126841903 ] ] ], [ [ [ 232396.884028769331053, 3695332.572056049946696 ], [ 231358.49015215144027, 3695361.317712013144046 ], [ 231123.470901083666831, 3694406.452260658144951 ], [ 229046.5916344995494, 3694464.31200683908537 ], [ 229752.055343836429529, 3697328.919936266262084 ], [ 230790.377955472329631, 3697299.984771576244384 ], [ 231025.604762534203473, 3698254.946012620348483 ], [ 232063.883617016253993, 3698226.139397312421352 ], [ 232534.425667115370743, 3700136.208511712495238 ], [ 233572.621062522113789, 3700107.547480679582804 ], [ 232867.011029220244382, 3697242.449394624680281 ], [ 233905.321522515383549, 3697213.849175344221294 ], [ 233670.269731511012651, 3696258.874782032798976 ], [ 232631.919558849534951, 3696287.491934454534203 ], [ 232396.884028769331053, 3695332.572056049946696 ] ] ], [ [ [ 231164.493936113489326, 3703059.150090964976698 ], [ 230928.94759359076852, 3702104.017672250512987 ], [ 226776.411180082068313, 3702220.538126532919705 ], [ 227012.116633690835442, 3703175.602952981833369 ], [ 225974.012103362998459, 3703204.995747455395758 ], [ 226209.813364196801558, 3704160.081321564968675 ], [ 227247.878090969286859, 3704130.705375687684864 ], [ 227483.695549969968852, 3705085.845416172407568 ], [ 229559.73313315550331, 3705027.462927820160985 ], [ 229323.995285535114817, 3704072.289068518206477 ], [ 230362.047784369904548, 3704043.24870010651648 ], [ 230126.405702279007528, 3703088.095566198695451 ], [ 231164.493936113489326, 3703059.150090964976698 ] ] ], [ [ [ 244607.175145136017818, 3715198.242143759503961 ], [ 245644.70267804141622, 3715170.752440162468702 ], [ 245173.088465053762775, 3713259.160968224983662 ], [ 244135.48124632818508, 3713286.685645409394056 ], [ 243899.7180371741415, 3712330.964568054769188 ], [ 239749.091480551142013, 3712442.253765529021621 ], [ 239985.014052637998248, 3713397.905289139132947 ], [ 236872.122990602336358, 3713482.497098602354527 ], [ 237344.375013610289898, 3715393.810328048653901 ], [ 240457.026810054318048, 3715309.322445411235094 ], [ 240693.11699141189456, 3716265.088121561333537 ], [ 239655.61016810068395, 3716293.121207605116069 ], [ 239891.796114681579638, 3717248.907580468803644 ], [ 241966.726107420632616, 3717192.988417751621455 ], [ 242202.888113628723659, 3718148.847749209031463 ], [ 243240.307443948491709, 3718121.073958025313914 ], [ 243476.485390869085677, 3719076.988939003553241 ], [ 244513.860998490621569, 3719049.344902384094894 ], [ 244041.64074173438712, 3717137.51809783000499 ], [ 243004.185336684429785, 3717165.197154133114964 ], [ 242768.119071073131636, 3716209.358505520038307 ], [ 244843.105830796150258, 3716154.077608302701265 ], [ 244607.175145136017818, 3715198.242143759503961 ] ] ], [ [ [ 232629.418414951127488, 3717448.159681674558669 ], [ 233666.912754702323582, 3717419.358398492913693 ], [ 233903.394161252828781, 3718375.078944270499051 ], [ 234940.844592853100039, 3718346.407150926068425 ], [ 234704.40313173487084, 3717390.669353534467518 ], [ 235741.889561435964424, 3717362.092543311882764 ], [ 235269.254277633095626, 3715450.696423185989261 ], [ 232156.54355798457982, 3715536.866895154584199 ], [ 232629.418414951127488, 3717448.159681674558669 ] ] ], [ [ [ 238289.549855092249345, 3719216.893127973657101 ], [ 238525.9833029510919, 3720172.759025912731886 ], [ 239563.338183460669825, 3720144.571043855976313 ], [ 239799.787567036051769, 3721100.49248530017212 ], [ 240837.098629669955699, 3721072.434255344327539 ], [ 239891.796114681579638, 3717248.907580468803644 ], [ 236779.372059191693552, 3717333.627964348066598 ], [ 237252.151140805275645, 3719245.210790755692869 ], [ 238289.549855092249345, 3719216.893127973657101 ] ] ], [ [ [ 234049.385776647366583, 3723182.949766648933291 ], [ 235086.640242858673446, 3723154.252121365629137 ], [ 235323.457255107699893, 3724110.200998840387911 ], [ 236360.667781900032423, 3724081.633126517757773 ], [ 235887.169699256424792, 3722169.738762566354126 ], [ 234849.879159946343862, 3722198.341353629250079 ], [ 234613.174008351634257, 3721242.468673831317574 ], [ 233575.839540066139307, 3721271.200943445786834 ], [ 234049.385776647366583, 3723182.949766648933291 ] ] ], [ [ [ 250080.367864965344779, 3724676.713446460198611 ], [ 248006.122168161877198, 3724731.003516199998558 ], [ 248479.075638780719601, 3726643.513698656577617 ], [ 250553.161466128309257, 3726589.294682758394629 ], [ 250080.367864965344779, 3724676.713446460198611 ] ] ], [ [ [ 232748.228658794658259, 3734771.728809847962111 ], [ 231798.033005177392624, 3730946.83017762331292 ], [ 230761.0793564003543, 3730975.951715768314898 ], [ 231711.435618417279329, 3734800.780786932446063 ], [ 229637.837675539019983, 3734859.223012521862984 ], [ 230113.512423092557583, 3736771.797353516332805 ], [ 234260.371006710105576, 3736655.503410522826016 ], [ 234022.666412134596612, 3735699.127340133301914 ], [ 235059.411432105058338, 3735670.318359097000211 ], [ 234821.802953471662477, 3734713.963109483476728 ], [ 232748.228658794658259, 3734771.728809847962111 ] ] ], [ [ [ 236962.292817110079341, 3743322.542267711833119 ], [ 235925.869541338644922, 3743351.210581274703145 ], [ 236640.493646095099393, 3746221.37629942689091 ], [ 237676.796084529720247, 3746192.761062090285122 ], [ 236962.292817110079341, 3743322.542267711833119 ] ] ], [ [ [ 236341.254078279074747, 3664480.12321508442983 ], [ 238420.466068848501891, 3664424.338784212712198 ], [ 237490.089712668675929, 3660608.939709086436778 ], [ 236450.328855982865207, 3660636.842908996157348 ], [ 236682.878348503611051, 3661590.620507950894535 ], [ 235643.15264381718589, 3661618.617740395013243 ], [ 236341.254078279074747, 3664480.12321508442983 ] ] ], [ [ [ 244083.557021475833608, 3666194.903662899509072 ], [ 244548.911241752182832, 3668103.142153813038021 ], [ 245588.334438416204648, 3668076.036481659393758 ], [ 245355.668672712781699, 3667121.881741607096046 ], [ 246395.127209555357695, 3667094.869944121688604 ], [ 246162.556462449865649, 3666140.735652924980968 ], [ 244083.557021475833608, 3666194.903662899509072 ] ] ], [ [ [ 241789.524076469708234, 3673937.879652671515942 ], [ 239711.10600406411686, 3673993.108205324970186 ], [ 240177.825089761900017, 3675901.74189572641626 ], [ 242256.085725520912092, 3675846.580714636016637 ], [ 241789.524076469708234, 3673937.879652671515942 ] ] ], [ [ [ 241608.245389225281542, 3690276.366962866391987 ], [ 240569.693251502263593, 3690304.082395542878658 ], [ 240804.092741086467868, 3691258.967031126841903 ], [ 241842.605317944602575, 3691231.268663516733795 ], [ 241608.245389225281542, 3690276.366962866391987 ] ] ], [ [ [ 243685.337955233146204, 3690221.270346601493657 ], [ 242646.793618580908515, 3690248.762947674840689 ], [ 242881.113992220867658, 3691203.681740991771221 ], [ 243919.618779570737388, 3691176.206260183360428 ], [ 243685.337955233146204, 3690221.270346601493657 ] ] ], [ [ [ 242077.021086682041641, 3692186.208032439928502 ], [ 243115.490194863959914, 3692158.638221961911768 ], [ 242881.113992220867658, 3691203.681740991771221 ], [ 241842.605317944602575, 3691231.268663516733795 ], [ 242077.021086682041641, 3692186.208032439928502 ] ] ], [ [ [ 244857.300236973474966, 3694996.327200103551149 ], [ 245895.642868680326501, 3694969.031943047884852 ], [ 245192.416783414664678, 3692103.833005608990788 ], [ 243115.490194863959914, 3692158.638221961911768 ], [ 243349.92222453278373, 3693113.632412095554173 ], [ 241273.059271379432175, 3693168.849270462058485 ], [ 241742.249190023576375, 3695078.882277375087142 ], [ 242780.603413260978414, 3695051.252363917417824 ], [ 243015.242522321408615, 3696006.342621062416583 ], [ 244053.553255916398484, 3695978.84145274059847 ], [ 244757.68665926984977, 3698844.390651315450668 ], [ 245795.874655337858712, 3698817.052831041160971 ], [ 245326.475833970645908, 3696906.614342937711626 ], [ 246364.739257319393801, 3696879.353595028165728 ], [ 246130.163164477591636, 3695924.17385195940733 ], [ 245091.860131433000788, 3695951.45186415174976 ], [ 244857.300236973474966, 3694996.327200103551149 ] ] ], [ [ [ 254436.450972874095896, 3695709.966108180582523 ], [ 252359.901544904423645, 3695762.848697696812451 ], [ 252594.240099845890654, 3696718.132606407161802 ], [ 254670.710394103865838, 3696665.284959762822837 ], [ 254436.450972874095896, 3695709.966108180582523 ] ] ], [ [ [ 243954.357240126788383, 3699827.081624311860651 ], [ 243719.494822404638398, 3698871.840134147554636 ], [ 242681.299129163933685, 3698899.401282886508852 ], [ 242916.201206963160075, 3699854.625533288810402 ], [ 243954.357240126788383, 3699827.081624311860651 ] ] ], [ [ [ 257918.902682209765771, 3701390.224321225192398 ], [ 255842.843060318642529, 3701442.449819110799581 ], [ 256781.551744564203545, 3705264.867729764431715 ], [ 258857.294258246867685, 3705212.78361327573657 ], [ 259092.031323282717494, 3706168.518995823338628 ], [ 261167.680069414287573, 3706116.917700654827058 ], [ 260698.420203467685496, 3704205.414113292004913 ], [ 261736.318484183604596, 3704179.745607894379646 ], [ 261032.96487707446795, 3701312.723864417523146 ], [ 259994.947756442299578, 3701338.445648895110935 ], [ 259760.568242720008129, 3700382.865918142255396 ], [ 257684.443969346291851, 3700434.679948978126049 ], [ 257918.902682209765771, 3701390.224321225192398 ] ], [ [ 259660.518333781539695, 3704231.194401717744768 ], [ 259425.932239158923039, 3703275.517764672171324 ], [ 260463.873738843889441, 3703249.719724713359028 ], [ 260698.420203467685496, 3704205.414113292004913 ], [ 259660.518333781539695, 3704231.194401717744768 ] ] ], [ [ [ 260599.419265265634749, 3708054.283600815106183 ], [ 259561.672444401570829, 3708080.10458480194211 ], [ 259796.576496425841469, 3709035.954834843520075 ], [ 260834.28362623299472, 3709010.151672312989831 ], [ 260599.419265265634749, 3708054.283600815106183 ] ] ], [ [ [ 260169.697252380836289, 3714797.670005195308477 ], [ 259934.419517991016619, 3713841.607341740746051 ], [ 258896.903866771288449, 3713867.545238619204611 ], [ 258426.435873162146891, 3711955.57086564367637 ], [ 259464.031028838624479, 3711929.597260524518788 ], [ 259228.920278147270437, 3710973.649799017701298 ], [ 258191.285386892297538, 3710999.641228917986155 ], [ 257721.151445570663782, 3709087.896945765241981 ], [ 258758.86577469742042, 3709061.869924943428487 ], [ 258523.9220260004804, 3708106.03746870579198 ], [ 259561.672444401570829, 3708080.10458480194211 ], [ 259326.824052677082364, 3707124.292645731940866 ], [ 255175.641862850054167, 3707228.766543716657907 ], [ 254705.794649160467088, 3705317.399139516521245 ], [ 253667.910594527202193, 3705343.832587354350835 ], [ 253433.030877806275385, 3704388.223752649500966 ], [ 255508.87465479579987, 3704335.433448700234294 ], [ 254335.708357090159552, 3699557.785130421165377 ], [ 256411.933743304980453, 3699505.265863846056163 ], [ 255943.215547458064975, 3697594.402895017061383 ], [ 256981.401897834817646, 3697568.275566487107426 ], [ 256512.985592898709001, 3695657.529706433415413 ], [ 257551.247388961841352, 3695631.478817971423268 ], [ 257317.162301347911125, 3694676.145392688456923 ], [ 255240.555960833706195, 3694728.393779967911541 ], [ 255708.939988951722626, 3696639.028499905951321 ], [ 254670.710394103865838, 3696665.284959762822837 ], [ 255139.396354610042181, 3698576.036718206480145 ], [ 253063.084394103003433, 3698628.814362476114184 ], [ 253297.590129407326458, 3699584.212253130041063 ], [ 251221.342527030210476, 3699637.401493498124182 ], [ 251455.983229986246442, 3700592.802433523815125 ], [ 250417.893455124285538, 3700619.54710514517501 ], [ 250652.629542996524833, 3701574.968593238387257 ], [ 248576.518024424149189, 3701628.758182484190911 ], [ 248341.7026353708643, 3700673.371555486693978 ], [ 245227.387997261015698, 3700754.946048052515835 ], [ 244992.509422680566786, 3699799.649408848024905 ], [ 243954.357240126788383, 3699827.081624311860651 ], [ 244189.275480057258392, 3700782.360976698808372 ], [ 241074.914797130884835, 3700865.276102796196938 ], [ 241310.007921058946522, 3701820.54158584587276 ], [ 240271.919630609540036, 3701848.386223308742046 ], [ 240507.1083164147567, 3702803.672338122036308 ], [ 241545.156896339933155, 3702775.844915968831629 ], [ 241780.361720993503695, 3703731.186114786192775 ], [ 240742.352862629195442, 3703758.996302163228393 ], [ 240977.653267273068195, 3704714.358137050643563 ], [ 237863.722524538723519, 3704798.408020196016878 ], [ 237157.631289407319855, 3701932.590722680091858 ], [ 236119.527300568995997, 3701960.88242953363806 ], [ 235648.999850104213692, 3700050.560598246287555 ], [ 233572.621062522113789, 3700107.547480679582804 ], [ 234749.756407786626369, 3704883.464600814972073 ], [ 236825.737770088890102, 3704826.648353877477348 ], [ 237296.824256009596866, 3706737.3480069427751 ], [ 238334.729465710552176, 3706709.142019414808601 ], [ 238570.316765699215466, 3707664.565824158024043 ], [ 239608.178273471363354, 3707636.488976996857673 ], [ 239843.781662935070926, 3708591.967930099926889 ], [ 241919.413430510088801, 3708536.184617907274514 ], [ 242626.319969265285181, 3711402.953183713369071 ], [ 243664.010657513805199, 3711375.28157623950392 ], [ 243899.7180371741415, 3712330.964568054769188 ], [ 245975.008320474880747, 3712275.99235792318359 ], [ 246446.43125041431631, 3714187.542544117197394 ], [ 247483.991056651488179, 3714160.259569413494319 ], [ 247719.746390698652249, 3715116.109455693047494 ], [ 248757.262601277179783, 3715088.95616817381233 ], [ 248993.033883288590005, 3716044.861862989608198 ], [ 250030.506513982632896, 3716017.838334171567112 ], [ 250502.136701104260283, 3717929.799810409545898 ], [ 251539.525914575526258, 3717902.923805264290422 ], [ 251775.384788092196686, 3718858.979716767556965 ], [ 253850.07243301422568, 3718805.599837386514992 ], [ 254085.907322019134881, 3719761.729652699548751 ], [ 256160.50062038822216, 3719708.834350267425179 ], [ 256396.311501107207732, 3720665.038280282635242 ], [ 260545.295352003537118, 3720560.666386866942048 ], [ 260781.002490349113941, 3721516.980600974988192 ], [ 263892.583469254139345, 3721439.934627319220454 ], [ 264363.925559122231789, 3723352.787279491778463 ], [ 268512.33250978239812, 3723251.776674039661884 ], [ 268276.793031078763306, 3722295.258280407171696 ], [ 272425.304367730801459, 3722195.971728097181767 ], [ 271954.71057463856414, 3720282.90500652929768 ], [ 270917.508248500234913, 3720307.594820582307875 ], [ 270447.057040638814215, 3718394.719724349677563 ], [ 269409.771752720291261, 3718419.558253992814571 ], [ 269645.009357680566609, 3719375.958206286653876 ], [ 268607.760421469458379, 3719400.890715749468654 ], [ 268843.093375403666869, 3720357.311156644951552 ], [ 267805.880797714868095, 3720382.337684696540236 ], [ 268041.309126368141733, 3721338.778624637983739 ], [ 265966.953243981988635, 3721389.13207024987787 ], [ 265495.992922884528525, 3719476.361536380369216 ], [ 267570.50804718217114, 3719425.935438555199653 ], [ 267335.190876830369234, 3718469.571864200290293 ], [ 268372.483036578749306, 3718444.50896626431495 ], [ 268137.261222794302739, 3717488.165886184200644 ], [ 267099.929288720537443, 3717513.246939631178975 ], [ 266394.478038419270888, 3714644.50384484604001 ], [ 265357.023366976005491, 3714669.751325215678662 ], [ 265121.944393039564602, 3713713.598829500377178 ], [ 264084.446484070271254, 3713738.976412732154131 ], [ 264319.565198934520595, 3714695.110886667855084 ], [ 261207.169561018643435, 3714771.86208843300119 ], [ 261677.81243936647661, 3716684.138651503250003 ], [ 263752.587311033159494, 3716632.931023341137916 ], [ 263517.317604064650368, 3715676.737515269778669 ], [ 264554.739526507735718, 3715651.283883347176015 ], [ 264789.969464740424883, 3716607.495424706023186 ], [ 265827.348117565677967, 3716582.171965573914349 ], [ 266062.593890114338137, 3717538.4401541124098 ], [ 265025.255011582223233, 3717563.7455326882191 ], [ 265260.596164981194306, 3718520.034229256678373 ], [ 264223.293582114274614, 3718545.433702511712909 ], [ 263987.912637732399162, 3717589.163078436162323 ], [ 260875.864390361035476, 3717666.088749682065099 ], [ 260640.419690605427604, 3716709.910687256138772 ], [ 259603.023379359423416, 3716735.794874963816255 ], [ 259132.221370044688229, 3714823.590018598828465 ], [ 260169.697252380836289, 3714797.670005195308477 ] ], [ [ 264458.73014212702401, 3719501.742917529772967 ], [ 263421.463861801137682, 3719527.236524277832359 ], [ 263185.987494109198451, 3718570.945373697672039 ], [ 264223.293582114274614, 3718545.433702511712909 ], [ 264458.73014212702401, 3719501.742917529772967 ] ], [ [ 243759.58548432434327, 3707525.300900729838759 ], [ 243995.029755073337583, 3708480.849127509165555 ], [ 242957.223515428748215, 3708508.460896673146635 ], [ 242721.739473669440486, 3707552.930029724258929 ], [ 243759.58548432434327, 3707525.300900729838759 ] ], [ [ 241683.889611967868404, 3707580.671083179302514 ], [ 241448.421643924724776, 3706625.195505905896425 ], [ 242486.311271359358216, 3706597.437139733228832 ], [ 242721.739473669440486, 3707552.930029724258929 ], [ 241683.889611967868404, 3707580.671083179302514 ] ], [ [ 245835.266014454973629, 3707470.378402680158615 ], [ 244797.427659423177829, 3707497.783692833036184 ], [ 244562.078971265087603, 3706542.25609458098188 ], [ 245599.957074734382331, 3706514.8334088800475 ], [ 245835.266014454973629, 3707470.378402680158615 ] ], [ [ 245364.703943296335638, 3705559.326428851578385 ], [ 246402.617968080216087, 3705531.998226279392838 ], [ 246637.831367883016355, 3706487.52260997146368 ], [ 245599.957074734382331, 3706514.8334088800475 ], [ 245364.703943296335638, 3705559.326428851578385 ] ] ], [ [ [ 262440.172807683818974, 3707047.111892220098525 ], [ 261402.393466674169758, 3707072.726943024899811 ], [ 261871.987179595860653, 3708984.46043421048671 ], [ 263947.383618906955235, 3708933.413718793541193 ], [ 264182.184554170584306, 3709889.373831541743129 ], [ 265219.837791278492659, 3709864.03629964357242 ], [ 265689.5271023195819, 3711776.107807368505746 ], [ 267764.664312624838203, 3711725.840649339836091 ], [ 267295.133754079113714, 3709813.697051777038723 ], [ 266257.487519424699713, 3709838.810707412194461 ], [ 265788.099948610179126, 3707926.857070092111826 ], [ 262674.902176332776435, 3708002.977320033591241 ], [ 262440.172807683818974, 3707047.111892220098525 ] ] ], [ [ [ 264789.969464740424883, 3716607.495424706023186 ], [ 263752.587311033159494, 3716632.931023341137916 ], [ 263987.912637732399162, 3717589.163078436162323 ], [ 265025.255011582223233, 3717563.7455326882191 ], [ 264789.969464740424883, 3716607.495424706023186 ] ] ], [ [ [ 252483.295894355891505, 3721727.377672820352018 ], [ 252011.299410575506045, 3719815.073983934242278 ], [ 250973.989936533354921, 3719841.914543449413031 ], [ 250502.136701104260283, 3717929.799810409545898 ], [ 248427.347126491571544, 3717983.888459005393088 ], [ 249844.054718597762985, 3723720.480481659062207 ], [ 250881.211949143849779, 3723693.486290496308357 ], [ 250644.99450599134434, 3722737.273976206313819 ], [ 251682.187969950347906, 3722710.374382354319096 ], [ 251446.066204134083819, 3721754.182708277367055 ], [ 252483.295894355891505, 3721727.377672820352018 ] ] ], [ [ [ 257777.802085643925238, 3738918.678854171652347 ], [ 259850.803561748325592, 3738866.279365142807364 ], [ 259613.894645436783321, 3737909.358826757408679 ], [ 258577.355596780136693, 3737935.520375296939164 ], [ 258340.462285617832094, 3736978.656881428789347 ], [ 257303.879615562153049, 3737004.94937433488667 ], [ 257777.802085643925238, 3738918.678854171652347 ] ] ], [ [ [ 261424.418249813257717, 3749420.917806220706552 ], [ 259352.293115175009007, 3749473.140618743374944 ], [ 259827.743826924968744, 3751387.846253625117242 ], [ 261899.708045959589072, 3751335.69710190827027 ], [ 261424.418249813257717, 3749420.917806220706552 ] ] ], [ [ [ 270814.75217331078602, 3694347.40195550583303 ], [ 272891.251736953097861, 3694298.498253767378628 ], [ 272657.814529120281804, 3693342.936597185675055 ], [ 271619.527027011965401, 3693367.350658878684044 ], [ 271386.105902412789874, 3692411.845222963020205 ], [ 270347.775517044588923, 3692436.388620655518025 ], [ 270814.75217331078602, 3694347.40195550583303 ] ] ], [ [ [ 262406.372957209474407, 3698394.831136388238519 ], [ 260330.112041190091986, 3698446.046074026729912 ], [ 260564.340675190702314, 3699401.567156721372157 ], [ 259526.244383351586293, 3699427.324363174848258 ], [ 259760.568242720008129, 3700382.865918142255396 ], [ 260798.624954494705889, 3700357.126412939745933 ], [ 261032.96487707446795, 3701312.723864417523146 ], [ 262070.978407458256697, 3701287.113776881247759 ], [ 261602.433365566452267, 3699375.921591907739639 ], [ 264716.68998367106542, 3699299.654716117307544 ], [ 264248.604758575442247, 3697388.508773045614362 ], [ 262172.279069541604258, 3697439.312797896098346 ], [ 262406.372957209474407, 3698394.831136388238519 ] ] ], [ [ [ 263577.676732566789724, 3703172.996124587487429 ], [ 266691.447794576874003, 3703097.278238798025995 ], [ 266457.194574224180542, 3702141.515118262730539 ], [ 264381.271550451638177, 3702191.917735172901303 ], [ 264146.994759705266915, 3701236.22868016269058 ], [ 263108.988363148760982, 3701261.615383165888488 ], [ 263577.676732566789724, 3703172.996124587487429 ] ] ], [ [ [ 271311.450075808330439, 3704909.670667153317481 ], [ 274424.910848742118105, 3704836.407686895225197 ], [ 273722.815506240236573, 3701968.624637791421264 ], [ 271646.941034913994372, 3702017.463432761374861 ], [ 272115.107314094551839, 3703929.207939262501895 ], [ 271077.244069028878585, 3703953.758784111589193 ], [ 271311.450075808330439, 3704909.670667153317481 ] ] ], [ [ [ 269704.529476164956577, 3706870.938523977529258 ], [ 269470.133184166741557, 3705914.985805359203368 ], [ 268432.338795583404135, 3705939.83591218246147 ], [ 267729.364458489522804, 3703072.262421228457242 ], [ 266691.447794576874003, 3703097.278238798025995 ], [ 267629.016472778399475, 3706920.714519329369068 ], [ 266591.25476008921396, 3706945.770286705344915 ], [ 267295.133754079113714, 3709813.697051777038723 ], [ 268332.77651071222499, 3709788.695329681970179 ], [ 267863.547581288963556, 3707876.669648250099272 ], [ 268901.266179448342882, 3707851.743751578498632 ], [ 268666.774706303549465, 3706895.770599431358278 ], [ 269704.529476164956577, 3706870.938523977529258 ] ] ], [ [ [ 276399.470068841008469, 3708636.53343925671652 ], [ 278474.770268848456908, 3708588.619836650788784 ], [ 278240.579806007794105, 3707632.444567150902003 ], [ 279278.264520019758493, 3707608.637257347349077 ], [ 279044.169097908423282, 3706652.482350429520011 ], [ 275930.986226498149335, 3706724.294636182952672 ], [ 276399.470068841008469, 3708636.53343925671652 ] ] ], [ [ [ 272717.852241530781612, 3710645.95080586289987 ], [ 274793.020765699911863, 3710597.214934687130153 ], [ 274324.156491952773649, 3708684.894557682797313 ], [ 273286.494648467632942, 3708709.242942676413804 ], [ 273520.938665086519904, 3709665.365616286639124 ], [ 272483.313066475326195, 3709689.807716050650924 ], [ 272717.852241530781612, 3710645.95080586289987 ] ] ], [ [ [ 269135.81321296421811, 3708807.755390501115471 ], [ 269370.415804796735756, 3709763.805538083892316 ], [ 268332.77651071222499, 3709788.695329681970179 ], [ 268567.474327517324127, 3710744.765925969462842 ], [ 270642.670136705972254, 3710695.134461644571275 ], [ 270877.344164685695432, 3711651.279821377247572 ], [ 271914.897253610717598, 3711626.650175701826811 ], [ 271445.684067205409519, 3709714.361734277568758 ], [ 270408.051651803776622, 3709739.027673953678459 ], [ 270173.488712039892562, 3708782.959436384495348 ], [ 269135.81321296421811, 3708807.755390501115471 ] ] ], [ [ [ 270877.344164685695432, 3711651.279821377247572 ], [ 269839.787655181600712, 3711676.021446865983307 ], [ 270309.381714135408401, 3713588.391653296537697 ], [ 271346.858841632143594, 3713563.686344725079834 ], [ 270877.344164685695432, 3711651.279821377247572 ] ] ], [ [ [ 267196.929719931446016, 3713663.179820207413286 ], [ 266159.438799848547205, 3713688.333299683406949 ], [ 266394.478038419270888, 3714644.50384484604001 ], [ 267431.929228688939475, 3714619.368442488834262 ], [ 267196.929719931446016, 3713663.179820207413286 ] ] ], [ [ [ 276573.761696983710863, 3722098.481773855164647 ], [ 275868.431636343360879, 3719228.719460961408913 ], [ 274831.203005711431615, 3719252.978753526229411 ], [ 275066.297295799886342, 3720209.508944330736995 ], [ 274029.105082921683788, 3720233.862071385141462 ], [ 274264.294647827278823, 3721190.41271292231977 ], [ 275301.447085973457433, 3721166.077966386917979 ], [ 275771.913158247829415, 3723079.332592569291592 ], [ 278883.111841454985552, 3723007.112638119142503 ], [ 278412.884452523023356, 3721093.747219583950937 ], [ 277375.741972962860018, 3721117.745222653262317 ], [ 277610.867705742712133, 3722074.389981460291892 ], [ 276573.761696983710863, 3722098.481773855164647 ] ] ], [ [ [ 268983.578180902637541, 3725164.929763119202107 ], [ 270020.591608441085555, 3725139.994503468740731 ], [ 269784.980840277741663, 3724183.380274950060993 ], [ 270822.030709680402651, 3724158.539074067492038 ], [ 270586.515335883945227, 3723201.945346178486943 ], [ 268512.33250978239812, 3723251.776674039661884 ], [ 268983.578180902637541, 3725164.929763119202107 ] ] ], [ [ [ 273367.158290034160018, 3726022.571145491208881 ], [ 276478.028465206560213, 3725949.506318581290543 ], [ 276007.229436180205084, 3724036.018240891862661 ], [ 274970.196389191609342, 3724060.297727969940752 ], [ 275205.607978254556656, 3725017.003836783114821 ], [ 273131.611522637773305, 3725065.862989133223891 ], [ 273367.158290034160018, 3726022.571145491208881 ] ] ], [ [ [ 283501.461891801678576, 3724826.061573845800012 ], [ 282464.49153378198389, 3724849.536131934262812 ], [ 282699.679924028459936, 3725806.411096469033509 ], [ 284773.537854506925214, 3725759.611694944091141 ], [ 285008.702063100878149, 3726716.563154231291264 ], [ 287082.467672527884133, 3726670.25074118655175 ], [ 286847.383044577785768, 3725713.261758282780647 ], [ 287884.300900241243653, 3725690.255332234781235 ], [ 287414.377304572321009, 3723776.3572789253667 ], [ 283266.368705534841865, 3723869.207016044761986 ], [ 283501.461891801678576, 3724826.061573845800012 ] ] ], [ [ [ 276762.240308003965765, 3735567.514114209916443 ], [ 275725.679279339383356, 3735591.796132708434016 ], [ 275961.836663847207092, 3736548.933461994398385 ], [ 276998.357728040427901, 3736524.670083834789693 ], [ 277234.53063497407129, 3737481.865222258958966 ], [ 278271.008450778899714, 3737457.733231835067272 ], [ 278034.875514070445206, 3736500.519405593629926 ], [ 279071.390037139644846, 3736476.481424347031862 ], [ 278599.370488898537587, 3734562.133943522349 ], [ 276526.178376964177005, 3734610.397291114553809 ], [ 276762.240308003965765, 3735567.514114209916443 ] ] ], [ [ [ 286091.143629048485309, 3735354.045848405454308 ], [ 285054.611605217447504, 3735377.313921353779733 ], [ 285290.409504707437009, 3736334.620011494029313 ], [ 284253.914240149548277, 3736357.981871495489031 ], [ 284489.807469265651889, 3737315.308406725060195 ], [ 289672.052770295878872, 3737199.720534161664546 ], [ 289436.359149608586449, 3736242.29931221017614 ], [ 288399.876419971988071, 3736265.210481530986726 ], [ 287928.575449422409292, 3734350.524159787688404 ], [ 285855.441033503739163, 3734396.760192830115557 ], [ 286091.143629048485309, 3735354.045848405454308 ] ] ], [ [ [ 280107.901312450121623, 3736452.556137178558856 ], [ 281144.409355202340521, 3736428.743541189003736 ], [ 281380.422413796535693, 3737386.013597171287984 ], [ 282416.887290644692257, 3737362.332488162908703 ], [ 282180.914180601132102, 3736405.04363349173218 ], [ 283217.415803849173244, 3736381.456411213148385 ], [ 282981.538056623423472, 3735424.188017541542649 ], [ 279871.903753192280419, 3735495.344080264680088 ], [ 280107.901312450121623, 3736452.556137178558856 ] ] ] ] } }
]
}
