{
"type": "FeatureCollection",
"name": "urban-1980",
"crs": { "type": "name", "properties": { "name": "urn:ogc:def:crs:EPSG::32633" } },
"features": [
{ "type": "Feature", "properties": { "year": 1980 }, "geometry": { "type": "MultiPolygon", "coordinates": [ [ [ [ 410144.164002788485959, 5311303.200067675672472 ], [ 410009.805914311553352, 5310259.784362751059234 ], [ 410966.379864011076279, 5310244.925649320706725 ], [ 410832.107826094375923, 5309201.565167535096407 ], [ 412745.38486449123593, 5309172.287352067418396 ], [ 412611.262713513628114, 5308128.963616056367755 ], [ 411654.560096457717009, 5308143.541564447805285 ], [ 411386.254397722426802, 5306057.151653002016246 ], [ 406602.109591145825107, 5306132.606172304600477 ], [ 406736.570570708543528, 5307175.672768334858119 ], [ 407693.334778648160864, 5307160.28270376008004 ], [ 407962.195654439099599, 5309246.672884508036077 ], [ 407005.559186200960539, 5309262.026393617503345 ], [ 407140.086818200070411, 5310305.313493733294308 ], [ 409053.232420199201442, 5310274.801907108165324 ], [ 409456.564952350629028, 5313405.214840750209987 ], [ 410412.946631950384472, 5313390.252464389428496 ], [ 410278.544242668314837, 5312346.68942304328084 ], [ 411234.990337873750832, 5312331.867535885423422 ], [ 411100.674035273201298, 5311288.359760265797377 ], [ 410144.164002788485959, 5311303.200067675672472 ] ] ], [ [ [ 397023.647055799723603, 5313614.188387819565833 ], [ 396617.820670055341907, 5310484.484198686666787 ], [ 394704.687989385332912, 5310519.12568587064743 ], [ 394840.068885822664015, 5311562.251098291017115 ], [ 393883.567277955880854, 5311579.792240024544299 ], [ 394019.034600895363837, 5312622.973180771805346 ], [ 394975.47225415072171, 5312605.449933862313628 ], [ 395246.346399041533004, 5314692.068016199395061 ], [ 396202.65662117046304, 5314674.739578087814152 ], [ 396473.492584220541175, 5316761.687729266472161 ], [ 395517.310409160330892, 5316778.980216580443084 ], [ 395652.82610901480075, 5317822.546699798665941 ], [ 397565.062888474378269, 5317788.156786441802979 ], [ 397158.967376478656661, 5314657.570115094073117 ], [ 398115.278660024283454, 5314640.559625756926835 ], [ 397980.022330598207191, 5313597.159882585518062 ], [ 397023.647055799723603, 5313614.188387819565833 ] ] ], [ [ [ 412594.326631551608443, 5315448.225649737752974 ], [ 412325.711360995017458, 5313360.804481501691043 ], [ 411369.32876980304718, 5313375.449011726304889 ], [ 411503.689329048793297, 5314419.104223350994289 ], [ 410547.371168631070759, 5314433.889227268286049 ], [ 410681.817850705119781, 5315477.59974727127701 ], [ 409725.564147823664825, 5315492.525273755192757 ], [ 409994.651997220120393, 5317580.130820656195283 ], [ 410950.77764299872797, 5317565.242201086133718 ], [ 410816.286676164658275, 5316521.384059997275472 ], [ 411772.476821429678239, 5316506.635996338911355 ], [ 411638.072013596596662, 5315462.833206350915134 ], [ 412594.326631551608443, 5315448.225649737752974 ] ] ], [ [ [ 398250.55739566416014, 5315684.032941047102213 ], [ 398656.528020932688378, 5318814.894674905575812 ], [ 401524.696520972589497, 5318765.034393569454551 ], [ 401254.411391339031979, 5316677.610817702487111 ], [ 400298.226588917779736, 5316694.108134801499546 ], [ 400163.053508380427957, 5315650.525030507706106 ], [ 398250.55739566416014, 5315684.032941047102213 ] ] ], [ [ [ 404122.968842050002422, 5316629.073039553128183 ], [ 403988.051867859321646, 5315585.417201512493193 ], [ 403031.801523619971704, 5315601.455663235858083 ], [ 403571.859325487515889, 5319776.448524537496269 ], [ 406439.843186666257679, 5319729.029507587663829 ], [ 406304.987539988651406, 5318685.115739065222442 ], [ 405348.928340969665442, 5318700.781294926069677 ], [ 405079.155656869872473, 5316613.21183330193162 ], [ 404122.968842050002422, 5316629.073039553128183 ] ] ], [ [ [ 395788.364269572775811, 5318866.186819082126021 ], [ 395652.82610901480075, 5317822.546699798665941 ], [ 394696.708529078343417, 5317839.980259703472257 ], [ 394832.310764414607547, 5318883.602398963645101 ], [ 395788.364269572775811, 5318866.186819082126021 ] ] ], [ [ [ 406979.488113081897609, 5323905.423578666523099 ], [ 409846.706789029878564, 5323859.657787963747978 ], [ 409711.954696602246258, 5322815.392988858744502 ], [ 410667.759376377332956, 5322800.437682998366654 ], [ 410533.093593651021365, 5321756.22839685715735 ], [ 407665.488564818457235, 5321801.627340216189623 ], [ 407800.346770588541403, 5322845.781216030940413 ], [ 406844.54353447817266, 5322861.214139919728041 ], [ 406979.488113081897609, 5323905.423578666523099 ] ] ], [ [ [ 410802.447308522067033, 5323844.72099747043103 ], [ 411758.188299969071522, 5323829.943441390059888 ], [ 411623.564527246868238, 5322785.64158059284091 ], [ 410667.759376377332956, 5322800.437682998366654 ], [ 410802.447308522067033, 5323844.72099747043103 ] ] ], [ [ [ 413804.189221688779071, 5324845.279180884361267 ], [ 414073.29056069534272, 5326934.32795228715986 ], [ 415028.840345599979628, 5326920.084095608443022 ], [ 415163.359899511327967, 5327964.73848189599812 ], [ 419940.794354354438838, 5327896.002958491444588 ], [ 419806.595977671444416, 5326851.25462466198951 ], [ 416939.941272293101065, 5326892.074348280206323 ], [ 416671.225173062703107, 5324802.913340765051544 ], [ 413804.189221688779071, 5324845.279180884361267 ] ] ], [ [ [ 421298.816597246215679, 5331017.48180050868541 ], [ 421164.616649000614416, 5329972.49142297077924 ], [ 420209.256977553595789, 5329985.722672281786799 ], [ 420477.807413098285906, 5332075.74002084042877 ], [ 421433.038476192217786, 5332062.546637151390314 ], [ 421567.282283709559124, 5333107.68596894480288 ], [ 423477.617017325886991, 5333081.815613682381809 ], [ 423343.501877025293652, 5332036.638280036859214 ], [ 422388.26996590255294, 5332049.512723918072879 ], [ 422254.112400604295544, 5331004.428916258737445 ], [ 421298.816597246215679, 5331017.48180050868541 ] ] ], [ [ [ 433429.860465031233616, 5336098.589610475115478 ], [ 433563.419021361973137, 5337144.257849377579987 ], [ 432608.505024525511544, 5337155.440879440866411 ], [ 432474.882059018593282, 5336109.792025053873658 ], [ 430564.926366125000641, 5336132.675604849122465 ], [ 430431.196317880414426, 5335087.140195965766907 ], [ 431386.238365807628725, 5335075.599306016229093 ], [ 431252.594426207942888, 5334030.119337028823793 ], [ 429342.381972352101002, 5334053.399227020330727 ], [ 429208.631055218284018, 5333008.032496771775186 ], [ 425387.953418281744234, 5333056.583255551755428 ], [ 425253.966942695202306, 5332011.367795992642641 ], [ 424298.734204356966075, 5332023.923304420895875 ], [ 424432.785011995991226, 5333069.11968551389873 ], [ 423477.617017325886991, 5333081.815613682381809 ], [ 423611.754043479391839, 5334127.067507381550968 ], [ 424566.857685188762844, 5334114.390641078352928 ], [ 424835.068619585013948, 5336205.156420124694705 ], [ 425790.043907857558224, 5336192.677312116138637 ], [ 425924.117751408077311, 5337238.191344104707241 ], [ 429743.765285635716282, 5337189.947659115307033 ], [ 429877.603236646391451, 5338235.613337612710893 ], [ 430832.451671424671076, 5338223.970767688937485 ], [ 430966.246924026927445, 5339269.730594136752188 ], [ 437649.74524253042182, 5339192.838786095380783 ], [ 437516.401136644883081, 5338146.942847878672183 ], [ 434651.849185566126835, 5338178.996950865723193 ], [ 434384.839237069711089, 5336087.54677817504853 ], [ 433429.860465031233616, 5336098.589610475115478 ] ] ], [ [ [ 443934.64593125670217, 5335985.895282106474042 ], [ 443801.817301864386536, 5334940.086736261844635 ], [ 442846.770774156437255, 5334949.55350648239255 ], [ 442979.663788343197666, 5335995.342340670526028 ], [ 443934.64593125670217, 5335985.895282106474042 ] ] ], [ [ [ 389229.521227615186945, 5342022.326092278584838 ], [ 388819.557946280692704, 5338887.286089826375246 ], [ 386909.905893945426214, 5338924.782219897955656 ], [ 387320.256234359694645, 5342059.714492700062692 ], [ 389229.521227615186945, 5342022.326092278584838 ] ] ], [ [ [ 440913.688400393992197, 5342300.594748646020889 ], [ 440780.473065317200962, 5341254.414831544272602 ], [ 438871.156158518278971, 5341274.548970022238791 ], [ 439004.500510976125952, 5342320.689569235779345 ], [ 440913.688400393992197, 5342300.594748646020889 ] ] ], [ [ [ 443067.60745303647127, 5351709.969588295556605 ], [ 443200.973162706184667, 5352756.922326034866273 ], [ 444154.921726390719414, 5352747.472489096224308 ], [ 443888.341190053906757, 5350653.602739566005766 ], [ 441980.185579918150324, 5350672.741924308240414 ], [ 442113.594504564884119, 5351719.59934919141233 ], [ 443067.60745303647127, 5351709.969588295556605 ] ] ], [ [ [ 388589.082373596029356, 5380853.164457166567445 ], [ 388451.17793020431418, 5379805.413594392128289 ], [ 386546.594384899362922, 5379843.420034607872367 ], [ 387098.87076268508099, 5384034.73039108607918 ], [ 389002.931735199177638, 5383996.870668597519398 ], [ 388864.959277964255307, 5382948.892957336269319 ], [ 389817.056169918039814, 5382930.186258955858648 ], [ 389541.309905277215876, 5380834.420986082404852 ], [ 388589.082373596029356, 5380853.164457166567445 ] ] ], [ [ [ 481883.340783861116506, 5310630.947143044322729 ], [ 482142.5339318238548, 5312720.935559912584722 ], [ 484055.339101447549183, 5312715.320795929059386 ], [ 483925.860087174689397, 5311670.247655336745083 ], [ 484882.326734980917536, 5311667.657751070335507 ], [ 484752.932230276521295, 5310622.638595893979073 ], [ 481883.340783861116506, 5310630.947143044322729 ] ] ], [ [ [ 448768.178254141297657, 5321287.785533986054361 ], [ 448636.098885094281286, 5320242.885367105714977 ], [ 447680.151087505044416, 5320251.512847749516368 ], [ 447944.45938423415646, 5322341.348281480371952 ], [ 450811.918929887237027, 5322316.061732074245811 ], [ 450284.156848414684646, 5318136.45192888006568 ], [ 449328.080384141183458, 5318144.800740523263812 ], [ 449724.062222538166679, 5321279.336912518367171 ], [ 448768.178254141297657, 5321287.785533986054361 ] ] ], [ [ [ 459677.165192183631007, 5324339.408968389965594 ], [ 459151.541288490057923, 5320158.483641413040459 ], [ 458195.590811015281361, 5320165.361040558665991 ], [ 458064.173554978391621, 5319120.336577995680273 ], [ 457108.15921976196114, 5319127.393094645813107 ], [ 456976.699051487026736, 5318082.463279660791159 ], [ 455064.54294441442471, 5318097.093430328182876 ], [ 455327.740710215119179, 5320186.9478111686185 ], [ 454371.791137170512229, 5320194.461594466120005 ], [ 454503.485921714920551, 5321239.480771687813103 ], [ 453547.600684329634532, 5321247.133739929646254 ], [ 453679.380806487519294, 5322292.207643998786807 ], [ 455591.023285337490961, 5322277.10072142444551 ], [ 455854.390650244837161, 5324367.552449736744165 ], [ 456810.083947449282277, 5324360.277749178931117 ], [ 457073.407705616089515, 5326451.068664350546896 ], [ 458028.972854896972422, 5326443.99332623463124 ], [ 457634.211509341024794, 5323307.858967334963381 ], [ 458589.969417063577566, 5323300.88262699637562 ], [ 458721.471223488333635, 5324346.206009102985263 ], [ 459677.165192183631007, 5324339.408968389965594 ] ] ], [ [ [ 451899.66893928416539, 5323353.059997575357556 ], [ 451767.739303145790473, 5322307.951207933947444 ], [ 450811.918929887237027, 5322316.061732074245811 ], [ 450943.912704162939917, 5323361.150673280470073 ], [ 451899.66893928416539, 5323353.059997575357556 ] ] ], [ [ [ 460764.253956132277381, 5325378.209631510078907 ], [ 460632.859374569612555, 5324332.771146453917027 ], [ 459677.165192183631007, 5324339.408968389965594 ], [ 459808.623951877059881, 5325384.827296552248299 ], [ 460764.253956132277381, 5325378.209631510078907 ] ] ], [ [ [ 492817.441217076324392, 5329434.401322915218771 ], [ 492688.082982342224568, 5328387.978536275215447 ], [ 490777.199985339539126, 5328390.73590181581676 ], [ 490647.733657749311533, 5327344.431013645604253 ], [ 489692.227983358839992, 5327346.069859110750258 ], [ 489951.309599352825899, 5329438.712737513706088 ], [ 488995.93249482131796, 5329440.468602074310184 ], [ 489255.224559229391161, 5331533.371012492105365 ], [ 492120.970235831395257, 5331528.708716716617346 ], [ 491991.506891289551277, 5330482.15614041313529 ], [ 493902.132852644019295, 5330479.802496843039989 ], [ 493772.818507208663505, 5329433.282910670153797 ], [ 492817.441217076324392, 5329434.401322915218771 ] ] ], [ [ [ 507221.115441154979635, 5337809.761994190514088 ], [ 506835.318075815157499, 5334667.999253695830703 ], [ 504925.206800936313812, 5334666.034948689863086 ], [ 505311.390704627730884, 5337807.667097217403352 ], [ 507221.115441154979635, 5337809.761994190514088 ] ] ], [ [ [ 457009.71588343050098, 5341109.07064563408494 ], [ 457141.834606846503448, 5342155.5897859018296 ], [ 458096.433860001270659, 5342148.497866189107299 ], [ 457832.34657724306453, 5340055.494475512765348 ], [ 455922.890329765505157, 5340069.91891070920974 ], [ 456055.052364755014423, 5341116.342518712393939 ], [ 457009.71588343050098, 5341109.07064563408494 ] ] ], [ [ [ 448550.452773327357136, 5342226.60590058285743 ], [ 448417.753496850084048, 5341180.267468539997935 ], [ 447463.092378609348089, 5341188.976843021810055 ], [ 447595.856161629606504, 5342235.295351879671216 ], [ 448550.452773327357136, 5342226.60590058285743 ] ] ], [ [ [ 461651.261845863482449, 5340028.561849566176534 ], [ 461519.507794523553457, 5338982.092023871839046 ], [ 460564.714179400005378, 5338988.60598074644804 ], [ 460696.532695295521989, 5340035.055476940236986 ], [ 458787.07505566754844, 5340048.521789345890284 ], [ 458919.043635541573167, 5341095.006056272424757 ], [ 459873.707858306821436, 5341088.213338807225227 ], [ 460005.633065072470345, 5342134.793275128118694 ], [ 463824.034120427502785, 5342109.30107057467103 ], [ 463955.722331764467526, 5343156.03798654768616 ], [ 462046.650430026464164, 5343168.423754001967609 ], [ 462178.488759673957247, 5344215.195319882594049 ], [ 465996.375185432145372, 5344191.144758004695177 ], [ 465601.697712771070655, 5341050.811079784296453 ], [ 462737.70184942643391, 5341068.793488436378539 ], [ 462605.991209843952674, 5340022.227907340042293 ], [ 461651.261845863482449, 5340028.561849566176534 ] ] ], [ [ [ 455100.38909144687932, 5341123.774111539125443 ], [ 455364.905772710451856, 5343216.806992909871042 ], [ 457273.974501260672696, 5343202.184306454844773 ], [ 457141.834606846503448, 5342155.5897859018296 ], [ 456187.235593747638632, 5342162.841455860994756 ], [ 456055.052364755014423, 5341116.342518712393939 ], [ 455100.38909144687932, 5341123.774111539125443 ] ] ], [ [ [ 457538.317793112189975, 5345295.599634733051062 ], [ 457406.135564181255177, 5344248.854243868030608 ], [ 456451.665623818465974, 5344256.065463785082102 ], [ 456583.912419927481096, 5345302.790607714094222 ], [ 457538.317793112189975, 5345295.599634733051062 ] ] ], [ [ [ 449878.619695494882762, 5352694.134949873201549 ], [ 449745.706972153333481, 5351647.042381653562188 ], [ 450699.722391637333203, 5351638.692931590601802 ], [ 450434.09031037526438, 5349544.69433724693954 ], [ 451388.235375371528789, 5349536.464703787118196 ], [ 451255.515960511751473, 5348489.558617017231882 ], [ 454118.146752954693511, 5348465.769100214354694 ], [ 453985.642525386647321, 5347418.87810561992228 ], [ 452077.092467960901558, 5347434.61814436968416 ], [ 451811.889344631228596, 5345341.143148419447243 ], [ 453720.697795012849383, 5345325.322594434954226 ], [ 453455.838047417812049, 5343232.068809760734439 ], [ 452501.304574417241383, 5343239.93939368519932 ], [ 452633.788370999624021, 5344286.508480650372803 ], [ 451679.319711884658318, 5344294.518772369250655 ], [ 451546.771368340647314, 5343247.969762152992189 ], [ 450592.238434558501467, 5343256.159915842115879 ], [ 450459.646856086794287, 5342209.706265965476632 ], [ 449505.049673264787998, 5342218.076205518096685 ], [ 449637.705778442090377, 5343264.509855443611741 ], [ 446774.109529804729391, 5343290.518396814353764 ], [ 446641.259843527514022, 5342244.144560140557587 ], [ 445686.663824376941193, 5342253.153526110574603 ], [ 445553.771027683222201, 5341206.87477033957839 ], [ 447463.092378609348089, 5341188.976843021810055 ], [ 447330.349974028940778, 5340142.733532149344683 ], [ 448285.075578337302431, 5340134.004249043762684 ], [ 448152.419020191475283, 5339087.816205635666847 ], [ 445288.049694803543389, 5339114.542729002423584 ], [ 444889.628382330469321, 5335976.607796305790544 ], [ 443934.64593125670217, 5335985.895282106474042 ], [ 444200.367542604159098, 5338077.737327394075692 ], [ 443245.514230524131563, 5338087.144919109530747 ], [ 443511.450542134116404, 5340179.247619926929474 ], [ 441602.002691922010854, 5340198.462847848422825 ], [ 441468.894869807641953, 5339152.413410193286836 ], [ 440514.106962429825217, 5339162.280249467119575 ], [ 440780.473065317200962, 5341254.414831544272602 ], [ 441735.132017575029749, 5341244.587359804660082 ], [ 442001.455170142755378, 5343337.06175228394568 ], [ 442955.985411525005475, 5343327.433498940430582 ], [ 443089.114684896485414, 5344373.803218103013933 ], [ 444043.580698332982138, 5344364.354553511366248 ], [ 444309.774505153705832, 5346457.359369654208422 ], [ 443355.437650361622218, 5346466.768396881408989 ], [ 443621.846491721691564, 5348560.034806497395039 ], [ 444576.054105868854094, 5348550.665474941022694 ], [ 445108.87061294761952, 5352738.18272402510047 ], [ 444154.921726390719414, 5352747.472489096224308 ], [ 444288.244177870918065, 5353794.520636706613004 ], [ 446196.012802012090106, 5353776.141065084375441 ], [ 446329.227198403212242, 5354823.30469355545938 ], [ 450144.509133775893133, 5354788.546968755312264 ], [ 450011.553750181396026, 5353741.303133321925998 ], [ 450965.439725721313152, 5353732.993898488581181 ], [ 450832.570403298013844, 5352685.805600104853511 ], [ 449878.619695494882762, 5352694.134949873201549 ] ] ], [ [ [ 462310.348152550170198, 5345262.042412327602506 ], [ 462178.488759673957247, 5344215.195319882594049 ], [ 459315.076159796561114, 5344234.911240895278752 ], [ 459447.129254388448317, 5345281.697219005785882 ], [ 457538.317793112189975, 5345295.599634733051062 ], [ 457802.745739010337275, 5347389.316923341713846 ], [ 459711.298808235267643, 5347375.495769868604839 ], [ 459579.203471374581568, 5346328.558716443367302 ], [ 460533.54496090329485, 5346321.86762747168541 ], [ 460401.535331677354407, 5345274.98577508982271 ], [ 462310.348152550170198, 5345262.042412327602506 ] ] ], [ [ [ 458040.024775731493719, 5356821.756644148379564 ], [ 457642.649205444962718, 5353679.311956490390003 ], [ 455734.873757509398274, 5353693.849178273230791 ], [ 456132.637966463924386, 5356836.17178563773632 ], [ 458040.024775731493719, 5356821.756644148379564 ] ] ], [ [ [ 461935.196393630583771, 5372531.085695524699986 ], [ 462200.592730891949032, 5374628.7966667432338 ], [ 464105.772127276635729, 5374616.3640530211851 ], [ 463708.099989484413527, 5371469.787980110384524 ], [ 462755.314800478576217, 5371475.986142782494426 ], [ 462887.916250509268139, 5372524.747602854855359 ], [ 461935.196393630583771, 5372531.085695524699986 ] ] ] ] } }
]
}
