{
"type": "FeatureCollection",
"name": "urban-1980",
"crs": { "type": "name", "properties": { "name": "urn:ogc:def:crs:EPSG::32639" } },
"features": [
{ "type": "Feature", "properties": { "year": 1980 }, "geometry": { "type": "MultiPolygon", "coordinates": [ [ [ [ 551559.594440298387781, 3913644.962199152912945 ], [ 551248.895937124383636, 3912673.985769454389811 ], [ 550220.150051098549739, 3912668.183822134044021 ], [ 550530.889767374843359, 3913639.123066335450858 ], [ 551559.594440298387781, 3913644.962199152912945 ] ] ], [ [ [ 514254.364932587835938, 3922232.709747776389122 ], [ 514567.364759719988797, 3923202.779479941818863 ], [ 516623.91473969258368, 3923206.357436664402485 ], [ 516936.900702167942654, 3924176.552431385032833 ], [ 515908.667094980424736, 3924174.668038975447416 ], [ 516221.76363116549328, 3925144.879076817072928 ], [ 518278.148076969082467, 3925148.838803679682314 ], [ 517026.508293813210912, 3921268.017900025937706 ], [ 514969.792043673514854, 3921264.349668627604842 ], [ 515282.681297270581126, 3922234.403368935454637 ], [ 514254.364932587835938, 3922232.709747776389122 ] ] ], [ [ [ 559531.750585066736676, 3932117.114187065511942 ], [ 558907.979639784782194, 3930173.031573810148984 ], [ 556851.973058430710807, 3930159.725815983023494 ], [ 556540.107625237782486, 3929187.840678964741528 ], [ 555512.064016213058494, 3929181.402728356886655 ], [ 556135.94634058966767, 3931125.151403350289911 ], [ 555107.98630450037308, 3931118.756291391327977 ], [ 555420.071837102645077, 3932090.673571447841823 ], [ 557475.909736998728476, 3932103.657416773028672 ], [ 557163.907097081770189, 3931131.664717030245811 ], [ 558191.868587167118676, 3931138.296233196742833 ], [ 558503.829785922309384, 3932110.326685909181833 ], [ 559531.750585066736676, 3932117.114187065511942 ] ] ], [ [ [ 525836.797786439652555, 3935836.391895733773708 ], [ 525523.191230488475412, 3934865.380232985597104 ], [ 524495.413299062056467, 3934862.501674434170127 ], [ 524809.061463865451515, 3935833.476417123805732 ], [ 525836.797786439652555, 3935836.391895733773708 ] ] ], [ [ [ 547419.357107727788389, 3935924.951360091101378 ], [ 547106.623484294279478, 3934953.157757332082838 ], [ 546078.83593293861486, 3934947.79481992777437 ], [ 546391.611088376957923, 3935919.55090061808005 ], [ 547419.357107727788389, 3935924.951360091101378 ] ] ], [ [ [ 547017.367576111690141, 3937863.223987622652203 ], [ 546391.611088376957923, 3935919.55090061808005 ], [ 545363.865662168827839, 3935914.268778889905661 ], [ 545676.751092365360819, 3936886.040968059096485 ], [ 543621.345073017990217, 3936875.75677780341357 ], [ 543934.382368848309852, 3937847.507588901557028 ], [ 547017.367576111690141, 3937863.223987622652203 ] ] ], [ [ [ 496662.36272234574426, 3937739.945082982070744 ], [ 496347.409306379850022, 3936769.887989177368581 ], [ 495319.718582362693269, 3936770.367809290997684 ], [ 495634.713744756300002, 3937740.388754528947175 ], [ 496662.36272234574426, 3937739.945082982070744 ] ] ], [ [ [ 487488.934174349473324, 3947452.197893824893981 ], [ 487172.785168494738173, 3946482.051520381588489 ], [ 486145.51135488221189, 3946483.592229010071605 ], [ 486461.702275734802242, 3947453.702511443756521 ], [ 487488.934174349473324, 3947452.197893824893981 ] ] ], [ [ [ 489938.651782900327817, 3945507.938764309510589 ], [ 491519.115086843201425, 3950359.474979646969587 ], [ 492546.220662080333568, 3950358.553814566228539 ], [ 492862.479494221042842, 3951329.054722375702113 ], [ 490808.352133405511267, 3951330.943195045460016 ], [ 491441.245713835058268, 3953271.957326463423669 ], [ 492468.225508943025488, 3953271.026366457808763 ], [ 492151.786007385584526, 3952300.45668597240001 ], [ 494205.829262221290264, 3952298.878497614059597 ], [ 494838.60972368682269, 3954240.21607431769371 ], [ 496892.484821046935394, 3954239.258967495057732 ], [ 497208.895076852117199, 3955210.079780963249505 ], [ 498235.790582104062196, 3955209.816073356196284 ], [ 498552.228147447982337, 3956180.726243224926293 ], [ 497525.374632425839081, 3956180.953374980483204 ], [ 497841.92348381516058, 3957151.879784033633769 ], [ 498868.734996585350018, 3957151.689256730955094 ], [ 499185.311125558218919, 3958122.705148407723755 ], [ 497131.772105441137683, 3958123.131916678044945 ], [ 497765.300324347394053, 3960065.175825784448534 ], [ 494685.24375769397011, 3960066.488784567452967 ], [ 495002.237994291528594, 3961037.480208603665233 ], [ 496028.881499616953079, 3961036.96012355433777 ], [ 496662.99377243994968, 3962979.174921549391001 ], [ 495636.434435984527227, 3962979.621710942126811 ], [ 495319.301555039244704, 3962008.524505864828825 ], [ 493266.098512489406858, 3962009.848691326566041 ], [ 492948.950782833737321, 3961038.877575487364084 ], [ 491922.307050963921938, 3961039.754857485648245 ], [ 491288.135495171241928, 3959098.044049010612071 ], [ 486154.494212516117841, 3959104.580643741413951 ], [ 486471.755701942252927, 3960075.22764583863318 ], [ 485445.069066532887518, 3960076.855673178564757 ], [ 486397.396408646542113, 3962989.003344399854541 ], [ 489477.076820741815027, 3962984.80402519647032 ], [ 490112.055998541880399, 3964926.718033122364432 ], [ 492165.007070654886775, 3964924.660296642687172 ], [ 492482.516434852557722, 3965895.769725326448679 ], [ 491456.083100841555279, 3965896.702397924847901 ], [ 491773.703976254211739, 3966867.828123890329152 ], [ 490747.312698314664885, 3966868.843399344477803 ], [ 490429.649660149822012, 3965897.754279145970941 ], [ 489403.216099961951841, 3965898.925369118340313 ], [ 490038.695894545526244, 3967841.083335098810494 ], [ 486959.647454620979261, 3967845.092651349492371 ], [ 487277.61802188080037, 3968816.141256151720881 ], [ 486251.310440976114478, 3968817.679706764407456 ], [ 486569.39264020929113, 3969788.744625426828861 ], [ 487595.658001957053784, 3969787.242724190000445 ], [ 488231.946184827946126, 3971729.604388607665896 ], [ 489258.12692596350098, 3971728.295052697416395 ], [ 488621.923209308821242, 3969785.860146321821958 ], [ 491700.718032717471942, 3969782.428351392038167 ], [ 491382.846888545551337, 3968811.180400802753866 ], [ 494461.767366703250445, 3968808.712349885609001 ], [ 494779.511926411651075, 3969780.070461814291775 ], [ 495805.776410651975311, 3969779.52314379485324 ], [ 496441.389090218173806, 3971722.472340857610106 ], [ 497467.569120474741794, 3971722.118043648544699 ], [ 497149.770333318214398, 3970750.580000276211649 ], [ 498175.992535048862919, 3970750.308190475683659 ], [ 497858.305235287349205, 3969778.786475110799074 ], [ 498884.569601231487468, 3969778.597124359570444 ], [ 498566.993764731218107, 3968807.091731187421829 ], [ 500619.606805501622148, 3968806.997184864245355 ], [ 500302.184562958253082, 3967835.471216580830514 ], [ 501328.533239400770981, 3967835.565964090637863 ], [ 501011.222395842953119, 3966864.05630652140826 ], [ 503064.004076964571141, 3966864.529729081317782 ], [ 502746.84672710619634, 3965892.999456697143614 ], [ 503773.279733500967268, 3965893.378074855543673 ], [ 503456.23371840006439, 3964921.864101624581963 ], [ 502429.758609195647296, 3964921.522402979899198 ], [ 502112.739727232139558, 3963950.098533188458532 ], [ 503139.256927166483365, 3963950.403341030236334 ], [ 502822.349363800894935, 3962978.995758335571736 ], [ 501795.790085212094709, 3962978.727812596131116 ], [ 501478.909687125240453, 3962007.410206502769142 ], [ 502505.511032299138606, 3962007.641318826936185 ], [ 502188.741936654318124, 3961036.339987822808325 ], [ 504242.028831217088737, 3961037.085799346677959 ], [ 503925.413048496295232, 3960065.763904368504882 ], [ 504952.098599740944337, 3960066.278546649031341 ], [ 504319.15872248186497, 3958123.720374059863389 ], [ 502265.619611216767225, 3958122.957344378344715 ], [ 501949.169501196360216, 3957151.831382262054831 ], [ 502975.981034535332583, 3957152.116659936495125 ], [ 502659.642154574743472, 3956181.006943226326257 ], [ 503686.495707721798681, 3956181.374425025656819 ], [ 504002.792605294031091, 3957152.52088890504092 ], [ 505029.604226381576154, 3957153.044069214258343 ], [ 505345.92835306195775, 3958124.28035872336477 ], [ 506372.69805080932565, 3958124.959323351737112 ], [ 506056.415910710988101, 3957153.686200924683362 ], [ 507083.227671191445552, 3957154.447284111753106 ], [ 506767.056697179505136, 3956183.190407368820161 ], [ 509847.618453011033125, 3956186.076696766540408 ], [ 509531.642518563137855, 3955214.762308462522924 ], [ 511585.434835826454218, 3955217.207252250052989 ], [ 511901.326888278825209, 3956188.595506184268743 ], [ 512928.181324089411646, 3956190.033296258654445 ], [ 513244.100556259218138, 3957161.511770213954151 ], [ 516324.539072607120033, 3957166.649868547916412 ], [ 515377.366072470438667, 3954252.040848993230611 ], [ 516404.305064123007469, 3954253.880183860193938 ], [ 516719.918408472381998, 3955225.400278052780777 ], [ 517746.815702938358299, 3955227.395570377353579 ], [ 517431.244262514461298, 3954255.838386119809002 ], [ 518458.183680586167611, 3954257.915456001646817 ], [ 518142.723190617049113, 3953286.374499806668609 ], [ 521223.668533588643186, 3953293.207475837785751 ], [ 521539.003382305847481, 3954264.859873878769577 ], [ 520512.063227540871594, 3954262.426199616864324 ], [ 520827.508978974190541, 3955234.094825754407793 ], [ 519800.610975257295649, 3955231.742843973450363 ], [ 520116.167653385666199, 3956203.427704298403114 ], [ 517035.600823345594108, 3956196.973696429282427 ], [ 517351.352304692671169, 3957168.60047369915992 ], [ 520431.793361600779463, 3957175.166009467095137 ], [ 520747.488095835840795, 3958146.957794249989092 ], [ 523827.805689214670565, 3958154.705787545535713 ], [ 524143.443633302929811, 3959126.663044312503189 ], [ 526196.906314830412157, 3959132.498071882408112 ], [ 526512.5293598996941, 3960104.583802935667336 ], [ 528565.90949133830145, 3960110.969835521653295 ], [ 528881.517599369515665, 3961083.184305205009878 ], [ 531961.464708842453547, 3961093.768903524614871 ], [ 532277.01589727785904, 3962066.150010919198394 ], [ 533303.62377713189926, 3962069.954017370473593 ], [ 532988.114529408980161, 3961097.535246707499027 ], [ 536068.066523481276818, 3961109.548713645432144 ], [ 536698.902252852916718, 3963054.666635025758296 ], [ 538752.038098869845271, 3963063.422209255862981 ], [ 539067.47531354392413, 3964036.137989123351872 ], [ 541120.529215767164715, 3964045.445907725952566 ], [ 540805.175884760334156, 3963072.654313179664314 ], [ 543884.886425658129156, 3963087.395971743389964 ], [ 543254.637599749374203, 3961141.74775073537603 ], [ 546334.60450738191139, 3961157.333493408281356 ], [ 546019.708878646255471, 3960184.476797068491578 ], [ 547046.407537424121983, 3960189.872166496235877 ], [ 546416.906165719032288, 3958244.245572721585631 ], [ 550524.041642121272162, 3958266.713050104677677 ], [ 550209.561360875959508, 3957293.829030570574105 ], [ 551236.388608827022836, 3957299.705295852851123 ], [ 551550.82706579065416, 3958272.627409343142062 ], [ 552577.61313708126545, 3958278.66076590353623 ], [ 552263.216500948299654, 3957305.700529699213803 ], [ 554316.874269327498041, 3957318.047905900515616 ], [ 554002.629886928014457, 3956345.065764871425927 ], [ 555029.501587216393091, 3956351.379728406667709 ], [ 554715.367617343086749, 3955378.413827582728118 ], [ 556769.19666952919215, 3955391.322194072883576 ], [ 556141.301638869801536, 3953445.400906884111464 ], [ 555114.303240662557073, 3953438.963598285336047 ], [ 554800.416884720558301, 3952466.122653951402754 ], [ 553773.377436030306853, 3952459.842296625487506 ], [ 554087.305537510546856, 3953432.645146801602095 ], [ 547925.333189598168246, 3953397.230396922677755 ], [ 547297.044600069057196, 3951452.134726667776704 ], [ 546269.967872355133295, 3951446.724012219812721 ], [ 545641.87064114480745, 3949501.920276322867721 ], [ 547696.191643617814407, 3949512.709157523233443 ], [ 547382.329558674595319, 3948540.312683383002877 ], [ 548409.532672230387107, 3948545.847394830081612 ], [ 548095.780998275964521, 3947573.467110362835228 ], [ 547068.536183213000186, 3947567.970206027850509 ], [ 546754.811521418625489, 3946595.681690555997193 ], [ 547782.098025740822777, 3946601.140816400758922 ], [ 547468.483758811373264, 3945628.868478054646403 ], [ 546441.155577472643927, 3945623.447102090343833 ], [ 545814.049859831458889, 3943679.139566785655916 ], [ 546841.461358496919274, 3943684.48552876804024 ], [ 546528.053233464248478, 3942712.374848164618015 ], [ 547555.50696419540327, 3942717.801683518104255 ], [ 547242.209186036372557, 3941745.707154921256006 ], [ 546214.71383074275218, 3941740.317983848508447 ], [ 545901.443154499982484, 3940768.314901049248874 ], [ 546928.980122133856639, 3940773.666436395142227 ], [ 546615.819776653661393, 3939801.679493175353855 ], [ 544560.663222249830142, 3939791.170088200364262 ], [ 544873.906771529000252, 3940763.081845764536411 ], [ 542818.835707231191918, 3940752.971172934863716 ], [ 542505.508939916151576, 3939781.134486192837358 ], [ 541477.932618033257313, 3939776.294359819963574 ], [ 541164.633019920904189, 3938804.548763371538371 ], [ 543219.869406313751824, 3938814.272509306203574 ], [ 542593.642905869171955, 3936870.792229911778122 ], [ 543621.345073017990217, 3936875.75677780341357 ], [ 542995.476763797341846, 3934932.415859465952963 ], [ 541967.691491896752268, 3934927.526154557708651 ], [ 542280.632811008254066, 3935899.132434038911015 ], [ 541252.88962598098442, 3935894.323657225817442 ], [ 541565.94128289911896, 3936865.94604606134817 ], [ 538482.839547778014094, 3936852.117673142813146 ], [ 538169.663183036493137, 3935880.607333285734057 ], [ 539197.404825134435669, 3935885.061107391957194 ], [ 538884.338845541002229, 3934913.566877528093755 ], [ 539912.12254591670353, 3934918.101664141286165 ], [ 539599.166927638696507, 3933946.623537963721901 ], [ 540626.99268003529869, 3933951.239308715797961 ], [ 540314.147399247973226, 3932979.777279908768833 ], [ 539286.280117681366391, 3932975.19880211353302 ], [ 538973.462120150798, 3932003.827422067057341 ], [ 537945.55382137442939, 3931999.404428299050778 ], [ 537632.763131866580807, 3931028.1235769726336 ], [ 535576.864953035721555, 3931019.706574720796198 ], [ 535889.738670520833693, 3931990.913097221404314 ], [ 534861.831792082521133, 3931986.844758917577565 ], [ 535800.990677069872618, 3934900.672345712315291 ], [ 536828.772924266639166, 3934904.852218824904412 ], [ 537141.922028970904648, 3935876.271892351098359 ], [ 536114.18134979752358, 3935872.05478407908231 ], [ 536427.440871235448867, 3936843.490568013396114 ], [ 537455.139970238204114, 3936847.744939910247922 ], [ 538081.782346041174605, 3938790.851295369211584 ], [ 537054.166443840134889, 3938786.522310784552246 ], [ 537367.632486796472222, 3939758.118338780477643 ], [ 532229.767942105419934, 3939738.063363549299538 ], [ 531916.093761157826521, 3938766.653650926891714 ], [ 530888.480498529854231, 3938763.035168304108083 ], [ 531202.196318105212413, 3939734.407703834585845 ], [ 529147.054250256507657, 3939727.451716221868992 ], [ 528519.524967876495793, 3937784.908402995206416 ], [ 526464.217803957057185, 3937778.574438819661736 ], [ 526150.473312278976664, 3936807.456619536038488 ], [ 525122.778610644163564, 3936804.504192429594696 ], [ 524809.061463865451515, 3935833.476417123805732 ], [ 523781.32545850565657, 3935830.679266152437776 ], [ 523154.01490173995262, 3933888.856533446349204 ], [ 524181.834120273008011, 3933891.579929965548217 ], [ 523868.32393153232988, 3932920.711149345617741 ], [ 521812.602610220899805, 3932915.456266977358609 ], [ 521185.622929892677348, 3930974.024570708163083 ], [ 520157.679539136588573, 3930971.647961014416069 ], [ 519844.251676402636804, 3930001.048028420656919 ], [ 521900.221845835796557, 3930005.846018712501973 ], [ 521273.73941100371303, 3928064.657687820028514 ], [ 520245.671116187877487, 3928062.272971566300839 ], [ 519306.340646708151326, 3925150.9956852090545 ], [ 518278.148076969082467, 3925148.838803679682314 ], [ 518904.382357919006608, 3927089.564542713109404 ], [ 517876.273043074354064, 3927087.45260112080723 ], [ 518189.535294607514516, 3928057.857833300717175 ], [ 517161.467741394531913, 3928055.827410770114511 ], [ 516848.163958348799497, 3927085.45872859377414 ], [ 515820.055090507259592, 3927083.582924899179488 ], [ 515506.778862400853541, 3926113.303318061400205 ], [ 514478.628670955775306, 3926111.582047509029508 ], [ 513852.200483085529413, 3924171.253203270956874 ], [ 512823.967451845528558, 3924169.722759575583041 ], [ 512197.732742472086102, 3922229.676282583270222 ], [ 511169.416890465421602, 3922228.336438192054629 ], [ 511482.541167196293827, 3923198.297201921232045 ], [ 509425.992868914210703, 3923195.898785898927599 ], [ 509739.269297771388665, 3924165.839322990737855 ], [ 507682.804512099188287, 3924163.840275867842138 ], [ 507369.445057440549135, 3923193.972183987032622 ], [ 506341.171301065129228, 3923193.185813031159341 ], [ 506654.572274578618817, 3924163.017725112382323 ], [ 504598.108043839281891, 3924161.72656872915104 ], [ 504284.624020658957306, 3923191.966930654831231 ], [ 503256.350470074277837, 3923191.534419092815369 ], [ 503883.470811944047455, 3925131.033647425472736 ], [ 501827.089994930953253, 3925130.378221024293453 ], [ 501513.412109492579475, 3924160.674695942550898 ], [ 502541.644050393835641, 3924160.907338702119887 ], [ 502228.076961533515714, 3923191.219860540237278 ], [ 500171.530017478158697, 3923190.944602334406227 ], [ 499857.949120360834058, 3922221.381191982887685 ], [ 495744.688988062262069, 3922222.389747709967196 ], [ 496058.436049733427353, 3923191.809521351475269 ], [ 494001.888813619792927, 3923192.94969898276031 ], [ 494315.788327003188897, 3924162.349677762016654 ], [ 492259.323928111931309, 3924163.890078167431056 ], [ 492573.375953328213654, 3925133.270296897739172 ], [ 491545.185202275402844, 3925134.181689315475523 ], [ 491859.348191919445526, 3926103.577963032294065 ], [ 490831.198939440539107, 3926104.571585603989661 ], [ 491145.472917553968728, 3927073.983920120634139 ], [ 490117.365170547040179, 3927075.059801655355841 ], [ 491060.728293796943035, 3929983.500680421944708 ], [ 492088.711098717700224, 3929982.532308660913259 ], [ 492403.262561848794576, 3930952.15234614815563 ], [ 494459.144550079363398, 3930950.641933045350015 ], [ 494144.67641691933386, 3929980.950023772660643 ], [ 495172.658956608502194, 3929980.3361104587093 ], [ 494858.301812031248119, 3929010.660284058190882 ], [ 492802.253359490307048, 3929012.078135565854609 ], [ 492487.882274386007339, 3928042.526152285281569 ], [ 495572.079752529622056, 3928040.468795221298933 ], [ 495257.902898085652851, 3927070.861067761201411 ], [ 498342.224696190271061, 3927069.758633580524474 ], [ 498028.241968050890137, 3926100.09504128061235 ], [ 500084.539548935659695, 3926099.878375782631338 ], [ 499770.709272138716187, 3925130.194834535941482 ], [ 500798.899628384504467, 3925130.227522802073509 ], [ 501112.688334387668874, 3926099.947100727353245 ], [ 503168.98596154153347, 3926100.438666042406112 ], [ 503482.760776017094031, 3927070.282583129126579 ], [ 502454.65352332405746, 3927069.941659241914749 ], [ 503082.494035699346568, 3929009.7138413162902 ], [ 504110.518103208509274, 3929010.127094055060297 ], [ 504424.500608090253081, 3929980.127755935303867 ], [ 502368.535737738071475, 3929979.346989249810576 ], [ 501740.473528005531989, 3928039.542661666404456 ], [ 499684.342321020492818, 3928039.378990874160081 ], [ 500312.570989074476529, 3929979.038832725491375 ], [ 501340.553354797651991, 3929979.13383473129943 ], [ 501654.729961419012398, 3930949.078192879911512 ], [ 499598.848507030808832, 3930948.934070587158203 ], [ 499913.177664831397124, 3931918.858366715721786 ], [ 502996.874932297039777, 3931919.360355623997748 ], [ 503311.148389090667479, 3932889.44551350409165 ], [ 497144.003830882080365, 3932889.288440220989287 ], [ 497773.258632510318421, 3934829.181402947288007 ], [ 495717.710421652416699, 3934829.930581651628017 ], [ 496032.525204848498106, 3935799.883166765794158 ], [ 499115.722328535863198, 3935799.045287851244211 ], [ 499430.481250940181781, 3936769.158641854766756 ], [ 500458.171867066062987, 3936769.152230324223638 ], [ 500772.958337782416493, 3937739.354203493800014 ], [ 499745.3094519211445, 3937739.32435241015628 ], [ 500060.20692756108474, 3938709.542453671805561 ], [ 499032.599784700956661, 3938709.594720720313489 ], [ 498717.66056280763587, 3937739.412881953641772 ], [ 496662.36272234574426, 3937739.945082982070744 ], [ 496977.385448845627252, 3938710.05448229983449 ], [ 498004.992629499640316, 3938709.765396922361106 ], [ 498320.042896342871245, 3939679.96336976904422 ], [ 499347.608289298252203, 3939679.828955956734717 ], [ 499662.686072680400684, 3940650.115621848031878 ], [ 496580.115151208126917, 3940650.765389495994896 ], [ 496264.912033082859125, 3939680.587510490790009 ], [ 494209.780979364528321, 3939681.68540227226913 ], [ 494840.423703754553571, 3941621.948718920815736 ], [ 493812.941673611232545, 3941622.602996648289263 ], [ 493497.543837663950399, 3940652.481353652663529 ], [ 492470.019918274425436, 3940653.29027454322204 ], [ 492785.459564716147725, 3941623.375769343692809 ], [ 491757.977363988640718, 3941624.267037098295987 ], [ 493020.596835251839366, 3945504.987595363520086 ], [ 491993.281923751463182, 3945505.852709064260125 ], [ 491677.481153195665684, 3944535.630247429013252 ], [ 490650.12426954699913, 3944536.650146862026304 ], [ 490965.966910647053737, 3945506.836432007141411 ], [ 489938.651782900327817, 3945507.938764309510589 ] ], [ [ 502582.138960976852104, 3959094.136305105872452 ], [ 501555.411468888807576, 3959093.896512676030397 ], [ 501238.850104732846376, 3958122.754299272783101 ], [ 502265.619611216767225, 3958122.957344378344715 ], [ 502582.138960976852104, 3959094.136305105872452 ] ], [ [ 503370.268033747735899, 3955210.28094783378765 ], [ 504397.16359967563767, 3955210.730605308432132 ], [ 504713.349307256459724, 3956181.860829608049244 ], [ 503686.495707721798681, 3956181.374425025656819 ], [ 503370.268033747735899, 3955210.28094783378765 ] ], [ [ 504081.047107626509387, 3954239.653361744247377 ], [ 505107.984679330664221, 3954240.18516644090414 ], [ 505424.05922097817529, 3955211.299157064408064 ], [ 504397.16359967563767, 3955210.730605308432132 ], [ 504081.047107626509387, 3954239.653361744247377 ] ], [ [ 504160.176315095857717, 3951327.160905094351619 ], [ 505187.239718278520741, 3951327.701420265715569 ], [ 504871.483928652247414, 3950356.762460308149457 ], [ 507952.800254484638572, 3950358.986532031558454 ], [ 507637.23931130184792, 3949387.990367820952088 ], [ 508664.386807529372163, 3949388.932481737341732 ], [ 509295.494115995417815, 3951331.051283658947796 ], [ 508268.430372870992869, 3951330.035647221840918 ], [ 508584.129662471241318, 3952301.137747907545418 ], [ 507557.107922336901538, 3952300.204116386827081 ], [ 508504.746546447044238, 3955213.718178768642247 ], [ 506450.954910586006008, 3955211.986603171564639 ], [ 506134.922315409989096, 3954240.835836926940829 ], [ 505107.984679330664221, 3954240.18516644090414 ], [ 504160.176315095857717, 3951327.160905094351619 ] ], [ [ 508348.936902013665531, 3948417.952515584882349 ], [ 507321.747547313047107, 3948417.047120097558945 ], [ 507006.324966502259485, 3947446.156754386145622 ], [ 509060.787470552430023, 3947448.012831884436309 ], [ 508745.517741757328622, 3946477.101962448563427 ], [ 509772.790986040898133, 3946478.171282277442515 ], [ 510088.018888278049417, 3947449.118870206642896 ], [ 512142.482120211177971, 3947451.68694664305076 ], [ 511827.337859401130117, 3946480.665836009662598 ], [ 512854.61151452868944, 3946482.091070207301527 ], [ 512539.57818745682016, 3945511.086139621213078 ], [ 513566.893804541381542, 3945512.593207982368767 ], [ 514512.075705219001975, 3948425.877485462930053 ], [ 513484.885521207295824, 3948424.25991867762059 ], [ 513800.126192794530652, 3949395.423905573785305 ], [ 514827.274541635299101, 3949397.078362255357206 ], [ 515142.542472782894038, 3950368.332355435937643 ], [ 514115.435971194761805, 3950366.640980290714651 ], [ 514430.814852387295105, 3951337.911177393980324 ], [ 513403.750392427726183, 3951336.301636593881994 ], [ 512457.69550792715745, 3948422.761047501582652 ], [ 509376.12636242096778, 3948418.976605942472816 ], [ 509691.534413373097777, 3949389.993319091387093 ], [ 508664.386807529372163, 3949388.932481737341732 ], [ 508348.936902013665531, 3948417.952515584882349 ] ], [ [ 536515.692660226253793, 3933933.485884797759354 ], [ 537543.516930894460529, 3933937.746826525311917 ], [ 537856.555642706924118, 3934909.15039592795074 ], [ 536828.772924266639166, 3934904.852218824904412 ], [ 536515.692660226253793, 3933933.485884797759354 ] ], [ [ 518816.266980609274469, 3929998.826266042422503 ], [ 518502.86660844925791, 3929028.3157102111727 ], [ 519530.892855956917629, 3929030.500837315805256 ], [ 519844.251676402636804, 3930001.048028420656919 ], [ 518816.266980609274469, 3929998.826266042422503 ] ], [ [ 519129.736407093296293, 3930969.389535003807396 ], [ 517073.850866371358279, 3930965.227232981473207 ], [ 516760.29830084880814, 3929994.737205516081303 ], [ 518816.266980609274469, 3929998.826266042422503 ], [ 519129.736407093296293, 3930969.389535003807396 ] ], [ [ 498486.412335113447625, 3933858.975513006094843 ], [ 499514.228070274344645, 3933858.860483936034143 ], [ 500143.454662963573355, 3935799.002642098348588 ], [ 499115.722328535863198, 3935799.045287851244211 ], [ 498486.412335113447625, 3933858.975513006094843 ] ], [ [ 500690.209687125869095, 3940650.135965037625283 ], [ 501005.314963194483425, 3941620.511443560477346 ], [ 499977.833130920946132, 3941620.454752604011446 ], [ 499662.686072680400684, 3940650.115621848031878 ], [ 500690.209687125869095, 3940650.135965037625283 ] ], [ [ 494047.911658183089457, 3945504.241090804804116 ], [ 493732.194616463559214, 3944533.946190708316863 ], [ 495786.907761334150564, 3944532.736456207931042 ], [ 496102.541090486105531, 3945503.103908778168261 ], [ 497129.855725931643974, 3945502.713231175672263 ], [ 497445.516508015745785, 3946473.169525051489472 ], [ 496418.243734757590573, 3946473.523855172563344 ], [ 496734.015690225234721, 3947443.996329681947827 ], [ 495706.784749754471704, 3947444.432949780486524 ], [ 496338.62037093588151, 3949385.462839977815747 ], [ 493257.178596705314703, 3949387.266697409097105 ], [ 492625.091549892153125, 3947446.454806356225163 ], [ 493652.322692603629548, 3947445.662188045680523 ], [ 493020.596835251839366, 3945504.987595363520086 ], [ 494047.911658183089457, 3945504.241090804804116 ] ], [ [ 491530.196415571204852, 3962982.600095480680466 ], [ 492556.756047559145372, 3962981.676815140526742 ], [ 492874.084576311055571, 3963952.717061297502369 ], [ 491847.56706291338196, 3963953.603764897678047 ], [ 491530.196415571204852, 3962982.600095480680466 ] ], [ [ 486789.086615458130836, 3961045.927257572300732 ], [ 487815.730982275330462, 3961044.454645084682852 ], [ 488133.089205100084655, 3962015.243306335993111 ], [ 487106.486949155165348, 3962016.679513407871127 ], [ 486789.086615458130836, 3961045.927257572300732 ] ], [ [ 517908.720765632926486, 3949402.754079497884959 ], [ 515854.423078059102409, 3949398.851543329656124 ], [ 515224.178154543333221, 3947456.429063148330897 ], [ 516251.410534430877306, 3947458.247103203088045 ], [ 516566.456637454044539, 3948429.468706631101668 ], [ 517593.647411688347347, 3948431.442361434921622 ], [ 517908.720765632926486, 3949402.754079497884959 ] ], [ [ 519018.257324203092139, 3946493.133889421354979 ], [ 519333.108961642778013, 3947464.413230007980019 ], [ 518305.875924966181628, 3947462.239186398684978 ], [ 517046.716574741527438, 3943577.588350740261376 ], [ 518074.116706237313338, 3943579.614662399981171 ], [ 518703.474733133160044, 3945521.907704314682633 ], [ 519730.791578739939723, 3945524.12643601372838 ], [ 520045.532393874949776, 3946495.389596974011511 ], [ 519018.257324203092139, 3946493.133889421354979 ] ], [ [ 516019.316659894480836, 3943575.680592761840671 ], [ 516334.044661108055152, 3944546.726818710565567 ], [ 515306.686713104252703, 3944544.900781182106584 ], [ 514991.916948641184717, 3943573.8913882416673 ], [ 513964.51742792443838, 3943572.220736966468394 ], [ 513335.101689016912133, 3941630.434339220635593 ], [ 515390.067909315461293, 3941633.747091154567897 ], [ 515075.547167973010801, 3940662.859746620059013 ], [ 516103.072288630122785, 3940664.657090778462589 ], [ 515788.662353074294515, 3939693.785890222527087 ], [ 514761.095521267154254, 3939692.025293716229498 ], [ 514132.399527772213332, 3937750.514925295952708 ], [ 513104.749490244605113, 3937748.946120671462268 ], [ 512790.463472555682529, 3936778.306770194787532 ], [ 515873.53916459355969, 3936783.258343156427145 ], [ 515559.447258490021341, 3935812.561816833447665 ], [ 516587.181199192360509, 3935814.412357361987233 ], [ 516273.200026822683867, 3934843.731945181265473 ], [ 517300.975818954175338, 3934845.664119889959693 ], [ 517614.915351984789595, 3935816.381223289296031 ], [ 518642.649730006873142, 3935818.46841484727338 ], [ 518014.922993333195336, 3933877.013596140313894 ], [ 519042.740860984427854, 3933879.145645180251449 ], [ 519356.528080516960472, 3934849.883360669016838 ], [ 520384.30457625107374, 3934852.170427234377712 ], [ 520698.119214308389928, 3935822.997775847092271 ], [ 519670.384346401551738, 3935820.673932279925793 ], [ 519984.309654626646079, 3936791.51739435037598 ], [ 518956.616681943822186, 3936789.275100089609623 ], [ 519270.652684266038705, 3937760.134681716095656 ], [ 522353.607425561465789, 3937767.327130582183599 ], [ 522039.696379122731742, 3936796.357047352939844 ], [ 523067.390157196205109, 3936798.954406664706767 ], [ 523381.259559278725646, 3937769.961380978114903 ], [ 524408.911991503788158, 3937772.714015597943217 ], [ 524722.808738996391185, 3938743.810982628259808 ], [ 523695.197959431330673, 3938741.021399850025773 ], [ 524637.427107892814092, 3941654.520068322308362 ], [ 525664.912856893264689, 3941657.420666430611163 ], [ 526607.63770277518779, 3944571.50924898032099 ], [ 525580.277093322598375, 3944568.497379017993808 ], [ 525894.698366635362618, 3945539.929675386287272 ], [ 521785.426034131436609, 3945528.919733844231814 ], [ 522100.083308784582186, 3946500.25693235360086 ], [ 521072.807717726915143, 3946497.763944525737315 ], [ 519814.42571917118039, 3942612.882212709635496 ], [ 520841.868311012571212, 3942615.227239384781569 ], [ 520527.487117061798926, 3941644.102659818250686 ], [ 516417.551306766225025, 3941635.581211434211582 ], [ 517046.716574741527438, 3943577.588350740261376 ], [ 516019.316659894480836, 3943575.680592761840671 ] ], [ [ 514048.022239351354074, 3940661.180870150215924 ], [ 513020.497489677043632, 3940659.620461171958596 ], [ 512391.496451193233952, 3938718.15117481071502 ], [ 511363.888433870335575, 3938716.782528509851545 ], [ 511049.449904000794049, 3937746.163656522985548 ], [ 513104.749490244605113, 3937748.946120671462268 ], [ 514048.022239351354074, 3940661.180870150215924 ] ], [ [ 500923.689915499009658, 3944531.787276503164321 ], [ 501951.046329335542396, 3944531.953181478194892 ], [ 502266.428617556171957, 3945502.538975864183158 ], [ 501239.11403385567246, 3945502.336609270423651 ], [ 500923.689915499009658, 3944531.787276503164321 ] ], [ [ 502663.131541002134327, 3943561.668041124939919 ], [ 503690.529827611113433, 3943562.03461655927822 ], [ 504005.759244388143998, 3944532.640732417348772 ], [ 502978.402767949737608, 3944532.237666773144156 ], [ 502663.131541002134327, 3943561.668041124939919 ] ], [ [ 507800.123573666147422, 3943564.686437495518476 ], [ 508827.522225371387322, 3943565.6457729190588 ], [ 509142.542650600837078, 3944536.434768058825284 ], [ 508115.185789332608692, 3944535.438799668103456 ], [ 507800.123573666147422, 3943564.686437495518476 ] ], [ [ 511197.25673450663453, 3944538.782447502482682 ], [ 510169.899627976701595, 3944537.549317293800414 ], [ 509540.011505494301673, 3942595.95082788541913 ], [ 510567.452165217604488, 3942597.110606383997947 ], [ 511197.25673450663453, 3944538.782447502482682 ] ], [ [ 510252.653598900244106, 3941626.353930071927607 ], [ 511280.136147665441968, 3941627.595570847392082 ], [ 511594.892959346761927, 3942598.388908859342337 ], [ 510567.452165217604488, 3942597.110606383997947 ], [ 510252.653598900244106, 3941626.353930071927607 ] ], [ [ 497210.729315832257271, 3942591.278320432640612 ], [ 501320.489498211303726, 3942590.939449628815055 ], [ 501635.73328823922202, 3943561.420017504133284 ], [ 497526.140354503004346, 3943561.613440779969096 ], [ 497210.729315832257271, 3942591.278320432640612 ] ], [ [ 504402.809765607467853, 3942591.929790757596493 ], [ 505430.249949314747937, 3942592.496951138600707 ], [ 505745.326554600382224, 3943563.123423053417355 ], [ 504717.928161124873441, 3943562.519743849523365 ], [ 504402.809765607467853, 3942591.929790757596493 ] ], [ [ 532543.511016101459973, 3940709.526417535729706 ], [ 533571.041403873125091, 3940713.337756002787501 ], [ 533884.811707601882517, 3941684.891448685433716 ], [ 532857.322979055461474, 3941681.042847462929785 ], [ 532543.511016101459973, 3940709.526417535729706 ] ], [ [ 525036.774468424147926, 3939714.961057124659419 ], [ 526064.343902395106852, 3939717.906058325432241 ], [ 526378.336936617735773, 3940689.146308492869139 ], [ 525350.80917574185878, 3940686.164273559581488 ], [ 525036.774468424147926, 3939714.961057124659419 ] ], [ [ 503457.869908949302044, 3939680.475677480455488 ], [ 502430.304470663773827, 3939680.136340558994561 ], [ 502115.421228695544414, 3938709.793147027492523 ], [ 503143.028413189458661, 3938710.096107461955398 ], [ 503457.869908949302044, 3939680.475677480455488 ] ], [ [ 502828.256152230780572, 3937739.769047573208809 ], [ 505911.203177521470934, 3937741.279168942011893 ], [ 504967.677163418673445, 3934830.285573082510382 ], [ 505995.4513883178588, 3934830.91649226937443 ], [ 507568.132233891752549, 3939683.017403258010745 ], [ 506540.566540687752422, 3939682.204314964823425 ], [ 506225.850259695725981, 3938711.715444252360612 ], [ 503143.028413189458661, 3938710.096107461955398 ], [ 502828.256152230780572, 3937739.769047573208809 ] ], [ [ 503226.651729815697763, 3935799.58464642893523 ], [ 504254.384150426601991, 3935800.015295143704861 ], [ 504568.934521416376811, 3936770.310105500742793 ], [ 503541.243803090997972, 3936769.843108457978815 ], [ 503226.651729815697763, 3935799.58464642893523 ] ], [ [ 500856.580767973966431, 3934828.944848152808845 ], [ 501884.354817515355535, 3934829.102586705237627 ], [ 502198.919350461801514, 3935799.272321371827275 ], [ 501171.186999224999454, 3935799.078319936525077 ], [ 500856.580767973966431, 3934828.944848152808845 ] ], [ [ 512476.246577516605612, 3935807.720145538449287 ], [ 511448.513353767048102, 3935806.342904571443796 ], [ 511134.323926625016611, 3934835.845519787166268 ], [ 512162.098809107730631, 3934837.186212420463562 ], [ 512476.246577516605612, 3935807.720145538449287 ] ], [ [ 511848.020171305630356, 3933866.704936585389078 ], [ 512875.836852228268981, 3933868.12737676082179 ], [ 513189.873847217473667, 3934838.645201097242534 ], [ 512162.098809107730631, 3934837.186212420463562 ], [ 511848.020171305630356, 3933866.704936585389078 ] ], [ [ 508051.000081425649114, 3934832.533216651063412 ], [ 507023.225689936778508, 3934831.665706760715693 ], [ 506080.572545676142909, 3931920.926230877637863 ], [ 508136.371322540508118, 3931922.561196454800665 ], [ 508764.570986223872751, 3933863.147220335435122 ], [ 507736.754833219514694, 3933862.197849210817367 ], [ 508051.000081425649114, 3934832.533216651063412 ] ], [ [ 514617.58609936729772, 3932900.788761382456869 ], [ 515645.444933555962052, 3932902.529399216640741 ], [ 515959.28793694608612, 3933873.104303893167526 ], [ 514931.470721886493266, 3933871.327060226351023 ], [ 514617.58609936729772, 3932900.788761382456869 ] ], [ [ 508536.431136373663321, 3929983.107121475506574 ], [ 509564.414009544649161, 3929984.147345053963363 ], [ 509878.257683938019909, 3930954.381927404087037 ], [ 508850.316413409833331, 3930953.305325911846012 ], [ 508536.431136373663321, 3929983.107121475506574 ] ], [ [ 506166.566409948980436, 3929011.307971896138042 ], [ 507194.590675607149024, 3929012.075597133953124 ], [ 507508.448372846120037, 3929982.185050877276808 ], [ 506480.465705759183038, 3929981.381133147515357 ], [ 506166.566409948980436, 3929011.307971896138042 ] ] ], [ [ [ 489464.903601750265807, 3950361.673565778881311 ], [ 489148.588309480808675, 3949391.333966659847647 ], [ 490175.736054726119619, 3949390.139064101967961 ], [ 489859.532088303705677, 3948419.815663021057844 ], [ 488832.342412413971033, 3948421.046770528424531 ], [ 488516.165914441924542, 3947450.811943117063493 ], [ 487488.934174349473324, 3947452.197893824893981 ], [ 487805.152595130028203, 3948422.396573267877102 ], [ 486777.962623447994702, 3948423.865071398206055 ], [ 486461.702275734802242, 3947453.702511443756521 ], [ 485434.470205582561903, 3947455.3257961506024 ], [ 485118.237365592329297, 3946485.251576252747327 ], [ 484090.963187597400974, 3946487.029562304727733 ], [ 483774.757878900447395, 3945517.043562864884734 ], [ 480692.808323286764789, 3945523.197202080395073 ], [ 481009.139391128206626, 3946493.07535546598956 ], [ 479981.864328056864906, 3946495.327898976858705 ], [ 480298.306826205167454, 3947465.222233140841126 ], [ 478243.839818150212523, 3947470.011485277675092 ], [ 478877.101162307080813, 3949409.81282674940303 ], [ 479904.2508651453536, 3949407.430678409524262 ], [ 480537.706287076405715, 3951347.512418070342392 ], [ 485673.031472440517973, 3951337.743039174936712 ], [ 485989.653450571000576, 3952308.042670010589063 ], [ 490097.742356302391272, 3952302.510110145900398 ], [ 489781.288285323767923, 3951332.065602171700448 ], [ 488754.224308159260545, 3951333.306789994239807 ], [ 488437.797665925463662, 3950362.950987087097019 ], [ 489464.903601750265807, 3950361.673565778881311 ] ], [ [ 486383.58534279873129, 3950365.862086938228458 ], [ 487410.691583935753442, 3950364.347160752397031 ], [ 487727.160188939946238, 3951334.666758661158383 ], [ 486700.095914691803046, 3951336.145508330315351 ], [ 486383.58534279873129, 3950365.862086938228458 ] ] ], [ [ [ 480854.538242268725298, 3952317.631593161262572 ], [ 481171.439688466896769, 3953287.803017388097942 ], [ 479117.476048194861505, 3953292.398221590090543 ], [ 479751.655557490885258, 3955232.753703049384058 ], [ 480778.553418986848556, 3955230.468778372276574 ], [ 480461.470958662626799, 3954260.228844451252371 ], [ 484569.228263241122477, 3954252.133572986349463 ], [ 483935.607988513365854, 3952311.521808292716742 ], [ 480854.538242268725298, 3952317.631593161262572 ] ] ], [ [ [ 490730.858644852298312, 3954243.556678195018321 ], [ 490414.265810780809261, 3953273.007124034222215 ], [ 489387.285786825872492, 3953274.175759288948029 ], [ 489703.920615455892403, 3954244.688994345255196 ], [ 488676.982456300000194, 3954245.940176812466234 ], [ 488993.728683207416907, 3955216.469638777431101 ], [ 487966.832396072102711, 3955217.803397026378661 ], [ 488600.617098503513262, 3957158.94734397996217 ], [ 489627.429320277879015, 3957157.686252814717591 ], [ 489944.383722618338652, 3958128.373473709449172 ], [ 494051.463272741937544, 3958124.664417960681021 ], [ 493734.67703227273887, 3957153.831406334880739 ], [ 492707.865254717995413, 3957154.616690466180444 ], [ 491757.796557430992834, 3954242.543228228576481 ], [ 490730.858644852298312, 3954243.556678195018321 ] ] ], [ [ [ 494128.208298475772608, 3955211.584269216284156 ], [ 494444.813848835416138, 3956182.348306834232062 ], [ 493417.960131727100816, 3956183.051129828672856 ], [ 493734.67703227273887, 3957153.831406334880739 ], [ 495788.300363957008813, 3957152.617692473810166 ], [ 495471.667496039997786, 3956181.764406738337129 ], [ 496498.521086263179313, 3956181.299429471604526 ], [ 496181.999536451417953, 3955210.462382775731385 ], [ 494128.208298475772608, 3955211.584269216284156 ] ] ], [ [ [ 486497.916960496571846, 3972703.768224793951958 ], [ 485861.320966683211736, 3970761.447088429238647 ], [ 483808.873839064792264, 3970764.97449567168951 ], [ 484127.221630285901483, 3971736.035537774208933 ], [ 482074.858220477413852, 3971739.96739834966138 ], [ 482711.931264859857038, 3973682.101987061090767 ], [ 483738.028511341020931, 3973680.149381091818213 ], [ 484056.626933647377882, 3974651.332504912279546 ], [ 485082.681682735390496, 3974649.535916401073337 ], [ 484764.125556046259589, 3973678.316213451325893 ], [ 485790.222411705355626, 3973676.602483924478292 ], [ 485471.778005745145492, 3972705.399123759940267 ], [ 486497.916960496571846, 3972703.768224793951958 ] ] ], [ [ [ 486427.319507321401034, 3975619.16809021262452 ], [ 486108.736246876243968, 3974647.858794499654323 ], [ 485082.681682735390496, 3974649.535916401073337 ], [ 485401.307246724900324, 3975620.808575709350407 ], [ 486427.319507321401034, 3975619.16809021262452 ] ] ], [ [ [ 484375.294805273879319, 3975622.568556312005967 ], [ 484694.032122290460393, 3976593.857570028863847 ], [ 485720.002244078728836, 3976592.134226122871041 ], [ 485401.307246724900324, 3975620.808575709350407 ], [ 484375.294805273879319, 3975622.568556312005967 ] ] ], [ [ [ 561213.925525814993307, 3892392.065217570401728 ], [ 561522.526026679668576, 3893362.522200318519026 ], [ 559463.369311732123606, 3893348.764170053880662 ], [ 559772.120213015121408, 3894319.199929746799171 ], [ 562860.733754641609266, 3894340.123862306121737 ], [ 562552.105595952831209, 3893369.57685676869005 ], [ 563581.685991216916591, 3893376.748608538415283 ], [ 563273.167284043040127, 3892406.217431814875454 ], [ 561213.925525814993307, 3892392.065217570401728 ] ] ], [ [ [ 564198.929034301429056, 3895317.969900656491518 ], [ 564507.653361948439851, 3896288.660084099974483 ], [ 563478.195724750054069, 3896281.376829910092056 ], [ 563787.029527907609008, 3897252.082860043738037 ], [ 566875.282182456809096, 3897274.395927764941007 ], [ 566566.571199823869392, 3896303.578140498138964 ], [ 567596.031427622889169, 3896311.212944469880313 ], [ 567287.429873724235222, 3895340.411001930013299 ], [ 564198.929034301429056, 3895317.969900656491518 ] ] ], [ [ [ 560080.939702936797403, 3895289.688579431734979 ], [ 561007.809663380729035, 3898201.472208410967141 ], [ 562037.182911804295145, 3898208.478223517537117 ], [ 561728.198646837612614, 3897237.793534324970096 ], [ 562757.613674210035242, 3897244.879592480603606 ], [ 562139.932729875901714, 3895303.594936153385788 ], [ 560080.939702936797403, 3895289.688579431734979 ] ] ], [ [ [ 559978.437217670027167, 3898194.58342978078872 ], [ 560287.572002764092758, 3899165.246814633253962 ], [ 561316.903466682648286, 3899172.172758159227669 ], [ 561007.809663380729035, 3898201.472208410967141 ], [ 559978.437217670027167, 3898194.58342978078872 ] ] ], [ [ [ 565743.235949956811965, 3900171.951862012501806 ], [ 565125.307608758797869, 3898230.199696037918329 ], [ 564095.931870952947065, 3898222.841966483276337 ], [ 565023.050097982399166, 3901135.438084629829973 ], [ 566052.302895572269335, 3901142.907738088164479 ], [ 566361.438352322322316, 3902113.916855103336275 ], [ 565332.226559125352651, 3902106.409837402869016 ], [ 565950.785034674452618, 3904048.513118081726134 ], [ 566979.914782571373507, 3904056.094948743004352 ], [ 566670.64231604419183, 3903084.979247250128537 ], [ 567699.813966715242714, 3903092.641040979418904 ], [ 566772.530603530816734, 3900179.501476741395891 ], [ 565743.235949956811965, 3900171.951862012501806 ] ] ], [ [ [ 567908.143157255603001, 3906969.762251756619662 ], [ 566879.136568670393899, 3906962.067990281619132 ], [ 566260.167040752712637, 3905019.644714411348104 ], [ 565231.079201170941815, 3905012.142875259276479 ], [ 564921.656150753726251, 3904041.048698915168643 ], [ 563892.528117329347879, 3904033.70169036462903 ], [ 564511.524844705942087, 3905975.868553861044347 ], [ 563482.479762897826731, 3905968.564201907720417 ], [ 563792.121994479093701, 3906939.690188954118639 ], [ 560705.114925242611207, 3906918.369843934196979 ], [ 561014.948975547915325, 3907889.436995855532587 ], [ 564101.832760907360353, 3907910.869509580545127 ], [ 564411.612058018217795, 3908882.102198072243482 ], [ 563382.691080181743018, 3908874.80305755045265 ], [ 564002.537493032752536, 3910817.353697597049177 ], [ 562973.69959266029764, 3910810.097188614308834 ], [ 563283.766740055754781, 3911781.415152863133699 ], [ 562254.970807261299342, 3911774.238778580445796 ], [ 562875.393043145653792, 3913716.960055256728083 ], [ 565961.536357696750201, 3913739.067359810229391 ], [ 566271.726751179085113, 3914710.620976604055613 ], [ 568329.077551528345793, 3914726.022978875786066 ], [ 568018.969500942039303, 3913754.394043651409447 ], [ 569047.687392750987783, 3913762.233932502567768 ], [ 568427.759035332244821, 3911819.061599479988217 ], [ 569456.560114415944554, 3911826.94381005782634 ], [ 569146.739775941125117, 3910855.400399446021765 ], [ 566060.215809769579209, 3910832.219544300343841 ], [ 565750.340588118415326, 3909860.84248540410772 ], [ 566779.222152191912755, 3909868.414264360442758 ], [ 566469.45654937881045, 3908897.053137918468565 ], [ 568527.304511162335984, 3908912.474295401480049 ], [ 567908.143157255603001, 3906969.762251756619662 ] ], [ [ 566370.159537378931418, 3911803.65010228427127 ], [ 567398.95884745195508, 3911811.29703052714467 ], [ 567708.929931516177021, 3912782.818739015143365 ], [ 565651.41446981288027, 3912767.56731703132391 ], [ 565031.376227599917911, 3910824.727815869264305 ], [ 566060.215809769579209, 3910832.219544300343841 ], [ 566370.159537378931418, 3911803.65010228427127 ] ] ], [ [ [ 570175.582882571034133, 3910863.362577482126653 ], [ 570485.362098097917624, 3911834.943663187325001 ], [ 571514.164999771048315, 3911843.061159814707935 ], [ 571823.971536372089759, 3912814.733624218963087 ], [ 572852.734240964055061, 3912823.006526242475957 ], [ 572233.27185311994981, 3910879.639778648037463 ], [ 570175.582882571034133, 3910863.362577482126653 ] ] ], [ [ [ 570795.209766516345553, 3912806.578395438846201 ], [ 570485.362098097917624, 3911834.943663187325001 ], [ 569456.560114415944554, 3911826.94381005782634 ], [ 570076.406182517181151, 3913770.191520532593131 ], [ 572133.846509415772744, 3913786.459797902032733 ], [ 571823.971536372089759, 3912814.733624218963087 ], [ 570795.209766516345553, 3912806.578395438846201 ] ] ], [ [ [ 554335.137650889344513, 3912692.0975541472435 ], [ 553306.389723632717505, 3912685.942634756211191 ], [ 553617.005811244947836, 3913656.993521572090685 ], [ 554645.712536021135747, 3913663.185712592676282 ], [ 554335.137650889344513, 3912692.0975541472435 ] ] ], [ [ [ 552803.075172524084337, 3917529.400043399073184 ], [ 552492.101989788818173, 3916558.210694921668619 ], [ 550434.940736098331399, 3916546.426748003810644 ], [ 550745.996445741853677, 3917517.541528058703989 ], [ 551774.535473437979817, 3917523.411885975860059 ], [ 552396.770373318227939, 3919465.875881753861904 ], [ 549311.402973082964309, 3919448.394502213224769 ], [ 550245.642145090387203, 3922362.154561963863671 ], [ 551273.973326082224958, 3922367.975809718482196 ], [ 551585.482418744708411, 3923339.373247757554054 ], [ 552613.772920444374904, 3923345.349848266690969 ], [ 552302.305169522995129, 3922373.914999159052968 ], [ 553330.637688695453107, 3922379.972130988258868 ], [ 553019.279927017516457, 3921408.553301292471588 ], [ 554047.654457732453011, 3921414.690936058294028 ], [ 553736.40666157391388, 3920443.288119301665574 ], [ 555793.24044286145363, 3920455.842225040774792 ], [ 556104.405628839158453, 3921427.319951619952917 ], [ 557132.782295817509294, 3921433.811333902180195 ], [ 556821.658409692696296, 3920462.296109315007925 ], [ 557850.07711171999108, 3920468.867882197722793 ], [ 557539.063120362348855, 3919497.36866287374869 ], [ 554453.685343566350639, 3919478.119418315123767 ], [ 554142.61612832150422, 3918506.786020585801452 ], [ 556199.61647336545866, 3918519.426136707887053 ], [ 555577.849012659396976, 3916576.769903328735381 ], [ 556606.432778287562542, 3916583.191852506250143 ], [ 557228.117731562349945, 3918525.922941103577614 ], [ 559285.122485926141962, 3918539.270046391058713 ], [ 558663.602526618400589, 3916596.38907494302839 ], [ 557635.01727849105373, 3916589.731576121412218 ], [ 557324.318954286281951, 3915618.408726600930095 ], [ 559381.572665281710215, 3915631.766586240381002 ], [ 559071.025377198704518, 3914660.422267534770072 ], [ 560099.694592089741491, 3914667.240347207989544 ], [ 560720.775320015847683, 3916610.057401358149946 ], [ 561749.362891976139508, 3916617.068230561446398 ], [ 560507.640533809084445, 3912731.49793142080307 ], [ 559478.888162654009648, 3912724.637047929223627 ], [ 559168.587820277549326, 3911753.415470461826771 ], [ 560197.381360768573359, 3911760.238938204944134 ], [ 559577.068743623793125, 3909817.88100923364982 ], [ 560605.945363366277888, 3909824.747307427227497 ], [ 560916.02624087757431, 3910795.936995106283575 ], [ 561944.862513076746836, 3910802.958288064226508 ], [ 561014.948975547915325, 3907889.436995855532587 ], [ 555870.158427636604756, 3907856.066556306090206 ], [ 557111.003037825925276, 3911740.121435842476785 ], [ 556082.211769071640447, 3911733.650867399293929 ], [ 556392.635640338761732, 3912704.760370034258813 ], [ 555363.886285328888334, 3912698.370132325217128 ], [ 555674.419971500872634, 3913669.495591119863093 ], [ 554645.712536021135747, 3913663.185712592676282 ], [ 554956.356060785939917, 3914634.327134063001722 ], [ 553927.690550643135794, 3914628.097643156535923 ], [ 553617.005811244947836, 3913656.993521572090685 ], [ 551559.594440298387781, 3913644.962199152912945 ], [ 551870.361619549104944, 3914615.991807111538947 ], [ 552899.025741353281774, 3914621.985867745708674 ], [ 553831.615556337637827, 3917535.506001031491905 ], [ 552803.075172524084337, 3917529.400043399073184 ] ] ], [ [ [ 559906.916774575714953, 3920482.365096902474761 ], [ 560528.985359161626548, 3922425.674502235371619 ], [ 561557.323762371437624, 3922432.675199983175844 ], [ 561868.419594741542824, 3923404.448041696101427 ], [ 563925.016189648304135, 3923418.878711656667292 ], [ 564236.09793612989597, 3924390.780756527557969 ], [ 566292.615210516378284, 3924405.758943121414632 ], [ 565670.685460779233836, 3922461.857492435257882 ], [ 562585.66296085587237, 3922439.793847032357007 ], [ 561963.759537853300571, 3920496.333875511772931 ], [ 559906.916774575714953, 3920482.365096902474761 ] ] ], [ [ [ 555698.648554140818305, 3923363.987479328177869 ], [ 555387.304807367967442, 3922392.440224669408053 ], [ 553330.637688695453107, 3922379.972130988258868 ], [ 553642.064101395779289, 3923351.444419884122908 ], [ 555698.648554140818305, 3923363.987479328177869 ] ] ], [ [ [ 566914.818944324273616, 3926349.875869191251695 ], [ 566603.682831523241475, 3925377.790454410016537 ], [ 562490.816902886261232, 3925348.154921689536422 ], [ 562179.583976312656887, 3924376.274604072328657 ], [ 561151.328206215635873, 3924369.198538505937904 ], [ 561462.602467691758648, 3925341.041129628196359 ], [ 560434.388824781402946, 3925334.045372320804745 ], [ 559811.826194636290893, 3923390.489283997565508 ], [ 558783.530659456504509, 3923383.686870183795691 ], [ 560029.095572334481403, 3927270.863246290478855 ], [ 559000.966201330069453, 3927264.02819038182497 ], [ 559312.570244695409201, 3928235.918907070998102 ], [ 558284.483018450555392, 3928229.164244295563549 ], [ 558596.197036525350995, 3929201.071015919093043 ], [ 559624.242865206673741, 3929207.863403820432723 ], [ 559935.984058665577322, 3930179.861715279519558 ], [ 560963.98924728075508, 3930186.810032852459699 ], [ 560652.289460192900151, 3929214.773939064703882 ], [ 561680.336834691814147, 3929221.802622464485466 ], [ 561368.746999011607841, 3928249.782589184585959 ], [ 562396.836553523666225, 3928256.891610152088106 ], [ 563020.001986508606933, 3930201.061199587304145 ], [ 561991.995218828436919, 3930193.876527344342321 ], [ 562303.722147207939997, 3931166.004338519182056 ], [ 564359.653671687585302, 3931180.567627018783242 ], [ 563113.488374221953563, 3927292.076961100567132 ], [ 564141.620915241423063, 3927299.384384502656758 ], [ 563830.292267257114872, 3926327.358640472404659 ], [ 566914.818944324273616, 3926349.875869191251695 ] ] ], [ [ [ 569904.745478252647445, 3929282.285525313578546 ], [ 570216.072760615497828, 3930254.662954975385219 ], [ 569188.060050462838262, 3930246.651014058385044 ], [ 570434.219224395579658, 3934136.549971072468907 ], [ 571462.066307630972005, 3934144.714362335857004 ], [ 570838.932659138459712, 3932199.580251254141331 ], [ 571866.863488796399906, 3932207.78660285146907 ], [ 570932.800462768878788, 3929290.377580957487226 ], [ 569904.745478252647445, 3929282.285525313578546 ] ] ], [ [ [ 575654.420485937152989, 3953590.293708419427276 ], [ 575028.384556465316564, 3951643.13084289804101 ], [ 574001.287146533606574, 3951634.512401887215674 ], [ 574627.40642163483426, 3953581.597955505829304 ], [ 575654.420485937152989, 3953590.293708419427276 ] ] ], [ [ [ 569179.047683615819551, 3952566.524993320927024 ], [ 568151.997372896177694, 3952558.580965823493898 ], [ 568465.341344773769379, 3953531.919753559399396 ], [ 567438.333595960750245, 3953524.05609677452594 ], [ 568065.310338892508298, 3955470.820835876278579 ], [ 569092.234646920813248, 3955478.761515806894749 ], [ 568778.753770887851715, 3954505.313258468639106 ], [ 569805.720672157476656, 3954513.334309279918671 ], [ 570746.243425631662831, 3957433.959230374544859 ], [ 573826.773896002792753, 3957459.083544176071882 ], [ 573513.323106002062559, 3956485.37105382187292 ], [ 576593.987124979379587, 3956511.449982995633036 ], [ 576280.729885125998408, 3955537.676247498951852 ], [ 577307.661514539504424, 3955546.5683598741889 ], [ 577620.877041302272119, 3956520.380880845710635 ], [ 579674.659816422732547, 3956538.599564979784191 ], [ 579361.527706287917681, 3955564.709386458154768 ], [ 580388.462294470984489, 3955573.958302791230381 ], [ 580075.440196847193874, 3954600.084356408100575 ], [ 581102.417485079844482, 3954609.413337365258485 ], [ 581415.397894757334143, 3955583.326155923306942 ], [ 584496.210897463955916, 3955612.143347152974457 ], [ 583870.568431552266702, 3953664.139314302708954 ], [ 582843.546372836339287, 3953654.492533015087247 ], [ 583156.375140103511512, 3954628.428027431014925 ], [ 582129.395795187097974, 3954618.861227337736636 ], [ 581816.525358727085404, 3953644.964634082745761 ], [ 579762.486412552534603, 3953626.265478829853237 ], [ 579449.600945964688435, 3952652.501634671352804 ], [ 577395.482687255949713, 3952634.355538287200034 ], [ 577708.451489474973641, 3953608.041839787736535 ], [ 576681.435504235560074, 3953599.108336168807 ], [ 576994.514334063744172, 3954572.810856775380671 ], [ 574940.568631129455753, 3954555.223049111198634 ], [ 574627.40642163483426, 3953581.597955505829304 ], [ 573600.393298382055946, 3953573.021076411474496 ], [ 573913.597202534554526, 3954546.607499796431512 ], [ 571859.657126416335814, 3954529.733105158433318 ], [ 571233.150937141268514, 3952582.769569587428123 ], [ 570206.098867379128933, 3952574.587860928382725 ], [ 570519.359445469337516, 3953548.003672068938613 ], [ 569492.349956960882992, 3953539.902278346009552 ], [ 569179.047683615819551, 3952566.524993320927024 ] ], [ [ 572173.012842321535572, 3955503.297113322652876 ], [ 571146.085885709617287, 3955494.999653579667211 ], [ 570832.688453022157773, 3954521.474257859867066 ], [ 571859.657126416335814, 3954529.733105158433318 ], [ 572173.012842321535572, 3955503.297113322652876 ] ] ] ] } }
]
}
