{
"type": "FeatureCollection",
"name": "urban-2000",
"crs": { "type": "name", "properties": { "name": "urn:ogc:def:crs:EPSG::32639" } },
"features": [
{ "type": "Feature", "properties": { "year": 2000 }, "geometry": { "type": "MultiPolygon", "coordinates": [ [ [ [ 514969.792043673514854, 3921264.349668627604842 ], [ 515282.681297270581126, 3922234.403368935454637 ], [ 514254.364932587835938, 3922232.709747776389122 ], [ 514567.364759719988797, 3923202.779479941818863 ], [ 516623.91473969258368, 3923206.357436664402485 ], [ 516936.900702167942654, 3924176.552431385032833 ], [ 515908.667094980424736, 3924174.668038975447416 ], [ 516221.76363116549328, 3925144.879076817072928 ], [ 518278.148076969082467, 3925148.838803679682314 ], [ 517339.31463231734233, 3922238.144389375578612 ], [ 516310.997859418450389, 3922236.21491606393829 ], [ 515998.150065312336665, 3921266.124835520517081 ], [ 514969.792043673514854, 3921264.349668627604842 ] ] ], [ [ [ 495257.902898085652851, 3927070.861067761201411 ], [ 498342.224696190271061, 3927069.758633580524474 ], [ 498028.241968050890137, 3926100.09504128061235 ], [ 500084.539548935659695, 3926099.878375782631338 ], [ 499456.948273000714835, 3924160.563354793470353 ], [ 500485.180188116501085, 3924160.560034643858671 ], [ 501112.688334387668874, 3926099.947100727353245 ], [ 502140.83713417511899, 3926100.133864139206707 ], [ 501199.80348176084226, 3923191.023254962172359 ], [ 500171.530017478158697, 3923190.944602334406227 ], [ 499857.949120360834058, 3922221.381191982887685 ], [ 495744.688988062262069, 3922222.389747709967196 ], [ 496058.436049733427353, 3923191.809521351475269 ], [ 494001.888813619792927, 3923192.94969898276031 ], [ 494315.788327003188897, 3924162.349677762016654 ], [ 492259.323928111931309, 3924163.890078167431056 ], [ 492573.375953328213654, 3925133.270296897739172 ], [ 491545.185202275402844, 3925134.181689315475523 ], [ 491859.348191919445526, 3926103.577963032294065 ], [ 490831.198939440539107, 3926104.571585603989661 ], [ 491145.472917553968728, 3927073.983920120634139 ], [ 490117.365170547040179, 3927075.059801655355841 ], [ 491060.728293796943035, 3929983.500680421944708 ], [ 492088.711098717700224, 3929982.532308660913259 ], [ 492403.262561848794576, 3930952.15234614815563 ], [ 494459.144550079363398, 3930950.641933045350015 ], [ 493830.277625413262285, 3929011.310147693380713 ], [ 492802.253359490307048, 3929012.078135565854609 ], [ 492487.882274386007339, 3928042.526152285281569 ], [ 495572.079752529622056, 3928040.468795221298933 ], [ 495257.902898085652851, 3927070.861067761201411 ] ] ], [ [ [ 524269.454786360263824, 3930981.863504743203521 ], [ 522213.566592553746887, 3930976.519364362116903 ], [ 522526.980353455466684, 3931947.245542503893375 ], [ 524582.785422369837761, 3931952.663267114199698 ], [ 524269.454786360263824, 3930981.863504743203521 ] ] ], [ [ [ 525924.046476346906275, 3932926.438998867291957 ], [ 525610.688423137413338, 3931955.5494495020248 ], [ 524582.785422369837761, 3931952.663267114199698 ], [ 524896.185044416342862, 3932923.515953049063683 ], [ 525924.046476346906275, 3932926.438998867291957 ] ] ], [ [ [ 496347.409306379850022, 3936769.887989177368581 ], [ 495319.718582362693269, 3936770.367809290997684 ], [ 495634.713744756300002, 3937740.388754528947175 ], [ 496662.36272234574426, 3937739.945082982070744 ], [ 496347.409306379850022, 3936769.887989177368581 ] ] ], [ [ [ 532630.143769931397401, 3937798.996966328471899 ], [ 531602.488477342762053, 3937795.29724511411041 ], [ 531916.093761157826521, 3938766.653650926891714 ], [ 532943.707430944545195, 3938770.390549400355667 ], [ 532630.143769931397401, 3937798.996966328471899 ] ] ], [ [ [ 519185.648933699529152, 3940670.759931561071426 ], [ 518871.364108520268928, 3939699.778316499199718 ], [ 517843.796633601887152, 3939697.662401386070997 ], [ 518158.123158404603601, 3940668.607183016370982 ], [ 519185.648933699529152, 3940670.759931561071426 ] ] ], [ [ [ 523211.121070476132445, 3943591.524534698110074 ], [ 522896.754303014487959, 3942620.272871326189488 ], [ 520841.868311012571212, 3942615.227239384781569 ], [ 521156.318531201570295, 3943586.40492190187797 ], [ 523211.121070476132445, 3943591.524534698110074 ] ] ], [ [ [ 484802.073968263866846, 3945515.229571210686117 ], [ 485118.237365592329297, 3946485.251576252747327 ], [ 484090.963187597400974, 3946487.029562304727733 ], [ 483774.757878900447395, 3945517.043562864884734 ], [ 482747.441583640873432, 3945518.97616507532075 ], [ 482431.263829763396643, 3944549.078266569413245 ], [ 481403.905407764890697, 3944551.165399795863777 ], [ 481720.12506944895722, 3945521.027378066908568 ], [ 480692.808323286764789, 3945523.197202080395073 ], [ 481009.139391128206626, 3946493.07535546598956 ], [ 478954.589011153322645, 3946497.699082478415221 ], [ 479271.073453500692267, 3947467.557524854317307 ], [ 478243.839818150212523, 3947470.011485277675092 ], [ 478877.101162307080813, 3949409.81282674940303 ], [ 479904.2508651453536, 3949407.430678409524262 ], [ 480537.706287076405715, 3951347.512418070342392 ], [ 481564.771763941913377, 3951345.320978261996061 ], [ 481881.561715388088487, 3952315.476187574211508 ], [ 479827.514527492807247, 3952319.905809707473963 ], [ 480144.45799354382325, 3953290.041199648752809 ], [ 478090.493839469389059, 3953294.874083488248289 ], [ 478724.757441009103786, 3955235.157524587586522 ], [ 480778.553418986848556, 3955230.468778372276574 ], [ 480461.470958662626799, 3954260.228844451252371 ], [ 482515.350051659333985, 3954255.9434734438546 ], [ 482832.348428743542172, 3955226.255618545692414 ], [ 484886.142573731543962, 3955222.518043133895844 ], [ 485203.126327796257101, 3956192.954950918443501 ], [ 486229.981069294502959, 3956191.300740606617182 ], [ 484962.630814444099087, 3952309.722834133543074 ], [ 482908.584959815896582, 3952313.439592698123306 ], [ 482591.837007938243914, 3951343.248320704326034 ], [ 485673.031472440517973, 3951337.743039174936712 ], [ 486623.10569694195874, 3954248.799141297582537 ], [ 487650.044154443137813, 3954247.310225742869079 ], [ 488600.617098503513262, 3957158.94734397996217 ], [ 489627.429320277879015, 3957157.686252814717591 ], [ 490261.407508940203115, 3959099.113349775318056 ], [ 486154.494212516117841, 3959104.580643741413951 ], [ 486471.755701942252927, 3960075.22764583863318 ], [ 485445.069066532887518, 3960076.855673178564757 ], [ 485762.442083044908941, 3961047.518936618696898 ], [ 484735.7973721671151, 3961049.229682409670204 ], [ 485053.28193993109744, 3962019.909212882630527 ], [ 486079.884531718154904, 3962018.234815530478954 ], [ 486397.396408646542113, 3962989.003344399854541 ], [ 487423.956699121918064, 3962987.484447842929512 ], [ 488059.104432196647394, 3964929.252490576356649 ], [ 489085.580283561255783, 3964927.925671658944339 ], [ 489403.216099961951841, 3965898.925369118340313 ], [ 488376.782407462364063, 3965900.215667975135148 ], [ 489012.346555814496242, 3967842.300507752224803 ], [ 486959.647454620979261, 3967845.092651349492371 ], [ 487277.61802188080037, 3968816.141256151720881 ], [ 486251.310440976114478, 3968817.679706764407456 ], [ 486569.39264020929113, 3969788.744625426828861 ], [ 485543.127111290057655, 3969790.365850210655481 ], [ 485861.320966683211736, 3970761.447088429238647 ], [ 483808.873839064792264, 3970764.97449567168951 ], [ 484127.221630285901483, 3971736.035537774208933 ], [ 482074.858220477413852, 3971739.96739834966138 ], [ 482711.931264859857038, 3973682.101987061090767 ], [ 483738.028511341020931, 3973680.149381091818213 ], [ 484056.626933647377882, 3974651.332504912279546 ], [ 485082.681682735390496, 3974649.535916401073337 ], [ 484764.125556046259589, 3973678.316213451325893 ], [ 485790.222411705355626, 3973676.602483924478292 ], [ 485471.778005745145492, 3972705.399123759940267 ], [ 486497.916960496571846, 3972703.768224793951958 ], [ 486179.584251062711701, 3971732.581201730761677 ], [ 489258.12692596350098, 3971728.295052697416395 ], [ 489576.332869729783852, 3972699.591982558369637 ], [ 491628.609474123339169, 3972697.404865032061934 ], [ 490992.43593178113224, 3970754.717231340706348 ], [ 492018.658537658513524, 3970753.729314813390374 ], [ 491382.846888545551337, 3968811.180400802753866 ], [ 494461.767366703250445, 3968808.712349885609001 ], [ 495097.325810746406205, 3970751.481672805268317 ], [ 496123.548096138925757, 3970750.971161038149148 ], [ 496441.389090218173806, 3971722.472340857610106 ], [ 498493.749119259999134, 3971721.883125943131745 ], [ 497858.305235287349205, 3969778.786475110799074 ], [ 498884.569601231487468, 3969778.597124359570444 ], [ 498566.993764731218107, 3968807.091731187421829 ], [ 500619.606805501622148, 3968806.997184864245355 ], [ 500302.184562958253082, 3967835.471216580830514 ], [ 502354.881932404474355, 3967835.779976855963469 ], [ 502037.613223692169413, 3966864.233399441465735 ], [ 503064.004076964571141, 3966864.529729081317782 ], [ 502746.84672710619634, 3965892.999456697143614 ], [ 503773.279733500967268, 3965893.378074855543673 ], [ 502505.511032299138606, 3962007.641318826936185 ], [ 504558.713829648739193, 3962008.460825495421886 ], [ 503925.413048496295232, 3960065.763904368504882 ], [ 504952.098599740944337, 3960066.278546649031341 ], [ 504319.15872248186497, 3958123.720374059863389 ], [ 506372.69805080932565, 3958124.959323351737112 ], [ 506056.415910710988101, 3957153.686200924683362 ], [ 508110.039520733640529, 3957155.327318865805864 ], [ 507793.910513408831321, 3956184.033580701332539 ], [ 510874.472602225840092, 3956187.276639737188816 ], [ 510558.538610712217633, 3955215.925332910381258 ], [ 511585.434835826454218, 3955217.207252250052989 ], [ 511901.326888278825209, 3956188.595506184268743 ], [ 512928.181324089411646, 3956190.033296258654445 ], [ 513244.100556259218138, 3957161.511770213954151 ], [ 517351.352304692671169, 3957168.60047369915992 ], [ 517667.17284846235998, 3958140.280644598416984 ], [ 519720.71610324352514, 3958144.613095443230122 ], [ 519404.979436278808862, 3957172.858543909154832 ], [ 520431.793361600779463, 3957175.166009467095137 ], [ 520747.488095835840795, 3958146.957794249989092 ], [ 523827.805689214670565, 3958154.705787545535713 ], [ 524143.443633302929811, 3959126.663044312503189 ], [ 526196.906314830412157, 3959132.498071882408112 ], [ 526512.5293598996941, 3960104.583802935667336 ], [ 527539.219252890208736, 3960107.717298293951899 ], [ 527854.869304061867297, 3961079.894248132128268 ], [ 530934.815288891666569, 3961090.121632496360689 ], [ 531250.408421680913307, 3962062.465105301234871 ], [ 533303.62377713189926, 3962069.954017370473593 ], [ 532988.114529408980161, 3961097.535246707499027 ], [ 535041.415423862054013, 3961105.425151306204498 ], [ 535672.33502518304158, 3963050.467545256949961 ], [ 536698.902252852916718, 3963054.666635025758296 ], [ 537014.42336545989383, 3964027.306715060956776 ], [ 538040.94910165166948, 3964031.662771787494421 ], [ 537725.469939799630083, 3963058.984856190625578 ], [ 538752.038098869845271, 3963063.422209255862981 ], [ 539067.47531354392413, 3964036.137989123351872 ], [ 544200.113957729074173, 3964060.301503718364984 ], [ 543569.727638262789696, 3962114.544732465408742 ], [ 546649.568852344760671, 3962130.244498457759619 ], [ 546019.708878646255471, 3960184.476797068491578 ], [ 547046.407537424121983, 3960189.872166496235877 ], [ 546416.906165719032288, 3958244.245572721585631 ], [ 550524.041642121272162, 3958266.713050104677677 ], [ 550209.561360875959508, 3957293.829030570574105 ], [ 551236.388608827022836, 3957299.705295852851123 ], [ 551550.82706579065416, 3958272.627409343142062 ], [ 553604.399868889246136, 3958284.813120488543063 ], [ 553290.04505014535971, 3957311.814732809085399 ], [ 554316.874269327498041, 3957318.047905900515616 ], [ 554002.629886928014457, 3956345.065764871425927 ], [ 555029.501587216393091, 3956351.379728406667709 ], [ 554715.367617343086749, 3955378.413827582728118 ], [ 556769.19666952919215, 3955391.322194072883576 ], [ 556141.301638869801536, 3953445.400906884111464 ], [ 555114.303240662557073, 3953438.963598285336047 ], [ 554800.416884720558301, 3952466.122653951402754 ], [ 553773.377436030306853, 3952459.842296625487506 ], [ 554087.305537510546856, 3953432.645146801602095 ], [ 553060.308516463264823, 3953426.445551696699113 ], [ 552746.338666008668952, 3952453.680766914505512 ], [ 551719.300561696058139, 3952447.638064097613096 ], [ 552033.312164573348127, 3953420.364812244661152 ], [ 549979.321416468010284, 3953408.559897461440414 ], [ 549665.226298362482339, 3952435.909136328846216 ], [ 548638.19011342106387, 3952430.222910004202276 ], [ 548952.326994352741167, 3953402.835720747709274 ], [ 547925.333189598168246, 3953397.230396922677755 ], [ 546669.030847192625515, 3949507.255348272621632 ], [ 547696.191643617814407, 3949512.709157523233443 ], [ 547382.329558674595319, 3948540.312683383002877 ], [ 548409.532672230387107, 3948545.847394830081612 ], [ 548095.780998275964521, 3947573.467110362835228 ], [ 550150.272469478077255, 3947584.816963062621653 ], [ 549836.672864938038401, 3946612.415025924798101 ], [ 547782.098025740822777, 3946601.140816400758922 ], [ 547468.483758811373264, 3945628.868478054646403 ], [ 546441.155577472643927, 3945623.447102090343833 ], [ 545814.049859831458889, 3943679.139566785655916 ], [ 546841.461358496919274, 3943684.48552876804024 ], [ 546528.053233464248478, 3942712.374848164618015 ], [ 547555.50696419540327, 3942717.801683518104255 ], [ 547242.209186036372557, 3941745.707154921256006 ], [ 546214.71383074275218, 3941740.317983848508447 ], [ 545901.443154499982484, 3940768.314901049248874 ], [ 546928.980122133856639, 3940773.666436395142227 ], [ 546302.728153760777786, 3938829.746290517505258 ], [ 545275.107998087303713, 3938824.469941013026983 ], [ 545588.241208894411102, 3939796.365565014071763 ], [ 544560.663222249830142, 3939791.170088200364262 ], [ 544247.488419974222779, 3938819.312014143913984 ], [ 543219.869406313751824, 3938814.272509306203574 ], [ 542906.7217723489739, 3937842.505576788447797 ], [ 547017.367576111690141, 3937863.223987622652203 ], [ 546391.611088376957923, 3935919.55090061808005 ], [ 545363.865662168827839, 3935914.268778889905661 ], [ 545676.751092365360819, 3936886.040968059096485 ], [ 543621.345073017990217, 3936875.75677780341357 ], [ 542995.476763797341846, 3934932.415859465952963 ], [ 541967.691491896752268, 3934927.526154557708651 ], [ 542280.632811008254066, 3935899.132434038911015 ], [ 541252.88962598098442, 3935894.323657225817442 ], [ 541565.94128289911896, 3936865.94604606134817 ], [ 538482.839547778014094, 3936852.117673142813146 ], [ 538169.663183036493137, 3935880.607333285734057 ], [ 539197.404825134435669, 3935885.061107391957194 ], [ 538884.338845541002229, 3934913.566877528093755 ], [ 539912.12254591670353, 3934918.101664141286165 ], [ 539599.166927638696507, 3933946.623537963721901 ], [ 541654.818952661240473, 3933955.973356876522303 ], [ 541342.015197426895611, 3932984.474006427917629 ], [ 540314.147399247973226, 3932979.777279908768833 ], [ 540001.370918735628948, 3932008.368635344319046 ], [ 538973.462120150798, 3932003.827422067057341 ], [ 538660.712939152494073, 3931032.509363326244056 ], [ 537632.763131866580807, 3931028.1235769726336 ], [ 537007.388255247031339, 3929085.721615127287805 ], [ 535979.355943009024486, 3929081.528291357681155 ], [ 536604.813807557919063, 3931023.855980937369168 ], [ 533520.968600585008971, 3931011.762329800054431 ], [ 533833.925360727589577, 3931982.894638125319034 ], [ 532806.019363275147043, 3931979.062734383158386 ], [ 532493.021076272707433, 3931007.967490164097399 ], [ 531465.07396898069419, 3931004.290838478133082 ], [ 533030.962030237307772, 3935860.113450355362147 ], [ 534058.701363569358364, 3935863.975563555024564 ], [ 533432.222601116634905, 3933921.412709615193307 ], [ 534460.045508497976698, 3933925.318826822098345 ], [ 534146.950998058426194, 3932954.08012565318495 ], [ 535174.815894123516046, 3932958.06736761983484 ], [ 535800.990677069872618, 3934900.672345712315291 ], [ 536828.772924266639166, 3934904.852218824904412 ], [ 537141.922028970904648, 3935876.271892351098359 ], [ 536114.18134979752358, 3935872.05478407908231 ], [ 537367.632486796472222, 3939758.118338780477643 ], [ 532229.767942105419934, 3939738.063363549299538 ], [ 531916.093761157826521, 3938766.653650926891714 ], [ 530888.480498529854231, 3938763.035168304108083 ], [ 531202.196318105212413, 3939734.407703834585845 ], [ 529147.054250256507657, 3939727.451716221868992 ], [ 528519.524967876495793, 3937784.908402995206416 ], [ 529547.179089435143396, 3937788.25296386051923 ], [ 528920.008788852021098, 3935845.848300878889859 ], [ 526864.534439369104803, 3935839.425702322740108 ], [ 527491.871210424113087, 3937781.682228107471019 ], [ 526464.217803957057185, 3937778.574438819661736 ], [ 526150.473312278976664, 3936807.456619536038488 ], [ 525122.778610644163564, 3936804.504192429594696 ], [ 524809.061463865451515, 3935833.476417123805732 ], [ 525836.797786439652555, 3935836.391895733773708 ], [ 525209.653648467035964, 3933894.421596885658801 ], [ 524181.834120273008011, 3933891.579929965548217 ], [ 523868.32393153232988, 3932920.711149345617741 ], [ 522840.463124524976593, 3932918.02458742633462 ], [ 522526.980353455466684, 3931947.245542503893375 ], [ 521499.078258944035042, 3931944.713999645318836 ], [ 520872.236627077509183, 3930003.387945885304362 ], [ 521900.221845835796557, 3930005.846018712501973 ], [ 520960.601730904134456, 3927094.142634109593928 ], [ 519932.491916117665824, 3927091.794553622137755 ], [ 519619.381758292729501, 3926121.368802891578525 ], [ 518591.230688313196879, 3926119.175370831042528 ], [ 518904.382357919006608, 3927089.564542713109404 ], [ 517876.273043074354064, 3927087.45260112080723 ], [ 518189.535294607514516, 3928057.857833300717175 ], [ 517161.467741394531913, 3928055.827410770114511 ], [ 516848.163958348799497, 3927085.45872859377414 ], [ 515820.055090507259592, 3927083.582924899179488 ], [ 515506.778862400853541, 3926113.303318061400205 ], [ 514478.628670955775306, 3926111.582047509029508 ], [ 513852.200483085529413, 3924171.253203270956874 ], [ 512823.967451845528558, 3924169.722759575583041 ], [ 512197.732742472086102, 3922229.676282583270222 ], [ 511169.416890465421602, 3922228.336438192054629 ], [ 511482.541167196293827, 3923198.297201921232045 ], [ 508397.718908964190632, 3923194.876508241984993 ], [ 508711.036848740885034, 3924164.78080845810473 ], [ 507682.804512099188287, 3924163.840275867842138 ], [ 507369.445057440549135, 3923193.972183987032622 ], [ 506341.171301065129228, 3923193.185813031159341 ], [ 506654.572274578618817, 3924163.017725112382323 ], [ 504598.108043839281891, 3924161.72656872915104 ], [ 504284.624020658957306, 3923191.966930654831231 ], [ 503256.350470074277837, 3923191.534419092815369 ], [ 503883.470811944047455, 3925131.033647425472736 ], [ 502855.280385031539481, 3925130.646929220762104 ], [ 503482.760776017094031, 3927070.282583129126579 ], [ 502454.65352332405746, 3927069.941659241914749 ], [ 503082.494035699346568, 3929009.7138413162902 ], [ 504110.518103208509274, 3929010.127094055060297 ], [ 504424.500608090253081, 3929980.127755935303867 ], [ 502368.535737738071475, 3929979.346989249810576 ], [ 501740.473528005531989, 3928039.542661666404456 ], [ 499684.342321020492818, 3928039.378990874160081 ], [ 500312.570989074476529, 3929979.038832725491375 ], [ 501340.553354797651991, 3929979.13383473129943 ], [ 501654.729961419012398, 3930949.078192879911512 ], [ 499598.848507030808832, 3930948.934070587158203 ], [ 499913.177664831397124, 3931918.858366715721786 ], [ 502996.874932297039777, 3931919.360355623997748 ], [ 503311.148389090667479, 3932889.44551350409165 ], [ 501255.433507125941105, 3932888.920203535817564 ], [ 501569.859535095456522, 3933858.985225467476994 ], [ 500542.04379921394866, 3933858.863721422851086 ], [ 500227.576096862205304, 3932888.834905639756471 ], [ 497144.003830882080365, 3932889.288440220989287 ], [ 497773.258632510318421, 3934829.181402947288007 ], [ 495717.710421652416699, 3934829.930581651628017 ], [ 496032.525204848498106, 3935799.883166765794158 ], [ 499115.722328535863198, 3935799.045287851244211 ], [ 500060.20692756108474, 3938709.542453671805561 ], [ 499032.599784700956661, 3938709.594720720313489 ], [ 498717.66056280763587, 3937739.412881953641772 ], [ 496662.36272234574426, 3937739.945082982070744 ], [ 496977.385448845627252, 3938710.05448229983449 ], [ 498004.992629499640316, 3938709.765396922361106 ], [ 498320.042896342871245, 3939679.96336976904422 ], [ 499347.608289298252203, 3939679.828955956734717 ], [ 499662.686072680400684, 3940650.115621848031878 ], [ 497607.638817810744513, 3940650.430334059055895 ], [ 497292.477481970214285, 3939680.216221271082759 ], [ 494209.780979364528321, 3939681.68540227226913 ], [ 494840.423703754553571, 3941621.948718920815736 ], [ 493812.941673611232545, 3941622.602996648289263 ], [ 493497.543837663950399, 3940652.481353652663529 ], [ 492470.019918274425436, 3940653.29027454322204 ], [ 492785.459564716147725, 3941623.375769343692809 ], [ 490730.495058351429179, 3941625.276800016872585 ], [ 491046.087716603069566, 3942595.34232709184289 ], [ 492073.528191623394378, 3942594.368683812674135 ], [ 492389.148381976992823, 3943564.522636299021542 ], [ 490334.351007267949171, 3943566.516178967431188 ], [ 490650.12426954699913, 3944536.650146862026304 ], [ 489622.767267156508751, 3944537.788627163041383 ], [ 491202.883675682591274, 3949389.062885121908039 ], [ 490175.736054726119619, 3949390.139064101967961 ], [ 489543.397509025991894, 3947449.544659157283604 ], [ 488516.165914441924542, 3947450.811943117063493 ], [ 488200.058819454105105, 3946480.62945018755272 ], [ 487172.785168494738173, 3946482.051520381588489 ], [ 486856.705581444839481, 3945511.95741873094812 ], [ 484802.073968263866846, 3945515.229571210686117 ] ], [ [ 536515.692660226253793, 3933933.485884797759354 ], [ 537543.516930894460529, 3933937.746826525311917 ], [ 537856.555642706924118, 3934909.15039592795074 ], [ 536828.772924266639166, 3934904.852218824904412 ], [ 536515.692660226253793, 3933933.485884797759354 ] ], [ [ 524495.413299062056467, 3934862.501674434170127 ], [ 523467.635681076906621, 3934859.741414900869131 ], [ 523154.01490173995262, 3933888.856533446349204 ], [ 524181.834120273008011, 3933891.579929965548217 ], [ 524495.413299062056467, 3934862.501674434170127 ] ], [ [ 498486.412335113447625, 3933858.975513006094843 ], [ 499514.228070274344645, 3933858.860483936034143 ], [ 500143.454662963573355, 3935799.002642098348588 ], [ 499115.722328535863198, 3935799.045287851244211 ], [ 498486.412335113447625, 3933858.975513006094843 ] ], [ [ 500690.209687125869095, 3940650.135965037625283 ], [ 501005.314963194483425, 3941620.511443560477346 ], [ 499977.833130920946132, 3941620.454752604011446 ], [ 499662.686072680400684, 3940650.115621848031878 ], [ 500690.209687125869095, 3940650.135965037625283 ] ], [ [ 490492.009404394775629, 3950360.51489667640999 ], [ 492546.220662080333568, 3950358.553814566228539 ], [ 492862.479494221042842, 3951329.054722375702113 ], [ 490808.352133405511267, 3951330.943195045460016 ], [ 491441.245713835058268, 3953271.957326463423669 ], [ 490414.265810780809261, 3953273.007124034222215 ], [ 489148.588309480808675, 3949391.333966659847647 ], [ 490175.736054726119619, 3949390.139064101967961 ], [ 490492.009404394775629, 3950360.51489667640999 ] ], [ [ 493495.205209055740852, 3953270.214243907481432 ], [ 493178.807677853328642, 3952299.608187367208302 ], [ 494205.829262221290264, 3952298.878497614059597 ], [ 494838.60972368682269, 3954240.21607431769371 ], [ 493811.672083906305488, 3954240.872926387935877 ], [ 494128.208298475772608, 3955211.584269216284156 ], [ 493101.312575037882198, 3955212.323553974274546 ], [ 493417.960131727100816, 3956183.051129828672856 ], [ 492391.106331794173457, 3956183.872875805012882 ], [ 491441.245713835058268, 3953271.957326463423669 ], [ 493495.205209055740852, 3953270.214243907481432 ] ], [ [ 491456.083100841555279, 3965896.702397924847901 ], [ 491773.703976254211739, 3966867.828123890329152 ], [ 490747.312698314664885, 3966868.843399344477803 ], [ 490429.649660149822012, 3965897.754279145970941 ], [ 491456.083100841555279, 3965896.702397924847901 ] ], [ [ 495788.300363957008813, 3957152.617692473810166 ], [ 495471.667496039997786, 3956181.764406738337129 ], [ 496498.521086263179313, 3956181.299429471604526 ], [ 495865.54729841981316, 3954239.67808804102242 ], [ 496892.484821046935394, 3954239.258967495057732 ], [ 498158.54162706801435, 3958122.859042643103749 ], [ 495078.232941179012414, 3958124.034604283981025 ], [ 495395.046475281647872, 3959094.95693310117349 ], [ 496421.774043554672971, 3959094.482675460167229 ], [ 496738.614847335091326, 3960065.494441763497889 ], [ 494685.24375769397011, 3960066.488784567452967 ], [ 495002.237994291528594, 3961037.480208603665233 ], [ 491922.307050963921938, 3961039.754857485648245 ], [ 490971.153767406300176, 3958127.267739413306117 ], [ 491997.923698756145313, 3958126.280985429883003 ], [ 492314.863372030842584, 3959097.093757064081728 ], [ 494368.318849196250085, 3959095.550199199933559 ], [ 493734.67703227273887, 3957153.831406334880739 ], [ 495788.300363957008813, 3957152.617692473810166 ] ], [ [ 517746.815702938358299, 3955227.395570377353579 ], [ 518062.456201767374296, 3956199.006107454188168 ], [ 517035.600823345594108, 3956196.973696429282427 ], [ 516719.918408472381998, 3955225.400278052780777 ], [ 517746.815702938358299, 3955227.395570377353579 ] ], [ [ 504397.16359967563767, 3955210.730605308432132 ], [ 504081.047107626509387, 3954239.653361744247377 ], [ 505107.984679330664221, 3954240.18516644090414 ], [ 505424.05922097817529, 3955211.299157064408064 ], [ 504397.16359967563767, 3955210.730605308432132 ] ], [ [ 504160.176315095857717, 3951327.160905094351619 ], [ 505187.239718278520741, 3951327.701420265715569 ], [ 504871.483928652247414, 3950356.762460308149457 ], [ 508979.905880187929142, 3950359.965392927173525 ], [ 509295.494115995417815, 3951331.051283658947796 ], [ 507241.366734192008153, 3951329.138791244942695 ], [ 507872.918289758090395, 3953271.322432982735336 ], [ 506845.938559526577592, 3953270.470834823790938 ], [ 507161.860028805502225, 3954241.605373280122876 ], [ 508188.797832461830694, 3954242.493775587528944 ], [ 508504.746546447044238, 3955213.718178768642247 ], [ 506450.954910586006008, 3955211.986603171564639 ], [ 506134.922315409989096, 3954240.835836926940829 ], [ 505107.984679330664221, 3954240.18516644090414 ], [ 504160.176315095857717, 3951327.160905094351619 ] ], [ [ 489070.720349760027602, 3952303.715035955887288 ], [ 489387.285786825872492, 3953274.175759288948029 ], [ 488360.305629018112086, 3953275.463232368696481 ], [ 488043.698205265565775, 3952305.038771096151322 ], [ 489070.720349760027602, 3952303.715035955887288 ] ], [ [ 515142.542472782894038, 3950368.332355435937643 ], [ 514115.435971194761805, 3950366.640980290714651 ], [ 513800.126192794530652, 3949395.423905573785305 ], [ 514827.274541635299101, 3949397.078362255357206 ], [ 515142.542472782894038, 3950368.332355435937643 ] ], [ [ 512772.978018542868085, 3949393.888173088431358 ], [ 512457.69550792715745, 3948422.761047501582652 ], [ 507321.747547313047107, 3948417.047120097558945 ], [ 507006.324966502259485, 3947446.156754386145622 ], [ 509060.787470552430023, 3947448.012831884436309 ], [ 508745.517741757328622, 3946477.101962448563427 ], [ 509772.790986040898133, 3946478.171282277442515 ], [ 510088.018888278049417, 3947449.118870206642896 ], [ 512142.482120211177971, 3947451.68694664305076 ], [ 511827.337859401130117, 3946480.665836009662598 ], [ 512854.61151452868944, 3946482.091070207301527 ], [ 512539.57818745682016, 3945511.086139621213078 ], [ 513566.893804541381542, 3945512.593207982368767 ], [ 514512.075705219001975, 3948425.877485462930053 ], [ 513484.885521207295824, 3948424.25991867762059 ], [ 513800.126192794530652, 3949395.423905573785305 ], [ 512772.978018542868085, 3949393.888173088431358 ] ], [ [ 495786.907761334150564, 3944532.736456207931042 ], [ 496734.015690225234721, 3947443.996329681947827 ], [ 495706.784749754471704, 3947444.432949780486524 ], [ 496338.62037093588151, 3949385.462839977815747 ], [ 493257.178596705314703, 3949387.266697409097105 ], [ 492625.091549892153125, 3947446.454806356225163 ], [ 493652.322692603629548, 3947445.662188045680523 ], [ 493020.596835251839366, 3945504.987595363520086 ], [ 494047.911658183089457, 3945504.241090804804116 ], [ 493732.194616463559214, 3944533.946190708316863 ], [ 495786.907761334150564, 3944532.736456207931042 ] ], [ [ 516566.456637454044539, 3948429.468706631101668 ], [ 516881.571815059811343, 3949400.743449003435671 ], [ 515854.423078059102409, 3949398.851543329656124 ], [ 515539.266072966682259, 3948427.613748044706881 ], [ 516566.456637454044539, 3948429.468706631101668 ] ], [ [ 487488.934174349473324, 3947452.197893824893981 ], [ 487805.152595130028203, 3948422.396573267877102 ], [ 486777.962623447994702, 3948423.865071398206055 ], [ 486461.702275734802242, 3947453.702511443756521 ], [ 487488.934174349473324, 3947452.197893824893981 ] ], [ [ 518305.875924966181628, 3947462.239186398684978 ], [ 517676.158124870853499, 3945519.807583739981055 ], [ 519730.791578739939723, 3945524.12643601372838 ], [ 520045.532393874949776, 3946495.389596974011511 ], [ 519018.257324203092139, 3946493.133889421354979 ], [ 519333.108961642778013, 3947464.413230007980019 ], [ 518305.875924966181628, 3947462.239186398684978 ] ], [ [ 517300.975818954175338, 3934845.664119889959693 ], [ 517614.915351984789595, 3935816.381223289296031 ], [ 519670.384346401551738, 3935820.673932279925793 ], [ 519984.309654626646079, 3936791.51739435037598 ], [ 518956.616681943822186, 3936789.275100089609623 ], [ 519270.652684266038705, 3937760.134681716095656 ], [ 522353.607425561465789, 3937767.327130582183599 ], [ 522039.696379122731742, 3936796.357047352939844 ], [ 523067.390157196205109, 3936798.954406664706767 ], [ 523381.259559278725646, 3937769.961380978114903 ], [ 524408.911991503788158, 3937772.714015597943217 ], [ 524722.808738996391185, 3938743.810982628259808 ], [ 523695.197959431330673, 3938741.021399850025773 ], [ 524951.641459889826365, 3942625.792610052041709 ], [ 525979.085507823969238, 3942628.730270260479301 ], [ 526607.63770277518779, 3944571.50924898032099 ], [ 525580.277093322598375, 3944568.497379017993808 ], [ 525894.698366635362618, 3945539.929675386287272 ], [ 524867.379823204129934, 3945536.999270984902978 ], [ 524552.916808723821305, 3944565.604093658272177 ], [ 522498.197161903255619, 3944560.173275406938046 ], [ 522812.74366998829646, 3945531.494300535880029 ], [ 521785.426034131436609, 3945528.919733844231814 ], [ 522100.083308784582186, 3946500.25693235360086 ], [ 521072.807717726915143, 3946497.763944525737315 ], [ 519814.42571917118039, 3942612.882212709635496 ], [ 520841.868311012571212, 3942615.227239384781569 ], [ 520527.487117061798926, 3941644.102659818250686 ], [ 518472.518741658888757, 3941639.60494169453159 ], [ 518158.123158404603601, 3940668.607183016370982 ], [ 517130.597614410740789, 3940666.572902835439891 ], [ 517445.034913187206257, 3941637.533828204963356 ], [ 516417.551306766225025, 3941635.581211434211582 ], [ 517046.716574741527438, 3943577.588350740261376 ], [ 516019.316659894480836, 3943575.680592761840671 ], [ 516334.044661108055152, 3944546.726818710565567 ], [ 515306.686713104252703, 3944544.900781182106584 ], [ 514991.916948641184717, 3943573.8913882416673 ], [ 513964.51742792443838, 3943572.220736966468394 ], [ 513335.101689016912133, 3941630.434339220635593 ], [ 515390.067909315461293, 3941633.747091154567897 ], [ 515075.547167973010801, 3940662.859746620059013 ], [ 516103.072288630122785, 3940664.657090778462589 ], [ 515788.662353074294515, 3939693.785890222527087 ], [ 514761.095521267154254, 3939692.025293716229498 ], [ 514132.399527772213332, 3937750.514925295952708 ], [ 513104.749490244605113, 3937748.946120671462268 ], [ 512790.463472555682529, 3936778.306770194787532 ], [ 515873.53916459355969, 3936783.258343156427145 ], [ 515559.447258490021341, 3935812.561816833447665 ], [ 516587.181199192360509, 3935814.412357361987233 ], [ 516273.200026822683867, 3934843.731945181265473 ], [ 517300.975818954175338, 3934845.664119889959693 ] ], [ [ 514048.022239351354074, 3940661.180870150215924 ], [ 513020.497489677043632, 3940659.620461171958596 ], [ 512391.496451193233952, 3938718.15117481071502 ], [ 511363.888433870335575, 3938716.782528509851545 ], [ 511049.449904000794049, 3937746.163656522985548 ], [ 513104.749490244605113, 3937748.946120671462268 ], [ 514048.022239351354074, 3940661.180870150215924 ] ], [ [ 510169.899627976701595, 3944537.549317293800414 ], [ 509540.011505494301673, 3942595.95082788541913 ], [ 510567.452165217604488, 3942597.110606383997947 ], [ 511197.25673450663453, 3944538.782447502482682 ], [ 510169.899627976701595, 3944537.549317293800414 ] ], [ [ 510252.653598900244106, 3941626.353930071927607 ], [ 511280.136147665441968, 3941627.595570847392082 ], [ 511594.892959346761927, 3942598.388908859342337 ], [ 510567.452165217604488, 3942597.110606383997947 ], [ 510252.653598900244106, 3941626.353930071927607 ] ], [ [ 500293.049460093316156, 3942590.846382460556924 ], [ 500608.335056264826562, 3943561.290545667987317 ], [ 497526.140354503004346, 3943561.613440779969096 ], [ 497210.729315832257271, 3942591.278320432640612 ], [ 500293.049460093316156, 3942590.846382460556924 ] ], [ [ 526064.343902395106852, 3939717.906058325432241 ], [ 526378.336936617735773, 3940689.146308492869139 ], [ 525350.80917574185878, 3940686.164273559581488 ], [ 525036.774468424147926, 3939714.961057124659419 ], [ 526064.343902395106852, 3939717.906058325432241 ] ], [ [ 502430.304470663773827, 3939680.136340558994561 ], [ 502115.421228695544414, 3938709.793147027492523 ], [ 503143.028413189458661, 3938710.096107461955398 ], [ 503457.869908949302044, 3939680.475677480455488 ], [ 502430.304470663773827, 3939680.136340558994561 ] ], [ [ 502828.256152230780572, 3937739.769047573208809 ], [ 503855.905107058351859, 3937740.154040617402643 ], [ 504170.63563778140815, 3938710.51747710769996 ], [ 503143.028413189458661, 3938710.096107461955398 ], [ 502828.256152230780572, 3937739.769047573208809 ] ], [ [ 505198.242915579467081, 3938711.057256016880274 ], [ 504883.554111114586703, 3937740.657414387445897 ], [ 505911.203177521470934, 3937741.279168942011893 ], [ 506225.850259695725981, 3938711.715444252360612 ], [ 505198.242915579467081, 3938711.057256016880274 ] ], [ [ 504967.677163418673445, 3934830.285573082510382 ], [ 505995.4513883178588, 3934830.91649226937443 ], [ 506938.852319396857638, 3937742.019304354209453 ], [ 505911.203177521470934, 3937741.279168942011893 ], [ 504967.677163418673445, 3934830.285573082510382 ] ], [ [ 505681.122811272274703, 3933860.653907713480294 ], [ 506708.938779289426748, 3933861.366745036095381 ], [ 506080.572545676142909, 3931920.926230877637863 ], [ 508136.371322540508118, 3931922.561196454800665 ], [ 509078.774575934803579, 3934833.519022039137781 ], [ 505995.4513883178588, 3934830.91649226937443 ], [ 505681.122811272274703, 3933860.653907713480294 ] ], [ [ 504254.384150426601991, 3935800.015295143704861 ], [ 504568.934521416376811, 3936770.310105500742793 ], [ 503541.243803090997972, 3936769.843108457978815 ], [ 503226.651729815697763, 3935799.58464642893523 ], [ 504254.384150426601991, 3935800.015295143704861 ] ], [ [ 501884.354817515355535, 3934829.102586705237627 ], [ 502198.919350461801514, 3935799.272321371827275 ], [ 501171.186999224999454, 3935799.078319936525077 ], [ 500856.580767973966431, 3934828.944848152808845 ], [ 501884.354817515355535, 3934829.102586705237627 ] ], [ [ 519042.740860984427854, 3933879.145645180251449 ], [ 519356.528080516960472, 3934849.883360669016838 ], [ 518328.751832467736676, 3934847.714591639116406 ], [ 518014.922993333195336, 3933877.013596140313894 ], [ 519042.740860984427854, 3933879.145645180251449 ] ], [ [ 509878.257683938019909, 3930954.381927404087037 ], [ 508850.316413409833331, 3930953.305325911846012 ], [ 508536.431136373663321, 3929983.107121475506574 ], [ 509564.414009544649161, 3929984.147345053963363 ], [ 509878.257683938019909, 3930954.381927404087037 ] ], [ [ 506480.465705759183038, 3929981.381133147515357 ], [ 506166.566409948980436, 3929011.307971896138042 ], [ 508222.615033744252287, 3929012.961346702184528 ], [ 508536.431136373663321, 3929983.107121475506574 ], [ 506480.465705759183038, 3929981.381133147515357 ] ], [ [ 518816.266980609274469, 3929998.826266042422503 ], [ 519129.736407093296293, 3930969.389535003807396 ], [ 517073.850866371358279, 3930965.227232981473207 ], [ 516760.29830084880814, 3929994.737205516081303 ], [ 518816.266980609274469, 3929998.826266042422503 ] ] ], [ [ [ 479827.514527492807247, 3952319.905809707473963 ], [ 479510.640564367757179, 3951349.822640385013074 ], [ 478483.574582842178643, 3951352.251645477488637 ], [ 478800.490558099118061, 3952322.29883748292923 ], [ 479827.514527492807247, 3952319.905809707473963 ] ] ], [ [ [ 487032.628431620309129, 3964930.69849002873525 ], [ 486006.152269006299321, 3964932.263670186977834 ], [ 486323.914574261405505, 3965903.153892963659018 ], [ 487350.348569833964575, 3965901.625175869092345 ], [ 487032.628431620309129, 3964930.69849002873525 ] ] ], [ [ [ 485933.297666570462752, 3967846.66762261884287 ], [ 486959.647454620979261, 3967845.092651349492371 ], [ 486323.914574261405505, 3965903.153892963659018 ], [ 485297.480407929280773, 3965904.801819436252117 ], [ 485933.297666570462752, 3967846.66762261884287 ] ] ], [ [ [ 488160.844871202658396, 3974644.862949757371098 ], [ 487842.415606815950014, 3973673.53333842754364 ], [ 485790.222411705355626, 3973676.602483924478292 ], [ 486108.736246876243968, 3974647.858794499654323 ], [ 488160.844871202658396, 3974644.862949757371098 ] ] ], [ [ [ 486108.736246876243968, 3974647.858794499654323 ], [ 485082.681682735390496, 3974649.535916401073337 ], [ 485401.307246724900324, 3975620.808575709350407 ], [ 486427.319507321401034, 3975619.16809021262452 ], [ 486108.736246876243968, 3974647.858794499654323 ] ] ], [ [ [ 483668.061811036837753, 3976595.700437743216753 ], [ 485720.002244078728836, 3976592.134226122871041 ], [ 485401.307246724900324, 3975620.808575709350407 ], [ 483349.282170259626582, 3975624.448032228741795 ], [ 483668.061811036837753, 3976595.700437743216753 ] ] ], [ [ [ 480202.284872086951509, 3978546.6382603822276 ], [ 481159.965747118345462, 3981460.591930354014039 ], [ 482185.725061768433079, 3981458.453868492506444 ], [ 481547.286445241712499, 3979515.691871770191938 ], [ 482573.130320656055119, 3979513.600172298029065 ], [ 482254.057599237537943, 3978542.262061420362443 ], [ 480202.284872086951509, 3978546.6382603822276 ] ] ], [ [ [ 550220.150051098549739, 3912668.183822134044021 ], [ 550530.889767374843359, 3913639.123066335450858 ], [ 551559.594440298387781, 3913644.962199152912945 ], [ 551248.895937124383636, 3912673.985769454389811 ], [ 550220.150051098549739, 3912668.183822134044021 ] ] ], [ [ [ 550434.940736098331399, 3916546.426748003810644 ], [ 551057.120839263079688, 3918488.709567020181566 ], [ 552085.61858958133962, 3918494.617223085835576 ], [ 552396.770373318227939, 3919465.875881753861904 ], [ 549311.402973082964309, 3919448.394502213224769 ], [ 550245.642145090387203, 3922362.154561963863671 ], [ 551273.973326082224958, 3922367.975809718482196 ], [ 551585.482418744708411, 3923339.373247757554054 ], [ 555698.648554140818305, 3923363.987479328177869 ], [ 555387.304807367967442, 3922392.440224669408053 ], [ 554358.970896882470697, 3922386.147205916233361 ], [ 553736.40666157391388, 3920443.288119301665574 ], [ 555793.24044286145363, 3920455.842225040774792 ], [ 556104.405628839158453, 3921427.319951619952917 ], [ 557132.782295817509294, 3921433.811333902180195 ], [ 556821.658409692696296, 3920462.296109315007925 ], [ 557850.07711171999108, 3920468.867882197722793 ], [ 557539.063120362348855, 3919497.36866287374869 ], [ 555482.143879660638049, 3919484.417973797302693 ], [ 555171.1159433927387, 3918513.047163452487439 ], [ 556199.61647336545866, 3918519.426136707887053 ], [ 555577.849012659396976, 3916576.769903328735381 ], [ 556606.432778287562542, 3916583.191852506250143 ], [ 557228.117731562349945, 3918525.922941103577614 ], [ 559285.122485926141962, 3918539.270046391058713 ], [ 558663.602526618400589, 3916596.38907494302839 ], [ 557635.01727849105373, 3916589.731576121412218 ], [ 557324.318954286281951, 3915618.408726600930095 ], [ 559381.572665281710215, 3915631.766586240381002 ], [ 559071.025377198704518, 3914660.422267534770072 ], [ 560099.694592089741491, 3914667.240347207989544 ], [ 560720.775320015847683, 3916610.057401358149946 ], [ 561749.362891976139508, 3916617.068230561446398 ], [ 560507.640533809084445, 3912731.49793142080307 ], [ 559478.888162654009648, 3912724.637047929223627 ], [ 559168.587820277549326, 3911753.415470461826771 ], [ 560197.381360768573359, 3911760.238938204944134 ], [ 559577.068743623793125, 3909817.88100923364982 ], [ 560605.945363366277888, 3909824.747307427227497 ], [ 560916.02624087757431, 3910795.936995106283575 ], [ 561944.862513076746836, 3910802.958288064226508 ], [ 561324.851593059953302, 3908860.557431004475802 ], [ 562353.770929670659825, 3908867.621468809433281 ], [ 562043.909422408789396, 3907896.463644627016038 ], [ 563072.870679715997539, 3907903.607815587893128 ], [ 563692.580019343295135, 3909846.051673447713256 ], [ 562663.700987809337676, 3909838.83263870421797 ], [ 563283.766740055754781, 3911781.415152863133699 ], [ 562254.970807261299342, 3911774.238778580445796 ], [ 562565.147652007406577, 3912745.572689525783062 ], [ 561536.393692465266213, 3912738.476478346157819 ], [ 561846.68025821459014, 3913709.826342573389411 ], [ 565961.536357696750201, 3913739.067359810229391 ], [ 566271.726751179085113, 3914710.620976604055613 ], [ 568329.077551528345793, 3914726.022978875786066 ], [ 568018.969500942039303, 3913754.394043651409447 ], [ 573162.568073295522481, 3913794.770489156711847 ], [ 572233.27185311994981, 3910879.639778648037463 ], [ 566060.215809769579209, 3910832.219544300343841 ], [ 565750.340588118415326, 3909860.84248540410772 ], [ 566779.222152191912755, 3909868.414264360442758 ], [ 566469.45654937881045, 3908897.053137918468565 ], [ 568527.304511162335984, 3908912.474295401480049 ], [ 567598.665207354235463, 3905998.486416725907475 ], [ 566569.617553476127796, 3905990.829660387709737 ], [ 566260.167040752712637, 3905019.644714411348104 ], [ 565231.079201170941815, 3905012.142875259276479 ], [ 564921.656150753726251, 3904041.048698915168643 ], [ 563892.528117329347879, 3904033.70169036462903 ], [ 564511.524844705942087, 3905975.868553861044347 ], [ 563482.479762897826731, 3905968.564201907720417 ], [ 563792.121994479093701, 3906939.690188954118639 ], [ 559676.114173843758181, 3906911.49804860772565 ], [ 559985.989325697766617, 3907882.527868444565684 ], [ 555870.158427636604756, 3907856.066556306090206 ], [ 557111.003037825925276, 3911740.121435842476785 ], [ 556082.211769071640447, 3911733.650867399293929 ], [ 556392.635640338761732, 3912704.760370034258813 ], [ 555363.886285328888334, 3912698.370132325217128 ], [ 555674.419971500872634, 3913669.495591119863093 ], [ 554645.712536021135747, 3913663.185712592676282 ], [ 554335.137650889344513, 3912692.0975541472435 ], [ 553306.389723632717505, 3912685.942634756211191 ], [ 553617.005811244947836, 3913656.993521572090685 ], [ 551559.594440298387781, 3913644.962199152912945 ], [ 551870.361619549104944, 3914615.991807111538947 ], [ 552899.025741353281774, 3914621.985867745708674 ], [ 553209.820358716417104, 3915593.1059589558281 ], [ 552181.197470754152164, 3915587.074627601541579 ], [ 552492.101989788818173, 3916558.210694921668619 ], [ 550434.940736098331399, 3916546.426748003810644 ] ], [ [ 566680.171766757615842, 3912775.134193735662848 ], [ 565651.41446981288027, 3912767.56731703132391 ], [ 565031.376227599917911, 3910824.727815869264305 ], [ 566060.215809769579209, 3910832.219544300343841 ], [ 566680.171766757615842, 3912775.134193735662848 ] ], [ [ 569456.560114415944554, 3911826.94381005782634 ], [ 569766.448918010457419, 3912798.540838941000402 ], [ 568737.688977471436374, 3912790.620953776873648 ], [ 568427.759035332244821, 3911819.061599479988217 ], [ 569456.560114415944554, 3911826.94381005782634 ] ], [ [ 571514.164999771048315, 3911843.061159814707935 ], [ 571823.971536372089759, 3912814.733624218963087 ], [ 570795.209766516345553, 3912806.578395438846201 ], [ 570485.362098097917624, 3911834.943663187325001 ], [ 571514.164999771048315, 3911843.061159814707935 ] ] ], [ [ [ 551897.060182640096173, 3924310.824122747872025 ], [ 551585.482418744708411, 3923339.373247757554054 ], [ 550557.192583023803309, 3923333.514617651700974 ], [ 550868.811704363790341, 3924304.928081936202943 ], [ 551897.060182640096173, 3924310.824122747872025 ] ] ], [ [ [ 532360.438460331177339, 3924218.976474225986749 ], [ 531332.200182565604337, 3924215.322300827596337 ], [ 531957.218100141733885, 3926156.897272327449173 ], [ 534013.529302545939572, 3926164.47129807760939 ], [ 533388.677155588637106, 3924222.748635944910347 ], [ 534416.916281603625976, 3924226.638786427676678 ], [ 534104.634953311295249, 3923255.819991074036807 ], [ 532048.074290413875133, 3923248.231496484018862 ], [ 532360.438460331177339, 3924218.976474225986749 ] ] ], [ [ [ 566292.615210516378284, 3924405.758943121414632 ], [ 567320.875123825040646, 3924413.425051413476467 ], [ 567009.917304510832764, 3923441.40956700546667 ], [ 568038.219388550030999, 3923449.155815751291811 ], [ 567727.371347267995588, 3922477.156351606361568 ], [ 563614.002967898035422, 3922447.030444220639765 ], [ 563303.058275084360503, 3921475.235919630620629 ], [ 562274.67697667167522, 3921468.037021310534328 ], [ 561963.759537853300571, 3920496.333875511772931 ], [ 559906.916774575714953, 3920482.365096902474761 ], [ 560217.916781966458075, 3921453.99298796756193 ], [ 559189.537859087926336, 3921447.147851291578263 ], [ 559500.64773794519715, 3922418.791752964723855 ], [ 561557.323762371437624, 3922432.675199983175844 ], [ 561868.419594741542824, 3923404.448041696101427 ], [ 562896.717486208654009, 3923411.604387225117534 ], [ 563207.840548529871739, 3924383.468676464166492 ], [ 565264.356152371852659, 3924398.21084512071684 ], [ 565575.465094685088843, 3925370.204514828976244 ], [ 562490.816902886261232, 3925348.154921689536422 ], [ 562179.583976312656887, 3924376.274604072328657 ], [ 560123.07322497817222, 3924362.240478931926191 ], [ 559811.826194636290893, 3923390.489283997565508 ], [ 558783.530659456504509, 3923383.686870183795691 ], [ 560029.095572334481403, 3927270.863246290478855 ], [ 559000.966201330069453, 3927264.02819038182497 ], [ 559312.570244695409201, 3928235.918907070998102 ], [ 558284.483018450555392, 3928229.164244295563549 ], [ 558596.197036525350995, 3929201.071015919093043 ], [ 559624.242865206673741, 3929207.863403820432723 ], [ 559935.984058665577322, 3930179.861715279519558 ], [ 560963.98924728075508, 3930186.810032852459699 ], [ 561275.757590865832753, 3931158.900004475843161 ], [ 564359.653671687585302, 3931180.567627018783242 ], [ 563113.488374221953563, 3927292.076961100567132 ], [ 564141.620915241423063, 3927299.384384502656758 ], [ 563830.292267257114872, 3926327.358640472404659 ], [ 566914.818944324273616, 3926349.875869191251695 ], [ 566292.615210516378284, 3924405.758943121414632 ] ], [ [ 562396.836553523666225, 3928256.891610152088106 ], [ 563020.001986508606933, 3930201.061199587304145 ], [ 561991.995218828436919, 3930193.876527344342321 ], [ 561368.746999011607841, 3928249.782589184585959 ], [ 562396.836553523666225, 3928256.891610152088106 ] ] ], [ [ [ 528783.141966083785519, 3929055.48270890628919 ], [ 530839.201054342789575, 3929062.333650525659323 ], [ 530526.367965384735726, 3928091.434602608904243 ], [ 532582.511624004575424, 3928098.684135958552361 ], [ 531957.218100141733885, 3926156.897272327449173 ], [ 529900.90854444890283, 3926149.795427254401147 ], [ 530213.603794071124867, 3927120.588539621327072 ], [ 528157.378730539930984, 3927113.885170632041991 ], [ 528783.141966083785519, 3929055.48270890628919 ] ] ], [ [ [ 533208.080721703707241, 3930040.683166259899735 ], [ 535264.060092575964518, 3930048.553253814578056 ], [ 534951.324093223083764, 3929077.453100081533194 ], [ 533923.292692675953731, 3929073.496040818281472 ], [ 533610.584075363818556, 3928102.486056094057858 ], [ 532582.511624004575424, 3928098.684135958552361 ], [ 533208.080721703707241, 3930040.683166259899735 ] ] ], [ [ [ 532493.021076272707433, 3931007.967490164097399 ], [ 533520.968600585008971, 3931011.762329800054431 ], [ 533208.080721703707241, 3930040.683166259899735 ], [ 532180.091682641417719, 3930036.925362328067422 ], [ 532493.021076272707433, 3931007.967490164097399 ] ] ], [ [ [ 555512.064016213058494, 3929181.402728356886655 ], [ 556135.94634058966767, 3931125.151403350289911 ], [ 555107.98630450037308, 3931118.756291391327977 ], [ 555420.071837102645077, 3932090.673571447841823 ], [ 559531.750585066736676, 3932117.114187065511942 ], [ 558907.979639784782194, 3930173.031573810148984 ], [ 556851.973058430710807, 3930159.725815983023494 ], [ 556540.107625237782486, 3929187.840678964741528 ], [ 555512.064016213058494, 3929181.402728356886655 ] ] ], [ [ [ 547509.233572864905, 3933015.137620610184968 ], [ 546481.362398446304724, 3933009.731389676686376 ], [ 546793.958579816971906, 3933981.417778736446053 ], [ 547821.78825016960036, 3933986.861503505147994 ], [ 547509.233572864905, 3933015.137620610184968 ] ] ], [ [ [ 546391.611088376957923, 3935919.55090061808005 ], [ 547419.357107727788389, 3935924.951360091101378 ], [ 546793.958579816971906, 3933981.417778736446053 ], [ 545766.129508650396019, 3933976.092334920540452 ], [ 546391.611088376957923, 3935919.55090061808005 ] ] ], [ [ [ 548849.618532866705209, 3933992.423509863670915 ], [ 549474.850978406728245, 3935936.107294817455113 ], [ 551530.347379309358075, 3935947.736588312778622 ], [ 551217.779848559177481, 3934975.792610101867467 ], [ 552245.570545077440329, 3934981.747102403547615 ], [ 551933.113186618196778, 3934009.819225093815476 ], [ 548849.618532866705209, 3933992.423509863670915 ] ] ], [ [ [ 548759.864530928898603, 3936902.354998779948801 ], [ 547732.159445964265615, 3936896.798621658235788 ], [ 548045.030494846287183, 3937868.699576705694199 ], [ 549072.694026933982968, 3937874.293561602476984 ], [ 548759.864530928898603, 3936902.354998779948801 ] ] ], [ [ [ 547330.348900099867024, 3938835.14106327900663 ], [ 548357.970250213402323, 3938840.654259928967804 ], [ 548045.030494846287183, 3937868.699576705694199 ], [ 547017.367576111690141, 3937863.223987622652203 ], [ 547330.348900099867024, 3938835.14106327900663 ] ] ], [ [ [ 575654.420485937152989, 3953590.293708419427276 ], [ 575028.384556465316564, 3951643.13084289804101 ], [ 574001.287146533606574, 3951634.512401887215674 ], [ 574627.40642163483426, 3953581.597955505829304 ], [ 575654.420485937152989, 3953590.293708419427276 ] ] ], [ [ [ 566011.464280942338519, 3955455.296249280683696 ], [ 564984.54250516789034, 3955447.712340796831995 ], [ 565612.043590542161837, 3957394.465047118254006 ], [ 568692.560913787921891, 3957417.804610835853964 ], [ 569320.08528609178029, 3959365.007704111281782 ], [ 571373.600724559044465, 3959381.316887934692204 ], [ 571059.887864991091192, 3958407.610597901977599 ], [ 570033.087931340676732, 3958399.435155379585922 ], [ 569405.783968557370827, 3956452.264560864306986 ], [ 566325.138829360948876, 3956428.683716699946672 ], [ 566011.464280942338519, 3955455.296249280683696 ] ] ], [ [ [ 562243.545993676176295, 3892399.082791398279369 ], [ 559154.687003197730519, 3892378.381266380660236 ], [ 559772.120213015121408, 3894319.199929746799171 ], [ 561831.19509607355576, 3894333.03209518129006 ], [ 562139.932729875901714, 3895303.594936153385788 ], [ 563169.430465616518632, 3895310.723842012695968 ], [ 562860.733754641609266, 3894340.123862306121737 ], [ 563890.27324267977383, 3894347.332753479480743 ], [ 562964.71712528471835, 3891435.739189325831831 ], [ 561935.054951932281256, 3891428.641632217913866 ], [ 562243.545993676176295, 3892399.082791398279369 ] ] ], [ [ [ 564198.929034301429056, 3895317.969900656491518 ], [ 564507.653361948439851, 3896288.660084099974483 ], [ 563478.195724750054069, 3896281.376829910092056 ], [ 563787.029527907609008, 3897252.082860043738037 ], [ 564816.446221480844542, 3897259.403337866999209 ], [ 565125.307608758797869, 3898230.199696037918329 ], [ 566154.684203438577242, 3898237.674665462225676 ], [ 565845.863768481067382, 3897266.841026814188808 ], [ 567904.70147696044296, 3897282.068041610531509 ], [ 567287.429873724235222, 3895340.411001930013299 ], [ 564198.929034301429056, 3895317.969900656491518 ] ] ], [ [ [ 559669.371016864664853, 3897223.973042903002352 ], [ 560287.572002764092758, 3899165.246814633253962 ], [ 561316.903466682648286, 3899172.172758159227669 ], [ 561007.809663380729035, 3898201.472208410967141 ], [ 563066.556976481806487, 3898215.601475927978754 ], [ 562139.932729875901714, 3895303.594936153385788 ], [ 560080.939702936797403, 3895289.688579431734979 ], [ 560698.784432238899171, 3897230.824684740975499 ], [ 559669.371016864664853, 3897223.973042903002352 ] ] ], [ [ [ 562655.357117687235586, 3900150.006798533257097 ], [ 562346.235736799542792, 3899179.215966891031712 ], [ 561316.903466682648286, 3899172.172758159227669 ], [ 561626.065838015871122, 3900142.926368062384427 ], [ 562655.357117687235586, 3900150.006798533257097 ] ] ], [ [ [ 562244.596268236869946, 3902084.592904754914343 ], [ 561626.065838015871122, 3900142.926368062384427 ], [ 560596.77536802215036, 3900135.963231530040503 ], [ 561215.387822511023842, 3902077.555297828279436 ], [ 562244.596268236869946, 3902084.592904754914343 ] ] ], [ [ [ 566052.302895572269335, 3901142.907738088164479 ], [ 566361.438352322322316, 3902113.916855103336275 ], [ 565332.226559125352651, 3902106.409837402869016 ], [ 565950.785034674452618, 3904048.513118081726134 ], [ 566979.914782571373507, 3904056.094948743004352 ], [ 566670.64231604419183, 3903084.979247250128537 ], [ 567699.813966715242714, 3903092.641040979418904 ], [ 566772.530603530816734, 3900179.501476741395891 ], [ 565743.235949956811965, 3900171.951862012501806 ], [ 565125.307608758797869, 3898230.199696037918329 ], [ 564095.931870952947065, 3898222.841966483276337 ], [ 565023.050097982399166, 3901135.438084629829973 ], [ 566052.302895572269335, 3901142.907738088164479 ] ] ], [ [ [ 569038.176924203056842, 3904071.610848147422075 ], [ 568728.986504910513759, 3903100.420219243504107 ], [ 567699.813966715242714, 3903092.641040979418904 ], [ 568009.045407921890728, 3904063.794191795866936 ], [ 569038.176924203056842, 3904071.610848147422075 ] ] ], [ [ [ 571006.68869936990086, 3916685.465826291590929 ], [ 569978.093435336602852, 3916677.394959849771112 ], [ 570598.706418857211247, 3918621.104399057570845 ], [ 571627.219271166715771, 3918629.250926060602069 ], [ 571006.68869936990086, 3916685.465826291590929 ] ] ], [ [ [ 572655.73305154684931, 3918637.515297135338187 ], [ 571627.219271166715771, 3918629.250926060602069 ], [ 571937.587212548824027, 3919601.224248375743628 ], [ 572966.059772013220936, 3919609.526521050836891 ], [ 572655.73305154684931, 3918637.515297135338187 ] ] ], [ [ [ 570501.751024315366521, 3921528.930079344194382 ], [ 572558.528385091223754, 3921545.332610853016376 ], [ 571937.587212548824027, 3919601.224248375743628 ], [ 569880.64487451617606, 3919584.973320675082505 ], [ 570501.751024315366521, 3921528.930079344194382 ] ] ], [ [ [ 567105.880708787939511, 3920533.318957826122642 ], [ 566077.454791364260018, 3920525.686150974594057 ], [ 566388.207134061260149, 3921497.540151393041015 ], [ 567416.591785940225236, 3921505.210743832867593 ], [ 567105.880708787939511, 3920533.318957826122642 ] ] ], [ [ [ 568444.977309414185584, 3921512.999262024182826 ], [ 567416.591785940225236, 3921505.210743832867593 ], [ 567727.371347267995588, 3922477.156351606361568 ], [ 568755.715596316964366, 3922484.982712543569505 ], [ 568444.977309414185584, 3921512.999262024182826 ] ] ], [ [ [ 576672.094469566014595, 3921579.55284755025059 ], [ 577700.488435485167429, 3921588.402740428689867 ], [ 577390.189829965238459, 3920616.131514855194837 ], [ 575333.320421496173367, 3920598.625781972892582 ], [ 575643.701494856504723, 3921570.820889174938202 ], [ 574615.309498067363165, 3921562.206864274572581 ], [ 574925.800208564498462, 3922534.417975964490324 ], [ 572869.101607765653171, 3922517.467720276210457 ], [ 573179.743249043938704, 3923489.656828031409532 ], [ 574208.050802093814127, 3923498.110990868415684 ], [ 574518.71957540360745, 3924470.392175187822431 ], [ 575546.986807374050841, 3924479.002399461343884 ], [ 575236.359313088469207, 3923506.68314278870821 ], [ 576264.668795298552141, 3923515.373284799978137 ], [ 575954.150954212644137, 3922543.070045218337327 ], [ 576982.502681065583602, 3922551.840076765976846 ], [ 576672.094469566014595, 3921579.55284755025059 ] ] ], [ [ [ 568660.12089406105224, 3925393.316451705060899 ], [ 568349.135905558010563, 3924421.209170901216567 ], [ 567320.875123825040646, 3924413.425051413476467 ], [ 567631.901426899014041, 3925385.494433066807687 ], [ 568660.12089406105224, 3925393.316451705060899 ] ] ], [ [ [ 570216.072760615497828, 3930254.662954975385219 ], [ 569188.060050462838262, 3930246.651014058385044 ], [ 570434.219224395579658, 3934136.549971072468907 ], [ 571462.066307630972005, 3934144.714362335857004 ], [ 570838.932659138459712, 3932199.580251254141331 ], [ 571866.863488796399906, 3932207.78660285146907 ], [ 570932.800462768878788, 3929290.377580957487226 ], [ 569904.745478252647445, 3929282.285525313578546 ], [ 570216.072760615497828, 3930254.662954975385219 ] ] ], [ [ [ 577620.877041302272119, 3956520.380880845710635 ], [ 579674.659816422732547, 3956538.599564979784191 ], [ 579361.527706287917681, 3955564.709386458154768 ], [ 584496.210897463955916, 3955612.143347152974457 ], [ 583870.568431552266702, 3953664.139314302708954 ], [ 580789.505376280867495, 3953635.555616388097405 ], [ 580476.661572744371369, 3952661.75295759504661 ], [ 577395.482687255949713, 3952634.355538287200034 ], [ 577708.451489474973641, 3953608.041839787736535 ], [ 575654.420485937152989, 3953590.293708419427276 ], [ 575967.541003993479535, 3954563.957501097116619 ], [ 574940.568631129455753, 3954555.223049111198634 ], [ 574627.40642163483426, 3953581.597955505829304 ], [ 573600.393298382055946, 3953573.021076411474496 ], [ 573913.597202534554526, 3954546.607499796431512 ], [ 571859.657126416335814, 3954529.733105158433318 ], [ 571233.150937141268514, 3952582.769569587428123 ], [ 570206.098867379128933, 3952574.587860928382725 ], [ 570519.359445469337516, 3953548.003672068938613 ], [ 569492.349956960882992, 3953539.902278346009552 ], [ 569179.047683615819551, 3952566.524993320927024 ], [ 568151.997372896177694, 3952558.580965823493898 ], [ 568465.341344773769379, 3953531.919753559399396 ], [ 567438.333595960750245, 3953524.05609677452594 ], [ 568065.310338892508298, 3955470.820835876278579 ], [ 569092.234646920813248, 3955478.761515806894749 ], [ 569405.783968557370827, 3956452.264560864306986 ], [ 570432.667410818627104, 3956460.362749985419214 ], [ 570746.243425631662831, 3957433.959230374544859 ], [ 573826.773896002792753, 3957459.083544176071882 ], [ 573513.323106002062559, 3956485.37105382187292 ], [ 576593.987124979379587, 3956511.449982995633036 ], [ 576280.729885125998408, 3955537.676247498951852 ], [ 577307.661514539504424, 3955546.5683598741889 ], [ 577620.877041302272119, 3956520.380880845710635 ] ] ] ] } }
]
}
